<?xml version="1.0" encoding="UTF-8"?>
<kml xmlns="http://earth.google.com/kml/2.2">
	<polygon id="IN" samplingProbability="1">
		<coordinates>
			37.9150619500002,-87.491706849,0
			37.9100112910002,-87.499229431,0
			37.909549714,-87.5002288809999,0
			37.9067497250001,-87.510322571,0
			37.9067420970002,-87.5114364629999,0
			37.906970978,-87.5122070319999,0
			37.9124603280002,-87.5220718389999,0
			37.91704178,-87.5302658079999,0
			37.9279785150001,-87.5539169319999,0
			37.9335708620002,-87.561920167,0
			37.9395408640002,-87.5670776359999,0
			37.9539909360001,-87.5744705199999,0
			37.9660797130001,-87.5806579599999,0
			37.9731712350002,-87.59020996,0
			37.9735412600001,-87.594306947,0
			37.9707717900001,-87.6010589609999,0
			37.9702301020001,-87.601348877,0
			37.9625892640001,-87.603218079,0
			37.9501304630001,-87.606262207,0
			37.9494285580001,-87.6065826419999,0
			37.9481697090001,-87.6077041619999,0
			37.943721772,-87.612609864,0
			37.933139802,-87.6242675779999,0
			37.9315795910002,-87.6255722039999,0
			37.9308204660002,-87.626052857,0
			37.9235420220001,-87.6279067989999,0
			37.9134597770002,-87.623809814,0
			37.9127922060001,-87.623451233,0
			37.9060401920001,-87.6174774169999,0
			37.8986892700001,-87.6040725719999,0
			37.89245987,-87.596076965,0
			37.8901710510001,-87.593437194,0
			37.8856506340001,-87.5910491939999,0
			37.8822402960001,-87.5887908929999,0
			37.881160736,-87.5881958009999,0
			37.8673400880001,-87.5878067019999,0
			37.8666496280002,-87.587783814,0
			37.8598213190002,-87.5906677239998,0
			37.8581619260001,-87.5917129529999,0
			37.8405303950001,-87.604530334,0
			37.8364105220002,-87.6091384889999,0
			37.8354721080001,-87.610229493,0
			37.8302688590001,-87.620559692,0
			37.8254394530001,-87.6379013069999,0
			37.8252601620001,-87.6524963379999,0
			37.8264999400001,-87.6641769409999,0
			37.8269004830001,-87.6652297979999,0
			37.8338089,-87.6783676159998,0
			37.8464088450001,-87.6828231819999,0
			37.8572998050001,-87.681968689,0
			37.8655090330002,-87.6792984019999,0
			37.8722190870001,-87.6742630009999,0
			37.8822402960001,-87.6669006339999,0
			37.8870506290002,-87.6665191659999,0
			37.893371583,-87.667869569,0
			37.8962516780001,-87.670143128,0
			37.8984985360001,-87.6723098749999,0
			37.9020614630002,-87.6793670649998,0
			37.9029998770002,-87.6846466069999,0
			37.9015121470002,-87.690437317,0
			37.897289277,-87.7002716069999,0
			37.89630127,-87.70236206,0
			37.89245987,-87.717842103,0
			37.8920402530002,-87.7197494499999,0
			37.8920097350002,-87.7203674309998,0
			37.8925209060001,-87.735786439,0
			37.8925399790002,-87.736473084,0
			37.8931503300001,-87.7544708249999,0
			37.8912200930002,-87.7597274779999,0
			37.8907890320002,-87.7608261099999,0
			37.888511658,-87.765472412,0
			37.8858184820001,-87.7702713019999,0
			37.8852005000001,-87.7711868279998,0
			37.8801994330001,-87.7793197639999,0
			37.8792305000002,-87.781410217,0
			37.8762512210001,-87.790908814,0
			37.8759803780002,-87.792655944,0
			37.875820161,-87.799659729,0
			37.8761787420001,-87.817726136,0
			37.8763198850002,-87.818786621,0
			37.8793220520001,-87.8323974609999,0
			37.8800697330001,-87.8347167969999,0
			37.8810005190002,-87.836135864,0
			37.887409211,-87.843276978,0
			37.8916091930001,-87.8461074829999,0
			37.8955307020001,-87.848747252,0
			37.8960189820002,-87.84955597,0
			37.8993606570002,-87.854301453,0
			37.9028701780002,-87.859291076,0
			37.9042587280001,-87.8608169549999,0
			37.9058799740002,-87.862258911,0
			37.9109115600001,-87.8652572629999,0
			37.9177513130002,-87.869819642,0
			37.9190521240001,-87.8713760379999,0
			37.9261016850001,-87.882438659,0
			37.928260803,-87.8920516969999,0
			37.9283714310001,-87.893356323,0
			37.92786026,-87.898033142,0
			37.926929473,-87.9003295889999,0
			37.924301148,-87.905136109,0
			37.9191207900001,-87.910736084,0
			37.9122505180001,-87.9181671149999,0
			37.9076995850002,-87.9222106919999,0
			37.90209961,-87.92717743,0
			37.9006195080001,-87.9285430909998,0
			37.8966293340002,-87.9321899419999,0
			37.8920097350002,-87.9364166249999,0
			37.888858795,-87.938690185,0
			37.886798858,-87.9395294189999,0
			37.8814506520002,-87.9407196039999,0
			37.8802185070001,-87.9408569329998,0
			37.8775596620001,-87.9398727419999,0
			37.8706321730001,-87.9366378779999,0
			37.8502006530001,-87.9149780279998,0
			37.8457298280001,-87.9119186399999,0
			37.836021423,-87.909393311,0
			37.8209609980001,-87.905487061,0
			37.819900513,-87.905349732,0
			37.8103218090001,-87.908042908,0
			37.8089599610001,-87.9085769659999,0
			37.796920776,-87.931663513,0
			37.7914199830001,-87.9367980959999,0
			37.784111023,-87.941886902,0
			37.778160095,-87.9464416499999,0
			37.777511597,-87.947158814,0
			37.773281098,-87.9546508799999,0
			37.7730712890001,-87.955657959,0
			37.7730522150002,-87.957176208,0
			37.7736015310002,-87.960350037,0
			37.7743415830001,-87.9626693729999,0
			37.7751388550002,-87.9639282219999,0
			37.7836608900001,-87.9739761349999,0
			37.7877120970001,-87.978767395,0
			37.7935905450001,-87.991409302,0
			37.795059204,-87.9945678699999,0
			37.795970917,-87.996520997,0
			37.8012504590001,-88.0042724599999,0
			37.8028907780002,-88.01248932,0
			37.8019294740002,-88.0193481439999,0
			37.8016891470001,-88.02027893,0
			37.799030305,-88.0269927969999,0
			37.8022613540001,-88.0276870719998,0
			37.8040390020001,-88.028068543,0
			37.8072319040002,-88.0291671739999,0
			37.8085899360001,-88.030006408,0
			37.8097686760001,-88.0309524529999,0
			37.8111000060001,-88.0333099359999,0
			37.8116302500001,-88.0351028449999,0
			37.811851501,-88.0366516119999,0
			37.8118400580001,-88.0412979129999,0
			37.8117103570001,-88.04209137,0
			37.8106117250001,-88.0465774529999,0
			37.8097114560002,-88.0489807129999,0
			37.8092918410002,-88.0501022349999,0
			37.807510377,-88.05304718,0
			37.806190491,-88.0565567019999,0
			37.805339813,-88.0612411499998,0
			37.8058509820002,-88.065887452,0
			37.8077201850002,-88.071098327,0
			37.8105888370002,-88.0763473499999,0
			37.8118400580001,-88.077186584,0
			37.8155021670001,-88.0794296269999,0
			37.8205490110001,-88.0819015499999,0
			37.821079253,-88.0821228029999,0
			37.8250999440001,-88.083587647,0
			37.8261489860001,-88.083740234,0
			37.8290405290001,-88.0838012689999,0
			37.8317794800001,-88.0832900999999,0
			37.8335990900001,-88.0821533199999,0
			37.834999085,-88.079261779,0
			37.8354911810001,-88.075782776,0
			37.8349418650001,-88.0723266589998,0
			37.8333587640001,-88.0676574699999,0
			37.832458496,-88.0652160639999,0
			37.8302688590001,-88.0587692259999,0
			37.8276290900001,-88.0522995,0
			37.8270797720002,-88.0503082269998,0
			37.8264808660002,-88.047431945,0
			37.8259696970001,-88.0417785649998,0
			37.8264617930001,-88.037696839,0
			37.8273887640001,-88.033050536,0
			37.8275985710002,-88.032562256,0
			37.828990936,-88.029319764,0
			37.8296089180001,-88.0276489249999,0
			37.8301811220001,-88.0266571039999,0
			37.8306121830001,-88.026229859,0
			37.8316612240001,-88.025177002,0
			37.8357200620001,-88.0239257809999,0
			37.83626938,-88.0239257809999,0
			37.8388710020002,-88.023979186,0
			37.8417320260001,-88.0250930779999,0
			37.8443984990002,-88.0278320309999,0
			37.8457489020001,-88.0304031369998,0
			37.846920014,-88.0328903209999,0
			37.8495292660001,-88.041099548,0
			37.8530502320001,-88.049919129,0
			37.8556900030001,-88.055801392,0
			37.8598022460001,-88.0624618539999,0
			37.8652000430001,-88.066566467,0
			37.8691215520001,-88.0689163209999,0
			37.8735008250001,-88.0720977779999,0
			37.876628876,-88.0738983149998,0
			37.8803215020002,-88.0766983039999,0
			37.8839721680001,-88.0789566049999,0
			37.8876304620001,-88.081802368,0
			37.8891601560002,-88.0830688469999,0
			37.8903808600001,-88.084075927,0
			37.8931007380001,-88.0864181519999,0
			37.8965797430001,-88.088188172,0
			37.8995094310002,-88.089736938,0
			37.9026794440001,-88.089675904,0
			37.904090881,-88.089363097,0
			37.9051284790001,-88.0889282219999,0
			37.9069595350001,-88.0877990719999,0
			37.9079017640001,-88.0854873659999,0
			37.908061982,-88.0845108029999,0
			37.9080390930002,-88.0825805669999,0
			37.907138826,-88.0797882079999,0
			37.9057807920001,-88.0767593389999,0
			37.9030799860001,-88.072563172,0
			37.901191712,-88.0697631839999,0
			37.8992385860001,-88.066406249,0
			37.8959999090001,-88.060646057,0
			37.8955192570001,-88.0572433469999,0
			37.8950004570002,-88.0524978649999,0
			37.8949508670001,-88.048995971,0
			37.8948211660002,-88.0454940789999,0
			37.8952713020001,-88.041397095,0
			37.8953895580001,-88.040908814,0
			37.8958816530001,-88.0388565059998,0
			37.89661026,-88.0355529779999,0
			37.8967590340001,-88.0347061159999,0
			37.8967819210001,-88.033340455,0
			37.8963584910001,-88.0304107669999,0
			37.8959808350001,-88.0291290279999,0
			37.8951492320001,-88.0274124139999,0
			37.8939819340002,-88.025466918,0
			37.892818452,-88.0222167959999,0
			37.8923416150001,-88.0198898319999,0
			37.8924903870001,-88.019371033,0
			37.8932113660002,-88.016952514,0
			37.8939895620001,-88.0155715939999,0
			37.894748688,-88.0146331779999,0
			37.8972587580001,-88.012886046,0
			37.8997612000002,-88.0123977659999,0
			37.901432038,-88.0124359129999,0
			37.9031295780002,-88.012672424,0
			37.9044189460001,-88.012832641,0
			37.9069900510001,-88.013717652,0
			37.911048889,-88.0161361689999,0
			37.91368866,-88.0185317979999,0
			37.9146194460001,-88.02204132,0
			37.9154319770001,-88.027893067,0
			37.916648864,-88.0415725699999,0
			37.9167404180001,-88.042259217,0
			37.917449952,-88.0477676379999,0
			37.9174194330001,-88.0497512809999,0
			37.9173889160001,-88.0524368289999,0
			37.9173393260001,-88.056518556,0
			37.91778946,-88.059036254,0
			37.918258667,-88.061943055,0
			37.9195785520001,-88.0642929079999,0
			37.9209899900002,-88.0659866339999,0
			37.9220695500002,-88.067337035,0
			37.92263031,-88.067718506,0
			37.924880982,-88.068840026,0
			37.9272689820001,-88.0686187749999,0
			37.9303588870001,-88.066711426,0
			37.9321899420002,-88.065002441,0
			37.9335784920001,-88.062698365,0
			37.9345207220001,-88.0597991939999,0
			37.9345512400001,-88.0575561519999,0
			37.933559419,-88.0552368159999,0
			37.9313392650002,-88.0520095819999,0
			37.930778504,-88.0512313849999,0
			37.9294090270002,-88.0488967889999,0
			37.9275589000001,-88.0460281369999,0
			37.9266319270001,-88.0438461299998,0
			37.9266014100001,-88.0413513179998,0
			37.9270095820002,-88.0378570559999,0
			37.92760086,-88.0351562499998,0
			37.9287605290002,-88.032577514,0
			37.9308319090001,-88.0299835199999,0
			37.9327888480001,-88.0284194939999,0
			37.9355087280001,-88.028327942,0
			37.9386787410001,-88.0289230349999,0
			37.94324112,-88.030540466,0
			37.9477806100001,-88.0316162109999,0
			37.9523315440001,-88.03275299,0
			37.9559593210001,-88.0326232909999,0
			37.9571113600002,-88.0326004029998,0
			37.9584388730001,-88.032287598,0
			37.959011079,-88.0320587169999,0
			37.9601287840001,-88.031227111,0
			37.9616584780002,-88.0288467409999,0
			37.9627113350001,-88.0266571039999,0
			37.9635391240001,-88.0236358649999,0
			37.96446991,-88.0213165289999,0
			37.9657592780002,-88.018417358,0
			37.9672584530001,-88.015525817,0
			37.9693107620002,-88.0130767829999,0
			37.9713401790002,-88.01146698,0
			37.973190308,-88.0109863269999,0
			37.975181579,-88.0106430059998,0
			37.9783515930001,-88.009979248,0
			37.9824409490001,-88.011077881,0
			37.9844207770001,-88.011672974,0
			37.985889436,-88.0124130239999,0
			37.9910812370002,-88.015007018,0
			37.992198944,-88.0157623289999,0
			38.0007705690001,-88.021850586,0
			38.0034408560001,-88.023498536,0
			38.0057220460002,-88.0242919929999,0
			38.0070419320002,-88.0245285039999,0
			38.0102615360001,-88.025115967,0
			38.0134201060001,-88.023887634,0
			38.0165710460001,-88.022071839,0
			38.020271302,-88.018966674,0
			38.020648957,-88.018608094,0
			38.0233001720001,-88.0160903939999,0
			38.024631501,-88.013732911,0
			38.0265197750002,-88.010681153,0
			38.0278015150001,-88.0096588129999,0
			38.0285415650001,-88.009201051,0
			38.0312919610001,-88.009208679,0
			38.033420563,-88.01109314,0
			38.0338211070001,-88.011909485,0
			38.0343818660001,-88.013412476,0
			38.0346221920001,-88.015518189,0
			38.034641266,-88.0170288079999,0
			38.0342903140001,-88.0224380489999,0
			38.0338592540002,-88.026397704,0
			38.0337104800001,-88.0303421019998,0
			38.0341110230002,-88.0344390859999,0
			38.0354385380001,-88.037391662,0
			38.0377922060002,-88.040466309,0
			38.0403900150001,-88.0426330569999,0
			38.043109895,-88.0425796499999,0
			38.0446701050002,-88.041679383,0
			38.0462799080001,-88.040542602,0
			38.049079895,-88.038162231,0
			38.050880432,-88.0347900399999,0
			38.051841736,-88.0324172969999,0
			38.0524787910001,-88.0301208489998,0
			38.0528602600001,-88.02368164,0
			38.051841736,-88.0149307249999,0
			38.0513420110001,-88.0108489979999,0
			38.0512199400001,-88.00731659,0
			38.0521698000002,-88.0044174189999,0
			38.0530204770001,-88.000297546,0
			38.0543289180001,-87.996177673,0
			38.0555686960002,-87.9920272839998,0
			38.0567092900001,-87.989433289,0
			38.0582809460001,-87.9858398439999,0
			38.0633888250002,-87.9760131829999,0
			38.0661888120001,-87.9696273809999,0
			38.0684700010002,-87.966072082,0
			38.0715599060001,-87.961303711,0
			38.0745315550002,-87.9587631229999,0
			38.0778694160001,-87.95652008,0
			38.081310272,-87.955238342,0
			38.0821800230001,-87.955108643,0
			38.0855522160002,-87.954612733,0
			38.08708191,-87.9545669559998,0
			38.088119507,-87.9548568719999,0
			38.090240479,-87.955596924,0
			38.0914611810001,-87.956237794,0
			38.0936889650001,-87.9574432379999,0
			38.0945091260002,-87.958076478,0
			38.0957794180001,-87.959068299,0
			38.0980491640001,-87.959152221,0
			38.100330354,-87.9591827399999,0
			38.101650238,-87.9609832759999,0
			38.102020263,-87.9630279549999,0
			38.1016120910002,-87.965568542,0
			38.1006622320002,-87.9679794319999,0
			38.099338532,-87.971267701,0
			38.0955390940001,-87.97957611,0
			38.0894699100001,-87.99407196,0
			38.0882720940002,-87.9968414319999,0
			38.0870208750001,-88.0001907339998,0
			38.0865821840001,-88.001373292,0
			38.0852699280001,-88.005493165,0
			38.0848388680001,-88.007843017,0
			38.0853195200001,-88.0095825189999,0
			38.0861587520001,-88.0115127569999,0
			38.086479187,-88.0120773309999,0
			38.087631226,-88.013038636,0
			38.0894584670002,-88.0141830439998,0
			38.090709686,-88.0151062,0
			38.091918945,-88.0157623289999,0
			38.0950813300001,-88.01637268,0
			38.09854126,-88.01574707,0
			38.1003417970001,-88.014541626,0
			38.1035385140001,-88.011016846,0
			38.1048011780002,-88.008598328,0
			38.1070213320002,-88.004371642,0
			38.10787201,-88.0003509509999,0
			38.1080093390001,-87.997833251,0
			38.1080589310001,-87.9932785029999,0
			38.1080703740001,-87.992126466,0
			38.108100891,-87.989776611,0
			38.1080894470002,-87.9862594609999,0
			38.1082191460002,-87.9857330309999,0
			38.109100342,-87.9821929929999,0
			38.1100387580001,-87.9792861939999,0
			38.1114921570002,-87.9770126349998,0
			38.1119918830001,-87.9765472409999,0
			38.1137199410001,-87.9752578729999,0
			38.1169090280001,-87.974151611,0
			38.1210021970001,-87.973701477,0
			38.1244392410001,-87.9730529789999,0
			38.127471923,-87.971862794,0
			38.129871368,-87.96911621,0
			38.13066101,-87.9680099479999,0
			38.1319389350001,-87.962158204,0
			38.1327400200001,-87.9588928209999,0
			38.1322593700001,-87.9559631339999,0
			38.1313209530002,-87.9524688719999,0
			38.130420686,-87.948982239,0
			38.130409241,-87.9468231199999,0
			38.1308517460001,-87.945182801,0
			38.1335105910001,-87.941970826,0
			38.1363105770002,-87.939376831,0
			38.1388206480001,-87.937690735,0
			38.1397819520001,-87.937049865,0
			38.1413917550001,-87.9354400639999,0
			38.143829347,-87.9329605109999,0
			38.145530702,-87.930519104,0
			38.1469802850002,-87.9279708869999,0
			38.1487617500002,-87.9250488279999,0
			38.1508712770002,-87.9227981569999,0
			38.152130126,-87.9217834469999,0
			38.1531105040001,-87.92099762,0
			38.1549186720002,-87.9203720089999,0
			38.1566619880002,-87.918548583,0
			38.1580505380001,-87.916786193,0
			38.1602897640001,-87.9149932859999,0
			38.1625595100002,-87.914939881,0
			38.1657485970002,-87.9166259759999,0
			38.1675415030002,-87.9172058099999,0
			38.169460296,-87.918830871,0
			38.1703300490001,-87.92061615,0
			38.1703491220001,-87.921836852,0
			38.1700897220001,-87.923118592,0
			38.1691513060001,-87.924591064,0
			38.168140411,-87.9259414669999,0
			38.1676406860001,-87.926376342,0
			38.1667900080001,-87.9271392829999,0
			38.1641006470001,-87.929542541,0
			38.1622810370001,-87.9317474369999,0
			38.1618003840001,-87.9340820309999,0
			38.1623306270001,-87.935195923,0
			38.1628303530001,-87.935569763,0
			38.1641807560002,-87.9359817499999,0
			38.167339326,-87.9365615849999,0
			38.1678695680001,-87.9367294299998,0
			38.171009063,-87.938171387,0
			38.1732902530001,-87.9387130729999,0
			38.1762504590001,-87.9401168809999,0
			38.1778602590001,-87.9421310429999,0
			38.1792488090002,-87.943862914,0
			38.180660248,-87.947921752,0
			38.1806907650001,-87.950256349,0
			38.1811904900002,-87.9543533329999,0
			38.1817016590001,-87.9559173589998,0
			38.1832618720001,-87.9596786499998,0
			38.1868591310002,-87.965568542,0
			38.1871604920001,-87.965995789,0
			38.1904487620001,-87.96938324,0
			38.1993904110001,-87.9763717649999,0
			38.2000694280001,-87.9767684939999,0
			38.2061309820002,-87.980041504,0
			38.2104301450001,-87.981529237,0
			38.213272096,-87.982376099,0
			38.2154197690002,-87.982841491,0
			38.2178802490002,-87.9832077029998,0
			38.2227897650001,-87.9827728269999,0
			38.2243690490001,-87.9827575689999,0
			38.2291107180001,-87.9825897219999,0
			38.2301292410001,-87.982276917,0
			38.2323989870001,-87.981742859,0
			38.2337608340001,-87.981773376,0
			38.2381820680002,-87.9807128909998,0
			38.2414703370002,-87.9800872789999,0
			38.245559692,-87.9808273309999,0
			38.247322082,-87.9812011719999,0
			38.2486190800001,-87.9816513049998,0
			38.2518692020002,-87.98388672,0
			38.2541007990002,-87.9850463869999,0
			38.2573890680001,-87.9869003289999,0
			38.2579498300001,-87.986732483,0
			38.259090423,-87.98638916,0
			38.2600097660002,-87.985229493,0
			38.26084137,-87.984092712,0
			38.2604713450001,-87.982307433,0
			38.259578706,-87.979972839,0
			38.2586593630001,-87.978988648,0
			38.2553520200001,-87.9762420659999,0
			38.2485389710001,-87.97103119,0
			38.245700836,-87.968536378,0
			38.2446899410001,-87.967453002,0
			38.243469239,-87.9661483759999,0
			38.2416000360002,-87.963768005,0
			38.2415885930002,-87.963256836,0
			38.2415695200002,-87.961288453,0
			38.2417716990001,-87.9604492189999,0
			38.2421798710001,-87.95967102,0
			38.244480133,-87.9573669439999,0
			38.2456512460002,-87.9567871099999,0
			38.2469406140001,-87.9564895629999,0
			38.2487602240002,-87.956451417,0
			38.2514801020002,-87.956298827,0
			38.2531013500002,-87.9557724,0
			38.2556304930001,-87.9543609609998,0
			38.256420136,-87.9527664189999,0
			38.2573318480001,-87.950416564,0
			38.2586402900002,-87.947692871,0
			38.2590484610001,-87.947006226,0
			38.2604103100001,-87.945655823,0
			38.2621994010001,-87.943862914,0
			38.2640113840001,-87.943817139,0
			38.26633072,-87.9443969719999,0
			38.2681808470001,-87.946121215,0
			38.2704086310002,-87.9490966799999,0
			38.2709617620001,-87.949577332,0
			38.271800996,-87.950096131,0
			38.2727508560001,-87.9505691529999,0
			38.274021148,-87.9509277349998,0
			38.2767486580001,-87.9498062129999,0
			38.2786102300001,-87.947502137,0
			38.2798919680001,-87.9446563719999,0
			38.2811508170001,-87.942947389,0
			38.282032013,-87.942016603,0
			38.2834701530002,-87.9410629279998,0
			38.2863807670001,-87.940010071,0
			38.28799057,-87.9393081659999,0
			38.2914009100001,-87.9377822869999,0
			38.2930488590001,-87.936492919,0
			38.2951698310001,-87.934356689,0
			38.2973709120001,-87.9314498899999,0
			38.299160003,-87.927238465,0
			38.3004798900001,-87.9242782589999,0
			38.3006401070001,-87.9226379399999,0
			38.300670624,-87.9203720089999,0
			38.3002586370001,-87.9162521359999,0
			38.2994613650001,-87.9126968389999,0
			38.2978401190001,-87.9102020269999,0
			38.2971115120001,-87.909103393,0
			38.2958221440002,-87.907958984,0
			38.2930908210002,-87.9074020379999,0
			38.2908287050001,-87.908447265,0
			38.2885398860001,-87.9101562499999,0
			38.2859687800001,-87.912010192,0
			38.285388948,-87.9124984739998,0
			38.2848701480001,-87.912811279,0
			38.2816886900001,-87.914726257,0
			38.2784500130001,-87.916946411,0
			38.2753105160002,-87.917526245,0
			38.2735786440001,-87.917121886,0
			38.2723617550001,-87.916702271,0
			38.270359039,-87.9150924689999,0
			38.2694816600002,-87.9135360709999,0
			38.269050598,-87.9126358029999,0
			38.269550323,-87.9091568,0
			38.270061492,-87.9078826909999,0
			38.2711906430001,-87.9055175779998,0
			38.274391175,-87.9031829829999,0
			38.2786788940002,-87.9005966189999,0
			38.2805099490002,-87.899459839,0
			38.2814292900002,-87.898300172,0
			38.2837295530002,-87.8954162589999,0
			38.2850990290002,-87.893676758,0
			38.2858810430002,-87.892517091,0
			38.2873497020001,-87.890548706,0
			38.2900390630001,-87.888153076,0
			38.2945404050001,-87.8856964109999,0
			38.2990608210002,-87.8826522829999,0
			38.3024787910002,-87.880516053,0
			38.3070411680001,-87.878273011,0
			38.3097801210001,-87.876556396,0
			38.3120689400001,-87.8742523199999,0
			38.3129615780001,-87.870742798,0
			38.3125419630001,-87.868400573,0
			38.3110504150001,-87.865982055,0
			38.309749604,-87.8646774289999,0
			38.3087005630002,-87.863746643,0
			38.3042106630001,-87.862617492,0
			38.3016700760002,-87.8626708989999,0
			38.2999610910001,-87.8628768919999,0
			38.2973785400001,-87.8637390149999,0
			38.2951393120002,-87.864486695,0
			38.2899589540002,-87.8656311029999,0
			38.2859001170002,-87.86379242,0
			38.284252167,-87.863052368,0
			38.2833518980001,-87.862503052,0
			38.2801208490002,-87.859649658,0
			38.2778396620001,-87.8573379519999,0
			38.276901245,-87.8557662959999,0
			38.276500702,-87.8550033579999,0
			38.2759895330001,-87.8520965569999,0
			38.276081085,-87.8495407099999,0
			38.277019501,-87.8466262829999,0
			38.279319764,-87.843147277,0
			38.2857208260002,-87.8385772709999,0
			38.2893791200001,-87.8357086189999,0
			38.293399811,-87.8335571279999,0
			38.2974510200001,-87.832283021,0
			38.2984085080001,-87.8320922839999,0
			38.3010711680001,-87.8315963739999,0
			38.3029899600001,-87.831558227,0
			38.304698945,-87.8315200799999,0
			38.3098106400001,-87.8314361559999,0
			38.3134422300002,-87.832046509,0
			38.315551759,-87.832077026,0
			38.3170700080001,-87.8321075449999,0
			38.3228111270001,-87.8316116339998,0
			38.3305091870002,-87.8297576899998,0
			38.334121704,-87.8284988409999,0
			38.3375206010002,-87.827873229,0
			38.3404121410002,-87.8259658819999,0
			38.3429908750002,-87.8243560789999,0
			38.3444786070002,-87.8235702519999,0
			38.3458213800001,-87.8223571779999,0
			38.3482284550001,-87.8205108639999,0
			38.3489303580002,-87.819778442,0
			38.3512191780002,-87.8174667359999,0
			38.3539619440001,-87.8157577509999,0
			38.3565788270002,-87.813316345,0
			38.3596801770001,-87.8102874749999,0
			38.3617515560002,-87.8076782229999,0
			38.3640594490001,-87.8036117549998,0
			38.366889954,-87.79309845,0
			38.3688888560001,-87.786026001,0
			38.3701896670001,-87.7818908689999,0
			38.3713417060002,-87.7799606319999,0
			38.3719596870001,-87.778907777,0
			38.374240876,-87.775367736,0
			38.3765602100001,-87.7726669319999,0
			38.3779907220002,-87.7715682979999,0
			38.3795509330002,-87.7705230719999,0
			38.382549286,-87.7687072759999,0
			38.3829994200001,-87.7684326159999,0
			38.3849411010002,-87.7668609619998,0
			38.3889694220001,-87.763237,0
			38.3931121830001,-87.759536744,0
			38.3971900940001,-87.7560501109999,0
			38.4033088690001,-87.7505798349999,0
			38.4081687940001,-87.7462463389999,0
			38.410900117,-87.744537354,0
			38.4122695930002,-87.7438964839998,0
			38.4127693170001,-87.7438201899999,0
			38.414089204,-87.7434158319999,0
			38.4168090810001,-87.7428665159999,0
			38.4192199720002,-87.7426910399999,0
			38.4231605540001,-87.742385863,0
			38.4277000440002,-87.7418823249999,0
			38.4288291940002,-87.741737365,0
			38.4317893980001,-87.7413558949999,0
			38.4327507030002,-87.741378784,0
			38.433990479,-87.741027832,0
			38.437252044,-87.7403106689999,0
			38.4395103450001,-87.7391433709998,0
			38.4416198740001,-87.7361373899999,0
			38.4433593750001,-87.733711242,0
			38.4456291190001,-87.731346131,0
			38.447441102,-87.7307128909999,0
			38.4485511790001,-87.730690003,0
			38.4500198370001,-87.731094361,0
			38.45055008,-87.731452941,0
			38.4515419010001,-87.7323760989999,0
			38.4528884890001,-87.7337188719999,0
			38.453609466,-87.7346801749999,0
			38.45413971,-87.7361068719999,0
			38.4543304440002,-87.7370071409999,0
			38.4548187250002,-87.7399978639999,0
			38.454891206,-87.7429428089999,0
			38.4552993770001,-87.747047424,0
			38.4555816650001,-87.749008179,0
			38.4558715820002,-87.749900818,0
			38.456008911,-87.7505798349999,0
			38.4566116340001,-87.751777648,0
			38.4574890150001,-87.7529373169999,0
			38.4581909180002,-87.753372193,0
			38.461368562,-87.753890992,0
			38.4622116090001,-87.7538681039999,0
			38.462940216,-87.7536468509999,0
			38.466541291,-87.752471923,0
			38.46944046,-87.750701905,0
			38.4721221930001,-87.748283387,0
			38.472549438,-87.7478866579999,0
			38.475292207,-87.7447433459999,0
			38.477600097,-87.7415695199999,0
			38.4793586720002,-87.7380523679999,0
			38.479598999,-87.73612976,0
			38.4799194340002,-87.732772828,0
			38.479999542,-87.7292480469999,0
			38.4799804690002,-87.7287368779999,0
			38.4801712030001,-87.7256927489999,0
			38.4803810130001,-87.7205123909998,0
			38.4805297850002,-87.7172470099999,0
			38.4807205210001,-87.7128601069999,0
			38.4810714720001,-87.708679199,0
			38.483402252,-87.7016830439999,0
			38.4843406680001,-87.6994857779999,0
			38.4866409310001,-87.694076537,0
			38.4888496400001,-87.6893157959999,0
			38.489891053,-87.687072754,0
			38.4926719660002,-87.683036805,0
			38.4936294560002,-87.6822280889999,0
			38.4961090100002,-87.6801300059999,0
			38.4997100830001,-87.6771163949999,0
			38.5026893630001,-87.6755218499999,0
			38.5054016120001,-87.67376709,0
			38.507331848,-87.6722030639999,0
			38.508220672,-87.671012879,0
			38.5081901560002,-87.6690063469999,0
			38.5081596370001,-87.667976379,0
			38.5079421990002,-87.667442321,0
			38.507400514,-87.6661529539999,0
			38.5058517460002,-87.6640090929998,0
			38.5049095150001,-87.6616821289999,0
			38.5044097910001,-87.660140992,0
			38.5042114270001,-87.658493042,0
			38.5042305000001,-87.6563491819999,0
			38.5043601990001,-87.6552200309999,0
			38.5052795420001,-87.6522827159998,0
			38.5061607360001,-87.6497573849999,0
			38.5079689030001,-87.6480331419999,0
			38.510211945,-87.646820068,0
			38.5124893200001,-87.6462173469999,0
			38.5151901240001,-87.6469039919999,0
			38.5174598700002,-87.6475219729999,0
			38.518470765,-87.6483306879999,0
			38.519680024,-87.6495361319999,0
			38.522010803,-87.6518173219999,0
			38.5233688350001,-87.654159546,0
			38.5250892650002,-87.655868529,0
			38.5275115960001,-87.657577514,0
			38.5291900650002,-87.658706665,0
			38.5325508120002,-87.660987854,0
			38.5366592400001,-87.6632385249999,0
			38.5408706670001,-87.6667327879999,0
			38.5439987190001,-87.669120788,0
			38.5451011660002,-87.669487,0
			38.5458221440001,-87.6694793699999,0
			38.5475616460001,-87.668670654,0
			38.5480918880002,-87.6680068979999,0
			38.5503807080001,-87.665107727,0
			38.55268097,-87.6616058349999,0
			38.5536117560002,-87.6592712409999,0
			38.5549888610001,-87.6563491819999,0
			38.5578689580001,-87.6533660889999,0
			38.5584907530002,-87.652976989,0
			38.560520173,-87.652038575,0
			38.563690186,-87.651962281,0
			38.5659484870001,-87.651306153,0
			38.567741394,-87.6506729129999,0
			38.5686607370002,-87.6506576549999,0
			38.5697212220001,-87.649971008,0
			38.5709304810001,-87.6489486699999,0
			38.5714912420001,-87.6482391359999,0
			38.571849824,-87.647789001,0
			38.5723114010001,-87.6466064449999,0
			38.5736885070002,-87.644287109,0
			38.5749702450001,-87.6421966559998,0
			38.5766716000002,-87.6410369869999,0
			38.5793685910001,-87.639793396,0
			38.5811920170001,-87.6396865839999,0
			38.5837593070002,-87.6397399909999,0
			38.5861816400001,-87.6402130129999,0
			38.5875701900001,-87.640167236,0
			38.5895996100001,-87.639816284,0
			38.5906715410001,-87.639556885,0
			38.5921287540001,-87.6389389029999,0
			38.5926704420002,-87.638252259,0
			38.5937004100001,-87.6369400019998,0
			38.5938301090001,-87.636329651,0
			38.5937995920002,-87.63471222,0
			38.5933494560001,-87.6329421999999,0
			38.5914993290002,-87.630432129,0
			38.591152191,-87.6299667349999,0
			38.5900688170001,-87.6277389529999,0
			38.5891990670001,-87.624557495,0
			38.5888519280001,-87.6221466059998,0
			38.588428498,-87.6186065679998,0
			38.5884590150001,-87.615997313,0
			38.589290619,-87.614456176,0
			38.5909919730001,-87.6138305669999,0
			38.5921211240002,-87.6135559089998,0
			38.5948486340001,-87.614067078,0
			38.5970687880001,-87.615798951,0
			38.5973510740002,-87.616287232,0
			38.5980796810002,-87.6181106569999,0
			38.5986595150002,-87.6195220959999,0
			38.5990295420002,-87.6204528819999,0
			38.600299835,-87.6242675779999,0
			38.602291108,-87.626251221,0
			38.6034393320002,-87.626815795,0
			38.604671479,-87.627113342,0
			38.6078491210001,-87.6265563959999,0
			38.6109886180001,-87.6253662099999,0
			38.6128501900001,-87.6242828369998,0
			38.614681244,-87.6231384279999,0
			38.6165008540002,-87.622566223,0
			38.6183090210001,-87.62259674,0
			38.6194114680001,-87.622619629,0
			38.6201210030001,-87.6226272589999,0
			38.6223793040002,-87.6226577749999,0
			38.624179841,-87.6214523309999,0
			38.6261787420001,-87.620262146,0
			38.6283607490001,-87.618682862,0
			38.628860473,-87.6184997559999,0
			38.6302795420002,-87.618461609,0
			38.632999419,-87.6183929449999,0
			38.6352920540001,-87.6194610599999,0
			38.6375503550001,-87.6199493409999,0
			38.639350892,-87.6199417109999,0
			38.639930726,-87.6197967539999,0
			38.6411705020001,-87.6193618779999,0
			38.6429405220002,-87.6175308229999,0
			38.6432800290002,-87.6170959469998,0
			38.6446990970001,-87.6151428229999,0
			38.6452217100001,-87.612220764,0
			38.646068574,-87.6100616449999,0
			38.647510529,-87.6077804559999,0
			38.6493186960002,-87.606056213,0
			38.651828766,-87.604942323,0
			38.6554412840001,-87.6036758429999,0
			38.65814972,-87.603012085,0
			38.661289215,-87.601158143,0
			38.6641006470001,-87.599449158,0
			38.665210724,-87.598571777,0
			38.668430329,-87.5933227529999,0
			38.6701812740001,-87.5897293099998,0
			38.671089172,-87.587242126,0
			38.672142029,-87.583938599,0
			38.674468995,-87.5763092039999,0
			38.6758918770001,-87.5698471079999,0
			38.6768608100001,-87.561607362,0
			38.6782493600001,-87.5541458129999,0
			38.6783790580001,-87.553596497,0
			38.680801392,-87.544052124,0
			38.682971954,-87.53692627,0
			38.6865005490001,-87.532112122,0
			38.687629699,-87.5305862429999,0
			38.6896095270001,-87.5279006949999,0
			38.6934890740002,-87.524085999,0
			38.6990203860001,-87.5211563109999,0
			38.7044410720001,-87.519828797,0
			38.7065200820001,-87.5193862909999,0
			38.7075996400001,-87.51915741,0
			38.7107696530001,-87.5184631349999,0
			38.711269379,-87.5183715809998,0
			38.7139320370001,-87.5177993769999,0
			38.7147598280001,-87.5176162729999,0
			38.7171287540002,-87.516777039,0
			38.7189521790002,-87.5156173699999,0
			38.721279144,-87.513946534,0
			38.7240104690002,-87.5121231079999,0
			38.7257995600002,-87.510406495,0
			38.72782898,-87.5085678089998,0
			38.730121613,-87.507408142,0
			38.731868745,-87.5060958859999,0
			38.7348518370001,-87.5039825439999,0
			38.737651826,-87.501716613,0
			38.7394790660001,-87.4999771119998,0
			38.7408485410002,-87.49822998,0
			38.7431297300001,-87.4970779409999,0
			38.7453918460001,-87.4976959219999,0
			38.7467422490002,-87.498901366,0
			38.7480888370001,-87.5006866449999,0
			38.7498207090002,-87.5019607549999,0
			38.7517013540001,-87.501907349,0
			38.7540206900001,-87.5019607549999,0
			38.7567520130001,-87.500785827,0
			38.7574005130001,-87.500556946,0
			38.7598800670001,-87.499671935,0
			38.7625999450001,-87.498527526,0
			38.7636718750001,-87.4982681269999,0
			38.7648811340001,-87.4979705799999,0
			38.7675590520001,-87.498046876,0
			38.7689399720002,-87.4997787469999,0
			38.7694396980002,-87.502716065,0
			38.769039154,-87.5056762689999,0
			38.7687988280001,-87.507400512,0
			38.768630982,-87.5086364749999,0
			38.7686614990001,-87.5103378299999,0
			38.7688407900001,-87.511596679,0
			38.768989564,-87.512161255,0
			38.7696189890002,-87.513336182,0
			38.7709198,-87.5144882189999,0
			38.7724494940001,-87.5140075689999,0
			38.7730407720002,-87.5134964,0
			38.77368927,-87.512626647,0
			38.7740707400001,-87.5113067629999,0
			38.7745399470002,-87.5096588129999,0
			38.7754096980001,-87.507278441,0
			38.7757606510001,-87.506057739,0
			38.77627182,-87.504302979,0
			38.777339935,-87.5018692029999,0
			38.7775802620001,-87.5011062619999,0
			38.7779388430002,-87.5003433239999,0
			38.7784614560002,-87.4993438719999,0
			38.7796020510002,-87.4982528679999,0
			38.7807006830001,-87.49759674,0
			38.7825508120001,-87.497619629,0
			38.7856903070001,-87.498138428,0
			38.7884292600002,-87.49923706,0
			38.7900085440001,-87.5000762939999,0
			38.791591645,-87.5012817379999,0
			38.7952995300001,-87.5049819939999,0
			38.7962608340001,-87.5059432989999,0
			38.8041801460001,-87.5138473509999,0
			38.809131623,-87.5186462409999,0
			38.8123512260001,-87.5210266109999,0
			38.815849305,-87.5235061639999,0
			38.8179321300001,-87.5256423939999,0
			38.8189392100002,-87.5261383049998,0
			38.8199386590002,-87.526481629,0
			38.8230018620001,-87.5256729129999,0
			38.8249511720001,-87.5241928089999,0
			38.8266105640002,-87.522262573,0
			38.8281707770001,-87.52128601,0
			38.8308601380001,-87.5219116219999,0
			38.8337020870001,-87.523406982,0
			38.834430695,-87.524017333,0
			38.8350791930001,-87.524551391,0
			38.8378410330001,-87.526176452,0
			38.8407897960001,-87.5267715449999,0
			38.8426017760001,-87.5268020629999,0
			38.8432502740001,-87.526809692,0
			38.8450889600001,-87.527236939,0
			38.8467102060001,-87.527458192,0
			38.8484802240001,-87.5280609129999,0
			38.850582123,-87.528877258,0
			38.851470947,-87.529426574,0
			38.8524017330001,-87.5305862429999,0
			38.8533287060002,-87.5317382819999,0
			38.8561096190002,-87.537033081,0
			38.8562202460002,-87.537567138,0
			38.857849121,-87.5459213249999,0
			38.8585205070002,-87.548332215,0
			38.8595085160001,-87.550476075,0
			38.8613510140001,-87.5522079469998,0
			38.863189698,-87.5533370969999,0
			38.8641014110001,-87.553321839,0
			38.8645896910002,-87.553115844,0
			38.865501404,-87.552536012,0
			38.8659706110002,-87.5513610839998,0
			38.866378785,-87.5495910639999,0
			38.8665504460001,-87.5475692739999,0
			38.8671607970001,-87.5467376699999,0
			38.8680496210001,-87.5455322259999,0
			38.8693885810002,-87.5442962659999,0
			38.871009827,-87.544487,0
			38.8721313470001,-87.545417786,0
			38.872970582,-87.545761109,0
			38.8735008240002,-87.5459671019998,0
			38.874858857,-87.5459365849999,0
			38.8766212470002,-87.545227052,0
			38.8771095280002,-87.544876098,0
			38.8779792790001,-87.544067383,0
			38.8788604750002,-87.5422668459999,0
			38.8796615600001,-87.5397262569999,0
			38.8801612860001,-87.5379867549999,0
			38.881679535,-87.535621642,0
			38.8828697210001,-87.5356369019999,0
			38.884738923,-87.535751343,0
			38.886470794,-87.5380630489999,0
			38.8887100220001,-87.5410461429999,0
			38.8892517090002,-87.5417633049999,0
			38.8911399850001,-87.543731689,0
			38.8924903860002,-87.5443878179999,0
			38.8936691290001,-87.544662476,0
			38.8964195250001,-87.544212342,0
			38.8973121650001,-87.5429534909999,0
			38.8977699290002,-87.5417709349999,0
			38.8969802870002,-87.540016175,0
			38.896492004,-87.538261413,0
			38.896011354,-87.5364990229999,0
			38.8959884650002,-87.5352401739999,0
			38.896480561,-87.534072877,0
			38.8978500370002,-87.533493042,0
			38.8992118840002,-87.5329208379999,0
			38.901351929,-87.5298461909999,0
			38.9020195000001,-87.5286788939998,0
			38.903148651,-87.52671814,0
			38.9039688120001,-87.5238571159999,0
			38.9043922420001,-87.521492005,0
			38.9048004160002,-87.519111633,0
			38.9052200330001,-87.5182189939999,0
			38.9052200330001,-87.51764679,0
			38.9064102180001,-87.51764679,0
			38.9074897770002,-87.517662048,0
			38.9088401800001,-87.518859864,0
			38.9097404470001,-87.5213470459999,0
			38.910320282,-87.5236968999999,0
			38.9113693240001,-87.525886536,0
			38.911930085,-87.526657104,0
			38.9137611380002,-87.527153015,0
			38.9162902840001,-87.527153015,0
			38.9181098940001,-87.526512145,0
			38.9198608390001,-87.5252075189999,0
			38.9223289490002,-87.523139954,0
			38.9230995180001,-87.5220108039999,0
			38.9238700870002,-87.5209579469999,0
			38.926071167,-87.51850891,0
			38.9287986750001,-87.5172805779999,0
			38.9312591550001,-87.5168075549999,0
			38.9324302680001,-87.516822816,0
			38.9356002810001,-87.516868591,0
			38.9392089850001,-87.518699646,0
			38.9410095220001,-87.5204925529999,0
			38.9423294070002,-87.5211868279999,0
			38.9432716380001,-87.521118165,0
			38.9455413820001,-87.5205612189999,0
			38.9473609930001,-87.5194015499999,0
			38.9483718870001,-87.5187606819999,0
			38.9492111210001,-87.517906189,0
			38.9505996720001,-87.515937805,0
			38.9524307250002,-87.5141983029999,0
			38.9542198190001,-87.513038636,0
			38.9553909310002,-87.5132369999999,0
			38.9564704890001,-87.5142059329999,0
			38.958309173,-87.5159759509999,0
			38.9610290530002,-87.5199508669999,0
			38.9623222360001,-87.5219573969999,0
			38.962760926,-87.522590636,0
			38.9642601020001,-87.5240097049999,0
			38.966129304,-87.526298523,0
			38.968360901,-87.5274963379999,0
			38.9703712460002,-87.5286407469999,0
			38.9726219190002,-87.5310211189999,0
			38.9748611460001,-87.534370423,0
			38.9756698610001,-87.5357360849999,0
			38.9762306230001,-87.536972045,0
			38.977989198,-87.543510437,0
			38.9806594850001,-87.551956177,0
			38.9824218750001,-87.559646607,0
			38.98538971,-87.5684967049999,0
			38.986839295,-87.572616578,0
			38.9882812500001,-87.575416564,0
			38.988990783,-87.577423096,0
			38.9900016780001,-87.5780639659999,0
			38.9909591680001,-87.578346252,0
			38.991950989,-87.5781631479999,0
			38.9925193790002,-87.576972962,0
			38.9927406310002,-87.576278687,0
			38.9926795960002,-87.5745620719999,0
			38.9922409060001,-87.5721282949999,0
			38.9917221060002,-87.569160461,0
			38.9919013970002,-87.5673065189999,0
			38.9932098390001,-87.5656280529999,0
			38.9945793150001,-87.5650558459999,0
			38.9954414380001,-87.5650711069999,0
			38.9966812140001,-87.5660705559999,0
			38.9972801220001,-87.566871644,0
			38.9986114510001,-87.5698471079999,0
			38.9994888300001,-87.572792054,0
			39.000419616,-87.5745391849999,0
			39.000850679,-87.5750808709999,0
			39.0021820060002,-87.5764160159999,0
			39.0045013430001,-87.5765304559999,0
			39.0067787170001,-87.574966431,0
			39.0117301940001,-87.5724182129999,0
			39.0153808600002,-87.570098877,0
			39.0181503300001,-87.5684204109999,0
			39.018718719,-87.5680389409999,0
			39.0216102590002,-87.566871644,0
			39.0243301390001,-87.5668029779999,0
			39.028060914,-87.567947387,0
			39.032558442,-87.5713195799999,0
			39.035770416,-87.5736083989999,0
			39.0381088250002,-87.5758361809999,0
			39.0397987370002,-87.576972962,0
			39.0417213440002,-87.577598571,0
			39.0435295110001,-87.57762146,0
			39.046680451,-87.5756912219999,0
			39.0489311220001,-87.5744400029999,0
			39.0511703490001,-87.5726089479999,0
			39.0524711610001,-87.571998596,0
			39.0538597110001,-87.5713500979999,0
			39.056171417,-87.5707015979999,0
			39.0588912960001,-87.5713272099999,0
			39.0606803900001,-87.572357178,0
			39.0629920960001,-87.5752563469999,0
			39.0671310420001,-87.578697205,0
			39.0688095090001,-87.58039093,0
			39.0694313050001,-87.5810089109999,0
			39.0723190310001,-87.583450318,0
			39.0746192930002,-87.585800171,0
			39.0771789560001,-87.589157105,0
			39.0805397030001,-87.5931472779998,0
			39.0822792050001,-87.596702576,0
			39.0831222540002,-87.5995483399999,0
			39.0833320620001,-87.600738526,0
			39.083339692,-87.6013870239999,0
			39.0833702080001,-87.603042603,0
			39.083400727,-87.6049499509999,0
			39.0830116270002,-87.609107971,0
			39.084442139,-87.6138229359999,0
			39.0862998960002,-87.6173172,0
			39.0867500310001,-87.617660523,0
			39.0888404850002,-87.6186065679998,0
			39.090438842,-87.6194763189999,0
			39.0931396490001,-87.6195220959999,0
			39.0941505430001,-87.6192169189999,0
			39.0951805120001,-87.6187133779999,0
			39.0970115670002,-87.6175460809999,0
			39.0983886720002,-87.615791321,0
			39.1002197280001,-87.613449096,0
			39.1024894720002,-87.612297058,0
			39.104499816,-87.612487794,0
			39.1056594850002,-87.61353302,0
			39.1065406790001,-87.6153259269999,0
			39.1066894530001,-87.6160964959999,0
			39.1067199700001,-87.6179809559999,0
			39.1069602960001,-87.6196899409999,0
			39.1069488530001,-87.621246337,0
			39.106880188,-87.6285858159999,0
			39.106800079,-87.637268067,0
			39.1067810050001,-87.63887024,0
			39.1070594780001,-87.6410980219999,0
			39.1071891790001,-87.644386291,0
			39.1076698300001,-87.646408081,0
			39.1080017100001,-87.648208618,0
			39.109519959,-87.65045929,0
			39.1121292110001,-87.652122498,0
			39.1144790660001,-87.6522064199999,0
			39.1167602530001,-87.651550292,0
			39.117630006,-87.650321961,0
			39.118049621,-87.6479415899999,0
			39.1184310910002,-87.6457366939998,0
			39.1179695120001,-87.642601013,0
			39.1176605230002,-87.639808654,0
			39.1176719660002,-87.638397218,0
			39.1176795960001,-87.63684082,0
			39.1177101150002,-87.6344680789999,0
			39.1182518000002,-87.632499694,0
			39.1186294560001,-87.6315231329999,0
			39.1191596980001,-87.63130188,0
			39.1200599670001,-87.631278992,0
			39.1214294440002,-87.6318359379999,0
			39.121898651,-87.6330108649999,0
			39.122501374,-87.6337585449999,0
			39.1226921080002,-87.634552003,0
			39.1233787530001,-87.6365127569999,0
			39.123619079,-87.63710785,0
			39.124248504,-87.6382904049999,0
			39.1251716620002,-87.640060426,0
			39.1262588500001,-87.64061737,0
			39.1274414060001,-87.6406326299999,0
			39.1293907170001,-87.6412277229999,0
			39.130748749,-87.6424102779999,0
			39.1320800780002,-87.6442031849999,0
			39.1330108640001,-87.648147582,0
			39.13351059,-87.6501312249999,0
			39.1336097720001,-87.650878905,0
			39.1343002320002,-87.6537094109999,0
			39.1356506350001,-87.6549224849999,0
			39.1364021310001,-87.6551818839999,0
			39.137191773,-87.655158996,0
			39.1403617860001,-87.6544876089999,0
			39.1425590520001,-87.6537933339999,0
			39.1444091810002,-87.6520309439999,0
			39.14699936,-87.650756837,0
			39.1479301460001,-87.6503677359999,0
			39.1506614690001,-87.6492233279999,0
			39.1520309460001,-87.64805603,0
			39.1539001460001,-87.6463394169999,0
			39.1552391060002,-87.644546509,0
			39.1564903270001,-87.6422119139999,0
			39.156620026,-87.6414718619999,0
			39.1566390990001,-87.639816284,0
			39.1566505440001,-87.6385726929998,0
			39.1564216610001,-87.6374664319999,0
			39.1563987730001,-87.636009216,0
			39.1562309270001,-87.635070802,0
			39.1561088570001,-87.6343994129999,0
			39.1557998650001,-87.63269043,0
			39.1549606330001,-87.629859925,0
			39.1549301140002,-87.627929687,0
			39.155399323,-87.626159667,0
			39.1563186640001,-87.6249771119999,0
			39.1571388250001,-87.6249999999999,0
			39.1576805130001,-87.6250076299999,0
			39.1585197450001,-87.6261367809998,0
			39.1604690560002,-87.6296157839998,0
			39.1607398990001,-87.630737304,0
			39.1613388070001,-87.632591248,0
			39.1618309020001,-87.6355361939999,0
			39.1623191830001,-87.637908935,0
			39.1634597790001,-87.6393432619999,0
			39.1647987370001,-87.6393585199999,0
			39.1657104490002,-87.6387786859999,0
			39.1679992690002,-87.6364364629999,0
			39.1702995290001,-87.6323165899999,0
			39.172630311,-87.625831604,0
			39.173038483,-87.6232681269999,0
			39.1745491030002,-87.6205673219999,0
			39.1749000550001,-87.620170594,0
			39.1758613600001,-87.619346618,0
			39.1781311040002,-87.6187973019999,0
			39.179851532,-87.61882019,0
			39.180850983,-87.618843079,0
			39.1835594180001,-87.618865967,0
			39.1860389720001,-87.617706298,0
			39.1872901930001,-87.6164627079999,0
			39.1877212530001,-87.614776611,0
			39.1873397830001,-87.6129760739999,0
			39.186828614,-87.609970093,0
			39.1869087220001,-87.6067504879999,0
			39.187671661,-87.605186462,0
			39.1886596670001,-87.603836059,0
			39.1891517650001,-87.6035308839998,0
			39.1899108880001,-87.6027526849999,0
			39.191688539,-87.601516724,0
			39.1926002510002,-87.6006011969999,0
			39.1934814460001,-87.599700927,0
			39.1948699960001,-87.5985565179998,0
			39.1955490120001,-87.5976867679999,0
			39.196022034,-87.595321655,0
			39.197029114,-87.5918960569999,0
			39.1978492730001,-87.589492799,0
			39.199630738,-87.5870666499999,0
			39.201400757,-87.5857696539999,0
			39.2038192750001,-87.584747314,0
			39.2060890190002,-87.583602905,0
			39.208381654,-87.5818557739999,0
			39.209690095,-87.5794372549999,0
			39.210578919,-87.5784530639999,0
			39.2121620180002,-87.5766372689999,0
			39.2135391230001,-87.575828553,0
			39.2161712640001,-87.5747528079999,0
			39.2188720700001,-87.574287414,0
			39.2212486270001,-87.5740127559999,0
			39.2234001150002,-87.573760987,0
			39.2258987420001,-87.573799133,0
			39.229301454,-87.573852539,0
			39.2378997800001,-87.5751571649999,0
			39.2410697930001,-87.5752563469999,0
			39.243919374,-87.576393127,0
			39.245601655,-87.5758666999999,0
			39.2473793040001,-87.5752563469999,0
			39.2477493290001,-87.5748901369998,0
			39.248840332,-87.5738906849999,0
			39.2498092650002,-87.5728988639999,0
			39.2506103520001,-87.572387695,0
			39.2515296930001,-87.5712127689999,0
			39.2524414060001,-87.571220398,0
			39.254310608,-87.571296691,0
			39.256080629,-87.5730972279998,0
			39.2570190430001,-87.5748596179999,0
			39.256919861,-87.5792922979999,0
			39.2566490180001,-87.580223084,0
			39.2545394890001,-87.583091736,0
			39.2526321420001,-87.5844802859999,0
			39.2504310610001,-87.586380005,0
			39.2495117190001,-87.5879669199999,0
			39.249031066,-87.5889816279999,0
			39.2487106330001,-87.5913467409999,0
			39.2490501400002,-87.5925674429999,0
			39.2498703000002,-87.5933532719999,0
			39.2509689340001,-87.594032287,0
			39.25643158,-87.5981063849999,0
			39.2594108580001,-87.5998992919999,0
			39.2602996840001,-87.600486756,0
			39.261241913,-87.601066589,0
			39.2625885010001,-87.602272033,0
			39.2638015750001,-87.6032028189999,0
			39.266971589,-87.603118897,0
			39.2694015510002,-87.602996826,0
			39.27238083,-87.6017532359999,0
			39.274372101,-87.601219178,0
			39.2767906190001,-87.6019821169999,0
			39.2783088680001,-87.603416444,0
			39.279960633,-87.604797363,0
			39.2810707100001,-87.6057281499998,0
			39.2837905900001,-87.606246949,0
			39.2852211000002,-87.6067810059999,0
			39.2874298100001,-87.6067504879999,0
			39.2900886550001,-87.604858399,0
			39.292362214,-87.6030502319999,0
			39.2945899960001,-87.6006164549999,0
			39.2968292230001,-87.5987701409999,0
			39.2990798960002,-87.5981292729999,0
			39.3011322020002,-87.5987472529999,0
			39.3016395560001,-87.598960877,0
			39.3034095770001,-87.59992218,0
			39.3046798710002,-87.602333068,0
			39.3051795970002,-87.604705811,0
			39.304691314,-87.6088562009999,0
			39.3042221070002,-87.6118164069999,0
			39.304180145,-87.6147994999999,0
			39.3043899530002,-87.615951538,0
			39.30480957,-87.616996765,0
			39.3061409,-87.618217467,0
			39.3079986570002,-87.6181030269999,0
			39.308891296,-87.6168899529999,0
			39.3095893860001,-87.614868163,0
			39.3098106390001,-87.614067078,0
			39.3105697620002,-87.6107330319999,0
			39.3115501410001,-87.6078033439999,0
			39.3128204350002,-87.6060867309998,0
			39.3154907230001,-87.603637694,0
			39.3217697150001,-87.599311829,0
			39.3266906750001,-87.5950164799999,0
			39.3280410760001,-87.5940933219999,0
			39.330280303,-87.5925369259999,0
			39.3334198000001,-87.590080261,0
			39.3361015310002,-87.5876312259999,0
			39.3384704590001,-87.5849990849999,0
			39.3401985180001,-87.582588195,0
			39.3405303960001,-87.5819931019999,0
			39.3412094130002,-87.5802688589999,0
			39.342601776,-87.576721191,0
			39.3431205750001,-87.572570801,0
			39.3425788870002,-87.5666427609999,0
			39.342411042,-87.5644607539999,0
			39.3420104980001,-87.559509276,0
			39.3419990550001,-87.5587997429999,0
			39.3423194900001,-87.556488037,0
			39.3427886970001,-87.5547103889999,0
			39.343719483,-87.551750183,0
			39.3450889600001,-87.5499877929999,0
			39.3473701490001,-87.5482330329999,0
			39.3479385380002,-87.5478668209999,0
			39.3492012020002,-87.547073364,0
			39.3509101870001,-87.546463012,0
			39.3522186290002,-87.5455474849999,0
			39.3529014580001,-87.544929505,0
			39.3533020020002,-87.544158935,0
			39.3542289730001,-87.541786193,0
			39.3544197090001,-87.5410614019999,0
			39.3544006360002,-87.5401306159999,0
			39.3539695740002,-87.5390396119999,0
			39.3529090890001,-87.5370101919999,0
			39.3516807560002,-87.534812927,0
			39.3507499700001,-87.5321960439999,0
			39.3516006470001,-87.530448914,0
			39.4177818310001,-87.530792236,0
			39.4387817380001,-87.5307464609999,0
			39.4766693130001,-87.530860901,0
			39.5614585880001,-87.530929565,0
			39.5988388050001,-87.53099823,0
			39.6090812680001,-87.531143189,0
			39.7056388850001,-87.531326293,0
			39.8475494390001,-87.5321731579999,0
			39.8616905220002,-87.5321884159999,0
			39.882061004,-87.532333373,0
			39.9885520940001,-87.5323791499999,0
			40.1309318540002,-87.532707215,0
			40.1504287720001,-87.5323410029999,0
			40.273788453,-87.52986908,0
			40.4144020090002,-87.527076721,0
			40.4792594910002,-87.5261993399998,0
			40.4910621640001,-87.5260620109999,0
			40.5504798890001,-87.525367736,0
			40.6952095030001,-87.5261993399998,0
			40.737800599,-87.5262832639999,0
			40.7410087590001,-87.5262908939999,0
			40.83903122,-87.5264587399999,0
			40.9809608460001,-87.526168824,0
			40.9831504830001,-87.526168824,0
			41.01417923,-87.52645111,0
			41.1230888380001,-87.5264129629999,0
			41.1660919180002,-87.526336669,0
			41.2669601450001,-87.5260620109999,0
			41.2982902530001,-87.5264587399999,0
			41.4085998540002,-87.5270385749999,0
			41.4712409970002,-87.526512145,0
			41.551570892,-87.5254821769999,0
			41.694118501,-87.523925781,0
			41.7135009770001,-87.5240020749999,0
			41.7603302010002,-87.524047852,0
			41.760608674,-87.427429199,0
			41.7610206610001,-87.2206497199999,0
			41.7607116690001,-87.2071228029999,0
			41.7608718870002,-86.8298797609999,0
			41.7608795170001,-86.8261871329999,0
			41.7608604430001,-86.781387329,0
			41.7608490000002,-86.767723084,0
			41.7608299250001,-86.7386703499999,0
			41.7606391910001,-86.6390991209999,0
			41.7602691660002,-86.528419495,0
			41.760250092,-86.524017334,0
			41.759929657,-86.4526290889999,0
			41.7611198430001,-86.284622193,0
			41.761470795,-86.2255401599999,0
			41.7619400020002,-86.0624465949999,0
			41.7623214720002,-85.9319763189999,0
			41.761451721,-85.7873611449999,0
			41.7613105770001,-85.759056091,0
			41.7608108510001,-85.660598755,0
			41.760261536,-85.5762939439999,0
			41.760608674,-85.291336059,0
			41.7607307430001,-85.221160888,0
			41.7604904180002,-85.197776795,0
			41.7608108510001,-84.867256164,0
			41.7606010440001,-84.8272628779999,0
			41.7605018620001,-84.807556152,0
			41.695800782,-84.8066711429999,0
			41.559841156,-84.806411743,0
			41.5302886970001,-84.8062973029999,0
			41.5250701900001,-84.8062820439999,0
			41.4261016850001,-84.8060989379998,0
			41.3421211240002,-84.805801392,0
			41.3122596750001,-84.80544281,0
			41.2701606750001,-84.804939269,0
			41.2536201470002,-84.8047409049999,0
			41.2527122500001,-84.8047103879999,0
			41.0133018490001,-84.8034973139999,0
			40.9890403740001,-84.8032760609998,0
			40.9220809940002,-84.8026428219999,0
			40.918701173,-84.802726745,0
			40.9073715220001,-84.802612305,0
			40.7281417860001,-84.8022613529999,0
			40.7051315300001,-84.8025131229999,0
			40.700000763,-84.8024978649999,0
			40.572311401,-84.803741455,0
			40.353351594,-84.8058929439999,0
			40.310180663,-84.806381226,0
			40.1741409310001,-84.807929992,0
			40.135108947,-84.8106079099999,0
			40.1264610290002,-84.81124878,0
			40.0059814460001,-84.8131027219999,0
			39.9502105710001,-84.8136062629999,0
			39.9168701180001,-84.8137588499999,0
			39.7266807560002,-84.8146362309999,0
			39.5676803600001,-84.8149871829999,0
			39.529590608,-84.8153610229999,0
			39.5217590330001,-84.8154296879999,0
			39.4692306520002,-84.81590271,0
			39.413421632,-84.816581727,0
			39.3673400880002,-84.8181076059999,0
			39.3531494150001,-84.818580628,0
			39.3055610650001,-84.8190917969999,0
			39.2261695870002,-84.819931029,0
			39.1907119760002,-84.81967926,0
			39.1068687440001,-84.819068909,0
			39.1066894530001,-84.819534301,0
			39.1061592110001,-84.8204574589999,0
			39.0983009330001,-84.8341827389999,0
			39.0807495130001,-84.8568573,0
			39.0754699710002,-84.867469787,0
			39.065040589,-84.888412476,0
			39.0633888250002,-84.890281678,0
			39.0617218010001,-84.8917007449999,0
			39.0603713980001,-84.8922271719999,0
			39.0555686950001,-84.893020629,0
			39.0539894110001,-84.893119811,0
			39.045970916,-84.888023377,0
			39.0405807500001,-84.882537843,0
			39.0340919490001,-84.8759231579999,0
			39.0333595270001,-84.8751831059999,0
			39.0159301760002,-84.8574295039999,0
			39.0086021420001,-84.8520431509999,0
			38.9999389660001,-84.845672608,0
			38.9886817940002,-84.837409973,0
			38.9871101380002,-84.836502076,0
			38.9860496530001,-84.835998535,0
			38.9741096510002,-84.832351684,0
			38.9664306640001,-84.831947327,0
			38.9643898010001,-84.832290649,0
			38.9607391370002,-84.83467102,0
			38.9560394290002,-84.840179443,0
			38.941669464,-84.857109069,0
			38.941181183,-84.8576965339999,0
			38.9371185300001,-84.8624801629999,0
			38.9299392710001,-84.870941162,0
			38.9268608090002,-84.8739624029999,0
			38.925689697,-84.874847412,0
			38.9196090700001,-84.8775482169999,0
			38.9187393190002,-84.877716064,0
			38.9146308910001,-84.8766860959999,0
			38.9100494390001,-84.873802186,0
			38.9031791690001,-84.8650207519999,0
			38.9017486580001,-84.8603363029999,0
			38.9012794500002,-84.8556060789999,0
			38.8997116100001,-84.8212127689999,0
			38.892570495,-84.7981491089998,0
			38.8918190000001,-84.796112061,0
			38.889030457,-84.7914428719999,0
			38.8860511770001,-84.7895889279999,0
			38.8853492740001,-84.789230346,0
			38.8823013310001,-84.78766632,0
			38.8668899540002,-84.788398742,0
			38.8591308600001,-84.792999267,0
			38.8587303170001,-84.793357849,0
			38.851470947,-84.8064727779999,0
			38.847610473,-84.8134460449999,0
			38.8465919500001,-84.8151474,0
			38.835731507,-84.8256530769999,0
			38.8333206180001,-84.827606201,0
			38.8291320800001,-84.829696654,0
			38.8283500680001,-84.830047608,0
			38.8275108340001,-84.829940796,0
			38.8212013260001,-84.8279418949999,0
			38.8004112240001,-84.8132705689999,0
			38.7914085400001,-84.812690735,0
			38.7868804930002,-84.8152008049999,0
			38.7844009410002,-84.8207016,0
			38.78384018,-84.8222427369999,0
			38.7836990360001,-84.823486328,0
			38.7837295530001,-84.82875824,0
			38.7839508050001,-84.831100465,0
			38.7844505310002,-84.834068299,0
			38.7868804930002,-84.8440170279999,0
			38.7872314460001,-84.8454284669999,0
			38.7902107240001,-84.8576431269999,0
			38.79114151,-84.865776062,0
			38.7930717470001,-84.8830108649999,0
			38.7914886480002,-84.896347045,0
			38.7911796570001,-84.897651673,0
			38.7894287120001,-84.9024124139999,0
			38.7877807620001,-84.9074630729999,0
			38.7841987620001,-84.9172515869999,0
			38.7781486510002,-84.933776856,0
			38.7776107780001,-84.93572998,0
			38.7772293100002,-84.9383010859999,0
			38.776161195,-84.9504394519999,0
			38.7779502870001,-84.9663162239999,0
			38.7790222170001,-84.9758529659999,0
			38.777698517,-84.9923324579999,0
			38.7718696590002,-85.0065383909999,0
			38.769939423,-85.0103530869999,0
			38.7645912180001,-85.019226075,0
			38.7623291020001,-85.023902892,0
			38.7628707900002,-85.0243072509999,0
			38.7485313430001,-85.0514907849999,0
			38.7477607720002,-85.053207398,0
			38.7466621400001,-85.0559463509999,0
			38.7445793150001,-85.0619659429999,0
			38.7411804210001,-85.0718383779999,0
			38.7408409120001,-85.0728301999999,0
			38.726879121,-85.0988693249998,0
			38.7258987430001,-85.100250245,0
			38.715332032,-85.115158081,0
			38.705280304,-85.129325867,0
			38.7029609680001,-85.1326065059999,0
			38.6957511900001,-85.1462020879999,0
			38.6931304940002,-85.15335083,0
			38.6905097970001,-85.1610565189999,0
			38.6897315980002,-85.164237976,0
			38.6883201590002,-85.1717071529999,0
			38.687938691,-85.174667359,0
			38.6877899170001,-85.1776733399999,0
			38.6886596680001,-85.195869445,0
			38.690040589,-85.2023468009999,0
			38.6911087050001,-85.2023468009999,0
			38.69549942,-85.213989257,0
			38.6963386550001,-85.214981079,0
			38.7113113410002,-85.231697082,0
			38.720859529,-85.2394714359999,0
			38.727649689,-85.245330811,0
			38.73223877,-85.250457763,0
			38.7325706480001,-85.25113678,0
			38.7377204890001,-85.262809754,0
			38.7400703440002,-85.281883241,0
			38.7402915970001,-85.285232543,0
			38.740509034,-85.298782348,0
			38.7383308420001,-85.3200759879999,0
			38.7382087720001,-85.3206024179999,0
			38.735118867,-85.333023072,0
			38.7346611030001,-85.3358459469999,0
			38.7305908200001,-85.3607482909999,0
			38.7315597530001,-85.3796157829999,0
			38.7318115240002,-85.3810501099999,0
			38.7344207770001,-85.3952407829999,0
			38.7360992430001,-85.404396057,0
			38.7356796260001,-85.416030884,0
			38.7356605530001,-85.4167861949999,0
			38.728870392,-85.433898927,0
			38.7255592340001,-85.438217164,0
			38.7242813120001,-85.4397583009999,0
			38.7040290830001,-85.4533081059999,0
			38.7030105600002,-85.453918457,0
			38.6967010490001,-85.4551467899999,0
			38.6885910040001,-85.4543762209999,0
			38.6847190850001,-85.4535903919999,0
			38.6802597040002,-85.451026917,0
			38.6797409070001,-85.450668335,0
			38.6680793760001,-85.442489624,0
			38.6673812880001,-85.4420928959998,0
			38.656349183,-85.4369506839999,0
			38.6458816530001,-85.4370880129999,0
			38.621570586,-85.437408446,0
			38.6114807130002,-85.437561036,0
			38.596981049,-85.4346084599998,0
			38.5871620190001,-85.4286575309999,0
			38.5861396790001,-85.4279174809999,0
			38.5833702090001,-85.426246643,0
			38.5774993910002,-85.4227371209999,0
			38.568870544,-85.4175567629999,0
			38.5620002750001,-85.4153366089999,0
			38.5538520810001,-85.414855957,0
			38.551189423,-85.4151458729999,0
			38.5413208010001,-85.4169921869998,0
			38.531261444,-85.4234771729999,0
			38.524009705,-85.4329071049999,0
			38.5204505930001,-85.4392089849999,0
			38.519180298,-85.441841126,0
			38.518371583,-85.4435729979999,0
			38.515941619,-85.450340272,0
			38.5101890570001,-85.466339112,0
			38.509429931,-85.467857361,0
			38.508609773,-85.4689483639999,0
			38.5022697460001,-85.4740905749999,0
			38.499172211,-85.475891114,0
			38.4767608650001,-85.4889297479999,0
			38.4760704030001,-85.4894866939999,0
			38.474788666,-85.490852356,0
			38.46736908,-85.499961853,0
			38.4645195020001,-85.5047073369998,0
			38.464260102,-85.5052719109999,0
			38.4567909250001,-85.532371521,0
			38.4565620420001,-85.533470155,0
			38.4537620550001,-85.568717957,0
			38.4527397150001,-85.5742263799999,0
			38.4514007570002,-85.580917358,0
			38.451068879,-85.5820388789999,0
			38.4442214960001,-85.598075867,0
			38.434242248,-85.6098175049999,0
			38.422489167,-85.619262695,0
			38.3938789370002,-85.6326522829999,0
			38.3801689140001,-85.636520386,0
			38.3793792720001,-85.636741639,0
			38.3743095400001,-85.637077332,0
			38.353988648,-85.6384582519999,0
			38.3307495110002,-85.64981842,0
			38.3277206420001,-85.6516876219999,0
			38.3251800550001,-85.653633118,0
			38.3036384580001,-85.6735458369999,0
			38.290729523,-85.6913299569998,0
			38.290390015,-85.692001344,0
			38.2877197270001,-85.6978912349999,0
			38.283699036,-85.706741332,0
			38.2750015260002,-85.7259063719999,0
			38.2729492200002,-85.7308731079999,0
			38.272109986,-85.7327728269999,0
			38.269260407,-85.7412872309999,0
			38.2689399720001,-85.7432327269999,0
			38.2689590460001,-85.7448196409999,0
			38.271308898,-85.756118773,0
			38.2776985170001,-85.7636718749999,0
			38.2826919560002,-85.767707824,0
			38.2863502500002,-85.773536682,0
			38.287738801,-85.7776260379999,0
			38.2886695870001,-85.7828903199999,0
			38.2882499700002,-85.7887573249999,0
			38.2873687750002,-85.792289733,0
			38.2869186400001,-85.792877198,0
			38.2855987550001,-85.7993392939999,0
			38.2847290040002,-85.8057861329999,0
			38.2834014900001,-85.8116760259999,0
			38.282131195,-85.8167190549999,0
			38.280281066,-85.821670532,0
			38.2743186940002,-85.8282318119999,0
			38.2662086490001,-85.8328475959999,0
			38.2521018980001,-85.836082458,0
			38.238689422,-85.8390884409999,0
			38.2266807570001,-85.8455963139999,0
			38.2202796940001,-85.8519668569999,0
			38.2131118780001,-85.8619461069999,0
			38.1983985890001,-85.8824081409999,0
			38.1979789740001,-85.8828964239999,0
			38.188220977,-85.891059876,0
			38.179809571,-85.8980331429999,0
			38.1785812380001,-85.8987197879999,0
			38.1769790650001,-85.899551392,0
			38.16757965,-85.904441834,0
			38.1428298950001,-85.9060440059999,0
			38.114818573,-85.9032058709999,0
			38.1063995360001,-85.9023513799999,0
			38.0925903310001,-85.9028472889999,0
			38.0824699400001,-85.906318664,0
			38.0717697150001,-85.9100265499999,0
			38.0641021740001,-85.912506104,0
			38.0599288930001,-85.91355133,0
			38.0557289140001,-85.9144363399999,0
			38.0320091250001,-85.9194717399999,0
			38.0256500240001,-85.922363281,0
			38.0103302010002,-85.938217164,0
			38.0089302060001,-85.9398193359999,0
			38.0076484680001,-85.944252014,0
			38.0065193180001,-85.948532105,0
			38.0042305000001,-85.956703185,0
			38.0028915400001,-85.965881348,0
			38.0026817330001,-85.9673080439999,0
			37.9983787540001,-85.9966964719999,0
			37.9982299820001,-85.998130799,0
			37.9958419800002,-86.0144577039999,0
			37.9912910470001,-86.0296325679999,0
			37.9864120480001,-86.0343475329999,0
			37.9853096010002,-86.035171509,0
			37.9845504760001,-86.0353927619999,0
			37.9732818600002,-86.035316466,0
			37.9664993300001,-86.0352630609999,0
			37.963111879,-86.0369873049999,0
			37.9604415890001,-86.0399627689999,0
			37.9586105350001,-86.046440125,0
			37.9649391170001,-86.0569610599999,0
			37.9725112920001,-86.0639266969999,0
			37.998710632,-86.0810623169999,0
			38.0077209470001,-86.0928115849999,0
			38.0079002380001,-86.093330382,0
			38.0139808650001,-86.1109771719999,0
			38.0153617870001,-86.1235504159999,0
			38.0155296330001,-86.126701356,0
			38.0151405340002,-86.131919861,0
			38.0133705140001,-86.148033143,0
			38.0114898680001,-86.1570892329999,0
			38.010250092,-86.162948609,0
			38.009300233,-86.1682128909999,0
			38.0095100400001,-86.170227051,0
			38.0108985900001,-86.178115845,0
			38.0207405090002,-86.205535888,0
			38.0213699340001,-86.206726074,0
			38.0386810300002,-86.2350616459999,0
			38.0480690000001,-86.2547759999999,0
			38.0503120420001,-86.2586059569999,0
			38.051380158,-86.260261535,0
			38.0624504090002,-86.272766113,0
			38.0630302430002,-86.2731933599999,0
			38.0693817140001,-86.2766723629999,0
			38.072410583,-86.27760315,0
			38.0886917110001,-86.2812576289999,0
			38.098400116,-86.2811965949999,0
			38.109039307,-86.278816224,0
			38.13407898,-86.2728805529999,0
			38.143161773,-86.275817871,0
			38.149639129,-86.2804794319999,0
			38.1514091500001,-86.282371521,0
			38.1601409910002,-86.2922973629999,0
			38.1632308960001,-86.296287537,0
			38.1652717590001,-86.300537109,0
			38.168258667,-86.3077468869999,0
			38.1741218570002,-86.321876527,0
			38.180030823,-86.331359864,0
			38.1813888550001,-86.3330917349999,0
			38.1867713920001,-86.339576721,0
			38.1951293960001,-86.349693298,0
			38.195350647,-86.3501358029999,0
			38.1978721620002,-86.359046936,0
			38.1956710810001,-86.3673171989999,0
			38.195270538,-86.3680496229999,0
			38.189861297,-86.3729476919999,0
			38.1887207030002,-86.3734970079999,0
			38.1835289000001,-86.375198365,0
			38.1741905220001,-86.373992919,0
			38.1701316840002,-86.3715972889999,0
			38.164520264,-86.36366272,0
			38.1643104550002,-86.3629989609999,0
			38.162288667,-86.351303101,0
			38.16199112,-86.3495483409999,0
			38.1595001220002,-86.33518982,0
			38.155799866,-86.3258972169999,0
			38.1546707150002,-86.3238372809998,0
			38.146469116,-86.31981659,0
			38.1382789620001,-86.323249816,0
			38.133720398,-86.3278732299999,0
			38.129112245,-86.338935851,0
			38.1289901740001,-86.3560714719999,0
			38.12889862,-86.369361877,0
			38.1274909970002,-86.3765029909999,0
			38.1216011050001,-86.3859710699999,0
			38.1212501540001,-86.3865280159999,0
			38.1203994740001,-86.387168884,0
			38.1129989620001,-86.3911132809999,0
			38.109420777,-86.3935165409999,0
			38.1065406800002,-86.3961791989999,0
			38.104888917,-86.3987960809999,0
			38.104888917,-86.399711609,0
			38.1058921820002,-86.4059829709999,0
			38.108760834,-86.4113922109999,0
			38.1130790710002,-86.417488097,0
			38.113391876,-86.4179306029998,0
			38.1217498780001,-86.4297485339999,0
			38.1247787470001,-86.436798097,0
			38.1250686650001,-86.4498367299999,0
			38.124870301,-86.4514160169999,0
			38.1236915590001,-86.45350647,0
			38.1166801450001,-86.461921692,0
			38.1137008680002,-86.4630966189999,0
			38.1094589240001,-86.4643020629999,0
			38.1049308770001,-86.4625473029999,0
			38.1033592230001,-86.4610671989999,0
			38.0978012080001,-86.454193115,0
			38.0972213750001,-86.453186035,0
			38.0958595270001,-86.4479293829999,0
			38.0940399170001,-86.4420928949999,0
			38.090011598,-86.4368667599999,0
			38.0881500250001,-86.4350662229999,0
			38.0871887210001,-86.4343032849999,0
			38.0808601390002,-86.43121338,0
			38.0799789430001,-86.430976867,0
			38.077899933,-86.430976867,0
			38.072898866,-86.4315261849999,0
			38.0704689020001,-86.4321670529999,0
			38.0678520200001,-86.4337158199999,0
			38.0605087280002,-86.4391860959999,0
			38.0494194030001,-86.452583314,0
			38.0456810000001,-86.4665603639999,0
			38.0447196960001,-86.486495971,0
			38.0445899970001,-86.489326478,0
			38.0448608400001,-86.498771668,0
			38.0446510320001,-86.5017318719999,0
			38.0445098880002,-86.50328827,0
			38.0426902780001,-86.510482787,0
			38.0419311520001,-86.5122528079999,0
			38.0407905590002,-86.5141983039999,0
			38.0375709530001,-86.517890929,0
			38.0289115900001,-86.5218505849999,0
			38.02571869,-86.5221786499999,0
			38.0191192630002,-86.5228576669999,0
			38.0143890390001,-86.5233459469999,0
			38.0004501340001,-86.524780274,0
			37.998970032,-86.524932862,0
			37.996360779,-86.524887085,0
			37.9740409860001,-86.524589538,0
			37.9613914480001,-86.519737243,0
			37.9477005010002,-86.5109024039999,0
			37.947158814,-86.5105361939998,0
			37.9422111520001,-86.5075607299999,0
			37.93939972,-86.5065765389999,0
			37.9370193490001,-86.5059890739999,0
			37.9288520810001,-86.5082092279999,0
			37.9219818120002,-86.5162811289999,0
			37.9178009030002,-86.52848053,0
			37.918079376,-86.548316955,0
			37.9183807380001,-86.551773072,0
			37.9209709170001,-86.5816192629999,0
			37.9167900080001,-86.593231202,0
			37.9127120970001,-86.5973968499999,0
			37.910289764,-86.5984420789999,0
			37.9040298450001,-86.6000366209998,0
			37.8905601510001,-86.598999023,0
			37.8768501290001,-86.5979385379999,0
			37.8759422310001,-86.597869872,0
			37.8664093020002,-86.6000595099999,0
			37.8638610830001,-86.6015014649999,0
			37.861480714,-86.6031570429998,0
			37.8601417540001,-86.604599,0
			37.8511199960001,-86.6168670649999,0
			37.8505287180002,-86.61767578,0
			37.8429718020002,-86.634681702,0
			37.8401603700001,-86.643966675,0
			37.8414917000001,-86.656356812,0
			37.8444519040001,-86.661743165,0
			37.8451004040001,-86.6625823969999,0
			37.8497009270002,-86.6661071769999,0
			37.855522157,-86.6672668459999,0
			37.8585701000001,-86.6662979129999,0
			37.8821105960001,-86.657356262,0
			37.8981208810001,-86.6512832649998,0
			37.905818939,-86.6519775399999,0
			37.907260894,-86.653327941,0
			37.9086303710001,-86.654663086,0
			37.9133796690001,-86.6672668459999,0
			37.913269043,-86.6783523559998,0
			37.912540436,-86.681610108,0
			37.9117012020001,-86.684310913,0
			37.9090499880001,-86.689613341,0
			37.8939819340002,-86.7157516479999,0
			37.8931503300001,-86.7198562629999,0
			37.892139435,-86.725669861,0
			37.8924407970001,-86.7291564939999,0
			37.8927307130001,-86.731147767,0
			37.9032211300001,-86.744842529,0
			37.9043388370001,-86.746116639,0
			37.9151992810001,-86.7577209469999,0
			37.9327507010001,-86.768630981,0
			37.9423599240001,-86.7742691029999,0
			37.949619294,-86.7780990599999,0
			37.9609718330001,-86.783576964,0
			37.987361908,-86.796310426,0
			37.9939994810001,-86.807548523,0
			37.9984397890001,-86.820610047,0
			37.9975204460002,-86.8252792359999,0
			37.9956893930001,-86.831123352,0
			37.9929618830002,-86.8369369499999,0
			37.9902191160002,-86.84452057,0
			37.988780976,-86.8495635989999,0
			37.9848518370001,-86.8599472049999,0
			37.9678001410002,-86.8818130499999,0
			37.9584312440001,-86.8912963869998,0
			37.9485397340001,-86.901298523,0
			37.9408798220001,-86.912559508,0
			37.9406700140001,-86.9131622309999,0
			37.9349899290001,-86.936050414,0
			37.9346008300001,-86.944648742,0
			37.9340705880001,-86.956169129,0
			37.933620454,-86.96270752,0
			37.9328804020001,-86.967163087,0
			37.9303894050001,-86.979148866,0
			37.9289703370001,-86.9860076899999,0
			37.9249114990002,-86.9959182739999,0
			37.9202995300001,-87.006378174,0
			37.9161796570002,-87.016853333,0
			37.9109420770001,-87.026290893,0
			37.9048309330001,-87.0343017579999,0
			37.8997612000002,-87.040657043,0
			37.8977699290002,-87.042266846,0
			37.894680024,-87.044349671,0
			37.8901290890001,-87.045997619,0
			37.8814392090001,-87.0442581169999,0
			37.8743095400001,-87.0428314199999,0
			37.8679389960001,-87.043777467,0
			37.8596611030001,-87.046195983,0
			37.8288116460001,-87.0551986699999,0
			37.8252487190001,-87.0570373529999,0
			37.8082809460001,-87.065841676,0
			37.8014106740001,-87.07095337,0
			37.7917289730001,-87.0835495,0
			37.7889785770001,-87.0893707279999,0
			37.7852897640001,-87.097427368,0
			37.7834205630001,-87.106185914,0
			37.783290863,-87.1069869989999,0
			37.783519746,-87.1241378779999,0
			37.7851486220002,-87.1283187859999,0
			37.7853507990001,-87.1288223269999,0
			37.7873611460001,-87.1330108639999,0
			37.787960054,-87.1335830679998,0
			37.7964401240001,-87.138992309,0
			37.8018302910001,-87.1406631469999,0
			37.8072509780001,-87.142501831,0
			37.812679292,-87.1442871089999,0
			37.8156509410002,-87.145706176,0
			37.8246994030001,-87.1510467529999,0
			37.8386688230001,-87.167320251,0
			37.8406295770001,-87.1748886109999,0
			37.8410606390001,-87.1771774279999,0
			37.8415985100001,-87.181945801,0
			37.8432693480001,-87.2028198239998,0
			37.8486709590001,-87.2232818609999,0
			37.849399568,-87.2250366209999,0
			37.852569581,-87.232048034,0
			37.8536300660001,-87.234169006,0
			37.857460023,-87.241447449,0
			37.861122132,-87.247200012,0
			37.8670616150001,-87.2561264049999,0
			37.8731803900002,-87.2649230949999,0
			37.8754196170001,-87.2684478749999,0
			37.8812599180001,-87.2766723629999,0
			37.888889313,-87.2884063719999,0
			37.8956108100001,-87.3001632689999,0
			37.896678926,-87.302749634,0
			37.8979301450001,-87.305778504,0
			37.9045906070002,-87.320472718,0
			37.9094390860001,-87.331230164,0
			37.9110794080001,-87.33744049,0
			37.9127502440002,-87.343437194,0
			37.9258308420002,-87.3668289179999,0
			37.930900574,-87.375900268,0
			37.9349288930002,-87.3840332029999,0
			37.9375495910001,-87.389900208,0
			37.9391708370002,-87.394287109,0
			37.9442291260001,-87.4166183479999,0
			37.944309235,-87.419273377,0
			37.9445304880002,-87.4323730459999,0
			37.9416389470001,-87.44595337,0
			37.93939972,-87.451187133,0
			37.9384803770001,-87.4535064689999,0
			37.932949066,-87.4645309449999,0
			37.9288101190002,-87.471656799,0
			37.9279022220001,-87.4732208249999,0
			37.9210205090001,-87.483047486,0
			37.9150619500002,-87.491706849,0
		</coordinates>
	</polygon>
</kml>
