<?xml version="1.0" encoding="UTF-8"?>
<kml xmlns="http://earth.google.com/kml/2.2">
	<polygon id="USA_VA_Prince_William" samplingProbability="1">
		<coordinates>
			38.8469782530001,-77.5365502429999,0
			38.8457110000002,-77.535767,0
			38.843799549,-77.5352674049999,0
			38.8416214000002,-77.5346984859999,0
			38.8388595580001,-77.5324096689999,0
			38.8378715520001,-77.5271224979999,0
			38.8377609260002,-77.520027161,0
			38.8382146030001,-77.5182159369999,0
			38.8407400000001,-77.5081329999999,0
			38.838738838,-77.5066319099999,0
			38.8384513860001,-77.5064163209999,0
			38.8344001770002,-77.50830841,0
			38.831680299,-77.5083770749999,0
			38.8270990000001,-77.5055469999999,0
			38.8248100000001,-77.5038529999999,0
			38.8221848160001,-77.5041234299999,0
			38.8171119690001,-77.5046463009999,0
			38.8143386840002,-77.50177002,0
			38.8120034620001,-77.4941308599999,0
			38.8114700000002,-77.4923859999999,0
			38.8100890000001,-77.491249,0
			38.8096932470002,-77.4908795009999,0
			38.8082504270001,-77.48953247,0
			38.8061287930001,-77.489590597,0
			38.8046300000001,-77.4896319999999,0
			38.801987346,-77.4922035059999,0
			38.8015098580001,-77.492668152,0
			38.7996094620001,-77.492473812,0
			38.7969589240001,-77.4922027599999,0
			38.7966242360002,-77.4916996269999,0
			38.7946395880001,-77.488716126,0
			38.7943269450001,-77.485945081,0
			38.7941093440001,-77.4840164189999,0
			38.7962472830001,-77.4781399089999,0
			38.7962799080001,-77.478050232,0
			38.795878671,-77.4727496909999,0
			38.795700073,-77.4703903199999,0
			38.7956888550002,-77.4697396469999,0
			38.7956085210001,-77.465080261,0
			38.7956008910002,-77.4644927989999,0
			38.7972221390002,-77.459375225,0
			38.7986221320001,-77.4549560539999,0
			38.7993625580001,-77.4536550319999,0
			38.8017005920001,-77.4495468139999,0
			38.802070617,-77.4442291269999,0
			38.8008323180002,-77.4420757369999,0
			38.7997320000001,-77.4401629999999,0
			38.7963041340001,-77.438485821,0
			38.7951622010001,-77.437927246,0
			38.7896919240002,-77.435722351,0
			38.7864268710001,-77.4344078489999,0
			38.7855796820001,-77.4340667729999,0
			38.7851208430001,-77.4337562489999,0
			38.780540466,-77.4306564329999,0
			38.7801148820002,-77.4291149489999,0
			38.7795715330001,-77.427146911,0
			38.7778859620001,-77.4234108759999,0
			38.77721,-77.4219129999999,0
			38.7735100000001,-77.4172899999999,0
			38.7685090000001,-77.416237,0
			38.7652892420001,-77.4133912139999,0
			38.7626304630001,-77.417587281,0
			38.7618125320002,-77.4168604469999,0
			38.7594108580001,-77.414726257,0
			38.7563952400001,-77.411389121,0
			38.7552603710001,-77.4101334109999,0
			38.7515515860001,-77.412007805,0
			38.7503089910001,-77.4126358039999,0
			38.7475959560001,-77.4127180859999,0
			38.7457809440002,-77.412773133,0
			38.7453016490002,-77.4123246,0
			38.743938445,-77.4110488889999,0
			38.7447758740001,-77.4091403329999,0
			38.7452507020001,-77.4080581669999,0
			38.7483901990001,-77.4061965939999,0
			38.7504959580002,-77.406684989,0
			38.7506599610002,-77.4067229909999,0
			38.7524299630001,-77.4037170409999,0
			38.7522878710002,-77.403201023,0
			38.7509800000001,-77.398453,0
			38.7494513160001,-77.3951403089999,0
			38.749099837,-77.39437889,0
			38.7440490000002,-77.3909759999999,0
			38.742210619,-77.3893466109999,0
			38.7376098640001,-77.385269164,0
			38.7343408750001,-77.380050989,0
			38.7309734000001,-77.379752033,0
			38.7293510440002,-77.379608154,0
			38.7268682850002,-77.380582106,0
			38.7212409970002,-77.3827896129999,0
			38.7143592840002,-77.377693176,0
			38.7111091620002,-77.373046876,0
			38.710844954,-77.3705075429999,0
			38.710559846,-77.367767334,0
			38.712825497,-77.3663231299999,0
			38.7163887020001,-77.3640518189999,0
			38.7211106730001,-77.3612030879999,0
			38.723571758,-77.359718146,0
			38.723172736,-77.3562505909999,0
			38.7230300000001,-77.3550109999998,0
			38.7182500000001,-77.3409959999999,0
			38.7158200000001,-77.3316269999999,0
			38.7153948470001,-77.331732658,0
			38.7131195060001,-77.3322982789999,0
			38.7118766230002,-77.3274386289999,0
			38.7111700000001,-77.324677,0
			38.7088890000002,-77.3241729999999,0
			38.7030910000001,-77.329056,0
			38.7005976570001,-77.3259574759999,0
			38.7003100030001,-77.3255999809999,0
			38.7020456410002,-77.3155650839999,0
			38.7023620000002,-77.3137359999999,0
			38.705879,-77.307739,0
			38.7057800000002,-77.3018419999999,0
			38.6941159230001,-77.2804604689999,0
			38.6931190490002,-77.2786331169999,0
			38.6930233650001,-77.2784357919999,0
			38.6903000000001,-77.2728199999999,0
			38.6883607080001,-77.270412688,0
			38.6847305310001,-77.2659072879999,0
			38.6810725660001,-77.2592968409999,0
			38.6786380000001,-77.2548979999999,0
			38.6745190000001,-77.2526629999999,0
			38.6740972220001,-77.2522273659999,0
			38.6717491150001,-77.249801636,0
			38.669602063,-77.245385509,0
			38.6689300530001,-77.2440032969999,0
			38.6638147670001,-77.239792052,0
			38.663403,-77.239883,0
			38.6629330000001,-77.239853,0
			38.6624910000001,-77.2396999999999,0
			38.6620940000001,-77.2394559999999,0
			38.661709,-77.239182,0
			38.6613920000001,-77.2388309999999,0
			38.6610830000001,-77.2384489999999,0
			38.6607400000001,-77.2380829999999,0
			38.6603660000001,-77.2377399999999,0
			38.6600040000002,-77.237381,0
			38.6596410000002,-77.2370069999999,0
			38.6592640000001,-77.2366709999999,0
			38.65889,-77.236351,0
			38.658714,-77.2361069999998,0
			38.6586070000001,-77.2359619999999,0
			38.6583290000002,-77.2355499999999,0
			38.6580310000002,-77.235146,0
			38.6576960000002,-77.2347559999999,0
			38.6573370000002,-77.2343669999999,0
			38.6570130000002,-77.233932,0
			38.6560750000002,-77.2332839999999,0
			38.6551700000001,-77.2320859999999,0
			38.6549950000002,-77.2316739999999,0
			38.6547280000001,-77.2313,0
			38.654446,-77.230927,0
			38.654163,-77.230553,0
			38.6538890000001,-77.2301559999999,0
			38.6536140000001,-77.2297519999999,0
			38.6533430000001,-77.2293399999999,0
			38.6530910000002,-77.2289049999999,0
			38.652859,-77.2284469999998,0
			38.652531,-77.228065,0
			38.6521490000001,-77.227722,0
			38.6517490000002,-77.2273939999999,0
			38.6514050000001,-77.2269669999999,0
			38.6510930000001,-77.226486,0
			38.6507570000002,-77.2260209999999,0
			38.650341,-77.2256699999999,0
			38.6498490000002,-77.225403,0
			38.6493420000002,-77.2251279999999,0
			38.6488950000001,-77.224815,0
			38.6484490000001,-77.22451,0
			38.6479230000002,-77.224281,0
			38.647293,-77.224182,0
			38.6466290000002,-77.2241669999999,0
			38.6459620000001,-77.2241669999999,0
			38.6453060000002,-77.224228,0
			38.6447030000002,-77.2244719999999,0
			38.6441760000001,-77.2248309999999,0
			38.6436610000001,-77.2252039999999,0
			38.6431200000001,-77.2255479999999,0
			38.6425630000001,-77.2258679999999,0
			38.6420630000001,-77.2262569999999,0
			38.6415210000002,-77.226639,0
			38.6409300000001,-77.226982,0
			38.6403920000002,-77.2273939999999,0
			38.6398890000002,-77.227814,0
			38.6394080000001,-77.2281719999999,0
			38.6389010000001,-77.228111,0
			38.638359,-77.228104,0
			38.6378670000001,-77.22831,0
			38.6375160000001,-77.2287829999999,0
			38.6372800000001,-77.2293549999999,0
			38.637215,-77.2299959999999,0
			38.6371500000002,-77.2306289999999,0
			38.6369710000001,-77.2312009999999,0
			38.636826,-77.2317809999999,0
			38.6367000000001,-77.232361,0
			38.6366690000002,-77.232971,0
			38.6366650000002,-77.2335819999999,0
			38.6366810000001,-77.2341919999998,0
			38.6367650000001,-77.2347869999999,0
			38.636955,-77.235336,0
			38.6372030000001,-77.2358629999999,0
			38.6374700000002,-77.2363739999999,0
			38.6377680000002,-77.236862,0
			38.638069,-77.2373499999999,0
			38.6383740000002,-77.2378309999999,0
			38.6386720000002,-77.238388,0
			38.6387250000001,-77.23851,0
			38.6388970000001,-77.2389139999999,0
			38.6390990000002,-77.2394939999999,0
			38.6391300000002,-77.2401199999999,0
			38.6390110000002,-77.24073,0
			38.6387330000001,-77.2412339999998,0
			38.638561,-77.2414399999998,0
			38.6383820000001,-77.241653,0
			38.6380810000001,-77.2421259999999,0
			38.637829,-77.2426379999999,0
			38.6376300000001,-77.243187,0
			38.6374130000001,-77.243713,0
			38.6371960000001,-77.244255,0
			38.636936,-77.2447809999999,0
			38.636627,-77.245262,0
			38.636219,-77.2455899999999,0
			38.635796,-77.2459109999999,0
			38.635319,-77.2461549999999,0
			38.6348500000001,-77.2464069999999,0
			38.6344260000002,-77.246719,0
			38.6340900000001,-77.2471159999999,0
			38.633698,-77.247467,0
			38.6332050000001,-77.247711,0
			38.6327630000001,-77.247757,0
			38.6325570000001,-77.2477799999999,0
			38.6318700000001,-77.2478259999999,0
			38.63118,-77.248009,0
			38.6304470000001,-77.2481,0
			38.6297380000001,-77.2482679999999,0
			38.6290550000001,-77.2483669999999,0
			38.6284070000001,-77.24852,0
			38.6277620000002,-77.2486499999999,0
			38.6271510000001,-77.2487789999999,0
			38.6265980000002,-77.2486109999999,0
			38.626064,-77.248352,0
			38.6255300000001,-77.2480699999999,0
			38.6250110000001,-77.2477719999999,0
			38.624546,-77.2474059999999,0
			38.624168,-77.246956,0
			38.6237980000001,-77.2464979999999,0
			38.6233290000001,-77.246124,0
			38.6227870000001,-77.2458339999999,0
			38.6222310000002,-77.245552,0
			38.6216700000001,-77.245277,0
			38.6210860000001,-77.2450709999999,0
			38.6204260000002,-77.2450939999999,0
			38.619804,-77.2453609999999,0
			38.6191600000001,-77.2456129999999,0
			38.6185300000002,-77.245888,0
			38.617897,-77.246025,0
			38.6173060000002,-77.245979,0
			38.6167110000001,-77.2460709999999,0
			38.616119,-77.246223,0
			38.6155170000001,-77.246346,0
			38.6149750000002,-77.2466279999999,0
			38.6143720000001,-77.2467579999999,0
			38.6137850000001,-77.2469409999999,0
			38.6132090000001,-77.2471619999999,0
			38.6126940000001,-77.2475809999999,0
			38.6118970000001,-77.2477719999999,0
			38.6115650000002,-77.2481989999999,0
			38.6114120000001,-77.248634,0
			38.6113200000001,-77.2490769999999,0
			38.6111220000001,-77.2494129999999,0
			38.61084,-77.249672,0
			38.6104810000002,-77.2498169999999,0
			38.6101150000001,-77.250015,0
			38.6098480000002,-77.250168,0
			38.609745,-77.2502289999999,0
			38.6093250000001,-77.250275,0
			38.6088100000001,-77.250008,0
			38.6082500000001,-77.2497329999999,0
			38.6075970000001,-77.2496569999999,0
			38.6069490000001,-77.249542,0
			38.6063000000001,-77.24968,0
			38.6056820000001,-77.2498699999999,0
			38.605286,-77.250343,0
			38.6049540000001,-77.250893,0
			38.604584,-77.2513959999999,0
			38.6042290000001,-77.2519069999999,0
			38.6039730000001,-77.252464,0
			38.6038400000001,-77.253052,0
			38.6036260000001,-77.2535779999999,0
			38.603352,-77.2540279999999,0
			38.6033060000001,-77.2540969999999,0
			38.603092,-77.254395,0
			38.6027370000002,-77.2546539999999,0
			38.6019440000001,-77.2552799999999,0
			38.602356,-77.2572249999999,0
			38.6027070000001,-77.2572479999999,0
			38.6030730000001,-77.257347,0
			38.60347,-77.2574079999999,0
			38.6039050000002,-77.257286,0
			38.6043210000001,-77.257286,0
			38.604698,-77.2574769999999,0
			38.6050830000001,-77.257729,0
			38.605492,-77.258034,0
			38.6058240000001,-77.2585299999999,0
			38.6061440000001,-77.259102,0
			38.606544,-77.259644,0
			38.6069910000001,-77.2601089999999,0
			38.6072500000001,-77.2606739999999,0
			38.607197,-77.2612299999999,0
			38.607311,-77.261757,0
			38.6075710000001,-77.2621609999999,0
			38.6078760000001,-77.262512,0
			38.6081580000002,-77.2628629999999,0
			38.6083830000001,-77.2632599999999,0
			38.6086080000001,-77.263626,0
			38.608822,-77.2639919999999,0
			38.6089710000001,-77.2643589999999,0
			38.6091580000001,-77.2646869999999,0
			38.6093480000002,-77.2649919999999,0
			38.6095350000001,-77.265282,0
			38.6096990000001,-77.2655719999999,0
			38.6098180000002,-77.2659069999999,0
			38.609962,-77.266243,0
			38.6099930000001,-77.2666169999999,0
			38.6100010000001,-77.2669449999999,0
			38.6100010000001,-77.2680589999999,0
			38.6102790000002,-77.268333,0
			38.6102790000002,-77.269447,0
			38.6108320000001,-77.269997,0
			38.6108320000001,-77.2705539999999,0
			38.6111110000001,-77.270836,0
			38.6111110000001,-77.271667,0
			38.6108320000001,-77.2719419999999,0
			38.6108320000001,-77.272499,0
			38.6086120000001,-77.2747189999999,0
			38.6083340000001,-77.2747189999999,0
			38.6077770000001,-77.2752759999999,0
			38.6074980000001,-77.2752759999999,0
			38.6072240000001,-77.275002,0
			38.6072240000001,-77.2747189999999,0
			38.6074980000001,-77.274445,0
			38.6074980000001,-77.27417,0
			38.6077770000001,-77.2738879999999,0
			38.6077770000001,-77.272499,0
			38.6074980000001,-77.2722239999999,0
			38.6086120000001,-77.2711109999999,0
			38.6086120000001,-77.270836,0
			38.608891,-77.2705539999999,0
			38.608891,-77.2697219999999,0
			38.6077770000001,-77.2686079999999,0
			38.6074980000001,-77.2686079999999,0
			38.6072240000001,-77.268333,0
			38.6069450000002,-77.268333,0
			38.6066670000001,-77.2686079999999,0
			38.6066670000001,-77.2688899999999,0
			38.6047210000002,-77.268829,0
			38.6044390000001,-77.2684479999999,0
			38.6041220000002,-77.268089,0
			38.6037450000001,-77.2677839999999,0
			38.6033740000001,-77.267464,0
			38.6031300000001,-77.2670139999998,0
			38.6030620000002,-77.2664569999999,0
			38.6030500000001,-77.2658539999999,0
			38.6030040000001,-77.2652659999999,0
			38.6028630000001,-77.264709,0
			38.6027220000001,-77.264122,0
			38.6025120000002,-77.263573,0
			38.6023410000001,-77.263008,0
			38.602242,-77.2624049999999,0
			38.602184,-77.261787,0
			38.6020240000001,-77.2611849999999,0
			38.6018450000001,-77.2606429999999,0
			38.6015930000002,-77.2601929999999,0
			38.601372,-77.25972,0
			38.6011090000001,-77.2592999999999,0
			38.600842,-77.2589189999999,0
			38.6006090000001,-77.25856,0
			38.6004370000001,-77.2582169999999,0
			38.6002770000002,-77.2580569999998,0
			38.6002770000002,-77.2577739999999,0
			38.5988880000002,-77.256386,0
			38.5986100000001,-77.256386,0
			38.5983310000001,-77.2561109999999,0
			38.5978510000002,-77.2560119999999,0
			38.5975270000002,-77.2558209999999,0
			38.5972060000001,-77.2555849999999,0
			38.5968020000001,-77.2554019999999,0
			38.5964090000001,-77.2551799999998,0
			38.5960200000002,-77.2549129999999,0
			38.5956150000001,-77.2546159999999,0
			38.5952530000001,-77.2542419999999,0
			38.594902,-77.2538299999999,0
			38.5946500000002,-77.2533189999999,0
			38.5944250000001,-77.252762,0
			38.5941580000002,-77.2522279999999,0
			38.5938840000001,-77.251678,0
			38.5936130000002,-77.2511289999999,0
			38.5933910000001,-77.250549,0
			38.59333,-77.2498859999999,0
			38.5932880000001,-77.2492139999999,0
			38.5931890000001,-77.2485729999999,0
			38.5932920000001,-77.248093,0
			38.5933150000002,-77.247978,0
			38.5934370000002,-77.2473909999998,0
			38.5934750000001,-77.2468719999999,0
			38.5931550000001,-77.2465129999999,0
			38.5925900000001,-77.246437,0
			38.5919760000001,-77.2466129999999,0
			38.591396,-77.246933,0
			38.590855,-77.247307,0
			38.5903430000001,-77.247711,0
			38.589867,-77.248123,0
			38.5895270000001,-77.248642,0
			38.5894130000001,-77.249313,0
			38.5892830000002,-77.2499769999999,0
			38.5891040000001,-77.2506099999999,0
			38.58894,-77.251221,0
			38.5886270000001,-77.2517849999999,0
			38.5884740000001,-77.2523879999999,0
			38.5885700000002,-77.253067,0
			38.5886000000002,-77.2537609999999,0
			38.5885350000001,-77.2544479999999,0
			38.588261,-77.255051,0
			38.587894,-77.2555849999999,0
			38.5875320000001,-77.256119,0
			38.5872040000002,-77.2566449999999,0
			38.586769,-77.257057,0
			38.5861630000002,-77.2571409999999,0
			38.5855290000001,-77.2569499999999,0
			38.584908,-77.2568129999999,0
			38.5843890000001,-77.2570339999999,0
			38.5839230000001,-77.257538,0
			38.5837900000001,-77.2581479999999,0
			38.5840070000001,-77.2586899999999,0
			38.5843700000001,-77.2591549999999,0
			38.5844270000001,-77.2593149999999,0
			38.5845910000001,-77.2597659999998,0
			38.5846980000001,-77.2604369999999,0
			38.584682,-77.2611469999999,0
			38.584839,-77.2618099999999,0
			38.5849190000001,-77.2624739999999,0
			38.5848730000002,-77.2631449999999,0
			38.5847820000001,-77.2637859999999,0
			38.585026,-77.2645719999999,0
			38.5852890000002,-77.2649919999999,0
			38.5855640000001,-77.265282,0
			38.585831,-77.265549,0
			38.586056,-77.2658459999998,0
			38.5861590000002,-77.2662729999999,0
			38.5863380000001,-77.266716,0
			38.5863840000001,-77.267212,0
			38.5863880000001,-77.2677309999999,0
			38.5863990000001,-77.2683259999999,0
			38.586441,-77.2687759999999,0
			38.5866130000001,-77.2692339999999,0
			38.586662,-77.269844,0
			38.586666,-77.2703549999999,0
			38.586666,-77.27095,0
			38.586666,-77.2715299999999,0
			38.5867420000001,-77.2721019999999,0
			38.5868950000001,-77.2726139999999,0
			38.5869450000002,-77.2730559999999,0
			38.5869450000002,-77.27417,0
			38.5872230000001,-77.2738879999999,0
			38.5875020000001,-77.27417,0
			38.588055,-77.27417,0
			38.5897220000001,-77.275833,0
			38.5897220000001,-77.2761079999999,0
			38.5894430000001,-77.2763899999999,0
			38.5894430000001,-77.276665,0
			38.5897220000001,-77.276947,0
			38.5894430000001,-77.2772219999999,0
			38.5894430000001,-77.277496,0
			38.589169,-77.277779,0
			38.589169,-77.2780529999999,0
			38.5886120000001,-77.27861,0
			38.589169,-77.279167,0
			38.589169,-77.279442,0
			38.5894430000001,-77.2797239999999,0
			38.5894430000001,-77.279999,0
			38.59,-77.2805559999999,0
			38.59,-77.2811129999999,0
			38.5905570000001,-77.28167,0
			38.5905570000001,-77.281944,0
			38.59,-77.282501,0
			38.59,-77.282776,0
			38.589169,-77.281944,0
			38.589169,-77.28167,0
			38.58889,-77.2813869999999,0
			38.5877760000002,-77.282501,0
			38.5872230000001,-77.282501,0
			38.5869450000002,-77.2822189999999,0
			38.5869450000002,-77.2813869999999,0
			38.5872230000001,-77.2811129999999,0
			38.5872230000001,-77.28083,0
			38.586666,-77.2802809999999,0
			38.5863880000001,-77.2802809999999,0
			38.585835,-77.2797239999999,0
			38.585835,-77.279442,0
			38.585556,-77.279167,0
			38.585556,-77.2788929999999,0
			38.5852780000001,-77.27861,0
			38.5852780000001,-77.2780529999999,0
			38.5849990000001,-77.277779,0
			38.5849990000001,-77.277496,0
			38.5847210000001,-77.2772219999999,0
			38.5847210000001,-77.276947,0
			38.5849990000001,-77.276665,0
			38.5847210000001,-77.276665,0
			38.5844460000002,-77.276947,0
			38.5842670000001,-77.2766569999999,0
			38.5839960000001,-77.276291,0
			38.5837940000001,-77.2758479999999,0
			38.5835950000001,-77.2753909999999,0
			38.5833660000002,-77.2749399999999,0
			38.583199,-77.27446,0
			38.5830150000001,-77.27401,0
			38.5827900000002,-77.273582,0
			38.5825960000001,-77.273132,0
			38.5824740000001,-77.272636,0
			38.582321,-77.2721409999999,0
			38.5822410000002,-77.271599,0
			38.582207,-77.2710339999999,0
			38.5821080000002,-77.27047,0
			38.5819090000001,-77.2699739999999,0
			38.5816650000002,-77.2695309999999,0
			38.58147,-77.2690959999999,0
			38.5815280000002,-77.268631,0
			38.5815890000001,-77.2684479999999,0
			38.5816800000001,-77.268166,0
			38.5818940000001,-77.267723,0
			38.5821080000002,-77.2672809999999,0
			38.5823940000001,-77.2669069999999,0
			38.5826490000002,-77.2665019999999,0
			38.5828320000001,-77.26606,0
			38.583057,-77.2658309999999,0
			38.583332,-77.2655559999999,0
			38.5827790000001,-77.2644419999999,0
			38.5825000000001,-77.2644419999999,0
			38.5822220000001,-77.2648159999999,0
			38.5819210000002,-77.26474,0
			38.581623,-77.2647929999999,0
			38.581314,-77.2649539999999,0
			38.580921,-77.264999,0
			38.5804900000001,-77.264999,0
			38.580051,-77.2649539999999,0
			38.5796550000001,-77.2647709999999,0
			38.5794300000001,-77.2647249999999,0
			38.5791820000001,-77.2646789999999,0
			38.5787280000001,-77.264511,0
			38.5782130000002,-77.2644119999999,0
			38.5777130000002,-77.264244,0
			38.5772060000002,-77.2640609999999,0
			38.5767900000002,-77.2636949999999,0
			38.5762670000001,-77.2634199999999,0
			38.5756490000001,-77.263268,0
			38.5750240000001,-77.2630999999999,0
			38.5743680000002,-77.263008,0
			38.5737340000001,-77.262825,0
			38.5730710000001,-77.2627789999999,0
			38.5723920000001,-77.2627789999999,0
			38.5717050000001,-77.2627719999999,0
			38.571026,-77.262726,0
			38.5703850000001,-77.2625199999999,0
			38.5697480000002,-77.262329,0
			38.5691340000002,-77.2621079999999,0
			38.568497,-77.261925,0
			38.5678710000001,-77.2616809999998,0
			38.5672530000002,-77.2614359999999,0
			38.566689,-77.261139,0
			38.5661320000001,-77.260841,0
			38.5655710000001,-77.2605589999999,0
			38.56501,-77.2602919999999,0
			38.5644720000001,-77.2600169999999,0
			38.5640030000002,-77.2596819999999,0
			38.5635760000002,-77.2592999999999,0
			38.5631180000001,-77.258957,0
			38.5626340000001,-77.2586209999999,0
			38.5621450000001,-77.258301,0
			38.5617070000001,-77.2579419999999,0
			38.5613060000001,-77.2575909999999,0
			38.5608750000002,-77.2574459999999,0
			38.5603870000001,-77.2578509999998,0
			38.56012,-77.2585299999999,0
			38.5600010000002,-77.259308,0
			38.5598720000002,-77.260078,0
			38.5595660000001,-77.2606889999999,0
			38.5591010000001,-77.2611539999999,0
			38.5584490000002,-77.2614059999999,0
			38.557758,-77.2616199999999,0
			38.5570450000002,-77.2617109999999,0
			38.5564380000001,-77.261971,0
			38.5559880000001,-77.262413,0
			38.5557750000001,-77.2630839999999,0
			38.5555310000001,-77.2637789999999,0
			38.5552640000001,-77.2644729999999,0
			38.5549470000001,-77.265137,0
			38.5545730000001,-77.2657779999999,0
			38.5543020000001,-77.266449,0
			38.5539510000002,-77.266914,0
			38.5536350000002,-77.2674409999999,0
			38.5533940000001,-77.2680279999999,0
			38.5532490000002,-77.268669,0
			38.5530400000001,-77.269257,0
			38.5527760000001,-77.2698139999999,0
			38.5525020000002,-77.2703629999999,0
			38.552223,-77.2709049999999,0
			38.5519450000001,-77.2714459999999,0
			38.5516620000001,-77.2719959999999,0
			38.5513610000001,-77.2725139999999,0
			38.5510140000002,-77.272995,0
			38.550594,-77.2734149999999,0
			38.550175,-77.273827,0
			38.5496980000001,-77.2741929999999,0
			38.5491940000001,-77.274536,0
			38.5486950000001,-77.2748949999999,0
			38.5481300000001,-77.2752299999999,0
			38.5476110000001,-77.2756419999999,0
			38.547161,-77.276131,0
			38.5466040000001,-77.276505,0
			38.5459560000002,-77.2767639999999,0
			38.5453300000001,-77.2771529999999,0
			38.5447350000001,-77.277634,0
			38.5440140000001,-77.2778929999999,0
			38.5435750000001,-77.2776949999999,0
			38.5433160000001,-77.277298,0
			38.5430640000002,-77.2768629999999,0
			38.5427970000001,-77.2764429999999,0
			38.5424190000001,-77.2761609999999,0
			38.5419460000001,-77.2760619999999,0
			38.5416530000001,-77.2760929999999,0
			38.5414700000001,-77.2761079999999,0
			38.5409620000001,-77.2761079999999,0
			38.5404400000001,-77.2761149999999,0
			38.5399170000002,-77.2761609999999,0
			38.5394020000001,-77.276329,0
			38.5389180000001,-77.2762679999999,0
			38.538464,-77.2760929999999,0
			38.5380250000001,-77.275925,0
			38.5375940000002,-77.2761149999999,0
			38.5372050000001,-77.2764359999999,0
			38.536961,-77.2769239999998,0
			38.5368270000001,-77.2774809999999,0
			38.5367160000002,-77.278046,0
			38.5366020000002,-77.2785719999999,0
			38.5363540000001,-77.2788999999999,0
			38.5360150000001,-77.2791599999999,0
			38.5356180000001,-77.279366,0
			38.5351140000001,-77.279503,0
			38.5346490000001,-77.279709,0
			38.534168,-77.279999,0
			38.5336110000001,-77.2805559999999,0
			38.5336110000001,-77.281944,0
			38.5333330000001,-77.2822189999999,0
			38.5333330000001,-77.282501,0
			38.5325010000001,-77.283333,0
			38.5325010000001,-77.283607,0
			38.5302770000002,-77.285835,0
			38.5302770000002,-77.28611,0
			38.5308340000001,-77.286667,0
			38.5316660000001,-77.285835,0
			38.5319440000001,-77.285835,0
			38.5325010000001,-77.2852779999999,0
			38.533054,-77.2852779999999,0
			38.5333330000001,-77.285004,0
			38.5336110000001,-77.285004,0
			38.5338900000002,-77.2847209999999,0
			38.5350000000001,-77.2847209999999,0
			38.535557,-77.284164,0
			38.5361100000001,-77.284164,0
			38.5372240000002,-77.2830579999999,0
			38.5375060000002,-77.2830279999999,0
			38.5378420000001,-77.282822,0
			38.5382390000001,-77.2827679999999,0
			38.5386540000001,-77.2827989999999,0
			38.539082,-77.283127,0
			38.5394740000002,-77.283623,0
			38.5399170000002,-77.284081,0
			38.5404050000001,-77.2844469999999,0
			38.5408860000001,-77.284798,0
			38.5413060000002,-77.2852099999999,0
			38.5416950000001,-77.2856449999999,0
			38.5421600000001,-77.285988,0
			38.5428120000001,-77.2860869999998,0
			38.5434910000001,-77.2860569999999,0
			38.5436020000001,-77.2860259999999,0
			38.5441060000001,-77.2858959999999,0
			38.5446850000002,-77.285904,0
			38.5451350000001,-77.28611,0
			38.545506,-77.286377,0
			38.5457380000001,-77.2867579999999,0
			38.5458760000001,-77.287201,0
			38.546051,-77.2875979999999,0
			38.5460890000002,-77.2880249999999,0
			38.546047,-77.288422,0
			38.5460620000001,-77.2887039999999,0
			38.546345,-77.2888029999999,0
			38.5463910000001,-77.289169,0
			38.5463910000001,-77.2901229999998,0
			38.5463910000001,-77.291664,0
			38.546665,-77.2919459999999,0
			38.546665,-77.2922209999999,0
			38.5469440000001,-77.2925029999999,0
			38.5469440000001,-77.2927779999999,0
			38.5475010000001,-77.2933349999998,0
			38.547779,-77.2936099999999,0
			38.548054,-77.2936099999999,0
			38.548889,-77.2944409999999,0
			38.548889,-77.2947239999999,0
			38.5499990000002,-77.29583,0
			38.5499990000002,-77.2961119999999,0
			38.550278,-77.2963869999999,0
			38.550278,-77.2969439999999,0
			38.550549,-77.297401,0
			38.5507970000002,-77.2977519999999,0
			38.5511280000002,-77.2980499999999,0
			38.5515140000002,-77.2983019999999,0
			38.5519370000001,-77.298515,0
			38.5523000000002,-77.2988049999999,0
			38.5527080000002,-77.29911,0
			38.5530010000001,-77.2995299999999,0
			38.5532490000002,-77.299995,0
			38.5534710000001,-77.300484,0
			38.553902,-77.3008189999999,0
			38.5543710000001,-77.3010859999999,0
			38.5548630000001,-77.3012999999999,0
			38.5552370000001,-77.3016279999999,0
			38.5554920000001,-77.3020779999999,0
			38.5556790000002,-77.3025739999999,0
			38.5560070000001,-77.3030009999999,0
			38.556446,-77.303322,0
			38.5569190000001,-77.3035809999999,0
			38.5573690000002,-77.3037949999999,0
			38.5577160000001,-77.30407,0
			38.5581250000002,-77.3042529999999,0
			38.5585100000001,-77.3044589999999,0
			38.5588760000002,-77.3046799999999,0
			38.559235,-77.304863,0
			38.559471,-77.3052059999999,0
			38.5597310000001,-77.3055499999999,0
			38.5600240000001,-77.305855,0
			38.560326,-77.3061519999999,0
			38.5606190000001,-77.3064189999999,0
			38.5608250000001,-77.3066939999999,0
			38.5609630000002,-77.3069609999999,0
			38.5609510000001,-77.3072589999999,0
			38.560551,-77.3077159999999,0
			38.560188,-77.3079299999999,0
			38.5598260000001,-77.308151,0
			38.5590670000001,-77.308456,0
			38.558651,-77.3088379999999,0
			38.558361,-77.309311,0
			38.5580600000001,-77.3098449999999,0
			38.55764,-77.3104099999999,0
			38.557114,-77.3109889999999,0
			38.5564990000001,-77.3114399999999,0
			38.5561490000001,-77.3114239999999,0
			38.5559040000001,-77.3113099999999,0
			38.555733,-77.3111339999999,0
			38.5555460000002,-77.310951,0
			38.555351,-77.3107449999999,0
			38.5551870000001,-77.3104629999999,0
			38.5549960000001,-77.3101269999999,0
			38.5547680000001,-77.309784,0
			38.5544660000002,-77.3094409999999,0
			38.554119,-77.309097,0
			38.553707,-77.308769,0
			38.5533100000001,-77.3081739999999,0
			38.5528410000002,-77.3077999999999,0
			38.5523150000001,-77.3075559999999,0
			38.551697,-77.307495,0
			38.5509150000001,-77.3076399999999,0
			38.5502700000001,-77.307487,0
			38.549675,-77.3072199999999,0
			38.54911,-77.306908,0
			38.5486260000001,-77.306526,0
			38.548191,-77.3060909999999,0
			38.5478100000001,-77.3056109999999,0
			38.5475160000001,-77.3050689999999,0
			38.5472870000002,-77.3045429999999,0
			38.5469820000001,-77.3039469999999,0
			38.546635,-77.303482,0
			38.5462110000001,-77.3030929999999,0
			38.5457190000001,-77.3027729999999,0
			38.5452500000002,-77.3024219999999,0
			38.5449330000001,-77.301903,0
			38.5447040000001,-77.3012699999999,0
			38.5444180000001,-77.300652,0
			38.5439910000001,-77.30011,0
			38.54335,-77.2997589999999,0
			38.5426710000002,-77.2995,0
			38.542137,-77.2991409999999,0
			38.54171,-77.2986829999999,0
			38.5413970000001,-77.298119,0
			38.5411640000002,-77.2975009999999,0
			38.5410610000002,-77.2967829999999,0
			38.5408480000002,-77.2960889999999,0
			38.5405770000001,-77.2955169999999,0
			38.5400620000001,-77.295448,0
			38.5395390000002,-77.2950439999998,0
			38.539112,-77.294525,0
			38.5386730000001,-77.293999,0
			38.5382420000001,-77.2934719999999,0
			38.5376890000001,-77.293076,0
			38.5370560000001,-77.292786,0
			38.5364070000001,-77.292526,0
			38.5357890000001,-77.2922359999999,0
			38.535179,-77.291939,0
			38.5346030000002,-77.291603,0
			38.5341220000001,-77.2912139999999,0
			38.5336190000001,-77.2908629999999,0
			38.533058,-77.290627,0
			38.5324820000002,-77.2904359999999,0
			38.531864,-77.2903899999999,0
			38.531334,-77.290543,0
			38.5307770000001,-77.2907939999999,0
			38.5301970000001,-77.2909999999999,0
			38.5295830000001,-77.2910919999999,0
			38.5289880000001,-77.291031,0
			38.528442,-77.290825,0
			38.52795,-77.290543,0
			38.5275310000001,-77.2901919999999,0
			38.5272750000001,-77.2897259999999,0
			38.5272790000001,-77.289169,0
			38.5275460000001,-77.2887039999999,0
			38.527905,-77.288246,0
			38.5282820000001,-77.2877349999999,0
			38.5283660000001,-77.287209,0
			38.5283850000001,-77.287086,0
			38.5281830000001,-77.286446,0
			38.527882,-77.2862169999999,0
			38.5277790000001,-77.2860179999999,0
			38.5277020000001,-77.2857969999999,0
			38.5275340000001,-77.285538,0
			38.527435,-77.285217,0
			38.52739,-77.2848429999999,0
			38.5275080000002,-77.284416,0
			38.5276410000002,-77.2839659999999,0
			38.5275690000001,-77.283493,0
			38.5272060000001,-77.2830959999999,0
			38.5266910000001,-77.2828899999999,0
			38.5261540000001,-77.2830199999999,0
			38.5256390000001,-77.2832789999999,0
			38.5251880000001,-77.283653,0
			38.5247960000002,-77.2840959999999,0
			38.5244060000001,-77.284576,0
			38.524189,-77.2848049999999,0
			38.5239720000002,-77.285027,0
			38.5235210000002,-77.2854769999999,0
			38.523006,-77.285858,0
			38.5225300000001,-77.286301,0
			38.522087,-77.2867739999999,0
			38.5215680000001,-77.2871249999999,0
			38.5213890000002,-77.2872239999999,0
			38.5211110000001,-77.287498,0
			38.5205570000001,-77.286942,0
			38.5205570000001,-77.2856829999999,0
			38.5205570000001,-77.2852779999999,0
			38.52,-77.2847209999999,0
			38.5197220000001,-77.285004,0
			38.5194440000002,-77.2852779999999,0
			38.5194440000002,-77.2855529999999,0
			38.519165,-77.285835,0
			38.519165,-77.2867739999999,0
			38.519165,-77.2872239999999,0
			38.5192150000001,-77.287491,0
			38.5191540000002,-77.287788,0
			38.5190930000001,-77.2880939999999,0
			38.5189290000002,-77.2883529999999,0
			38.5188370000001,-77.288666,0
			38.518646,-77.288918,0
			38.5184170000001,-77.2891769999999,0
			38.518158,-77.2894439999999,0
			38.5178570000002,-77.2897189999999,0
			38.5175020000001,-77.2899699999999,0
			38.5170630000002,-77.290161,0
			38.5166170000001,-77.2903439999999,0
			38.5162160000001,-77.2906039999999,0
			38.5159070000001,-77.290985,0
			38.5157550000001,-77.2915119999999,0
			38.5157620000002,-77.2921449999999,0
			38.515816,-77.2928089999999,0
			38.5158270000001,-77.293495,0
			38.5157810000002,-77.294167,0
			38.5155790000001,-77.2947689999999,0
			38.5154110000001,-77.2953869999999,0
			38.5151600000001,-77.2959749999999,0
			38.5149540000001,-77.29657,0
			38.5147130000001,-77.297127,0
			38.5144460000002,-77.2976459999999,0
			38.5142140000002,-77.298164,0
			38.5141680000001,-77.298615,0
			38.5138890000001,-77.298615,0
			38.513332,-77.299164,0
			38.5130540000001,-77.299164,0
			38.5127790000001,-77.299446,0
			38.512501,-77.299446,0
			38.5122220000002,-77.2997209999999,0
			38.5119440000001,-77.2997209999999,0
			38.5116650000001,-77.3000029999999,0
			38.5116650000001,-77.3002779999999,0
			38.5113910000002,-77.3005519999999,0
			38.5113910000002,-77.3008349999999,0
			38.5116650000001,-77.3011089999999,0
			38.5113910000002,-77.301392,0
			38.5113910000002,-77.3016659999999,0
			38.5108340000001,-77.3022229999999,0
			38.5105550000001,-77.3022229999999,0
			38.5097240000001,-77.3030549999999,0
			38.5097240000001,-77.3033369999999,0
			38.5094450000001,-77.303612,0
			38.5086100000001,-77.30278,0
			38.5080570000002,-77.30278,0
			38.5075000000001,-77.3022229999999,0
			38.5072210000001,-77.3022229999999,0
			38.506943,-77.3019409999999,0
			38.5063900000001,-77.3019409999999,0
			38.5061110000001,-77.3016659999999,0
			38.5058330000001,-77.3016659999999,0
			38.505554,-77.301392,0
			38.5052800000001,-77.301392,0
			38.504444,-77.3005519999999,0
			38.5041660000001,-77.3005519999999,0
			38.5035591150001,-77.300003104,0
			38.5035726240001,-77.3007138909999,0
			38.503609,-77.302612,0
			38.504399683,-77.3035928579999,0
			38.504532,-77.3037569999999,0
			38.5054588310001,-77.3049087899999,0
			38.505111694,-77.310798644,0
			38.5038647410001,-77.310836495,0
			38.5028500000001,-77.310867,0
			38.5014990000001,-77.311493,0
			38.5010490000001,-77.312103,0
			38.5010600000002,-77.3126829999999,0
			38.5010706470001,-77.3132047059999,0
			38.5010720000001,-77.313271,0
			38.5015600000002,-77.315033,0
			38.5019036330001,-77.3160713989999,0
			38.5025215150001,-77.317939759,0
			38.5049095150001,-77.324920654,0
			38.50907898,-77.330093383,0
			38.5095405590001,-77.330673218,0
			38.5127712750001,-77.3421133529999,0
			38.5167880000001,-77.3563389999999,0
			38.518264317,-77.358624834,0
			38.518650056,-77.3592224129999,0
			38.5188791930001,-77.3596471559999,0
			38.519588,-77.360962,0
			38.520561,-77.364456,0
			38.519724169,-77.3679753029999,0
			38.5192910000001,-77.3697969999999,0
			38.5197595850001,-77.370376818,0
			38.52022171,-77.370948791,0
			38.5215988160001,-77.3720932009999,0
			38.5234298700001,-77.373207091,0
			38.5242801560001,-77.375891779,0
			38.525829,-77.380783,0
			38.5299433300001,-77.3851214969999,0
			38.535060882,-77.3905181879999,0
			38.548419953,-77.403076171,0
			38.5628395090001,-77.4244613649999,0
			38.5653002940001,-77.430149289,0
			38.566612,-77.433182,0
			38.5809400000002,-77.449852,0
			38.5802420000002,-77.462227,0
			38.5805255370001,-77.4632655509999,0
			38.5812,-77.4657359999999,0
			38.5870765960001,-77.470951832,0
			38.587638918,-77.4714509269999,0
			38.5899887090001,-77.476097107,0
			38.590465157,-77.483898956,0
			38.5905989880002,-77.4860918099999,0
			38.5896976070001,-77.4885696159999,0
			38.588001036,-77.4932329009999,0
			38.5861687220001,-77.4947072749999,0
			38.5781590000001,-77.5011519999999,0
			38.5545501710001,-77.5271072379999,0
			38.5570111760001,-77.529932779,0
			38.5605506890001,-77.5339965829999,0
			38.5714912420001,-77.5378265379999,0
			38.6035690300001,-77.5599365239999,0
			38.6979484550001,-77.624664307,0
			38.698406402,-77.624979705,0
			38.7483406070001,-77.6593704229999,0
			38.8092490800001,-77.702727818,0
			38.8284988400001,-77.7164306639999,0
			38.856159211,-77.7169265749999,0
			38.8688172160001,-77.7066055739999,0
			38.87184108,-77.7041399949999,0
			38.877595474,-77.7037697119999,0
			38.8867909330002,-77.7031780039999,0
			38.8752288820002,-77.687500001,0
			38.8977581940001,-77.6786729029999,0
			38.920261,-77.66745,0
			38.9369510000001,-77.6616969999999,0
			38.939981009,-77.6594950759999,0
			38.943679849,-77.6568071099999,0
			38.9421806350001,-77.647377014,0
			38.9425040300001,-77.643353957,0
			38.9425620000001,-77.6426319999999,0
			38.9425458390002,-77.6415700689999,0
			38.9424896240002,-77.6379013069999,0
			38.9355506890001,-77.6286087039999,0
			38.93364202,-77.6235818329999,0
			38.9317700510001,-77.6186521349999,0
			38.9212188720001,-77.61064148,0
			38.9158638390001,-77.608005362,0
			38.9120903020001,-77.6061477659999,0
			38.910272323,-77.604791065,0
			38.9097900390001,-77.6044311509999,0
			38.906581879,-77.6015624989999,0
			38.9028816230002,-77.596916199,0
			38.9005319510001,-77.591659954,0
			38.8984878780001,-77.5897363819999,0
			38.896850586,-77.5881957999999,0
			38.8934034920001,-77.5838887109999,0
			38.8931503300001,-77.583572389,0
			38.8914799960001,-77.577229532,0
			38.8888206490001,-77.567131043,0
			38.8861056120001,-77.5568074609999,0
			38.8849600030002,-77.552452011,0
			38.8848212260002,-77.5523902149999,0
			38.87994,-77.550217,0
			38.8708800000001,-77.550461,0
			38.8675578820001,-77.54990037,0
			38.8617897030001,-77.5489273079999,0
			38.8604360280001,-77.54932127,0
			38.8572807310001,-77.5502395619999,0
			38.8536109920001,-77.54737854,0
			38.8503913880002,-77.5445098879999,0
			38.8493919370002,-77.5386276249999,0
			38.847549438,-77.5369033819999,0
			38.8469782530001,-77.5365502429999,0
		</coordinates>
	</polygon>
</kml>
