<?xml version="1.0" encoding="UTF-8"?>
<kml xmlns="http://earth.google.com/kml/2.2">
	<polygon id="USA_IA_Guthrie" samplingProbability="1">
		<coordinates>
			41.5030517580001,-94.2427368169999,0
			41.5032386790002,-94.35925293,0
			41.5033302310001,-94.4732971189999,0
			41.503326416,-94.4999999999999,0
			41.5033187880001,-94.5879669189999,0
			41.5032119750001,-94.701408386,0
			41.6007995610001,-94.7024688719999,0
			41.6008491530001,-94.7454528819999,0
			41.6875495910001,-94.7457733149999,0
			41.775169374,-94.7466964719999,0
			41.860980988,-94.7476196279999,0
			41.8616104120001,-94.62991333,0
			41.861660004,-94.5158767689999,0
			41.8617172250001,-94.4999999999999,0
			41.8620719910002,-94.398788452,0
			41.8623695380002,-94.2835388189999,0
			41.8623809810001,-94.2810668939999,0
			41.7756614690002,-94.2813415539999,0
			41.6871299740001,-94.2809677119998,0
			41.5999603270001,-94.281219483,0
			41.5992889400001,-94.2419204719999,0
			41.5030517580001,-94.2427368169999,0
		</coordinates>
	</polygon>
</kml>
