<?xml version="1.0" encoding="UTF-8"?>
<kml xmlns="http://earth.google.com/kml/2.2">
	<polygon id="USA_IA_Buena_Vista" samplingProbability="1">
		<coordinates>
			42.5601501470001,-95.388366698,0
			42.6465187070002,-95.3888702389999,0
			42.734279632,-95.3875198359999,0
			42.8506698610001,-95.3881912229999,0
			42.9093284600001,-95.387916565,0
			42.909610748,-95.2708969109999,0
			42.9093284600001,-95.1532592759999,0
			42.9093894950001,-95.0362472529999,0
			42.9084701540002,-94.9160919179998,0
			42.8202590940001,-94.9161605829999,0
			42.733409882,-94.916893005,0
			42.6461410520001,-94.9163360589999,0
			42.5602416990002,-94.9152069089999,0
			42.5607109070001,-95.034751893,0
			42.5610885620002,-95.151817321,0
			42.560890197,-95.270721435,0
			42.5601501470001,-95.388366698,0
		</coordinates>
	</polygon>
</kml>
