<?xml version="1.0" encoding="UTF-8"?>
<kml xmlns="http://earth.google.com/kml/2.2">
	<polygon id="USA_NM" samplingProbability="1">
		<coordinates>
			31.7839553690001,-107.000610085,0
			31.7838827450001,-107.042157799,0
			31.7838506450001,-107.108990899,0
			31.7837867930002,-107.178543426,0
			31.7837858410001,-107.18368896,0
			31.7837857210001,-107.184284087,0
			31.7837483070002,-107.258806403,0
			31.7839498180001,-107.307654317,0
			31.7839172970001,-107.333923292,0
			31.7838190160001,-107.342478728,0
			31.783950765,-107.361844895,0
			31.7839362160001,-107.372258545,0
			31.7839344510001,-107.373491966,0
			31.7838574240002,-107.420714013,0
			31.7839384750001,-107.511995578,0
			31.7837136960001,-107.583459527,0
			31.7837096160001,-107.584673329,0
			31.7836579110001,-107.599833028,0
			31.7837293880001,-107.610493261,0
			31.78369238,-107.617947799,0
			31.7836945250002,-107.619077536,0
			31.7836984620002,-107.621161859,0
			31.783704738,-107.624512481,0
			31.7837068420002,-107.625644151,0
			31.7837110740002,-107.62793188,0
			31.7837041500001,-107.629028179,0
			31.7837047260002,-107.632324194,0
			31.7836909440001,-107.635981589,0
			31.7837072530001,-107.637752431,0
			31.7837097030002,-107.63836655,0
			31.7837125180001,-107.639072632,0
			31.783710403,-107.639627753,0
			31.7837068280002,-107.640564989,0
			31.7837030130001,-107.641563595,0
			31.7837005170001,-107.642216205,0
			31.7837053010002,-107.642628931,0
			31.7837151570001,-107.64347927,0
			31.7837145380001,-107.643700926,0
			31.7837115780001,-107.644760624,0
			31.7837087480002,-107.645771604,0
			31.7837049650001,-107.647119141,0
			31.7837027520002,-107.647905648,0
			31.7837044530001,-107.649125138,0
			31.7837051920001,-107.649656333,0
			31.7837285780002,-107.651908247,0
			31.783720917,-107.652135712,0
			31.7836871570001,-107.653137984,0
			31.7837048060002,-107.656584696,0
			31.7837007710001,-107.660869728,0
			31.7836210510001,-107.66724699,0
			31.7836222660001,-107.667712666,0
			31.7833689420001,-107.706802278,0
			31.783254162,-107.723930854,0
			31.7832566110001,-107.724633459,0
			31.7832608140001,-107.725841136,0
			31.7834175720001,-107.773532536,0
			31.7834186140001,-107.818972553,0
			31.7833214400001,-107.856354982,0
			31.78331846,-107.857453104,0
			31.7832166680001,-107.892654255,0
			31.783177058,-107.905513877,0
			31.7832595400001,-107.917116542,0
			31.7834917580001,-107.950616677,0
			31.7834331040001,-107.968471883,0
			31.7831861550002,-108.000607595,0
			31.7837549230002,-108.195991806,0
			31.7837540080002,-108.208373456,0
			31.7158618740002,-108.208291156,0
			31.7085722950001,-108.208494975,0
			31.6478361220001,-108.208493307,0
			31.5917003700002,-108.207505732,0
			31.5908641470002,-108.20750915,0
			31.5472056810001,-108.207687476,0
			31.542503335,-108.20770658,0
			31.50007963,-108.207865158,0
			31.4978452980001,-108.207873464,0
			31.4969696540001,-108.207876721,0
			31.4964220750002,-108.207878746,0
			31.4495005520002,-108.208052162,0
			31.4310830410002,-108.208119703,0
			31.4305814900002,-108.208121518,0
			31.3406474130001,-108.208446827,0
			31.3333633420002,-108.208473175,0
			31.3333634120002,-108.20849257,0
			31.3336766410001,-108.304878809,0
			31.3335919360001,-108.330122215,0
			31.3332846000001,-108.333903016,0
			31.3330591730002,-108.345651611,0
			31.3330118390001,-108.370409572,0
			31.3330886990001,-108.38220597,0
			31.3330916570002,-108.382662637,0
			31.3333851690001,-108.428965237,0
			31.3334404300002,-108.49521126,0
			31.3334407190001,-108.495667362,0
			31.3334447130001,-108.502174155,0
			31.3333610640001,-108.574904488,0
			31.3333603280001,-108.575442031,0
			31.3333164520002,-108.605389777,0
			31.3333142390001,-108.606900089,0
			31.3334708450001,-108.667248165,0
			31.3331959130001,-108.690815539,0
			31.3331715800001,-108.692883507,0
			31.3329722240001,-108.70958092,0
			31.3324190120002,-108.755916144,0
			31.3323266400002,-108.771441271,0
			31.3321545120002,-108.800371058,0
			31.3322114280001,-108.813924626,0
			31.332278595,-108.830377954,0
			31.3322937840001,-108.856896773,0
			31.3323282900001,-108.904230714,0
			31.3323284340001,-108.90442782,0
			31.3323305780002,-108.908489211,0
			31.3322079450001,-108.956978,0
			31.3323082470002,-108.971512701,0
			31.3325869820001,-109.01322955,0
			31.33281627,-109.049974926,0
			31.3699111940001,-109.050071716,0
			31.3808612820001,-109.050102234,0
			31.4360198970001,-109.04989624,0
			31.4497203830002,-109.049842835,0
			31.4862403870001,-109.049713134,0
			31.5060005180002,-109.049446106,0
			31.571741104,-109.04978943,0
			31.59444046,-109.049606324,0
			31.6100902560001,-109.049476623,0
			31.911151886,-109.048789978,0
			31.9407901770002,-109.048706054,0
			31.959220886,-109.048652649,0
			31.9747409830001,-109.048637391,0
			32.039058685,-109.048591614,0
			32.0744514460002,-109.048561097,0
			32.2513809210002,-109.048149108,0
			32.2659797680001,-109.048118592,0
			32.3111114500001,-109.048019409,0
			32.3256912230001,-109.047988891,0
			32.3576011660001,-109.047920227,0
			32.386558533,-109.047851562,0
			32.4015998850002,-109.047828675,0
			32.4059295660001,-109.047821045,0
			32.425071716,-109.047798157,0
			32.5987091070002,-109.047592162,0
			32.6636810310002,-109.04750824,0
			32.6896591190001,-109.047439575,0
			32.746341705,-109.047447205,0
			32.7812385550001,-109.047447205,0
			32.8488197320001,-109.047096253,0
			32.8673400870001,-109.047088623,0
			32.8925514230002,-109.047096253,0
			32.897399903,-109.047142028,0
			32.9057617200001,-109.047218322,0
			32.9274597170001,-109.047172547,0
			32.9358215340002,-109.047180175,0
			32.9484291070002,-109.04701233,0
			32.977729798,-109.046981811,0
			33.2098197930001,-109.04675293,0
			33.2381706240002,-109.046691895,0
			33.4756507870001,-109.046707153,0
			33.4889602660001,-109.046707153,0
			33.6089897150001,-109.046760558,0
			33.7756195060002,-109.046699525,0
			33.820201875,-109.046676636,0
			34.0516090390001,-109.046623229,0
			34.0967292780001,-109.046546936,0
			34.1389198300001,-109.046768188,0
			34.2121200570001,-109.046417237,0
			34.2416687020001,-109.046279908,0
			34.2625999450001,-109.046180726,0
			34.2863006590002,-109.046066285,0
			34.301750183,-109.045936584,0
			34.3085098270001,-109.045890807,0
			34.3235206600002,-109.045982361,0
			34.3507919310002,-109.046150207,0
			34.3816986090002,-109.046348571,0
			34.3908691410001,-109.046401978,0
			34.3967018120001,-109.046348571,0
			34.5012512210002,-109.046173095,0
			34.5226593020002,-109.046081543,0
			34.5613021850002,-109.045936584,0
			34.571750642,-109.045898438,0
			34.5799522410002,-109.045867921,0
			34.5862998960002,-109.045837402,0
			34.591709137,-109.045822144,0
			34.6012802130001,-109.045822144,0
			34.8171195980001,-109.04574585,0
			34.845729828,-109.04574585,0
			34.8711891180001,-109.045791625,0
			34.9611206050002,-109.045837402,0
			35.1660003660002,-109.045761109,0
			35.1796112060001,-109.04574585,0
			35.1941490170001,-109.04573822,0
			35.2077713010002,-109.045722962,0
			35.2227592480001,-109.045722962,0
			35.2359313970001,-109.045700073,0
			35.3531112660002,-109.045578003,0
			35.6636695860001,-109.045722962,0
			36.0059509280002,-109.045166016,0
			36.0168113710002,-109.045158386,0
			36.680648804,-109.04498291,0
			36.7759094250002,-109.044937135,0
			36.9986305240002,-109.044876099,0
			36.9983787540002,-108.536216737,0
			36.998310089,-108.379989624,0
			36.9980010990001,-108.250877381,0
			36.9978904720001,-108.159233094,0
			36.9977607730001,-108.126373292,0
			36.9976196290001,-108.090621949,0
			36.9974098220001,-108.037612915,0
			36.9972610470001,-108.000709533,0
			36.9971199030002,-107.964981079,0
			36.9974098220001,-107.947128295,0
			36.9976119990002,-107.877388,0
			36.9978904720001,-107.859527588,0
			36.998371124,-107.703941345,0
			36.998619081,-107.686080933,0
			36.998939514,-107.522987365,0
			36.9990806580001,-107.478042602,0
			36.999328614,-107.418685913,0
			36.9993515020001,-107.414657594,0
			36.9992408750002,-107.408317567,0
			36.9990806580001,-107.399085999,0
			36.9994201660002,-107.371437073,0
			36.9990806580001,-107.190483094,0
			36.9990119940001,-107.034317016,0
			36.9990005490002,-107.000320436,0
			36.9991302500001,-106.98072815,0
			36.9990501410002,-106.96573639,0
			36.998939514,-106.946731567,0
			36.999038696,-106.878738403,0
			36.9954299940001,-106.875236512,0
			36.9922790540001,-106.871742248,0
			36.9925193800001,-106.837753296,0
			36.9926490790001,-106.819313049,0
			36.992671967,-106.814132691,0
			36.993320465,-106.617652894,0
			36.9933815,-106.600936889,0
			36.9935188290001,-106.492630006,0
			36.9935913080001,-106.47592163,0
			36.9948005670001,-106.202239991,0
			36.995151521,-106.160758972,0
			36.9953117380001,-106.14289093,0
			36.9954719540002,-106.127326965,0
			36.9956588750001,-106.108901977,0
			36.9960289000001,-106.072029114,0
			36.9966011040001,-106.015556335,0
			36.9966697700002,-106.00679779,0
			36.9967193600002,-105.999999999,0
			36.9971809390001,-105.874389648,0
			36.9971504220001,-105.855377197,0
			36.996990204,-105.757423402,0
			36.9969215390001,-105.718818665,0
			36.996089935,-105.219833374,0
			36.995830535,-105.143196105,0
			36.995681763,-105.101142884,0
			36.9954490670001,-105.065986634,0
			36.993370057,-105.032600402,0
			36.992969514,-104.331336974,0
			36.9958496090001,-104.184890747,0
			36.9966316230001,-104.006790161,0
			36.9987907410001,-103.086166381,0
			36.9989891060002,-103.000869752,0
			36.9340591430002,-103.000831605,0
			36.764339448,-103.000732423,0
			36.673240661,-103.000671387,0
			36.5905303960001,-103.000656127,0
			36.5012893690001,-103.000656127,0
			36.500469208,-103.040779114,0
			36.3977088930002,-103.040122986,0
			36.2749290470002,-103.039337157,0
			36.2331886290002,-103.039718628,0
			36.113620758,-103.040779114,0
			36.055980682,-103.040786743,0
			35.7407608040002,-103.040878297,0
			35.7394104000002,-103.040878297,0
			35.622451782,-103.040885925,0
			35.1860504150001,-103.042098999,0
			35.184570313,-103.042098999,0
			34.9534721370001,-103.042610168,0
			34.78073883,-103.042358399,0
			34.747211457,-103.042381287,0
			34.367630005,-103.042648315,0
			34.309978486,-103.042396545,0
			34.3021698000002,-103.042411804,0
			34.1058197020001,-103.042762757,0
			34.0971412670002,-103.043136597,0
			34.091690064,-103.043380737,0
			34.0589294440002,-103.044807434,0
			34.0221405030001,-103.044677735,0
			34.0007095340001,-103.04270935,0
			33.8947486880001,-103.045166015,0
			33.8493499760001,-103.046226502,0
			33.823749542,-103.046852112,0
			33.749980927,-103.048667907,0
			33.6402206420001,-103.051361083,0
			33.5738220220001,-103.05252838,0
			33.3903198240001,-103.055915832,0
			33.2089614880002,-103.059272766,0
			33.0017395020001,-103.063171386,0
			32.9589309690001,-103.063217163,0
			32.5215187070001,-103.063652039,0
			32.0856208810002,-103.064079284,0
			31.9996395120001,-103.064163208,0
			32.0006408690001,-103.308403015,0
			32.0007095350001,-103.326538085,0
			32.0007591250001,-103.339416504,0
			32.0007896440001,-103.378112792,0
			32.0008316030001,-103.395401002,0
			32.0015411390002,-103.71636963,0
			32.0010604860001,-103.957366943,0
			32.000980378,-103.975723266,0
			32.0010185240002,-103.99357605,0
			32.0010299680001,-104.000061036,0
			32.0010299680001,-104.001136779,0
			32.0010299680001,-104.010871887,0
			32.0010185240002,-104.026542664,0
			32.0010490410001,-104.028152465,0
			32.0012321470002,-104.061653137,0
			32.0017089840001,-104.147537231,0
			32.0023612980001,-104.401351928,0
			32.0032005320001,-104.731300354,0
			32.0032386780002,-104.746681214,0
			32.0031013500002,-104.829879761,0
			32.0030708310001,-104.846626283,0
			32.0030403140001,-104.861206054,0
			32.00294876,-104.911453248,0
			32.0029411320001,-104.920051576,0
			32.0029220590002,-104.928199768,0
			32.0028800970001,-104.94494629,0
			32.0030288690002,-104.960617065,0
			32.0025711070001,-105.011405944,0
			32.0027503980001,-105.027618409,0
			32.0029296870001,-105.043930053,0
			32.0026588440002,-105.060142518,0
			32.0027885450002,-105.077461242,0
			32.0024795530002,-105.144515992,0
			32.0024604800001,-105.152076721,0
			32.0023689280002,-105.164291381,0
			32.00220871,-105.185272217,0
			32.001979827,-105.214538575,0
			32.0017204300001,-105.248573303,0
			32.0016784680001,-105.253433228,0
			32.0017395030001,-105.26185608,0
			32.001979827,-105.301506043,0
			32.0021286010001,-105.317718505,0
			32.002288819,-105.334953308,0
			32.0018997190002,-105.352783203,0
			32.001979827,-105.37010193,0
			32.0023002620002,-105.42035675,0
			32.0024108900001,-105.437217712,0
			32.002059936,-105.453971863,0
			32.0021209710002,-105.471298217,0
			32.0024108900001,-105.521636963,0
			32.00220871,-105.571952821,0
			32.002170563,-105.621856689,0
			32.0022201530001,-105.639137269,0
			32.0017890930001,-105.646713257,0
			32.0018501280001,-105.666152955,0
			32.0019912730001,-105.716926574,0
			32.0020294190001,-105.733673096,0
			32.001628876,-105.754753112,0
			32.0016212470001,-105.773750305,0
			32.0017089840001,-105.795257568,0
			32.001831055,-105.822807311,0
			32.0018997190002,-105.839256287,0
			32.0018920900001,-105.862236023,0
			32.0018920900001,-105.878982543,0
			32.001880645,-105.928146362,0
			32.001880645,-105.944358826,0
			32.0019721990001,-105.997833252,0
			32.002048493,-106.043861389,0
			32.0022506720002,-106.16620636,0
			32.0021209710002,-106.221397401,0
			32.0018196120002,-106.313980102,0
			32.0017318730002,-106.373268128,0
			32.001449585,-106.457527161,0
			32.0013885490001,-106.474281311,0
			32.0013389590001,-106.490982056,0
			32.0011215220002,-106.540733337,0
			32.0010490410001,-106.558006287,0
			32.0009689320001,-106.575965881,0
			32.0011711120002,-106.619300842,0
			31.9979801170001,-106.619026184,0
			31.9960098270001,-106.621582031,0
			31.9951305390002,-106.626571655,0
			31.9936504370001,-106.630592346,0
			31.9914512640001,-106.633026122,0
			31.987760543,-106.636222839,0
			31.9872894290001,-106.636436462,0
			31.9832096100001,-106.63835907,0
			31.9791011820002,-106.638870239,0
			31.9763793950002,-106.636688231,0
			31.9754905710001,-106.632896423,0
			31.9754505160001,-106.629081727,0
			31.9757099160001,-106.624778748,0
			31.9750194560002,-106.620925903,0
			31.9737510690001,-106.61830902,0
			31.9724807750002,-106.617469788,0
			31.968809128,-106.617706299,0
			31.9659500110002,-106.619636535,0
			31.9650611870002,-106.622016906,0
			31.963220596,-106.624702454,0
			31.960960388,-106.626800538,0
			31.9577102650002,-106.627616881,0
			31.9554710400001,-106.62626648,0
			31.9547195430002,-106.62412262,0
			31.95487976,-106.621429444,0
			31.9564304350002,-106.61830902,0
			31.9565906530001,-106.615615844,0
			31.9543781290002,-106.614356995,0
			31.953470231,-106.614280701,0
			31.9515628820002,-106.615753173,0
			31.950101853,-106.617248535,0
			31.9467506410001,-106.619667054,0
			31.9436397560001,-106.621307373,0
			31.9399909970001,-106.621826172,0
			31.9356212620002,-106.622543336,0
			31.9333114620002,-106.622886657,0
			31.9318504330001,-106.624397278,0
			31.9303607940001,-106.626426698,0
			31.9290008550001,-106.628746032,0
			31.9271717070001,-106.630355835,0
			31.9251308440001,-106.62979126,0
			31.9244403840001,-106.628181458,0
			31.9249610900001,-106.624908447,0
			31.9247303020002,-106.621101379,0
			31.9244995120001,-106.618469238,0
			31.9236011520002,-106.616836548,0
			31.9218902590001,-106.614921569,0
			31.9196205150001,-106.614730835,0
			31.9181594840001,-106.616226197,0
			31.916641236,-106.618812561,0
			31.915359498,-106.622177124,0
			31.9148597720001,-106.625686646,0
			31.9134902960001,-106.629707337,0
			31.9121398920001,-106.633049011,0
			31.9090900420002,-106.638198852,0
			31.9047107690001,-106.642707826,0
			31.9020080570001,-106.644187928,0
			31.8988094330002,-106.64578247,0
			31.896530151,-106.645233154,0
			31.8942604070002,-106.643051147,0
			31.892009736,-106.639259339,0
			31.8908329010001,-106.637771607,0
			31.886510849,-106.633628845,0
			31.8829307560001,-106.631629944,0
			31.879810333,-106.630912781,0
			31.8760700220001,-106.632217407,0
			31.8728828430001,-106.634246827,0
			31.8700504300001,-106.635696412,0
			31.869449617,-106.636001587,0
			31.8672695170002,-106.63420105,0
			31.8633174900001,-106.630943299,0
			31.8508701330001,-106.617706299,0
			31.8451900480002,-106.610305785,0
			31.8451404580002,-106.606430053,0
			31.8453311920002,-106.60320282,0
			31.8440895080001,-106.600936889,0
			31.8409004210001,-106.600677491,0
			31.838401794,-106.601097106,0
			31.8342895520001,-106.601600647,0
			31.830190659,-106.60157013,0
			31.828531265,-106.601272584,0
			31.8254394540001,-106.599403382,0
			31.8247394570002,-106.596130371,0
			31.8253307340001,-106.593437195,0
			31.824369432,-106.59072113,0
			31.8237628940001,-106.588996887,0
			31.8220596310001,-106.58695221,0
			31.82036972,-106.584396363,0
			31.8160495770001,-106.58026123,0
			31.8116207120001,-106.577171325,0
			31.810930252,-106.573898316,0
			31.8102111810002,-106.570602417,0
			31.8107490540002,-106.567466735,0
			31.8115005490001,-106.564216613,0
			31.8119411470001,-106.561767578,0
			31.8120803840002,-106.56048584,0
			31.8121604920001,-106.5597229,0
			31.8121910090002,-106.554542542,0
			31.8117504130001,-106.55076599,0
			31.80811119,-106.543960571,0
			31.8063182830001,-106.541572571,0
			31.8047199260001,-106.539360046,0
			31.8003311160001,-106.53630066,0
			31.7963218700002,-106.533416747,0
			31.7947006220002,-106.530982971,0
			31.7929992670001,-106.528686523,0
			31.7917900080002,-106.527465821,0
			31.7899703980001,-106.526367187,0
			31.7886009210002,-106.526367187,0
			31.786769867,-106.527427674,0
			31.7844905860002,-106.529029846,0
			31.7838188390001,-106.529132126,0
			31.7838844290001,-106.557942535,0
			31.783907264,-106.568720904,0
			31.7839650920001,-106.598223154,0
			31.783998255,-106.616963398,0
			31.7840737280002,-106.667305575,0
			31.7840723030001,-106.668096547,0
			31.7840443930002,-106.683069328,0
			31.784009596,-106.719651676,0
			31.783970826,-106.741675459,0
			31.7838906860001,-106.781667465,0
			31.7838867340001,-106.783405588,0
			31.7838255980001,-106.81029487,0
			31.7838426150001,-106.867678416,0
			31.783842626,-106.867831752,0
			31.783839235,-106.907423494,0
			31.78374373,-106.973863606,0
			31.7838918930001,-106.992492732,0
			31.7839553690001,-107.000610085,0
		</coordinates>
	</polygon>
</kml>
