<?xml version="1.0" encoding="UTF-8"?>
<kml xmlns="http://earth.google.com/kml/2.2">
	<polygon id="Cayman_Islands_West_Bay" samplingProbability="1">
		<coordinates>
			19.3268051150002,-81.3684692389999,0
			19.3266887670002,-81.382919311,0
			19.3268051150002,-81.382919311,0
			19.3268051150002,-81.382637025,0
			19.3273601540002,-81.382637025,0
			19.3273601540002,-81.382919311,0
			19.3281936650002,-81.382919311,0
			19.3281936650002,-81.382637025,0
			19.329027177,-81.382637025,0
			19.329027177,-81.3823623649999,0
			19.3295822150001,-81.3823623649999,0
			19.3295822150001,-81.3820800789999,0
			19.330139161,-81.3820800789999,0
			19.330139161,-81.3818054209999,0
			19.3345832820001,-81.3818054209999,0
			19.3345832820001,-81.3815307609999,0
			19.335418701,-81.3815307609999,0
			19.335418701,-81.3812484749998,0
			19.3362503050001,-81.3812484749998,0
			19.3362503050001,-81.3818054209999,0
			19.3370838170001,-81.3818054209999,0
			19.3370838170001,-81.3815307609999,0
			19.3376388550001,-81.3815307609999,0
			19.3376388550001,-81.3818054209999,0
			19.3393058780001,-81.3818054209999,0
			19.3393058780001,-81.3820800789999,0
			19.339582444,-81.3820800789999,0
			19.339582444,-81.3818054209999,0
			19.3404159550001,-81.3818054209999,0
			19.3404159550001,-81.3815307609999,0
			19.3420810710001,-81.3815307609999,0
			19.3420810710001,-81.3818054209999,0
			19.3426380170002,-81.3818054209999,0
			19.3426380170002,-81.3820800789999,0
			19.3443031300002,-81.3820800789999,0
			19.3443031300002,-81.3823623649999,0
			19.3445854190002,-81.3823623649999,0
			19.3445854190002,-81.382637025,0
			19.3454151150001,-81.382637025,0
			19.3454151150001,-81.382919311,0
			19.3456954960001,-81.382919311,0
			19.3456954960001,-81.3831939689999,0
			19.348472596,-81.3831939689999,0
			19.348472596,-81.3834686289999,0
			19.3487491610001,-81.3834686289999,0
			19.3487491610001,-81.3840255729999,0
			19.3490276340001,-81.3840255729999,0
			19.3490276340001,-81.3843078609999,0
			19.3493061070001,-81.3843078609999,0
			19.3493061070001,-81.3840255729999,0
			19.3498611460001,-81.3840255729999,0
			19.3498611460001,-81.3843078609999,0
			19.350416184,-81.3843078609999,0
			19.350416184,-81.3845825189999,0
			19.3509731300001,-81.3845825189999,0
			19.3509731300001,-81.384864807,0
			19.3515281690001,-81.384864807,0
			19.3515281690001,-81.3851394649999,0
			19.351804734,-81.3851394649999,0
			19.351804734,-81.385414123,0
			19.3523616800001,-81.385414123,0
			19.3523616800001,-81.385696411,0
			19.3526382460001,-81.385696411,0
			19.3526382460001,-81.3862533569999,0
			19.3531951920002,-81.3862533569999,0
			19.3531951920002,-81.386528015,0
			19.353471757,-81.386528015,0
			19.353471757,-81.3868026729999,0
			19.3537502280001,-81.3868026729999,0
			19.3537502280001,-81.386528015,0
			19.3540287010001,-81.386528015,0
			19.3540287010001,-81.3868026729999,0
			19.3545837400001,-81.3868026729999,0
			19.3545837400001,-81.386528015,0
			19.355693817,-81.386528015,0
			19.355693817,-81.3868026729999,0
			19.3559722900001,-81.3868026729999,0
			19.3559722900001,-81.3870849609999,0
			19.3562507630001,-81.3870849609999,0
			19.3562507630001,-81.3873596189999,0
			19.3570823670001,-81.3873596189999,0
			19.3570823670001,-81.387641907,0
			19.3573608400002,-81.387641907,0
			19.3573608400002,-81.3879165649999,0
			19.357639313,-81.3879165649999,0
			19.357639313,-81.388191223,0
			19.3579158780001,-81.388191223,0
			19.3579158780001,-81.388473511,0
			19.3587493900001,-81.388473511,0
			19.3587493900001,-81.3887481689999,0
			19.359027863,-81.3887481689999,0
			19.359027863,-81.389030457,0
			19.3598613740002,-81.389030457,0
			19.3598613740002,-81.3895797729999,0
			19.3601379400001,-81.3895797729999,0
			19.3601379400001,-81.3898620609999,0
			19.3604145050002,-81.3898620609999,0
			19.3604145050002,-81.3904190069999,0
			19.3609714510001,-81.3904190069999,0
			19.3609714510001,-81.3906936649999,0
			19.3615283970001,-81.3906936649999,0
			19.3615283970001,-81.3909759529999,0
			19.3618068700002,-81.3909759529999,0
			19.3618068700002,-81.391250611,0
			19.3623619090002,-81.391250611,0
			19.3623619090002,-81.3918075569999,0
			19.3620834360001,-81.3918075569999,0
			19.3620834360001,-81.392082215,0
			19.3629188550001,-81.392082215,0
			19.3629188550001,-81.392364501,0
			19.3631935130001,-81.392364501,0
			19.3631935130001,-81.3926391609999,0
			19.3634719860001,-81.3926391609999,0
			19.3634719860001,-81.3931961049998,0
			19.3637504590001,-81.3931961049998,0
			19.3637504590001,-81.3937530509999,0
			19.364305497,-81.3937530509999,0
			19.364305497,-81.3940277089999,0
			19.3645839700001,-81.3940277089999,0
			19.3645839700001,-81.3943023689999,0
			19.364860536,-81.3943023689999,0
			19.364860536,-81.394584655,0
			19.3651409140002,-81.394584655,0
			19.3651409140002,-81.394859313,0
			19.3654174800001,-81.394859313,0
			19.3654174800001,-81.395141601,0
			19.365694045,-81.395141601,0
			19.365694045,-81.3956909169999,0
			19.365972518,-81.3956909169999,0
			19.365972518,-81.3962478629999,0
			19.366249084,-81.3962478629999,0
			19.366249084,-81.3965301509999,0
			19.366527557,-81.3965301509999,0
			19.366527557,-81.3970870969998,0
			19.3668060300001,-81.3970870969998,0
			19.3668060300001,-81.397636413,0
			19.3670825950002,-81.397636413,0
			19.3670825950002,-81.3984756469999,0
			19.3673591610001,-81.3984756469999,0
			19.3673591610001,-81.3995819089998,0
			19.3676395410001,-81.3995819089998,0
			19.3676395410001,-81.3998641969998,0
			19.367916107,-81.3998641969998,0
			19.367916107,-81.400413513,0
			19.3681945800001,-81.400413513,0
			19.3681945800001,-81.401527405,0
			19.3687496180002,-81.401527405,0
			19.3687496180002,-81.4018020629999,0
			19.3690280910002,-81.4018020629999,0
			19.3690280910002,-81.4020843509999,0
			19.3693046570002,-81.4020843509999,0
			19.3693046570002,-81.4023590089998,0
			19.369581222,-81.4023590089998,0
			19.369581222,-81.4029159549999,0
			19.3698616030001,-81.4029159549999,0
			19.3698616030001,-81.403747559,0
			19.3701381680001,-81.403747559,0
			19.3701381680001,-81.4056930529999,0
			19.3704166410001,-81.4056930529999,0
			19.3704166410001,-81.4084701529999,0
			19.3706932070001,-81.4084701529999,0
			19.3706932070001,-81.4109725949999,0
			19.3704166410001,-81.4109725949999,0
			19.3704166410001,-81.413192749,0
			19.3701381680001,-81.413192749,0
			19.3701381680001,-81.4137496949999,0
			19.3704166410001,-81.4137496949999,0
			19.3704166410001,-81.4148635849999,0
			19.3701381680001,-81.4148635849999,0
			19.3701381680001,-81.4156951909999,0
			19.3704166410001,-81.4156951909999,0
			19.3704166410001,-81.4165267949999,0
			19.3706932070001,-81.4165267949999,0
			19.3706932070001,-81.4173583989999,0
			19.3709716800001,-81.4173583989999,0
			19.3709716800001,-81.4179153429999,0
			19.3712501530002,-81.4179153429999,0
			19.3712501530002,-81.4195861819999,0
			19.3720855720001,-81.4195861819999,0
			19.3720855720001,-81.419860839,0
			19.3726387030001,-81.419860839,0
			19.3726387030001,-81.4201354969999,0
			19.3740253450001,-81.4201354969999,0
			19.3740253450001,-81.419860839,0
			19.3765277850001,-81.419860839,0
			19.3765277850001,-81.4195861819999,0
			19.376806259,-81.4195861819999,0
			19.376806259,-81.4193038929999,0
			19.3770828240001,-81.4193038929999,0
			19.3770828240001,-81.419029235,0
			19.3776397700001,-81.419029235,0
			19.3776397700001,-81.418746947,0
			19.3784713740002,-81.418746947,0
			19.3784713740002,-81.418472289,0
			19.3790283200001,-81.418472289,0
			19.3790283200001,-81.418197632,0
			19.3795833590001,-81.418197632,0
			19.3795833590001,-81.4179153429999,0
			19.38041687,-81.4179153429999,0
			19.38041687,-81.4176406849999,0
			19.380971909,-81.4176406849999,0
			19.380971909,-81.4173583989999,0
			19.38180542,-81.4173583989999,0
			19.38180542,-81.417083739,0
			19.3826389320001,-81.417083739,0
			19.3826389320001,-81.4168090819999,0
			19.3831920630001,-81.4168090819999,0
			19.3831920630001,-81.4165267949999,0
			19.383752824,-81.4165267949999,0
			19.383752824,-81.416252135,0
			19.384027482,-81.416252135,0
			19.384027482,-81.415969849,0
			19.3845825200001,-81.415969849,0
			19.3845825200001,-81.4156951909999,0
			19.3851394660002,-81.4156951909999,0
			19.3851394660002,-81.415138245,0
			19.385414124,-81.415138245,0
			19.385414124,-81.4145812989999,0
			19.3856964120001,-81.4145812989999,0
			19.3856964120001,-81.4143066409999,0
			19.3859748850001,-81.4143066409999,0
			19.3859748850001,-81.4137496949999,0
			19.3862495430001,-81.4137496949999,0
			19.3862495430001,-81.413192749,0
			19.3865280160001,-81.413192749,0
			19.3865280160001,-81.4129180909999,0
			19.386806489,-81.4129180909999,0
			19.386806489,-81.412361145,0
			19.3870830550001,-81.412361145,0
			19.3870830550001,-81.4118041989999,0
			19.386806489,-81.4118041989999,0
			19.386806489,-81.4112472529999,0
			19.3870830550001,-81.4112472529999,0
			19.3870830550001,-81.410697937,0
			19.387361528,-81.410697937,0
			19.387361528,-81.409584045,0
			19.3876361860002,-81.409584045,0
			19.3876361860002,-81.409301757,0
			19.3879165660001,-81.409301757,0
			19.3879165660001,-81.408752441,0
			19.3881969450001,-81.408752441,0
			19.3881969450001,-81.4081954949999,0
			19.3887500760001,-81.4081954949999,0
			19.3887500760001,-81.4079132069999,0
			19.3890285490002,-81.4079132069999,0
			19.3890285490002,-81.4073638909999,0
			19.3893051140001,-81.4073638909999,0
			19.3893051140001,-81.4062499989999,0
			19.3898620600002,-81.4062499989999,0
			19.3898620600002,-81.405975341,0
			19.3895835870001,-81.405975341,0
			19.3895835870001,-81.4056930529999,0
			19.3898620600002,-81.4056930529999,0
			19.3898620600002,-81.404861449,0
			19.3901386260001,-81.404861449,0
			19.3901386260001,-81.404304505,0
			19.390693664,-81.404304505,0
			19.390693664,-81.403472901,0
			19.3909721370001,-81.403472901,0
			19.3909721370001,-81.4029159549999,0
			19.3912506100001,-81.4029159549999,0
			19.3912506100001,-81.401527405,0
			19.3915271760001,-81.401527405,0
			19.3915271760001,-81.400970459,0
			19.3918056490001,-81.400970459,0
			19.3918056490001,-81.400413513,0
			19.3920841220001,-81.400413513,0
			19.3920841220001,-81.3993072509999,0
			19.3923606870002,-81.3993072509999,0
			19.3923606870002,-81.3990249629999,0
			19.39263916,-81.3990249629999,0
			19.39263916,-81.398750305,0
			19.3929157260002,-81.398750305,0
			19.3929157260002,-81.3984756469999,0
			19.393194199,-81.3984756469999,0
			19.393194199,-81.397918701,0
			19.3934726720001,-81.397918701,0
			19.3934726720001,-81.397361755,0
			19.3937492370001,-81.397361755,0
			19.3937492370001,-81.3965301509999,0
			19.39402771,-81.3965301509999,0
			19.39402771,-81.395973205,0
			19.394306183,-81.395973205,0
			19.394306183,-81.394859313,0
			19.394582749,-81.394859313,0
			19.394582749,-81.3937530509999,0
			19.394861222,-81.3937530509999,0
			19.394861222,-81.392364501,0
			19.3951396950001,-81.392364501,0
			19.3951396950001,-81.3918075569999,0
			19.3954162600002,-81.3918075569999,0
			19.3954162600002,-81.3904190069999,0
			19.395694733,-81.3904190069999,0
			19.395694733,-81.3898620609999,0
			19.3959712990002,-81.3898620609999,0
			19.3959712990002,-81.389305115,0
			19.396249772,-81.389305115,0
			19.396249772,-81.3887481689999,0
			19.3965282450001,-81.3887481689999,0
			19.3965282450001,-81.388473511,0
			19.3968048100001,-81.388473511,0
			19.3968048100001,-81.386528015,0
			19.3965282450001,-81.386528015,0
			19.3965282450001,-81.384864807,0
			19.396249772,-81.384864807,0
			19.396249772,-81.3831939689999,0
			19.3959712990002,-81.3831939689999,0
			19.3959712990002,-81.3815307609999,0
			19.395694733,-81.3815307609999,0
			19.395694733,-81.380416871,0
			19.3954162600002,-81.380416871,0
			19.3954162600002,-81.3798599249999,0
			19.3951396950001,-81.3798599249999,0
			19.3951396950001,-81.3790283209999,0
			19.394861222,-81.3790283209999,0
			19.394861222,-81.3784713749998,0
			19.394582749,-81.3784713749998,0
			19.394582749,-81.3779144289999,0
			19.394306183,-81.3779144289999,0
			19.394306183,-81.377639771,0
			19.39402771,-81.377639771,0
			19.39402771,-81.377357483,0
			19.3937492370001,-81.377357483,0
			19.3937492370001,-81.376808167,0
			19.3934726720001,-81.376808167,0
			19.3934726720001,-81.376525879,0
			19.393194199,-81.376525879,0
			19.393194199,-81.376251221,0
			19.3929157260002,-81.376251221,0
			19.3929157260002,-81.375968933,0
			19.39263916,-81.375968933,0
			19.39263916,-81.3756942749999,0
			19.3923606870002,-81.3756942749999,0
			19.3923606870002,-81.3751373289999,0
			19.3920841220001,-81.3751373289999,0
			19.3920841220001,-81.3745803829999,0
			19.3918056490001,-81.3745803829999,0
			19.3918056490001,-81.374031067,0
			19.3915271760001,-81.374031067,0
			19.3915271760001,-81.373748779,0
			19.3912506100001,-81.373748779,0
			19.3912506100001,-81.3726425169999,0
			19.3909721370001,-81.3726425169999,0
			19.3909721370001,-81.3718032849999,0
			19.390693664,-81.3718032849999,0
			19.390693664,-81.3715286249999,0
			19.3904170990002,-81.3715286249999,0
			19.3904170990002,-81.370971679,0
			19.3901386260001,-81.370971679,0
			19.3901386260001,-81.3704147349999,0
			19.3898620600002,-81.3704147349999,0
			19.3898620600002,-81.3701400749999,0
			19.3895835870001,-81.3701400749999,0
			19.3895835870001,-81.3695831309999,0
			19.3893051140001,-81.3695831309999,0
			19.3893051140001,-81.3687515269999,0
			19.3890285490002,-81.3687515269999,0
			19.3890285490002,-81.368194581,0
			19.3887500760001,-81.368194581,0
			19.3887500760001,-81.367362977,0
			19.3884716030001,-81.367362977,0
			19.3884716030001,-81.366531373,0
			19.3881969450001,-81.366531373,0
			19.3881969450001,-81.3662490849999,0
			19.3879165660001,-81.3662490849999,0
			19.3879165660001,-81.365417481,0
			19.3876361860002,-81.365417481,0
			19.3876361860002,-81.364585877,0
			19.387361528,-81.364585877,0
			19.387361528,-81.364303589,0
			19.3862495430001,-81.364303589,0
			19.3862495430001,-81.3640289309999,0
			19.3859748850001,-81.3640289309999,0
			19.3859748850001,-81.3637466429999,0
			19.3856964120001,-81.3637466429999,0
			19.3856964120001,-81.363471985,0
			19.385414124,-81.363471985,0
			19.385414124,-81.3629150389999,0
			19.3848609930001,-81.3629150389999,0
			19.3848609930001,-81.3626403809999,0
			19.3843040470001,-81.3626403809999,0
			19.3843040470001,-81.362358093,0
			19.384027482,-81.362358093,0
			19.384027482,-81.361808777,0
			19.3829174050001,-81.361808777,0
			19.3829174050001,-81.361526489,0
			19.3826389320001,-81.361526489,0
			19.3826389320001,-81.3612518309999,0
			19.382360459,-81.3612518309999,0
			19.382360459,-81.3609695429999,0
			19.38041687,-81.3609695429999,0
			19.38041687,-81.361526489,0
			19.380138397,-81.361526489,0
			19.380138397,-81.3620834349999,0
			19.3798618320001,-81.3620834349999,0
			19.3798618320001,-81.363471985,0
			19.380138397,-81.363471985,0
			19.380138397,-81.364303589,0
			19.38041687,-81.364303589,0
			19.38041687,-81.365135193,0
			19.3806953430001,-81.365135193,0
			19.3806953430001,-81.3659744269999,0
			19.380971909,-81.3659744269999,0
			19.380971909,-81.3676376349999,0
			19.3812503820001,-81.3676376349999,0
			19.3812503820001,-81.368194581,0
			19.3815269470002,-81.368194581,0
			19.3815269470002,-81.3684692389999,0
			19.38180542,-81.3684692389999,0
			19.38180542,-81.369857789,0
			19.3820838930001,-81.369857789,0
			19.3820838930001,-81.370971679,0
			19.382360459,-81.370971679,0
			19.382360459,-81.3723602289999,0
			19.3826389320001,-81.3723602289999,0
			19.3826389320001,-81.373474121,0
			19.3829174050001,-81.373474121,0
			19.3829174050001,-81.375968933,0
			19.3826389320001,-81.375968933,0
			19.3826389320001,-81.3784713749998,0
			19.382360459,-81.3784713749998,0
			19.382360459,-81.3787536629998,0
			19.3820838930001,-81.3787536629998,0
			19.3820838930001,-81.379302979,0
			19.38180542,-81.379302979,0
			19.38180542,-81.379585267,0
			19.3812503820001,-81.379585267,0
			19.3812503820001,-81.3798599249999,0
			19.3806953430001,-81.3798599249999,0
			19.3806953430001,-81.380142211,0
			19.380138397,-81.380142211,0
			19.380138397,-81.380416871,0
			19.3795833590001,-81.380416871,0
			19.3795833590001,-81.3806915289999,0
			19.3787498470001,-81.3806915289999,0
			19.3787498470001,-81.3809738169999,0
			19.3784713740002,-81.3809738169999,0
			19.3784713740002,-81.3812484749998,0
			19.3779163360001,-81.3812484749998,0
			19.3779163360001,-81.3809738169999,0
			19.3773612970001,-81.3809738169999,0
			19.3773612970001,-81.3806915289999,0
			19.3754177100001,-81.3806915289999,0
			19.3754177100001,-81.380416871,0
			19.3748607640001,-81.380416871,0
			19.3748607640001,-81.380142211,0
			19.3740253450001,-81.380142211,0
			19.3740253450001,-81.3798599249999,0
			19.3734722140001,-81.3798599249999,0
			19.3734722140001,-81.379585267,0
			19.373195649,-81.379585267,0
			19.373195649,-81.379302979,0
			19.372917176,-81.379302979,0
			19.372917176,-81.3790283209999,0
			19.3726387030001,-81.3790283209999,0
			19.3726387030001,-81.3787536629998,0
			19.3720855720001,-81.3787536629998,0
			19.3720855720001,-81.3784713749998,0
			19.371803284,-81.3784713749998,0
			19.371803284,-81.3781967169999,0
			19.3709716800001,-81.3781967169999,0
			19.3709716800001,-81.3779144289999,0
			19.3704166410001,-81.3779144289999,0
			19.3704166410001,-81.377639771,0
			19.3701381680001,-81.377639771,0
			19.3701381680001,-81.377357483,0
			19.369581222,-81.377357483,0
			19.369581222,-81.3770828249999,0
			19.3693046570002,-81.3770828249999,0
			19.3693046570002,-81.376808167,0
			19.3690280910002,-81.376808167,0
			19.3690280910002,-81.376525879,0
			19.3684711450001,-81.376525879,0
			19.3684711450001,-81.376251221,0
			19.367916107,-81.376251221,0
			19.367916107,-81.375968933,0
			19.3673591610001,-81.375968933,0
			19.3673591610001,-81.3756942749999,0
			19.3670825950002,-81.3756942749999,0
			19.3670825950002,-81.3754196169999,0
			19.366527557,-81.3754196169999,0
			19.366527557,-81.3751373289999,0
			19.366249084,-81.3751373289999,0
			19.366249084,-81.374862671,0
			19.365694045,-81.374862671,0
			19.365694045,-81.3745803829999,0
			19.3651409140002,-81.3745803829999,0
			19.3651409140002,-81.3743057249999,0
			19.364860536,-81.3743057249999,0
			19.364860536,-81.374031067,0
			19.364305497,-81.374031067,0
			19.364305497,-81.373748779,0
			19.3640289320002,-81.373748779,0
			19.3640289320002,-81.373474121,0
			19.3634719860001,-81.373474121,0
			19.3634719860001,-81.373191833,0
			19.3631935130001,-81.373191833,0
			19.3631935130001,-81.3729171749999,0
			19.3626384740001,-81.3729171749999,0
			19.3626384740001,-81.3726425169999,0
			19.3623619090002,-81.3726425169999,0
			19.3623619090002,-81.3723602289999,0
			19.3620834360001,-81.3723602289999,0
			19.3620834360001,-81.3720855709998,0
			19.3615283970001,-81.3720855709998,0
			19.3615283970001,-81.3718032849999,0
			19.3612499240001,-81.3718032849999,0
			19.3612499240001,-81.3715286249999,0
			19.3609714510001,-81.3715286249999,0
			19.3609714510001,-81.3712463389999,0
			19.3604145050002,-81.3712463389999,0
			19.3604145050002,-81.370971679,0
			19.3598613740002,-81.370971679,0
			19.3598613740002,-81.370697021,0
			19.3595848090001,-81.370697021,0
			19.3595848090001,-81.3704147349999,0
			19.359027863,-81.3704147349999,0
			19.359027863,-81.3701400749999,0
			19.3573608400002,-81.3701400749999,0
			19.3573608400002,-81.369857789,0
			19.3568058010002,-81.369857789,0
			19.3568058010002,-81.3695831309999,0
			19.3565273280001,-81.3695831309999,0
			19.3565273280001,-81.3693084709998,0
			19.3562507630001,-81.3693084709998,0
			19.3562507630001,-81.3690261849999,0
			19.3559722900001,-81.3690261849999,0
			19.3559722900001,-81.3687515269999,0
			19.3554172510001,-81.3687515269999,0
			19.3554172510001,-81.3684692389999,0
			19.3545837400001,-81.3684692389999,0
			19.3545837400001,-81.368194581,0
			19.3543052670001,-81.368194581,0
			19.3543052670001,-81.367919923,0
			19.3537502280001,-81.367919923,0
			19.3537502280001,-81.3676376349999,0
			19.353471757,-81.3676376349999,0
			19.353471757,-81.367362977,0
			19.3531951920002,-81.367362977,0
			19.3531951920002,-81.367080689,0
			19.3526382460001,-81.367080689,0
			19.3526382460001,-81.3668060309999,0
			19.3520832070001,-81.3668060309999,0
			19.3520832070001,-81.366531373,0
			19.351804734,-81.366531373,0
			19.351804734,-81.3662490849999,0
			19.3512496960001,-81.3662490849999,0
			19.3512496960001,-81.3659744269999,0
			19.3509731300001,-81.3659744269999,0
			19.3509731300001,-81.3656921389999,0
			19.3506946570001,-81.3656921389999,0
			19.3506946570001,-81.365417481,0
			19.3501396190002,-81.365417481,0
			19.3501396190002,-81.365135193,0
			19.3495826730001,-81.365135193,0
			19.3495826730001,-81.3648605349999,0
			19.3487491610001,-81.3648605349999,0
			19.3487491610001,-81.364585877,0
			19.348472596,-81.364585877,0
			19.348472596,-81.364303589,0
			19.3481941230002,-81.364303589,0
			19.3481941230002,-81.3640289309999,0
			19.3476390840001,-81.3640289309999,0
			19.3476390840001,-81.3637466429999,0
			19.3473606110001,-81.3637466429999,0
			19.3473606110001,-81.363471985,0
			19.3470859530001,-81.363471985,0
			19.3470859530001,-81.3631973269999,0
			19.346803665,-81.3631973269999,0
			19.346803665,-81.3629150389999,0
			19.346250534,-81.3629150389999,0
			19.346250534,-81.3626403809999,0
			19.3456954960001,-81.3626403809999,0
			19.3456954960001,-81.362358093,0
			19.3454151150001,-81.362358093,0
			19.3454151150001,-81.3620834349999,0
			19.3451385490001,-81.3620834349999,0
			19.3451385490001,-81.361526489,0
			19.3445854190002,-81.361526489,0
			19.3445854190002,-81.3612518309999,0
			19.3443031300002,-81.3612518309999,0
			19.3443031300002,-81.361526489,0
			19.3440284730001,-81.361526489,0
			19.3440284730001,-81.3620834349999,0
			19.3426380170002,-81.3620834349999,0
			19.3426380170002,-81.361808777,0
			19.3423614490002,-81.361808777,0
			19.3423614490002,-81.3609695429999,0
			19.3406944280002,-81.3609695429999,0
			19.3406944280002,-81.361808777,0
			19.3401393900001,-81.361808777,0
			19.3401393900001,-81.361526489,0
			19.339582444,-81.361526489,0
			19.339582444,-81.3612518309999,0
			19.3387508400002,-81.3612518309999,0
			19.3387508400002,-81.3620834349999,0
			19.3379173280001,-81.3620834349999,0
			19.3379173280001,-81.361808777,0
			19.337360382,-81.361808777,0
			19.337360382,-81.3620834349999,0
			19.3368053440001,-81.3620834349999,0
			19.3368053440001,-81.362358093,0
			19.3351383210001,-81.362358093,0
			19.3351383210001,-81.3626403809999,0
			19.3348617550001,-81.3626403809999,0
			19.3348617550001,-81.3629150389999,0
			19.3345832820001,-81.3629150389999,0
			19.3345832820001,-81.3631973269999,0
			19.3334712980001,-81.3631973269999,0
			19.3334712980001,-81.363471985,0
			19.332361221,-81.363471985,0
			19.332361221,-81.3637466429999,0
			19.3312492380001,-81.3637466429999,0
			19.3312492380001,-81.3640289309999,0
			19.330139161,-81.3640289309999,0
			19.330139161,-81.364303589,0
			19.3298606880002,-81.364303589,0
			19.3298606880002,-81.365417481,0
			19.332361221,-81.365417481,0
			19.332361221,-81.3656921389999,0
			19.3326396940001,-81.3656921389999,0
			19.3326396940001,-81.3659744269999,0
			19.332361221,-81.3659744269999,0
			19.332361221,-81.3662490849999,0
			19.3318042750001,-81.3662490849999,0
			19.3318042750001,-81.366531373,0
			19.3315277090002,-81.366531373,0
			19.3315277090002,-81.3668060309999,0
			19.3309745780001,-81.3668060309999,0
			19.3309745780001,-81.367080689,0
			19.330692292,-81.367080689,0
			19.330692292,-81.3676376349999,0
			19.330139161,-81.3676376349999,0
			19.330139161,-81.367919923,0
			19.328750611,-81.367919923,0
			19.328750611,-81.3676376349999,0
			19.3281936650002,-81.3676376349999,0
			19.3281936650002,-81.367362977,0
			19.3276386270001,-81.367362977,0
			19.3276386270001,-81.3676376349999,0
			19.3273601540002,-81.3676376349999,0
			19.3273601540002,-81.368194581,0
			19.3268051150002,-81.368194581,0
			19.3268051150002,-81.3684692389999,0
		</coordinates>
	</polygon>
</kml>
