<?xml version="1.0" encoding="UTF-8"?>
<kml xmlns="http://earth.google.com/kml/2.2">
	<polygon id="Guatemala_San_Marcos" samplingProbability="1">
		<coordinates>
			14.565331459,-92.0503082269998,0
			14.560468673,-92.0587387089999,0
			14.5573167810002,-92.060783385,0
			14.5480766300001,-92.0800170889999,0
			14.5409097670001,-92.081680297,0
			14.5304317480001,-92.10521698,0
			14.5267362600001,-92.104354859,0
			14.5227899550002,-92.1090087899999,0
			14.5161170950001,-92.1087875369999,0
			14.5095510480002,-92.1150741569999,0
			14.504357339,-92.1145935059999,0
			14.50327015,-92.117858887,0
			14.5065536500001,-92.1197204589999,0
			14.5050821300001,-92.1213226319999,0
			14.5045890800001,-92.123229981,0
			14.5065631870001,-92.1241607669999,0
			14.5080223080001,-92.124610901,0
			14.5081520090001,-92.1249999989998,0
			14.5090751650001,-92.1279525749999,0
			14.5091524130001,-92.129730224,0
			14.5092182170001,-92.1316757199999,0
			14.5101823820002,-92.1330261229999,0
			14.5098838800001,-92.1336135859999,0
			14.5079622280002,-92.134376526,0
			14.5083379750001,-92.1361694329998,0
			14.508429527,-92.136260987,0
			14.5064668650002,-92.1376647949999,0
			14.50704384,-92.1393280029999,0
			14.5068225870001,-92.139587403,0
			14.5038328170002,-92.141517638,0
			14.5036497110001,-92.1425018319999,0
			14.5009107600001,-92.1437225339999,0
			14.4995822900001,-92.142944335,0
			14.496026993,-92.143081664,0
			14.493718148,-92.142814636,0
			14.4931821830002,-92.145706177,0
			14.4909896850001,-92.148483277,0
			14.490322114,-92.152481079,0
			14.4911670680002,-92.154235839,0
			14.4911012650001,-92.156715393,0
			14.4899816510001,-92.1573486329999,0
			14.491099358,-92.1590118409999,0
			14.4895582200001,-92.160026551,0
			14.4873180380002,-92.1631011969999,0
			14.486250878,-92.164291383,0
			14.4868068690001,-92.1643066409999,0
			14.4868049620002,-92.1645812989999,0
			14.487083435,-92.1645812989999,0
			14.487083435,-92.1648635869999,0
			14.4873609550001,-92.1648635869999,0
			14.4873609550001,-92.1654129029999,0
			14.4876394280001,-92.1654129029999,0
			14.4876394280001,-92.1656951909999,0
			14.487916946,-92.1656951909999,0
			14.487916946,-92.165969849,0
			14.488195419,-92.165969849,0
			14.488195419,-92.1665267949999,0
			14.4884738920001,-92.1665267949999,0
			14.4884710320002,-92.1668090809999,0
			14.4887523650001,-92.1668090809999,0
			14.4887523650001,-92.1670837409999,0
			14.4890298850001,-92.1670837409999,0
			14.4890270230001,-92.1673583989999,0
			14.4893045430001,-92.1673583989999,0
			14.4893045430001,-92.1676406849999,0
			14.489583016,-92.1676406849999,0
			14.489583016,-92.167915345,0
			14.489862442,-92.167915345,0
			14.489862442,-92.168472289,0
			14.4901399620001,-92.168472289,0
			14.4901399620001,-92.168746949,0
			14.4904184330001,-92.168746949,0
			14.4904184330001,-92.169029235,0
			14.490656852,-92.169029235,0
			14.4906930930001,-92.1695861809999,0
			14.4909706120001,-92.1695861809999,0
			14.4909706120001,-92.1698608389999,0
			14.491155625,-92.1698608389999,0
			14.491250037,-92.1698608389999,0
			14.491250037,-92.170021057,0
			14.491250037,-92.1704177849999,0
			14.4915275580001,-92.1704177849999,0
			14.4915275580001,-92.171249389,0
			14.4918079380001,-92.171249389,0
			14.4918060310002,-92.171524047,0
			14.492083549,-92.171524047,0
			14.492083549,-92.171806335,0
			14.492322922,-92.171806335,0
			14.4923620220001,-92.172080993,0
			14.492486955,-92.172080993,0
			14.4926376350001,-92.172080993,0
			14.4926376350001,-92.1723327649999,0
			14.4929180150002,-92.1723632809999,0
			14.4929180150002,-92.172798157,0
			14.4929180150002,-92.172920227,0
			14.4931936260002,-92.172920227,0
			14.4931936260002,-92.1731948849999,0
			14.4934740070001,-92.1731948849999,0
			14.493472099,-92.1734695429999,0
			14.493749619,-92.1734695429999,0
			14.493749619,-92.1737518309998,0
			14.4940300000001,-92.1737518309998,0
			14.4940280920001,-92.1743087769999,0
			14.494305611,-92.1743087769999,0
			14.494305611,-92.174583435,0
			14.4945840840001,-92.174583435,0
			14.4945840840001,-92.174858093,0
			14.4948596960002,-92.174858093,0
			14.4948616040001,-92.1751403809999,0
			14.4954156880002,-92.1751403809999,0
			14.4954156880002,-92.174583435,0
			14.4962501540001,-92.174583435,0
			14.4962501540001,-92.1743087769999,0
			14.4972572340001,-92.1743087769999,0
			14.4979162220001,-92.1743087769999,0
			14.4979162220001,-92.174583435,0
			14.4984722130002,-92.174583435,0
			14.4984722130002,-92.1751403809999,0
			14.4987497340001,-92.1751403809999,0
			14.4987497340001,-92.175415039,0
			14.499028207,-92.175415039,0
			14.499028207,-92.1759719849999,0
			14.4993057250001,-92.1759719849999,0
			14.4993057250001,-92.1770858769999,0
			14.4995841980001,-92.1770858769999,0
			14.4995841980001,-92.177360535,0
			14.4998617180001,-92.177360535,0
			14.4998598110001,-92.177635193,0
			14.5001382840001,-92.177635193,0
			14.5001382840001,-92.177917481,0
			14.5009717950001,-92.177917481,0
			14.5009717950001,-92.1768035889999,0
			14.5006942750002,-92.1768035889999,0
			14.5006942750002,-92.175415039,0
			14.5004158020001,-92.175415039,0
			14.5004158020001,-92.174858093,0
			14.5001382840001,-92.174858093,0
			14.5001382840001,-92.174583435,0
			14.4995841980001,-92.174583435,0
			14.4995841980001,-92.1743087769999,0
			14.4993057250001,-92.1743087769999,0
			14.4993057250001,-92.1734695429999,0
			14.4998617180001,-92.1734695429999,0
			14.4998598110001,-92.1737518309998,0
			14.5004158020001,-92.1737518309998,0
			14.5004158020001,-92.174026489,0
			14.5009717950001,-92.174026489,0
			14.5009717950001,-92.1743087769999,0
			14.5015277860001,-92.1743087769999,0
			14.5015277860001,-92.174583435,0
			14.502084732,-92.174583435,0
			14.502084732,-92.175697327,0
			14.5023603450002,-92.175697327,0
			14.5023603450002,-92.178192139,0
			14.502084732,-92.178192139,0
			14.502084732,-92.179031371,0
			14.5018043520001,-92.179031371,0
			14.5018043520001,-92.1798629749999,0
			14.5007505420001,-92.1798629749999,0
			14.4998598110001,-92.1798629749999,0
			14.4998617180001,-92.1801376349999,0
			14.4987497340001,-92.1801376349999,0
			14.4987497340001,-92.1804199209999,0
			14.498591424,-92.1804199209999,0
			14.4981937400001,-92.1804199209999,0
			14.4981937400001,-92.181526183,0
			14.4984722130002,-92.181526183,0
			14.4984722130002,-92.1820831289999,0
			14.4987497340001,-92.1820831289999,0
			14.4987497340001,-92.1825256349999,0
			14.4987497340001,-92.1826400749999,0
			14.499028207,-92.1826400749999,0
			14.499028207,-92.1829147329999,0
			14.4995841980001,-92.1829147329999,0
			14.4995841980001,-92.1831970209999,0
			14.4998617180001,-92.1831970209999,0
			14.4998598110001,-92.183471679,0
			14.5000362390001,-92.183471679,0
			14.5004158020001,-92.183471679,0
			14.5004158020001,-92.1837463369999,0
			14.5006942750002,-92.1837463369999,0
			14.5006942750002,-92.1840286249999,0
			14.5009717950001,-92.1840286249999,0
			14.5009717950001,-92.184585571,0
			14.5012502680001,-92.184585571,0
			14.5012502680001,-92.1848602289999,0
			14.5015277860001,-92.1848602289999,0
			14.5015277860001,-92.1851425169999,0
			14.5018043520001,-92.1851425169999,0
			14.5018043520001,-92.1854171749999,0
			14.502084732,-92.1854171749999,0
			14.502084732,-92.1856918329999,0
			14.5023603450002,-92.1856918329999,0
			14.5023603450002,-92.1859741209999,0
			14.5031938550001,-92.1859741209999,0
			14.5031938550001,-92.186248779,0
			14.503752708,-92.186248779,0
			14.5037508010001,-92.1859741209999,0
			14.5040264130002,-92.1859741209999,0
			14.5040264130002,-92.1856918329999,0
			14.505116462,-92.1856918329999,0
			14.5056953440002,-92.1856918329999,0
			14.5056953440002,-92.1854171749999,0
			14.505972862,-92.1854171749999,0
			14.505972862,-92.185279846,0
			14.505972862,-92.1851425169999,0
			14.5062665940002,-92.1851425169999,0
			14.5065288550001,-92.1851425169999,0
			14.5065288550001,-92.1848602289999,0
			14.5068054210001,-92.1848602289999,0
			14.5068054210001,-92.184585571,0
			14.5070848470001,-92.184585571,0
			14.5070829390002,-92.184303283,0
			14.507361412,-92.184303283,0
			14.507361412,-92.1840286249999,0
			14.507638932,-92.1840286249999,0
			14.507638932,-92.1837463369999,0
			14.5079174030001,-92.1837463369999,0
			14.5079174030001,-92.183471679,0
			14.5087509150001,-92.183471679,0
			14.5087509150001,-92.1848602289999,0
			14.508473397,-92.1848602289999,0
			14.508473397,-92.1851425169999,0
			14.5079174030001,-92.1851425169999,0
			14.5079174030001,-92.1854171749999,0
			14.507638932,-92.1854171749999,0
			14.507638932,-92.1863555919999,0
			14.507638932,-92.1868057249999,0
			14.507361412,-92.1868057249999,0
			14.507361412,-92.187362671,0
			14.5070829390002,-92.187362671,0
			14.5070848470001,-92.1876373289999,0
			14.5068054210001,-92.1876373289999,0
			14.5068054210001,-92.1881942749999,0
			14.5065288550001,-92.1881942749999,0
			14.5065288550001,-92.1887512209999,0
			14.5062513350001,-92.1887512209999,0
			14.5062513350001,-92.189308167,0
			14.505972862,-92.189308167,0
			14.505972862,-92.189025879,0
			14.5051546090001,-92.189025879,0
			14.5040264130002,-92.189025879,0
			14.5040264130002,-92.1895828249999,0
			14.504306794,-92.1895828249999,0
			14.504306794,-92.1904144289999,0
			14.5045824050002,-92.1904144289999,0
			14.5045824050002,-92.191253662,0
			14.5047473920001,-92.191253662,0
			14.5048627850001,-92.191253662,0
			14.504860878,-92.1920852649999,0
			14.5051393510001,-92.1920852649999,0
			14.5051393510001,-92.192359923,0
			14.505418778,-92.192359923,0
			14.5054168710001,-92.1926422119999,0
			14.5056953440002,-92.1926422119999,0
			14.5056953440002,-92.193191527,0
			14.505972862,-92.193191527,0
			14.505972862,-92.193748473,0
			14.5062513350001,-92.193748473,0
			14.5062513350001,-92.194030762,0
			14.5068054210001,-92.194030762,0
			14.5068054210001,-92.1945800769999,0
			14.5070848470001,-92.1945800769999,0
			14.5070829390002,-92.1948623659999,0
			14.507361412,-92.1948623659999,0
			14.507361412,-92.195137023,0
			14.507638932,-92.195137023,0
			14.507638932,-92.1954193119999,0
			14.5079174030001,-92.1954193119999,0
			14.5079174030001,-92.195693969,0
			14.508194924,-92.195693969,0
			14.508194924,-92.1962509159999,0
			14.508473397,-92.1962509159999,0
			14.508473397,-92.196525573,0
			14.5087509150001,-92.196525573,0
			14.5087509150001,-92.196807862,0
			14.5090265280001,-92.196807862,0
			14.5090265280001,-92.1973648079999,0
			14.509306908,-92.1973648079999,0
			14.509306908,-92.1976394659999,0
			14.509860992,-92.1976394659999,0
			14.509860992,-92.1979141229999,0
			14.5101394650001,-92.1979141229999,0
			14.5101394650001,-92.1981964119999,0
			14.5104169850001,-92.1981964119999,0
			14.5104169850001,-92.198753358,0
			14.5106954580002,-92.198753358,0
			14.5106954580002,-92.1990280159999,0
			14.5109729770001,-92.1990280159999,0
			14.5109729770001,-92.199584962,0
			14.511248589,-92.199584962,0
			14.5112514500001,-92.1998596199999,0
			14.51152897,-92.1998596199999,0
			14.511527062,-92.2001419079999,0
			14.511804581,-92.2001419079999,0
			14.511804581,-92.2004165659999,0
			14.5123605740001,-92.2004165659999,0
			14.5123605740001,-92.2009735119999,0
			14.5126390470001,-92.2009735119999,0
			14.5126390470001,-92.20124817,0
			14.5129165650002,-92.20124817,0
			14.5129165650002,-92.2015304559999,0
			14.513195038,-92.2015304559999,0
			14.5131931310002,-92.2018051159999,0
			14.5134725560001,-92.2018051159999,0
			14.5134725560001,-92.202079774,0
			14.5137510290001,-92.202079774,0
			14.5137491240001,-92.2026367199999,0
			14.5140266420001,-92.2026367199999,0
			14.5140266420001,-92.2029190059999,0
			14.5143051150001,-92.2029190059999,0
			14.5143051150001,-92.2031936639999,0
			14.514582633,-92.2031936639999,0
			14.514582633,-92.2034759519998,0
			14.514861106,-92.2034759519998,0
			14.514861106,-92.2040252679999,0
			14.5151386270002,-92.2040252679999,0
			14.5151386270002,-92.2043075559999,0
			14.5154171,-92.2043075559999,0
			14.5154171,-92.204582214,0
			14.5156955730001,-92.204582214,0
			14.5156955730001,-92.204864502,0
			14.5159711830001,-92.204864502,0
			14.5159711830001,-92.205413818,0
			14.5162487040001,-92.205413818,0
			14.5162487040001,-92.2056961059999,0
			14.516530037,-92.2056961059999,0
			14.5165271770001,-92.2059707639999,0
			14.5168046950002,-92.2059707639999,0
			14.5168046950002,-92.206253052,0
			14.517084123,-92.206253052,0
			14.517084123,-92.2068023679999,0
			14.5173616410001,-92.2068023679999,0
			14.5173616410001,-92.2070846559999,0
			14.5176401140001,-92.2070846559999,0
			14.5176401140001,-92.207359314,0
			14.5179176340002,-92.207359314,0
			14.5179176340002,-92.207641602,0
			14.5181932450001,-92.207641602,0
			14.5181932450001,-92.208190918,0
			14.5184736250001,-92.208190918,0
			14.5184736250001,-92.208473206,0
			14.518750191,-92.208473206,0
			14.518750191,-92.209030152,0
			14.5190277110001,-92.209030152,0
			14.5190277110001,-92.2093048099999,0
			14.5193061820001,-92.2093048099999,0
			14.5193061820001,-92.2098617559998,0
			14.519583702,-92.2098617559998,0
			14.519583702,-92.210136414,0
			14.519862175,-92.210136414,0
			14.519862175,-92.2104187019999,0
			14.520139694,-92.2104187019999,0
			14.520139694,-92.2106933599999,0
			14.5204162590001,-92.2106933599999,0
			14.5204162590001,-92.210975648,0
			14.5206937790001,-92.210975648,0
			14.5206937790001,-92.211250306,0
			14.5209722520001,-92.211250306,0
			14.5209722520001,-92.211524964,0
			14.5212497710001,-92.211524964,0
			14.5212497710001,-92.211807252,0
			14.5215282440001,-92.211807252,0
			14.5215282440001,-92.2120819099999,0
			14.521805764,-92.2120819099999,0
			14.521805764,-92.212364196,0
			14.522084237,-92.212364196,0
			14.522084237,-92.2126388559998,0
			14.5223598480002,-92.2126388559998,0
			14.5223598480002,-92.2129135139999,0
			14.5226402280001,-92.2129135139999,0
			14.5226402280001,-92.2131957999999,0
			14.5229158410001,-92.2131957999999,0
			14.5229158410001,-92.2134704599999,0
			14.5231943140001,-92.2134704599999,0
			14.5231943140001,-92.214027406,0
			14.523471832,-92.214027406,0
			14.523471832,-92.214302064,0
			14.523750305,-92.214302064,0
			14.523750305,-92.2145843499999,0
			14.5240278250001,-92.2145843499999,0
			14.5240278250001,-92.2148590099999,0
			14.5243062980001,-92.2148590099999,0
			14.5243062980001,-92.215141296,0
			14.5245819090001,-92.215141296,0
			14.5245838170001,-92.2154159539999,0
			14.5248622900001,-92.2154159539999,0
			14.5248622900001,-92.2156906139999,0
			14.525137902,-92.2156982419999,0
			14.525137902,-92.2159728999999,0
			14.525416373,-92.2159728999999,0
			14.525416373,-92.2162475579999,0
			14.525693894,-92.2162475579999,0
			14.525693894,-92.2165298459999,0
			14.525972367,-92.2165298459999,0
			14.525972367,-92.216804504,0
			14.5262517930001,-92.216804504,0
			14.5262498850001,-92.217086792,0
			14.5265283580001,-92.217086792,0
			14.5265283580001,-92.217636108,0
			14.5268087390002,-92.217636108,0
			14.5268058780002,-92.217918396,0
			14.527084351,-92.217918396,0
			14.527084351,-92.2181930539999,0
			14.5273618700002,-92.2181930539999,0
			14.527359962,-92.2187499999999,0
			14.527638435,-92.2187499999999,0
			14.527640343,-92.2190246579999,0
			14.5279188160001,-92.2190246579999,0
			14.5279159550001,-92.2193069459999,0
			14.5281944280001,-92.2193069459999,0
			14.5281944280001,-92.219581604,0
			14.5284719470001,-92.219581604,0
			14.5284719470001,-92.219863892,0
			14.5287504200001,-92.219863892,0
			14.5287504200001,-92.220413208,0
			14.5290279400002,-92.220413208,0
			14.5290279400002,-92.220695496,0
			14.5293073660002,-92.220695496,0
			14.5293073660002,-92.2209701539999,0
			14.5295848860001,-92.2209701539999,0
			14.529582024,-92.2212524419999,0
			14.529859544,-92.2212524419999,0
			14.529859544,-92.2215270999999,0
			14.5301408770001,-92.2215270999999,0
			14.5301380170001,-92.2220840459999,0
			14.5304155350001,-92.2220840459999,0
			14.5304155350001,-92.222358704,0
			14.530973434,-92.222358704,0
			14.530973434,-92.2220840459999,0
			14.5318069450001,-92.2220840459999,0
			14.5318069450001,-92.2218017579999,0
			14.5323629390002,-92.2218017579999,0
			14.5323610310002,-92.2215270999999,0
			14.533194543,-92.2215270999999,0
			14.533194543,-92.2212524419999,0
			14.5338172920002,-92.2212524419999,0
			14.5340290070001,-92.2212524419999,0
			14.5340290070001,-92.2209701539999,0
			14.5348606110001,-92.2209701539999,0
			14.5348606110001,-92.220695496,0
			14.5354166040001,-92.220695496,0
			14.5354166040001,-92.220413208,0
			14.535972595,-92.220413208,0
			14.535972595,-92.2201385499999,0
			14.5365266810001,-92.2201385499999,0
			14.5365266810001,-92.219863892,0
			14.5368051520001,-92.219863892,0
			14.5368051520001,-92.220236314,0
			14.537482013,-92.2198277139999,0
			14.5376612950001,-92.2197209,0
			14.538933435,-92.2190189779999,0
			14.5401014750001,-92.2184579559998,0
			14.5402703010002,-92.218457359,0
			14.540584109,-92.218368266,0
			14.5408121580002,-92.218250129,0
			14.5410024340001,-92.2180252099999,0
			14.5414690020002,-92.2178011069998,0
			14.5416673930001,-92.2177490719999,0
			14.5418045330001,-92.2176399429999,0
			14.542173866,-92.2174625429999,0
			14.544802066,-92.2167529929999,0
			14.548454463,-92.2164706999999,0
			14.5518083740001,-92.2164630729999,0
			14.5532826840001,-92.2166538139999,0
			14.554674027,-92.2165622589999,0
			14.5554607710001,-92.216409668,0
			14.5560566020001,-92.2158622839999,0
			14.556129222,-92.2158205009999,0
			14.556585129,-92.2155255339999,0
			14.5568983580001,-92.2152604219999,0
			14.557154283,-92.2149368289999,0
			14.5573240710001,-92.2144668799999,0
			14.557493659,-92.2139382619999,0
			14.5576062470001,-92.213439167,0
			14.5576813430001,-92.2123899019999,0
			14.558008869,-92.210565402,0
			14.558244665,-92.2100025689999,0
			14.5583086120001,-92.209945863,0
			14.5585074270001,-92.2096224809999,0
			14.5586773030001,-92.209181845,0
			14.5588755360001,-92.2086824519999,0
			14.5590172380001,-92.208359258,0
			14.5601783450002,-92.207252561,0
			14.5606203810001,-92.206914468,0
			14.5612126530001,-92.206518581,0
			14.562293271,-92.206030046,0
			14.563119971,-92.205616388,0
			14.563575768,-92.2052920549999,0
			14.5638605220001,-92.205056358,0
			14.5640593300002,-92.204732948,0
			14.5641759580001,-92.2045016719999,0
			14.564271846,-92.2043068569999,0
			14.5644130560001,-92.203836988,0
			14.5644688040002,-92.203426085,0
			14.5644958950002,-92.2029859639999,0
			14.564437428,-92.2025754879999,0
			14.5643795370001,-92.2023410089999,0
			14.5642635690001,-92.201813398,0
			14.5641765400001,-92.2014030109999,0
			14.5641177790001,-92.2009045289999,0
			14.5641168170001,-92.20061544,0
			14.5641145550001,-92.199936473,0
			14.564084041,-92.199349882,0
			14.5640533380001,-92.1987046199999,0
			14.564286716,-92.1982493059999,0
			14.564820697,-92.197880899,0
			14.56592483,-92.1972905519999,0
			14.566493355,-92.196592186,0
			14.567097054,-92.1957471029999,0
			14.5679857030001,-92.194754384,0
			14.5691590450002,-92.1935407349999,0
			14.5698690190001,-92.192475359,0
			14.5705803800001,-92.191813102,0
			14.571433964,-92.1910037239999,0
			14.5717032560001,-92.1906709589999,0
			14.5726299110001,-92.190125735,0
			14.573602614,-92.189004185,0
			14.574794094,-92.187064423,0
			14.574914807,-92.1868679,0
			14.576001945,-92.1847392449999,0
			14.577687007,-92.1832972529999,0
			14.5788962080002,-92.1827174049999,0
			14.5819202480001,-92.182687861,0
			14.5851434280002,-92.182656371,0
			14.5862362860001,-92.1823817069999,0
			14.5874827450002,-92.182085436,0
			14.5895864670001,-92.182064022,0
			14.591067478,-92.1818411189999,0
			14.5920181440002,-92.1812940179999,0
			14.5932148780001,-92.1804923249999,0
			14.5942359700002,-92.1799087099999,0
			14.594947264,-92.1796496869999,0
			14.5950783310001,-92.179635059,0
			14.5965135420001,-92.1792078029999,0
			14.5970150760001,-92.1790148279998,0
			14.5978437640001,-92.1787654999999,0
			14.5987134900001,-92.1785252499999,0
			14.6000121740001,-92.178166501,0
			14.6004326730002,-92.178050565,0
			14.6004764280001,-92.178034324,0
			14.600650383,-92.1779946999999,0
			14.6052715410001,-92.1780065569999,0
			14.6053485350001,-92.1780131469999,0
			14.6054365710001,-92.1780069809999,0
			14.606599117,-92.178009963,0
			14.6067948240001,-92.1779203919999,0
			14.60698067,-92.1779117369999,0
			14.607382757,-92.1778339889999,0
			14.6076444770002,-92.1777560959999,0
			14.6077719280001,-92.177718165,0
			14.608105386,-92.177583479,0
			14.6083830560001,-92.177410878,0
			14.6086974410001,-92.1771237689999,0
			14.609122402,-92.1766265569999,0
			14.6094919760002,-92.1762057989999,0
			14.609890195,-92.1757744729999,0
			14.610286704,-92.1753449999999,0
			14.6108044170002,-92.174847434,0
			14.6109595560001,-92.174732686,0
			14.6114149430001,-92.1746300569999,0
			14.6120119140002,-92.1747368709999,0
			14.6125468990001,-92.175125981,0
			14.6129560060001,-92.175820274,0
			14.613003609,-92.176056882,0
			14.6133059860001,-92.1775598209999,0
			14.6135052930002,-92.180146252,0
			14.6137704010001,-92.1810389149999,0
			14.6142233740002,-92.1814280239999,0
			14.6154621380002,-92.181420395,0
			14.615820635,-92.1810956269999,0
			14.61605695,-92.181023258,0
			14.6163533660002,-92.1809077639999,0
			14.616575455,-92.180754437,0
			14.61683412,-92.1804484589999,0
			14.617155611,-92.1801041209999,0
			14.6175622220002,-92.179664159,0
			14.6189124280002,-92.1784962469999,0
			14.6191896390001,-92.178190208,0
			14.6194114640001,-92.1779606119999,0
			14.6195768220001,-92.1778236739999,0
			14.6196060880002,-92.1778021289999,0
			14.619911218,-92.1776346689999,0
			14.6200962060001,-92.177481461,0
			14.6201664610001,-92.1773895969999,0
			14.620608874,-92.1770639019999,0
			14.621214428,-92.177025755,0
			14.6229872220002,-92.1771783469999,0
			14.6240182450001,-92.1771007679999,0
			14.624537792,-92.1771369489999,0
			14.6252798830001,-92.177153241,0
			14.625780684,-92.1771322969998,0
			14.6262256320001,-92.177054377,0
			14.6263300040002,-92.17700795,0
			14.6264849470001,-92.1769390269999,0
			14.626725516,-92.1767665479999,0
			14.6269845020001,-92.1765558739999,0
			14.6273544650001,-92.176249458,0
			14.6276055850001,-92.175962559,0
			14.628197798,-92.1754006369999,0
			14.6282712450001,-92.1753309459999,0
			14.6287329670001,-92.1747382229999,0
			14.629094089,-92.174191633,0
			14.6292044300001,-92.1740246229999,0
			14.6299801820001,-92.1731651859999,0
			14.6308513410001,-92.172508576,0
			14.6312662310001,-92.1723647169999,0
			14.6315810600001,-92.172211021,0
			14.6319512800001,-92.1719808469999,0
			14.633062071,-92.171328473,0
			14.6332866700001,-92.1712124399999,0
			14.6335156050001,-92.1710941669999,0
			14.6342753840001,-92.1708625319999,0
			14.6349424740001,-92.1706503029999,0
			14.635646861,-92.1704951159999,0
			14.6364442080002,-92.170396791,0
			14.6371672760001,-92.1702796599999,0
			14.6377232580002,-92.170125046,0
			14.638260634,-92.169951429,0
			14.638705246,-92.1697781619999,0
			14.639149602,-92.169528638,0
			14.6397047900001,-92.169145235,0
			14.640048662,-92.1688579589999,0
			14.640584571,-92.168264909,0
			14.641064498,-92.1675767369999,0
			14.641149237,-92.1673873809999,0
			14.641303797,-92.167042007,0
			14.6413389300002,-92.1669364719999,0
			14.6414690220001,-92.1665456869998,0
			14.6415968160002,-92.1659541769999,0
			14.6416086760001,-92.1658509659999,0
			14.6416322530002,-92.165477405,0
			14.6416670670001,-92.1648195329999,0
			14.641665602,-92.1644001019999,0
			14.6416456480001,-92.1639997999999,0
			14.641570385,-92.163695038,0
			14.6414413700001,-92.1632049029999,0
			14.641419985,-92.1631236579999,0
			14.6412128600001,-92.1622474479999,0
			14.641098572,-92.1616224479999,0
			14.641022887,-92.1609703379999,0
			14.64102182,-92.1606657539999,0
			14.6410357400001,-92.1603903339999,0
			14.6412666910001,-92.1598121669999,0
			14.6419444130001,-92.1591114849999,0
			14.6425934450002,-92.1587631989999,0
			14.6426290120002,-92.158753084,0
			14.6429257490001,-92.158732876,0
			14.6430839600001,-92.1587441209999,0
			14.6431855210001,-92.158750952,0
			14.6435011500002,-92.158826002,0
			14.6441695630002,-92.1589950319999,0
			14.6450982850001,-92.1593346569999,0
			14.6455102620001,-92.1594832009999,0
			14.6471111710002,-92.1602482979999,0
			14.647322884,-92.160343122,0
			14.6479799270001,-92.1606374069999,0
			14.648748948,-92.1606130119999,0
			14.6489371210001,-92.1606545659999,0
			14.6494677960001,-92.160669195,0
			14.6495493520001,-92.1606712829999,0
			14.650068762,-92.160669297,0
			14.650420954,-92.160591688,0
			14.650717222,-92.1604380319999,0
			14.6510313780001,-92.160093639,0
			14.6513638070002,-92.159672912,0
			14.6518806030001,-92.1589273579999,0
			14.6522311180001,-92.158373093,0
			14.652618193,-92.157666147,0
			14.6526732940001,-92.157516404,0
			14.6527146940001,-92.1574406109999,0
			14.6527581380001,-92.1572858339999,0
			14.652857066,-92.1570169859999,0
			14.6532216050001,-92.1557879449999,0
			14.6532420530002,-92.155719004,0
			14.6535356260002,-92.154802682,0
			14.6537231990001,-92.154203146,0
			14.653911634,-92.1536847719999,0
			14.65406827,-92.153294392,0
			14.654344431,-92.152702269,0
			14.6546205250002,-92.152091087,0
			14.655224935,-92.15101341,0
			14.6557050810002,-92.1504014189999,0
			14.6559081810001,-92.1501336959999,0
			14.6561856220001,-92.1499038319999,0
			14.6567780150002,-92.149558336,0
			14.6578709250002,-92.149115561,0
			14.658185936,-92.149019016,0
			14.6584450290001,-92.14884641,0
			14.6588886130002,-92.148387089,0
			14.6594804510001,-92.1478890429999,0
			14.660146086,-92.1472763259999,0
			14.6608306160002,-92.1467588559999,0
			14.6619046890001,-92.146239865,0
			14.662609919,-92.1459667019998,0
			14.6629166180001,-92.145919933,0
			14.6642002020001,-92.145874157,0
			14.6648667000002,-92.145827604,0
			14.6651032290001,-92.1458842149999,0
			14.6660504410002,-92.1462046659999,0
			14.6667191380001,-92.146449936,0
			14.6671277840002,-92.1466008799998,0
			14.667536635,-92.14680903,0
			14.6677491880001,-92.146910444,0
			14.6680984560001,-92.1470770879999,0
			14.6681312630002,-92.1470927409999,0
			14.668363601,-92.1471873979999,0
			14.6691058820001,-92.147260778,0
			14.6692835610001,-92.1472722589999,0
			14.6693398630002,-92.147275897,0
			14.6693503820001,-92.147162279,0
			14.6718444870001,-92.14738482,0
			14.6730636320002,-92.1473296999999,0
			14.6737474950002,-92.1473897,0
			14.6739503260002,-92.1474074959999,0
			14.6747889800001,-92.1473531029999,0
			14.6761038240002,-92.1472678259998,0
			14.67944026,-92.1470514279999,0
			14.6796362520001,-92.1470225259999,0
			14.6799074160001,-92.1470109749999,0
			14.6813807720002,-92.147010976,0
			14.6820130280001,-92.146774458,0
			14.682365611,-92.146606049,0
			14.6854289320001,-92.1453468669999,0
			14.6889045350002,-92.1434299649998,0
			14.6892382040002,-92.1433660669999,0
			14.6911592320001,-92.1429981849999,0
			14.6913471450001,-92.143020705,0
			14.6923722960001,-92.143989663,0
			14.693515696,-92.1450349179999,0
			14.6944464940001,-92.145711631,0
			14.6946563700001,-92.1458529219999,0
			14.6947392010001,-92.145912322,0
			14.6947563330001,-92.1459202179999,0
			14.6952931160002,-92.146281589,0
			14.6970339790001,-92.1470947969999,0
			14.697145904,-92.1471444349999,0
			14.697758595,-92.1474161579999,0
			14.6982191850001,-92.1475019929999,0
			14.6985880450001,-92.1476671299999,0
			14.700758503,-92.1478883899999,0
			14.70328353,-92.1482809799999,0
			14.703456805,-92.148328401,0
			14.7045338720001,-92.148648416,0
			14.705029634,-92.1488371999999,0
			14.7054010450001,-92.1489501729999,0
			14.705772106,-92.1489677919999,0
			14.705782095,-92.1489666579999,0
			14.70600632,-92.1490328319999,0
			14.7073633330001,-92.149208313,0
			14.7086119440002,-92.148508135,0
			14.7089415890002,-92.148323282,0
			14.7113828780001,-92.148407208,0
			14.7129182200001,-92.1479494339999,0
			14.714779703,-92.1475984739999,0
			14.718685766,-92.1477663269999,0
			14.7205501090002,-92.1483309179999,0
			14.7222456600001,-92.149719505,0
			14.7228092860001,-92.1502495169999,0
			14.7238876700002,-92.151576974,0
			14.7240003120001,-92.151762463,0
			14.7242902380001,-92.1525500849999,0
			14.72476572,-92.1530228739999,0
			14.7248100000001,-92.1530957909999,0
			14.725319169,-92.1539261439999,0
			14.72593169,-92.1544066659999,0
			14.725979028,-92.1544438029999,0
			14.7260115240001,-92.154457018,0
			14.726343966,-92.154592207,0
			14.7265487720001,-92.1547958589999,0
			14.7266228120002,-92.154869482,0
			14.726680403,-92.154878879,0
			14.727978871,-92.155090741,0
			14.729951929,-92.1555485179999,0
			14.7309348740001,-92.155797121,0
			14.7317619160002,-92.1560062949999,0
			14.7334088310001,-92.1565861439999,0
			14.735101522,-92.157043921,0
			14.7360074690001,-92.157562733,0
			14.7370685520001,-92.1591326269999,0
			14.737997622,-92.1608483169999,0
			14.7384053470001,-92.1616271019999,0
			14.738707704,-92.1619355779999,0
			14.7387901540001,-92.1620870839999,0
			14.7402112510002,-92.163609647,0
			14.7405905230001,-92.1640638629999,0
			14.7412003170001,-92.1647378479999,0
			14.7420699,-92.1658909469999,0
			14.7428163170001,-92.1675071,0
			14.7429477220002,-92.167995236,0
			14.7430533890001,-92.16853421,0
			14.7430881500001,-92.168944628,0
			14.743169616,-92.1691270599999,0
			14.7431730270001,-92.1691444579999,0
			14.7431829770002,-92.169156981,0
			14.7433432690001,-92.1695159329999,0
			14.7436695350001,-92.1698488369999,0
			14.743749661,-92.1699305929999,0
			14.7441150740001,-92.1700042729999,0
			14.7445872580001,-92.17024312,0
			14.7446878390002,-92.1701879659999,0
			14.7454359870001,-92.1697777159999,0
			14.746114017,-92.1697243089999,0
			14.7480927960001,-92.169434385,0
			14.7489589090001,-92.169473535,0
			14.7490626570001,-92.1695462759999,0
			14.750619236,-92.1710036859999,0
			14.7509149270001,-92.1711153749998,0
			14.75154881,-92.1713548089999,0
			14.7527451660001,-92.1718067039999,0
			14.7553805310001,-92.1720262059999,0
			14.7561393440001,-92.1719192839999,0
			14.756746136,-92.1717609059999,0
			14.7576043070001,-92.171133318,0
			14.7578296180001,-92.1707831169999,0
			14.7588277920001,-92.170533054,0
			14.759330355,-92.1694420219999,0
			14.759466724,-92.1685112119998,0
			14.7596040470002,-92.1675804009999,0
			14.7597156230001,-92.1661231499999,0
			14.7599368650002,-92.164673527,0
			14.759945312,-92.1646055589999,0
			14.760102605,-92.163339946,0
			14.760708169,-92.1627787839999,0
			14.7610058850001,-92.162804278,0
			14.7620176840001,-92.1625143539999,0
			14.762240833,-92.1619268759999,0
			14.763261217,-92.1615835439999,0
			14.765403067,-92.161339399,0
			14.767012618,-92.1611274059999,0
			14.769348414,-92.1613141,0
			14.769686058,-92.1611970419999,0
			14.7697516120002,-92.1612020689999,0
			14.7713327290002,-92.1611410329999,0
			14.7730320950001,-92.1609045169999,0
			14.7742005430001,-92.1611744369999,0
			14.7743082190001,-92.1612430479998,0
			14.7747652410001,-92.1616575449999,0
			14.7753261290002,-92.1628000969999,0
			14.77588588,-92.1636304749999,0
			14.7765967080001,-92.164252141,0
			14.7773574040001,-92.1646654959999,0
			14.7789269420001,-92.1648155949999,0
			14.7799898020001,-92.164811533,0
			14.7801482290002,-92.1647701699998,0
			14.7811284000002,-92.164765095,0
			14.7816829760001,-92.1645448889999,0
			14.7821651830001,-92.164543045,0
			14.7826212590002,-92.1646974009998,0
			14.7829761100001,-92.1648521459999,0
			14.783940375,-92.1655769389999,0
			14.7877499990001,-92.169360948,0
			14.7883957330001,-92.1701239289999,0
			14.7887157480002,-92.17050205,0
			14.7894263790001,-92.171071744,0
			14.7900705180001,-92.1713055049999,0
			14.790246992,-92.171463882,0
			14.7914618910002,-92.171568642,0
			14.7928935090001,-92.1716920889999,0
			14.79300764,-92.1717418649999,0
			14.7934140310002,-92.1721566099999,0
			14.794784111,-92.1731401209998,0
			14.7956151330001,-92.173759682,0
			14.7974230290001,-92.1751075429999,0
			14.800365238,-92.176969796,0
			14.8009736980001,-92.177279729,0
			14.801733623,-92.1774850199999,0
			14.8018451460001,-92.1774900579999,0
			14.8028730300001,-92.1778651179999,0
			14.8035529670001,-92.1784983739999,0
			14.8041127480001,-92.1783305229999,0
			14.8047274350001,-92.177901076,0
			14.805024379,-92.1779941079999,0
			14.8065959270002,-92.1784554379999,0
			14.8075584910001,-92.1787120169999,0
			14.8087554630001,-92.178877176,0
			14.8092594810001,-92.1790095599998,0
			14.8115739370001,-92.1788798589999,0
			14.812119716,-92.1786387289999,0
			14.81236831,-92.1785288979999,0
			14.813720556,-92.177476015,0
			14.815356029,-92.1772394989999,0
			14.8160581600001,-92.1771666799999,0
			14.8166979980002,-92.1773833009999,0
			14.8173580010001,-92.1779532769999,0
			14.8178324370002,-92.178414477,0
			14.818300833,-92.1790858619999,0
			14.8200593240001,-92.1805278549999,0
			14.8203232940001,-92.180681519,0
			14.8216452070001,-92.1814510369999,0
			14.8229717410001,-92.1817890629999,0
			14.8231924910001,-92.1818865849999,0
			14.8238521130001,-92.1823525009999,0
			14.8242080640002,-92.1828195579999,0
			14.8247679380002,-92.1837022089999,0
			14.8251229630001,-92.1839090569999,0
			14.8255788430002,-92.184011434,0
			14.8261860030001,-92.1839571129999,0
			14.8268953140001,-92.184162635,0
			14.8275545640001,-92.1845244789999,0
			14.8282642450001,-92.1848340909999,0
			14.8285866760001,-92.184752394,0
			14.8286629590001,-92.184800432,0
			14.8301277310001,-92.1848462099999,0
			14.8310308180002,-92.1845562869999,0
			14.831761298,-92.183968808,0
			14.8318821000001,-92.1838571259999,0
			14.8325537050001,-92.183236221,0
			14.8336349310001,-92.1828688889998,0
			14.8350389200002,-92.1826794089999,0
			14.8370720560001,-92.1826183739999,0
			14.8389325860001,-92.181969859,0
			14.8399656780001,-92.181448755,0
			14.8399823390002,-92.18144774,0
			14.8407923140001,-92.1814967439999,0
			14.841241612,-92.1817640039999,0
			14.8415762290001,-92.1820702279999,0
			14.841672127,-92.182185916,0
			14.8419601000001,-92.1825333149999,0
			14.8421877320001,-92.182629848,0
			14.8422168830001,-92.182656525,0
			14.84300458,-92.1829922269999,0
			14.8436816560001,-92.182702303,0
			14.845831135,-92.1822292699999,0
			14.847477545,-92.1818401559999,0
			14.847574369,-92.181817272,0
			14.848259075,-92.1808940929999,0
			14.8494921170001,-92.179551286,0
			14.8505611360002,-92.1775141839999,0
			14.8513459280001,-92.1761036879999,0
			14.851567215,-92.1757059719999,0
			14.8519491210001,-92.1754028189999,0
			14.8524611970001,-92.1751546899999,0
			14.8529202460001,-92.1750584619999,0
			14.853053447,-92.1750305399999,0
			14.854167761,-92.1748896069999,0
			14.85562586,-92.173020358,0
			14.856112775,-92.1722412389999,0
			14.8570048550001,-92.1719622989999,0
			14.8591424990001,-92.1721084009998,0
			14.8594547340001,-92.1721500079999,0
			14.8595362030002,-92.172160864,0
			14.860155363,-92.171765739,0
			14.8604216590001,-92.1717767379998,0
			14.861665192,-92.170609411,0
			14.861607974,-92.1698006739999,0
			14.86143346,-92.1691063809999,0
			14.861030076,-92.167427871,0
			14.8605198860001,-92.166428393,0
			14.861397186,-92.1636434599999,0
			14.8616890960002,-92.163072509,0
			14.8625186950002,-92.1617667149998,0
			14.8636144150001,-92.159821168,0
			14.8642028360002,-92.158394723,0
			14.864446233,-92.157946732,0
			14.8654614500001,-92.156349459,0
			14.866123277,-92.154628924,0
			14.8663270530002,-92.1540991719999,0
			14.8673133460002,-92.151535042,0
			14.868164182,-92.1504978109999,0
			14.8686915400002,-92.1489795209999,0
			14.8688237710002,-92.1481440049999,0
			14.8688536860001,-92.1480974689999,0
			14.8697704210002,-92.147088783,0
			14.8702054090001,-92.14656279,0
			14.870933354,-92.1464850259999,0
			14.8713700120001,-92.146408413,0
			14.8719517530001,-92.1461814299998,0
			14.8729684790001,-92.145428435,0
			14.8734768420001,-92.1450519349999,0
			14.873637639,-92.1449960999999,0
			14.8751132770001,-92.1447451019999,0
			14.8763863720002,-92.1443788829999,0
			14.876514583,-92.1443327279998,0
			14.8770423460001,-92.1442888809999,0
			14.877697469,-92.144211392,0
			14.878133561,-92.1439849689999,0
			14.878356345,-92.1437540629999,0
			14.8814921,-92.142570672,0
			14.882615475,-92.142143415,0
			14.8831787930001,-92.141805472,0
			14.883660778,-92.142015681,0
			14.8840979940002,-92.142088851,0
			14.884534644,-92.1420122239999,0
			14.8848248140001,-92.1417114589999,0
			14.8849682160001,-92.1411116639999,0
			14.8851020430002,-92.140048011,0
			14.8861639290001,-92.1387253599999,0
			14.8866960550001,-92.1380615859998,0
			14.8871698460001,-92.1375735269999,0
			14.887648579,-92.137355821,0
			14.8886669630001,-92.137052147,0
			14.8899035270001,-92.1366726999999,0
			14.890849647,-92.1365191279999,0
			14.8912574720001,-92.1363647429999,0
			14.893264048,-92.1362972049999,0
			14.8936174490001,-92.1366579099999,0
			14.8942745410001,-92.1371047389999,0
			14.895295461,-92.13747521,0
			14.8961707350001,-92.137846264,0
			14.8969731880002,-92.138217611,0
			14.8979226890002,-92.138962916,0
			14.8991620760001,-92.1393325339999,0
			14.900037066,-92.1396286889999,0
			14.9006207650001,-92.1399260099999,0
			14.901422935,-92.1402224669999,0
			14.9022973620002,-92.1403688089999,0
			14.9033919390001,-92.1409637519999,0
			14.9040484620001,-92.1412607839999,0
			14.9054127690001,-92.1412652339999,0
			14.905995911,-92.1414127369999,0
			14.9063605820001,-92.141561116,0
			14.90665355,-92.142009426,0
			14.907969678,-92.143427528,0
			14.9087743650001,-92.144398198,0
			14.9095037040001,-92.144694968,0
			14.9108876030001,-92.1447644109999,0
			14.9122689840001,-92.1441596499999,0
			14.9137903670001,-92.143369585,0
			14.9138830500001,-92.143371799,0
			14.9142711770001,-92.1432497249999,0
			14.9175755010002,-92.142242621,0
			14.9185540180002,-92.14208235,0
			14.9189613230001,-92.142185389,0
			14.9193214530002,-92.1420912499999,0
			14.9205231670001,-92.1421968449999,0
			14.9213461480001,-92.142234994,0
			14.9225572570001,-92.1422426239999,0
			14.9259865060002,-92.143081882,0
			14.9262091760002,-92.143106206,0
			14.926831153,-92.1435027059999,0
			14.927851223,-92.1436485039999,0
			14.9287250860001,-92.1436450439999,0
			14.9307641030002,-92.1436369679999,0
			14.9330387040001,-92.1435537209999,0
			14.9341602320001,-92.143384351,0
			14.9350097400002,-92.1433718119999,0
			14.9353118160001,-92.1432830429999,0
			14.9374214990002,-92.1430979519999,0
			14.9376235760001,-92.1430802229999,0
			14.9387097160001,-92.14303452,0
			14.9398371700001,-92.1432784139999,0
			14.9406028390001,-92.1436065259999,0
			14.9412883570002,-92.144017751,0
			14.9415506460001,-92.144223682,0
			14.941812935,-92.1444296149999,0
			14.9424193740001,-92.1452137049999,0
			14.9434289170002,-92.146203178,0
			14.944009604,-92.1466214699999,0
			14.9448712110001,-92.1476062409999,0
			14.9460127040002,-92.14818609,0
			14.9464380230001,-92.148407349,0
			14.946691688,-92.148468386,0
			14.946893198,-92.1485196789999,0
			14.9482203550002,-92.1488574959999,0
			14.9519393360001,-92.14849624,0
			14.9529236830001,-92.148567363,0
			14.9540096700002,-92.148480283,0
			14.9546936320001,-92.1484775839999,0
			14.9552154240001,-92.1481443539999,0
			14.955697608,-92.147976865,0
			14.9558529650002,-92.1479228979999,0
			14.9569466510001,-92.1476302719999,0
			14.9601731380001,-92.146766995,0
			14.9611438720002,-92.146678741,0
			14.961728544,-92.146876707,0
			14.9620103320001,-92.1469169919999,0
			14.962412511,-92.1468740019999,0
			14.9626535950001,-92.1467902479999,0
			14.9626879550001,-92.1467698659999,0
			14.9644958550001,-92.1471617,0
			14.9648220770001,-92.1472324029999,0
			14.9653828110002,-92.147262922,0
			14.9654163550001,-92.147264746,0
			14.968891211,-92.147453663,0
			14.9715489740001,-92.147407888,0
			14.9727953660002,-92.1471561109998,0
			14.9757725970001,-92.1454318259999,0
			14.9772768080001,-92.145400551,0
			14.977844271,-92.1455758109999,0
			14.9791821620001,-92.1463940229999,0
			14.9803314790001,-92.147175913,0
			14.981481912,-92.148238754,0
			14.9819419950002,-92.148663807,0
			14.9826315870002,-92.14913296,0
			14.9832473860001,-92.1503102199999,0
			14.983631272,-92.1507805859999,0
			14.9844728290001,-92.1510132029999,0
			14.9856956350001,-92.151008383,0
			14.986917562,-92.150767628,0
			14.9875275030001,-92.1503719769999,0
			14.9878826760001,-92.149845554,0
			14.9880595450001,-92.1495834049999,0
			14.988432665,-92.1492213789999,0
			14.9887505280001,-92.1491092969999,0
			14.989226715,-92.1487209359999,0
			14.9904718280001,-92.1477054529999,0
			14.9928654370001,-92.1448214689999,0
			14.9941623730002,-92.1435396979999,0
			14.9943683570002,-92.1430285159999,0
			14.9945813520001,-92.141209744,0
			14.9946658910001,-92.1404878609999,0
			14.9951577750001,-92.1394358999999,0
			14.9957745240001,-92.1394334339999,0
			14.9969402,-92.1394716039999,0
			14.9973083930001,-92.1394836599999,0
			14.9982389050001,-92.1393108359999,0
			14.9986210430001,-92.1389710889999,0
			14.998710175,-92.1388786469999,0
			14.9997859250001,-92.1387025399999,0
			15.0005230050001,-92.138952236,0
			15.0005385320001,-92.1390761599999,0
			15.0008132550001,-92.1393005379999,0
			15.0009056580001,-92.1393057619999,0
			15.0010902970001,-92.139316198,0
			15.0018886750001,-92.1401445339999,0
			15.0026563470001,-92.1400377199999,0
			15.0034955400001,-92.1395494269999,0
			15.0043385490002,-92.137840399,0
			15.005041373,-92.1371766249999,0
			15.0058166740001,-92.1367112199998,0
			15.0089541130001,-92.1367112219999,0
			15.0121678420001,-92.135536267,0
			15.0127705350001,-92.1348038259999,0
			15.0132912170002,-92.133857757,0
			15.0135486980001,-92.1326293929999,0
			15.0144335730002,-92.131240422,0
			15.0145013740002,-92.1311339939999,0
			15.0145099570001,-92.130935624,0
			15.0146901930001,-92.1308288099999,0
			15.0149303220002,-92.130294968,0
			15.0149372750001,-92.130279511,0
			15.0152461590001,-92.129592816,0
			15.0153090990001,-92.129447855,0
			15.0153615480002,-92.128959561,0
			15.01562189,-92.126190018,0
			15.0154237880001,-92.125806733,0
			15.015230655,-92.125433062,0
			15.0152270770001,-92.1245025429999,0
			15.0150036410001,-92.123375994,0
			15.014727823,-92.12286976,0
			15.0139599090001,-92.122591028,0
			15.01343647,-92.1222830669999,0
			15.013422825,-92.121009524,0
			15.013584942,-92.120887451,0
			15.0139988180002,-92.1201626389999,0
			15.014610812,-92.1195901689999,0
			15.0146921060002,-92.119514125,0
			15.0148704350001,-92.118949535,0
			15.01453559,-92.118603976,0
			15.0147660420001,-92.1185852359999,0
			15.015258125,-92.1183577259999,0
			15.0153652640001,-92.1177371859999,0
			15.0153080840001,-92.1171173109999,0
			15.0148127210001,-92.1164992479999,0
			15.0139887180001,-92.1158825279999,0
			15.013847997,-92.1157593899999,0
			15.0133578690002,-92.1153305029999,0
			15.0133255590002,-92.114432815,0
			15.013450485,-92.1140360769999,0
			15.013525823,-92.112449122,0
			15.0134333200001,-92.111937939,0
			15.013343381,-92.1118372399998,0
			15.0135338520001,-92.1116000729999,0
			15.0135875190002,-92.111317986,0
			15.0126530790001,-92.1104762589999,0
			15.012432941,-92.1104017499999,0
			15.0124310580001,-92.110358612,0
			15.0123633510001,-92.1087716579999,0
			15.0119037030001,-92.1068184819999,0
			15.0118688490001,-92.105974322,0
			15.0117635220001,-92.1034233129999,0
			15.0113782560001,-92.102111023,0
			15.0113553700001,-92.1008445109999,0
			15.0115432350001,-92.1002570329999,0
			15.0121554650001,-92.0997763689999,0
			15.0133579910002,-92.099661925,0
			15.014630132,-92.0991049659999,0
			15.016133052,-92.0972891229999,0
			15.0174109160001,-92.095969205,0
			15.0185447800001,-92.094634027,0
			15.018480887,-92.094534843,0
			15.0188671080001,-92.0938710679999,0
			15.0192971940002,-92.0928105549999,0
			15.0200534230001,-92.0919713009999,0
			15.020411033,-92.091872116,0
			15.0216698240002,-92.0915058959999,0
			15.0213474980002,-92.0901325689999,0
			15.0212998170001,-92.08992657,0
			15.0212737860001,-92.0898122719999,0
			15.0210165890001,-92.0886829459998,0
			15.0211739390001,-92.0873859159999,0
			15.0222172100002,-92.086119405,0
			15.0242636970002,-92.0847231899999,0
			15.025811112,-92.0838912219999,0
			15.029613556,-92.0818468369999,0
			15.0306768530002,-92.0810152119999,0
			15.0337103460001,-92.0799623299999,0
			15.0338416200001,-92.079938075,0
			15.036311846,-92.079481668,0
			15.036437725,-92.0793824829999,0
			15.0379292000001,-92.079306188,0
			15.0382095670001,-92.0793748549999,0
			15.039655269,-92.079130708,0
			15.0403695370001,-92.079229894,0
			15.0411639090001,-92.079008636,0
			15.043451665,-92.079123082,0
			15.045139588,-92.0783906409999,0
			15.045300147,-92.078095705,0
			15.045443985,-92.078095086,0
			15.0458814720001,-92.077924067,0
			15.0462621330001,-92.077245854,0
			15.0463686950002,-92.0765124449999,0
			15.0461625130002,-92.075953622,0
			15.0460363920001,-92.0756117889999,0
			15.0454288920001,-92.074744034,0
			15.045394209,-92.07430118,0
			15.045897726,-92.0736374049999,0
			15.047340566,-92.072744744,0
			15.048966503,-92.0725158569999,0
			15.0504131580001,-92.0726226729999,0
			15.0509903880001,-92.0722238309999,0
			15.0512523520001,-92.0720428239999,0
			15.0526389290001,-92.070837349,0
			15.0532435300001,-92.0705169069999,0
			15.0544727570002,-92.070326168,0
			15.055259501,-92.07047876,0
			15.0559279950001,-92.070265132,0
			15.0570952360001,-92.070539798,0
			15.0574498340002,-92.0707947479999,0
			15.0574856000001,-92.071716666,0
			15.0577245090001,-92.072324096,0
			15.0580404090001,-92.07248498,0
			15.0585929040001,-92.0726854079999,0
			15.0589869480002,-92.0726837019999,0
			15.059380494,-92.072560311,0
			15.059687552,-92.0724685559999,0
			15.0601101570001,-92.0724316449999,0
			15.0603258640001,-92.0724750869999,0
			15.0604841490002,-92.072636657,0
			15.060958989,-92.073121376,0
			15.06135353,-92.0732413679999,0
			15.0615108120001,-92.0731595549999,0
			15.0617070060002,-92.072955884,0
			15.0620586650001,-92.072224197,0
			15.062083004,-92.07173604,0
			15.0646870740002,-92.0702727669999,0
			15.065293583,-92.0704100999999,0
			15.0658228460002,-92.071485873,0
			15.0663568780001,-92.071813946,0
			15.0678063930001,-92.0723709069999,0
			15.0681134610001,-92.0723480179999,0
			15.068258413,-92.072538758,0
			15.0694723820001,-92.0730117929999,0
			15.0707731320001,-92.0727600179999,0
			15.0715055190001,-92.07290498,0
			15.072369506,-92.0740723079999,0
			15.0730313240001,-92.074522455,0
			15.07580829,-92.074964973,0
			15.0781971300001,-92.0755219339999,0
			15.0793481600002,-92.0761704509999,0
			15.0801339500002,-92.0760712659999,0
			15.0808367750001,-92.075552454,0
			15.0823892820001,-92.0750412729999,0
			15.0830224930002,-92.0749268289999,0
			15.0850232050001,-92.07568216,0
			15.0870477590001,-92.075582977,0
			15.088176856,-92.0753617189999,0
			15.0892592250001,-92.0747055749999,0
			15.0902233430002,-92.075468535,0
			15.1033929500001,-92.0858600469999,0
			15.1137865460001,-92.0940618649999,0
			15.1165644660001,-92.0962515589999,0
			15.117529538,-92.097014519,0
			15.1297359810001,-92.1066430719999,0
			15.1315355930001,-92.1080643849999,0
			15.1429017740001,-92.117042215,0
			15.143164975,-92.117248214,0
			15.1552331430001,-92.1267546929999,0
			15.1560828260002,-92.127426097,0
			15.1613738820001,-92.1316013209999,0
			15.1657641960001,-92.1350657599999,0
			15.1692514800001,-92.13781761,0
			15.1824239490001,-92.1482091229999,0
			15.195349429,-92.158409895,0
			15.1955935570002,-92.158600636,0
			15.201051713,-92.1629118609999,0
			15.207183952,-92.1677559779999,0
			15.2101719450001,-92.1701698779999,0
			15.212088733,-92.1716296879999,0
			15.2151356610001,-92.1740359199999,0
			15.2169557420001,-92.1755219729998,0
			15.2207141010001,-92.1784975729999,0
			15.220761689,-92.1785352489999,0
			15.2221716090001,-92.1796515559999,0
			15.225849042,-92.1825488619999,0
			15.2276394830001,-92.183988211,0
			15.23071665,-92.186465401,0
			15.236423625,-92.1910666319998,0
			15.243131884,-92.1965269839999,0
			15.2432451940002,-92.196619219,0
			15.2440500700001,-92.1972743969998,0
			15.2486058060002,-92.200745599,0
			15.2509200980002,-92.2024579809999,0
			15.254086713,-92.20480105,0
			15.2612227860001,-92.210437811,0
			15.2614234820001,-92.210596348,0
			15.2711962730001,-92.204858901,0
			15.272877522,-92.203874684,0
			15.2873469390001,-92.1953753269999,0
			15.3018106330001,-92.1868836009999,0
			15.3162800500001,-92.1783842429999,0
			15.3307494670001,-92.1698925159999,0
			15.3452141160001,-92.1614007889999,0
			15.3596844860002,-92.1529014309999,0
			15.3741539040001,-92.1444097039999,0
			15.3886233210001,-92.1359179769999,0
			15.3955256910001,-92.1318666669999,0
			15.4000439170001,-92.1291841569998,0
			15.4030688980001,-92.1273881009999,0
			15.4175869510001,-92.1189802999999,0
			15.418768116,-92.11828715,0
			15.4047384270002,-92.107788085,0
			15.4016180040002,-92.1045074459999,0
			15.3934249880001,-92.0808563229999,0
			15.2763776780001,-92.076972961,0
			15.262064934,-92.011161805,0
			15.2642784130001,-92.008399963,0
			15.2966709140002,-91.977119445,0
			15.31917286,-91.956878661,0
			15.3185367580002,-91.9396972659998,0
			15.3615875250001,-91.8808593739998,0
			15.327776909,-91.8231430049999,0
			15.3287038800001,-91.794670105,0
			15.3433933260001,-91.7639541629999,0
			15.340334892,-91.7498016349999,0
			15.3408927910001,-91.7446746829999,0
			15.3426656720001,-91.742858887,0
			15.3455448160001,-91.7414779649998,0
			15.3446674350001,-91.730926513,0
			15.3424749380002,-91.7292861939999,0
			15.3391017920001,-91.716445922,0
			15.3368749620001,-91.707260132,0
			15.323793412,-91.6988449099999,0
			15.3042039870001,-91.6820907599999,0
			15.292561531,-91.663635255,0
			15.242498398,-91.628242492,0
			15.2344865800001,-91.622665405,0
			15.2333536140001,-91.5855941779999,0
			15.233345031,-91.5805435189999,0
			15.2278995510001,-91.5750656119999,0
			15.2244253160002,-91.569221496,0
			15.171439171,-91.5855255119999,0
			15.1532592780001,-91.618606568,0
			15.1484518060001,-91.6291198729999,0
			15.1463832860002,-91.673149108,0
			15.138456345,-91.68032837,0
			15.1387586590002,-91.6837844839999,0
			15.1361875540002,-91.6856613149999,0
			15.1339664470001,-91.6872482289999,0
			15.1314630520001,-91.6854705809998,0
			15.1286373150001,-91.688446045,0
			15.1268796920001,-91.688293458,0
			15.1247167590001,-91.6911239629999,0
			15.1212368010001,-91.692764282,0
			15.1183786390001,-91.6930160519998,0
			15.1179914480001,-91.6965179439999,0
			15.1143331520001,-91.6980819689999,0
			15.113340378,-91.7001266479999,0
			15.111005783,-91.702079774,0
			15.105569839,-91.70337677,0
			15.101993561,-91.7030715929999,0
			15.09855938,-91.7008590689999,0
			15.095773697,-91.700019837,0
			15.0925006860001,-91.6980743409999,0
			15.0901489260002,-91.695755005,0
			15.0832252500001,-91.6959533689999,0
			15.0811948770001,-91.691696167,0
			15.0781059270001,-91.6878204339999,0
			15.0755805960002,-91.68587494,0
			15.07144165,-91.6823348989999,0
			15.0710783000002,-91.6801300049999,0
			15.0694179550002,-91.6756820669999,0
			15.0592145920002,-91.6713867179999,0
			15.0568485260001,-91.665626526,0
			15.0549497620001,-91.6611022939999,0
			15.02550888,-91.6659164419999,0
			14.992102624,-91.6735382089998,0
			14.9645261770002,-91.678848266,0
			14.961101532,-91.6771621709999,0
			14.9537038800001,-91.6751785279999,0
			14.9510011680001,-91.6777725219999,0
			14.9489707960001,-91.679039002,0
			14.9466295240001,-91.6800994869999,0
			14.9429082870001,-91.6875457759999,0
			14.9393444070001,-91.6910476689999,0
			14.9352817540001,-91.6935501089999,0
			14.9343090060001,-91.6965484619999,0
			14.9329824440001,-91.6999664299999,0
			14.930892944,-91.700744629,0
			14.925206185,-91.71068573,0
			14.9244899760002,-91.713943482,0
			14.9234561930002,-91.717308045,0
			14.9221496590001,-91.725463867,0
			14.9142942430001,-91.722236634,0
			14.9109020240002,-91.719062805,0
			14.9033012380001,-91.7127075199999,0
			14.9011249540001,-91.713279724,0
			14.896663667,-91.7203598029999,0
			14.8948907860002,-91.7226486199999,0
			14.8927688600001,-91.7236175529999,0
			14.8918895730001,-91.7244033799999,0
			14.891205789,-91.7269363409999,0
			14.8927507410002,-91.7284851069999,0
			14.8928079610001,-91.729782105,0
			14.892245293,-91.730705261,0
			14.8918943410001,-91.7311019889999,0
			14.892840386,-91.733345032,0
			14.892949105,-91.733688355,0
			14.891983033,-91.737983704,0
			14.8906793590002,-91.7390670769999,0
			14.8840036390001,-91.7406082149999,0
			14.8799581520001,-91.7448959349999,0
			14.8766717910001,-91.7541732779999,0
			14.8731393820001,-91.7571411139999,0
			14.870768546,-91.7583847049999,0
			14.8617277150001,-91.7583770749999,0
			14.8566722880001,-91.7628173829999,0
			14.8513259900002,-91.7639617909999,0
			14.8409738550001,-91.7699203479999,0
			14.8383407590001,-91.771789551,0
			14.8354511260001,-91.7731094349999,0
			14.8317594530001,-91.7761611929999,0
			14.8285017010001,-91.7756347659999,0
			14.823932649,-91.7731246949999,0
			14.8158760070001,-91.7801971439999,0
			14.8150691990001,-91.7823410029998,0
			14.8125123990001,-91.783081055,0
			14.8074178700001,-91.7823028559999,0
			14.7992134100002,-91.7832794189999,0
			14.7962799080001,-91.7817001349998,0
			14.7941532140001,-91.780189514,0
			14.7928771970002,-91.7788925159999,0
			14.791868209,-91.778747559,0
			14.7901973730001,-91.7804794299999,0
			14.7846488960001,-91.7817840569999,0
			14.7820758830002,-91.7795562739999,0
			14.7794599530001,-91.778167724,0
			14.7715473170001,-91.783386231,0
			14.7678890230001,-91.784584045,0
			14.7645216000001,-91.783660889,0
			14.7570724490001,-91.7879943849999,0
			14.7555608750001,-91.7892150869999,0
			14.751754762,-91.788894652,0
			14.7452888490002,-91.790275574,0
			14.7420797360001,-91.7909393309999,0
			14.738098144,-91.7935638429999,0
			14.7364254010001,-91.795295715,0
			14.733309745,-91.79914093,0
			14.731074333,-91.8034591669999,0
			14.731833458,-91.8085708619999,0
			14.7306957250001,-91.8174819939999,0
			14.7305288320001,-91.8208847039999,0
			14.7292547230001,-91.8230361939999,0
			14.7229490290001,-91.824745177,0
			14.7207489010001,-91.828941346,0
			14.7183084490001,-91.831382751,0
			14.7145252220002,-91.8441848749999,0
			14.7145795820001,-91.8466720569999,0
			14.7182922360001,-91.848846436,0
			14.7188739780001,-91.85345459,0
			14.7189807890002,-91.8592529289999,0
			14.7174654000001,-91.862930299,0
			14.7174310680001,-91.8701858519999,0
			14.717638016,-91.875915527,0
			14.71810627,-91.877204895,0
			14.7159996040002,-91.8807983389999,0
			14.717285157,-91.8871994009999,0
			14.7176446910001,-91.8922424319999,0
			14.717558862,-91.895820618,0
			14.7182331090002,-91.8978042599999,0
			14.7165603650001,-91.8999023439999,0
			14.7156686780002,-91.901451111,0
			14.717227936,-91.9018173209999,0
			14.7180213930002,-91.9041900629999,0
			14.7185573590002,-91.9055938729999,0
			14.7205648430001,-91.906723023,0
			14.7210683820002,-91.908668517,0
			14.7202844620001,-91.9113388069998,0
			14.7228889470001,-91.912605286,0
			14.7228527070001,-91.915290832,0
			14.722462654,-91.9162368769999,0
			14.7252368920001,-91.9182510379999,0
			14.7249612810001,-91.920494079,0
			14.7243528380001,-91.92527771,0
			14.7268762590001,-91.927223206,0
			14.728498459,-91.9305343619998,0
			14.7275638580001,-91.9325790399999,0
			14.7259731290002,-91.934486389,0
			14.7269077300001,-91.9362335209998,0
			14.7250957500002,-91.9381790149999,0
			14.723734856,-91.9396209719999,0
			14.7242889400002,-91.9419784549999,0
			14.7257413880001,-91.9449081429999,0
			14.724198341,-91.94757843,0
			14.7219686510001,-91.94821167,0
			14.7193250650001,-91.950912476,0
			14.7184696200001,-91.9535369869999,0
			14.71697712,-91.9552535999999,0
			14.713669777,-91.956039429,0
			14.7127313610002,-91.9559402469999,0
			14.7111701970002,-91.9609909059999,0
			14.7125444420001,-91.963806153,0
			14.712534904,-91.967964173,0
			14.7122545240001,-91.9738922109999,0
			14.7114763270001,-91.9787063589999,0
			14.7105302800001,-91.9815216059999,0
			14.7111682900001,-91.986946105,0
			14.711921693,-91.990348817,0
			14.7119541170002,-91.9942550649999,0
			14.712698937,-92.0009765629999,0
			14.7135114670001,-92.009757996,0
			14.7175807950002,-92.02268219,0
			14.7172212610001,-92.027503968,0
			14.7133436200002,-92.0323944099999,0
			14.712813377,-92.0383758549999,0
			14.7083187110001,-92.042037964,0
			14.706660271,-92.0524826059999,0
			14.7000074390001,-92.05656433,0
			14.6944751750001,-92.0602264409999,0
			14.6908197410002,-92.065032959,0
			14.6826829900001,-92.0712890619999,0
			14.683781624,-92.0765380859999,0
			14.6845893870002,-92.0834960939999,0
			14.6793327330001,-92.0886001589999,0
			14.672812462,-92.090423584,0
			14.66469574,-92.0929031379999,0
			14.6583147060002,-92.0969009399999,0
			14.659420013,-92.103507995,0
			14.6575145730001,-92.1066131599999,0
			14.65151596,-92.1083831779999,0
			14.6469049460001,-92.111289977,0
			14.6407699590001,-92.1162567139999,0
			14.6262998580002,-92.1379928579999,0
			14.6253290180001,-92.13911438,0
			14.616782189,-92.1400146479999,0
			14.591733933,-92.0868453989999,0
			14.597723961,-92.0848846439999,0
			14.587521553,-92.0542144769998,0
			14.571076393,-92.055610658,0
			14.565331459,-92.0503082269998,0
		</coordinates>
	</polygon>
</kml>
