<?xml version="1.0" encoding="UTF-8"?>
<kml xmlns="http://earth.google.com/kml/2.2">
	<polygon id="USA_NJ_Burlington" samplingProbability="1">
		<coordinates>
			39.5583418310001,-74.4178469169999,0
			39.5560798640001,-74.421440124,0
			39.5554183610001,-74.4224195099999,0
			39.552452087,-74.4268112179999,0
			39.5556297300001,-74.432182312,0
			39.5542717170001,-74.438735876,0
			39.5532032770002,-74.4382684339999,0
			39.5515518190002,-74.437545776,0
			39.545200031,-74.4321900259999,0
			39.5441620880001,-74.4324643639999,0
			39.5406684780002,-74.4333878739999,0
			39.5402221680002,-74.4393463129999,0
			39.5438499460001,-74.4453124999999,0
			39.5482352260001,-74.446751708,0
			39.5492900000002,-74.4470979999999,0
			39.5551800000001,-74.44471,0
			39.5560910000001,-74.44471,0
			39.5578990000001,-74.4470899999999,0
			39.5583610000002,-74.450676,0
			39.5569990000001,-74.452461,0
			39.5520100000001,-74.4530559999999,0
			39.5479316720002,-74.453659058,0
			39.5475546720001,-74.4546590659999,0
			39.5470314030001,-74.4560470579999,0
			39.5470314030001,-74.456642151,0
			39.5479393000001,-74.4590301519999,0
			39.5506591800001,-74.4602203359999,0
			39.5533790600001,-74.4608230589999,0
			39.5556409800002,-74.462608185,0
			39.5551940130001,-74.4667540519999,0
			39.5551910400001,-74.4667816159999,0
			39.5533790360001,-74.470359929,0
			39.5524711600001,-74.475135802,0
			39.553791543,-74.4777359409999,0
			39.5551986700002,-74.4805068969999,0
			39.5574607860001,-74.4828872679999,0
			39.55791092,-74.485282898,0
			39.5567242040001,-74.4887955739999,0
			39.556098938,-74.4906463619999,0
			39.5570106500002,-74.4924392699999,0
			39.5619888310001,-74.4954223629999,0
			39.5642585750001,-74.5001907339999,0
			39.567428589,-74.502578736,0
			39.5679232360002,-74.5048429369999,0
			39.56834,-74.5067519999999,0
			39.5678900000001,-74.5085369999999,0
			39.5692520000001,-74.510933,0
			39.57061,-74.5133209999999,0
			39.5719725660002,-74.516011541,0
			39.572421992,-74.5168990399999,0
			39.57196,-74.519287,0
			39.570079116,-74.5213505079998,0
			39.5692405710002,-74.5222702029999,0
			39.5696151030001,-74.524207872,0
			39.5697021480001,-74.5246582029999,0
			39.5751419070002,-74.5258560189999,0
			39.577400208,-74.528236388,0
			39.5873718260002,-74.546150207,0
			39.592811585,-74.5503311159999,0
			39.5941696170001,-74.5539169309999,0
			39.5953893590001,-74.5582308199999,0
			39.5955200000002,-74.5586929999999,0
			39.5959496250001,-74.5605774209999,0
			39.5968818660001,-74.5646667479999,0
			39.5982399000002,-74.5765991219999,0
			39.6104698180001,-74.590950012,0
			39.6178576380001,-74.6036335269999,0
			39.6195220000002,-74.6064909999999,0
			39.620909172,-74.6105281389999,0
			39.6240386960001,-74.619636536,0
			39.6254005430001,-74.6232223509999,0
			39.623953462,-74.6249464859999,0
			39.6203994760001,-74.6291809079999,0
			39.619041442,-74.631568908,0
			39.6203994760001,-74.633361817,0
			39.623119355,-74.632766724,0
			39.6239599130001,-74.6330451479999,0
			39.6249389660002,-74.6333694469999,0
			39.6261242940002,-74.634420839,0
			39.6262890000002,-74.6345669999999,0
			39.6262890000002,-74.6363599999999,0
			39.6248971240001,-74.6377319819999,0
			39.624469757,-74.6381530759999,0
			39.6241655140001,-74.6389549359999,0
			39.6235694890001,-74.640525817,0
			39.6241538470002,-74.642472029,0
			39.624469757,-74.64352417,0
			39.624469757,-74.64591217,0
			39.6267318720001,-74.649497985,0
			39.6270001270001,-74.6503308659999,0
			39.6280784610001,-74.6536788939999,0
			39.6317347060001,-74.6558316369999,0
			39.6321601870002,-74.656082154,0
			39.633972169,-74.659072876,0
			39.6359167500001,-74.659442159,0
			39.6403198240001,-74.66027832,0
			39.6422856700001,-74.6596359049998,0
			39.6457600000001,-74.6585009999999,0
			39.653461,-74.6603089999999,0
			39.6580010000002,-74.659119,0
			39.662991,-74.6567459999999,0
			39.667519,-74.6573489999999,0
			39.6689027450001,-74.6582630569999,0
			39.6738586430001,-74.6615371699999,0
			39.6774787900001,-74.6639480599999,0
			39.6790354240001,-74.664177918,0
			39.6815610000002,-74.6645509999999,0
			39.6842800000001,-74.6651459999999,0
			39.6869811030002,-74.668281994,0
			39.6879005440001,-74.6693496699999,0
			39.688847151,-74.6703122179999,0
			39.69379,-74.6753389999999,0
			39.7176495640001,-74.7130626639999,0
			39.7218208310002,-74.7196578979999,0
			39.7322198790001,-74.7358401399999,0
			39.7403602600002,-74.7490158079999,0
			39.7430686960001,-74.755012512,0
			39.7448692330001,-74.7616043089999,0
			39.748931886,-74.767601014,0
			39.7516403200001,-74.7723922739999,0
			39.753910064,-74.7735977179999,0
			39.756618501,-74.7748031619999,0
			39.7570686350002,-74.7765960689999,0
			39.7588806150001,-74.7801971439999,0
			39.7606887820001,-74.78201294,0
			39.7706489560002,-74.7874298089999,0
			39.7728996290001,-74.7946166999999,0
			39.7810401930001,-74.802429199,0
			39.7841987610001,-74.8084259029999,0
			39.787349701,-74.8174209589999,0
			39.7886810310001,-74.825202941,0
			39.789112091,-74.837181092,0
			39.7886314390001,-74.8449630739999,0
			39.788162232,-74.8509368889999,0
			39.7858810420001,-74.857505798,0
			39.7835807800001,-74.866493226,0
			39.7826614390001,-74.873657227,0
			39.7821922300001,-74.877845765,0
			39.7821693430001,-74.883239746,0
			39.7830619810001,-74.8898239139999,0
			39.785308838,-74.8946228019999,0
			39.7875709540002,-74.8976287849999,0
			39.789829255,-74.9006271359999,0
			39.8228912360001,-74.9110031119999,0
			39.874969482,-74.9274826039999,0
			39.8822212220001,-74.9293212899999,0
			39.88628006,-74.9341430659999,0
			39.8894386300001,-74.93775177,0
			39.892601013,-74.942565918,0
			39.8948593140001,-74.9431762689999,0
			39.8980293280002,-74.946197511,0
			39.902542114,-74.9516220099999,0
			39.9084320070002,-74.9528579709998,0
			39.911140442,-74.9546661379999,0
			39.9174690260001,-74.9601058949999,0
			39.9210815430002,-74.9649429319999,0
			39.9219589240002,-74.973930358,0
			39.9246521000001,-74.980537415,0
			39.928260804,-74.984169005,0
			39.930980682,-74.983589173,0
			39.9323616040001,-74.980003357,0
			39.9341697690001,-74.9800109849999,0
			39.9350891120002,-74.9770202629999,0
			39.9360008240001,-74.9752273559999,0
			39.9382705680001,-74.9752426139999,0
			39.9396209720002,-74.9788360599999,0
			39.9386787420001,-74.9860382079999,0
			39.9391212460002,-74.9902420049999,0
			39.9391098030001,-74.9926376339999,0
			39.9395484930001,-74.9968414309999,0
			39.939998627,-74.9980468749999,0
			39.9417991640001,-75.0010528559999,0
			39.9422416690002,-75.0040588369999,0
			39.9435920720001,-75.00705719,0
			39.944938661,-75.0094833369999,0
			39.9458389280002,-75.0124816889999,0
			39.9467201240001,-75.016082763,0
			39.9485321040001,-75.017906189,0
			39.9503517150001,-75.0173187259999,0
			39.952171327,-75.015525817,0
			39.9530792250002,-75.0143280029998,0
			39.9550590520001,-75.0127792359999,0
			39.9567108150001,-75.013160706,0
			39.9589691160002,-75.015579224,0
			39.9644012450001,-75.018623352,0
			39.9671096800001,-75.019836426,0
			39.9698410030001,-75.0174636849999,0
			39.9721107490001,-75.0156784059999,0
			39.973930359,-75.015090942,0
			39.97574997,-75.014495849,0
			39.977561952,-75.0133132929999,0
			39.9789390560001,-75.0109329219999,0
			39.9798393260002,-75.0097274779999,0
			39.9821014400001,-75.0121536259999,0
			39.984809876,-75.015167235,0
			39.9870719900002,-75.01638031,0
			39.9893188480001,-75.0199966439999,0
			39.9920387280001,-75.0224227899999,0
			39.9929313670001,-75.025428771,0
			39.9924621580001,-75.0290298469999,0
			39.9929008480001,-75.033226014,0
			39.9942512510001,-75.035636902,0
			39.9955902090002,-75.0380630499999,0
			39.9951286320001,-75.0404510499999,0
			39.9946594230001,-75.044052124,0
			39.9942016590001,-75.047050477,0
			39.9910087590002,-75.0512161249999,0
			39.9936904900001,-75.0602493279999,0
			39.9945907600002,-75.0596466069999,0
			39.997280121,-75.0578231809999,0
			40.000049591,-75.0560989379999,0
			40.0032310500001,-75.0549163829999,0
			40.0063209540002,-75.052322389,0
			40.0084991460001,-75.0510025019999,0
			40.0109710700002,-75.047782898,0
			40.0129890440001,-75.0454864509999,0
			40.0147285460002,-75.041816711,0
			40.0164604200001,-75.0375595089999,0
			40.017730714,-75.032707215,0
			40.018989563,-75.02786255,0
			40.0205993660001,-75.0214309689999,0
			40.0230102540001,-75.0152130119999,0
			40.0240592960002,-75.012908935,0
			40.0258903510001,-75.009613037,0
			40.028381348,-75.005271912,0
			40.0286598210001,-75.0047912589999,0
			40.0311203010001,-75.0004806519999,0
			40.033802032,-74.9966964719998,0
			40.0347900390001,-74.9956665039999,0
			40.037349701,-74.992980958,0
			40.0417900090001,-74.988006592,0
			40.0440101630001,-74.985527039,0
			40.0461502080001,-74.981956482,0
			40.0488891600001,-74.9777832029999,0
			40.0506210330001,-74.9751129159999,0
			40.0516090390001,-74.9735794059999,0
			40.0543708810001,-74.967597961,0
			40.0572700500001,-74.9600906369999,0
			40.0635108950001,-74.9478301999999,0
			40.0685310370002,-74.938247681,0
			40.0706291200001,-74.933509826,0
			40.0714302060002,-74.9286727899999,0
			40.0714111320002,-74.927352905,0
			40.071338654,-74.923873902,0
			40.071769714,-74.9172363289999,0
			40.0720291140001,-74.913619994,0
			40.0728607180002,-74.909988404,0
			40.073699952,-74.9063491809999,0
			40.0745201110001,-74.9021072399999,0
			40.0753517150002,-74.8984832769999,0
			40.076450348,-74.8953628539999,0
			40.0778198250001,-74.890541078,0
			40.079158783,-74.885108948,0
			40.0805091860001,-74.8806304929999,0
			40.081871032,-74.8770294189999,0
			40.0830612180001,-74.87335968,0
			40.0842819230001,-74.869888305,0
			40.0855293280002,-74.866226196,0
			40.0868988030001,-74.8644332889999,0
			40.0887794490001,-74.8620986949999,0
			40.0906906130001,-74.8604278569999,0
			40.0926704410001,-74.8587570189999,0
			40.0946121220001,-74.8566360469999,0
			40.0963401800001,-74.8541870119999,0
			40.0979499810002,-74.851348876,0
			40.0996398920001,-74.847068786,0
			40.1014709480001,-74.8434677119998,0
			40.103290558,-74.840469361,0
			40.1056289680002,-74.8382263189999,0
			40.1087799080001,-74.8370819099999,0
			40.1128196720001,-74.8362960809999,0
			40.1164016730001,-74.8343734729999,0
			40.1198501590001,-74.8331680289999,0
			40.1227798470001,-74.8309020999999,0
			40.1251487730001,-74.8286895749999,0
			40.1268997200002,-74.8261489879999,0
			40.1278190610001,-74.8231506349999,0
			40.1287422190001,-74.8195419309999,0
			40.128749847,-74.815330506,0
			40.1278495790002,-74.811119079,0
			40.1261596680002,-74.8056716909999,0
			40.1259689340001,-74.805206299,0
			40.1238403320002,-74.7996673589999,0
			40.1230888360001,-74.7962722779998,0
			40.1226387030001,-74.793167115,0
			40.1224594120001,-74.7924499509999,0
			40.1224594120001,-74.7894363399999,0
			40.1228904720001,-74.786651612,0
			40.1237411490002,-74.7842178349999,0
			40.1252403270001,-74.7816467279999,0
			40.1255188000001,-74.781166077,0
			40.1272506710001,-74.7786560049998,0
			40.1290016180001,-74.7755889889999,0
			40.1311187750001,-74.7726364129999,0
			40.1329307550001,-74.7690429689999,0
			40.13420868,-74.7651596069999,0
			40.1344108590002,-74.764472961,0
			40.1352500910002,-74.761543273,0
			40.1356887820001,-74.7566833499998,0
			40.1357498170001,-74.7521972649999,0
			40.1357421870002,-74.7488632209999,0
			40.136520386,-74.745826721,0
			40.1386909500002,-74.741531373,0
			40.1413192750001,-74.7372131349999,0
			40.1443405150002,-74.7323760989999,0
			40.1480407730001,-74.727676391,0
			40.1520996100001,-74.725242615,0
			40.1511688240002,-74.7203674309999,0
			40.1543502810001,-74.7143707279999,0
			40.157081604,-74.7125701909999,0
			40.1652488720001,-74.7065811149999,0
			40.1675109880002,-74.7095870979999,0
			40.1693191530001,-74.7114105219999,0
			40.171588899,-74.7108230589999,0
			40.1738510130001,-74.712020875,0
			40.1756591800001,-74.7132263189999,0
			40.1774787900002,-74.7138366699999,0
			40.1797409060001,-74.7138366699999,0
			40.1820106500001,-74.71144867,0
			40.1833801270002,-74.7096405029999,0
			40.1838417060001,-74.7078399659999,0
			40.1838417060001,-74.705429076,0
			40.1838417060001,-74.7030258179999,0
			40.1820411690001,-74.6994094839999,0
			40.179771423,-74.696395873,0
			40.178871155,-74.6939773569999,0
			40.178421021,-74.6891708369999,0
			40.1788787850001,-74.684356689,0
			40.1788902290002,-74.6813430779999,0
			40.1770820610001,-74.6777267449999,0
			40.1752700810001,-74.6771163939999,0
			40.174362184,-74.6765213009999,0
			40.1711921700001,-74.6765060429999,0
			40.168010711,-74.678909301,0
			40.1666488650002,-74.67590332,0
			40.1666603080001,-74.6686782839999,0
			40.1621398930001,-74.6602478039999,0
			40.157619477,-74.6475982659999,0
			40.1526412960002,-74.639167786,0
			40.1503906250002,-74.62713623,0
			40.1472206120002,-74.6247177119999,0
			40.1431388860001,-74.6247177119999,0
			40.141780854,-74.6229095469999,0
			40.1381721500001,-74.601852417,0
			40.139080048,-74.5934295649998,0
			40.1395420000001,-74.592232,0
			40.1372901710002,-74.5908029799999,0
			40.0996513380002,-74.5669174199999,0
			40.0837898250001,-74.556091308,0
			40.0802165720001,-74.553944079,0
			40.078800201,-74.5530929569999,0
			40.0769920360001,-74.551879883,0
			40.0733604430001,-74.5500717159999,0
			40.0715484610001,-74.5488662719999,0
			40.0701088270001,-74.5480625769999,0
			40.0629386900001,-74.5440597539999,0
			40.0627640290001,-74.5439438019999,0
			40.062030793,-74.5434570309999,0
			40.058871836,-74.5418598339999,0
			40.052509309,-74.5386428829999,0
			40.0482817040001,-74.5360397159999,0
			40.0398220000002,-74.53083,0
			40.0361900000001,-74.528427,0
			40.0144310000001,-74.5194089999999,0
			40.009515515,-74.5165611959999,0
			39.999919892,-74.5110015879999,0
			39.9976354910002,-74.5096256959999,0
			39.994941711,-74.5080032349999,0
			39.9943172480001,-74.507726862,0
			39.9935798650001,-74.5074005119999,0
			39.9926719670001,-74.5074005119999,0
			39.99188394,-74.506698574,0
			39.9913101190001,-74.50618744,0
			39.9895461890001,-74.5056143469999,0
			39.9895019590001,-74.5055999769999,0
			39.9845085150001,-74.5025863639999,0
			39.9832229050001,-74.502168677,0
			39.9827003480001,-74.501998901,0
			39.9820229250001,-74.501639127,0
			39.9804310000001,-74.5007929999999,0
			39.976869741,-74.4987035299999,0
			39.9763488770001,-74.4983978269999,0
			39.9757685620002,-74.4980896259999,0
			39.9740791310001,-74.4971923829999,0
			39.9718208310001,-74.4959869389999,0
			39.971058009,-74.495654536,0
			39.9690896510001,-74.494796815,0
			39.957759857,-74.4888000499999,0
			39.9556612150001,-74.487943738,0
			39.9518699650001,-74.4863967899998,0
			39.9496002190001,-74.485198974,0
			39.9483812210001,-74.4843920069999,0
			39.946880342,-74.4833984369999,0
			39.9455184930001,-74.4828033439999,0
			39.9387573170002,-74.479028828,0
			39.9369087220001,-74.477996826,0
			39.9337310800001,-74.4768066409999,0
			39.9297575580001,-74.4747838499999,0
			39.9278410000002,-74.473808,0
			39.9264790000001,-74.47261,0
			39.9253820960001,-74.4718881779999,0
			39.92465973,-74.471412658,0
			39.923298596,-74.470958948,0
			39.922852,-74.47081,0
			39.9201320000002,-74.469612,0
			39.9149177730002,-74.4667957319999,0
			39.9101600660001,-74.4642257689999,0
			39.8954324290002,-74.455842312,0
			39.8838500980001,-74.449249267,0
			39.8820419310001,-74.4480514529999,0
			39.8713892850001,-74.442424316,0
			39.8661689770001,-74.439666748,0
			39.853469849,-74.43309784,0
			39.830341339,-74.4211425769999,0
			39.8271713250001,-74.419349671,0
			39.8265089480001,-74.4189117809999,0
			39.8262596120001,-74.4187469479999,0
			39.82496659,-74.418110634,0
			39.8226318370001,-74.4169616689999,0
			39.8162803650002,-74.413375855,0
			39.8156399850001,-74.413092437,0
			39.8149185180002,-74.4127731319999,0
			39.7636718740002,-74.3841094969999,0
			39.63809967,-74.3890914929999,0
			39.6222393260001,-74.3900062389999,0
			39.6168022170001,-74.3903198249999,0
			39.6155376410001,-74.390321948,0
			39.6122589120001,-74.3903274529999,0
			39.6109008780001,-74.3903274529999,0
			39.6086387640001,-74.3903274529999,0
			39.6069795060001,-74.3903367619999,0
			39.6059188850001,-74.3903427119999,0
			39.6036491400001,-74.3903427119999,0
			39.5980786790001,-74.3908118049999,0
			39.5964010000001,-74.3909529999999,0
			39.5945890000001,-74.3915479999999,0
			39.5936810000001,-74.392143,0
			39.5918690000001,-74.393341,0
			39.5909610000001,-74.3939359999999,0
			39.5891490000001,-74.3945389999999,0
			39.5886990000002,-74.3951259999999,0
			39.5875380570001,-74.395438621,0
			39.5864295960002,-74.3957366939999,0
			39.5837763710001,-74.396912597,0
			39.5837100000001,-74.396942,0
			39.5823520000001,-74.3975369999999,0
			39.5796320000001,-74.3975369999999,0
			39.5785184710001,-74.3979075619999,0
			39.5778198250002,-74.3981399539999,0
			39.5755500790002,-74.3987426749999,0
			39.5743550040002,-74.399932709,0
			39.573741914,-74.4005432119999,0
			39.5714797980001,-74.401138305,0
			39.5701103210002,-74.4023284909999,0
			39.569895493,-74.4046635779999,0
			39.5696716310001,-74.4070968639999,0
			39.5701217650001,-74.410087586,0
			39.5701217650001,-74.411880493,0
			39.5696716320001,-74.414268486,0
			39.5687710000001,-74.4154589999999,0
			39.5687710000001,-74.4172514919999,0
			39.5677255300001,-74.416977386,0
			39.566501617,-74.4166564939998,0
			39.5637817380002,-74.4148712159999,0
			39.5597000110002,-74.4148712159999,0
			39.5591600990001,-74.4160541699999,0
			39.5583418310001,-74.4178469169999,0
		</coordinates>
	</polygon>
</kml>
