<?xml version="1.0" encoding="UTF-8"?>
<kml xmlns="http://earth.google.com/kml/2.2">
	<polygon id="USA_NC_Wayne" samplingProbability="1">
		<coordinates>
			35.1780700690001,-77.8338470459999,0
			35.1617622370001,-77.8855133049999,0
			35.15819931,-77.889541626,0
			35.1487998970001,-77.8971099859999,0
			35.1520500190001,-77.9015197749999,0
			35.158100128,-77.90979004,0
			35.1644897470002,-77.911308289,0
			35.1696395890001,-77.9201660159999,0
			35.1739006040002,-77.9301910409999,0
			35.1728019720002,-77.944847108,0
			35.1652488710001,-77.9546127329999,0
			35.165969849,-77.970336915,0
			35.1706619270001,-77.978660583,0
			35.181159974,-77.9823226939999,0
			35.1844215390001,-77.9867324829999,0
			35.1911010740001,-78.005691529,0
			35.1940422070002,-78.018562317,0
			35.1941604630002,-78.025871277,0
			35.1926612850002,-78.044479369,0
			35.1750297540001,-78.0769958499998,0
			35.1895904540002,-78.1638565059999,0
			35.200908661,-78.162460327,0
			35.2224006660001,-78.2317504889999,0
			35.2203788760002,-78.2481231689999,0
			35.2861289970002,-78.3046569829999,0
			35.31093216,-78.292831421,0
			35.315719604,-78.2791976929999,0
			35.3232994090001,-78.269439698,0
			35.3254013050001,-78.2581176749999,0
			35.3206100460002,-78.2407608039999,0
			35.3396720890001,-78.210441589,0
			35.3386993410001,-78.2059478749999,0
			35.3417892460002,-78.2008132939999,0
			35.3412818920002,-78.1968688969999,0
			35.344718933,-78.184387207,0
			35.3464889530001,-78.181518555,0
			35.345981597,-78.1775894159999,0
			35.3467903150002,-78.171356202,0
			35.3503189080002,-78.1645126339999,0
			35.3544387810001,-78.166671752,0
			35.3585395810001,-78.167701721,0
			35.3653411870001,-78.166976929,0
			35.3721084590002,-78.1645584109999,0
			35.3774604800001,-78.158226014,0
			35.3818817140001,-78.1507797249999,0
			35.3850517280001,-78.1501388549999,0
			35.387771608,-78.1500778199999,0
			35.39107132,-78.157897949,0
			35.4191589360001,-78.1544036869998,0
			35.435810089,-78.1449584949999,0
			35.5856704710001,-78.0643768309999,0
			35.5978202830001,-78.05784607,0
			35.5859489440001,-77.9993286129999,0
			35.585571289,-77.8234100349999,0
			35.5728721620001,-77.8237762449999,0
			35.5192985540001,-77.8236083989999,0
			35.4353790290001,-77.827133179,0
			35.421249389,-77.8241424569999,0
			35.410060882,-77.80809021,0
			35.4009208690001,-77.8049697879999,0
			35.3794899000001,-77.799942017,0
			35.3723297120001,-77.8052291879999,0
			35.3664894110001,-77.808776856,0
			35.3567008970001,-77.8197708119999,0
			35.3440818780002,-77.824081421,0
			35.1780700690001,-77.8338470459999,0
		</coordinates>
	</polygon>
</kml>
