<?xml version="1.0" encoding="UTF-8"?>
<kml xmlns="http://earth.google.com/kml/2.2">
	<polygon id="USA_VA_Surry" samplingProbability="1">
		<coordinates>
			37.141967773,-76.6721191409999,0
			37.1421585090002,-76.6727828969999,0
			37.1394996650001,-76.675186157,0
			37.133140564,-76.6748504639999,0
			37.1287002560002,-76.679061889,0
			37.1214790350002,-76.680488586,0
			37.1086692800001,-76.6757812499999,0
			37.1059799190001,-76.6770400989999,0
			37.1051902770001,-76.6822586059999,0
			37.088489532,-76.6857757559999,0
			37.0827598580001,-76.692916871,0
			37.0737419130001,-76.6949768069999,0
			37.0652809150001,-76.701652527,0
			37.0602493290002,-76.70011139,0
			37.0566520700002,-76.7014007559999,0
			37.0503692630002,-76.724128723,0
			37.0400810240002,-76.749893188,0
			37.031040192,-76.7715606689999,0
			36.9978485100002,-76.8494262699999,0
			36.9443016060001,-76.9532928469999,0
			36.9711914060001,-76.9592819219999,0
			36.9812202460001,-76.9618225089999,0
			37.0016593930001,-76.962860108,0
			37.0162200930001,-76.9658203119998,0
			37.0271186840001,-76.9660263059999,0
			37.033100129,-76.970451356,0
			37.041679383,-76.9684295659999,0
			37.0456695560001,-76.9642562859999,0
			37.053421021,-76.966300964,0
			37.055480958,-76.9777679439999,0
			37.050392152,-76.9946670529999,0
			37.0518798840002,-77.0009613029999,0
			37.0578994760002,-77.0071029659998,0
			37.0585021970002,-77.0140075689999,0
			37.0669517530001,-77.028137207,0
			37.0713500990001,-77.0435791019999,0
			37.0623893740002,-77.0490570069999,0
			37.0670394900002,-77.0546874999999,0
			37.0648918160001,-77.0605163559999,0
			37.0674705500002,-77.0760116569999,0
			37.0756301870002,-77.075752258,0
			37.0802307130002,-77.0790557849999,0
			37.0848197930001,-77.0818023689999,0
			37.0858612060002,-77.088691711,0
			37.087791442,-77.0943984989999,0
			37.0847816460002,-77.1025772099999,0
			37.0925598150001,-77.106361389,0
			37.0990600600002,-77.1142272949999,0
			37.095489503,-77.1166610719999,0
			37.098949432,-77.13154602,0
			37.1012420650001,-77.1326370229999,0
			37.1028099060001,-77.143562318,0
			37.1014900210002,-77.145332336,0
			37.1024703970002,-77.149353027,0
			37.1075706490001,-77.1549530039999,0
			37.1283243540001,-77.1338864019999,0
			37.1369209290001,-77.1251602179999,0
			37.1506671540001,-77.1112601549999,0
			37.167598724,-77.094139099,0
			37.1807307690001,-77.0770376549999,0
			37.1830711370001,-77.0739898679999,0
			37.183483128,-77.073528816,0
			37.1883888260002,-77.0680389409999,0
			37.1937090010001,-77.0516655129999,0
			37.195220948,-77.0470123289999,0
			37.2024802820001,-77.0248108959999,0
			37.2027612960001,-77.0247067239999,0
			37.203613282,-77.0243911739999,0
			37.2033348090002,-77.024169923,0
			37.2030563360001,-77.024169923,0
			37.2027778630001,-77.0238876349999,0
			37.2027778630001,-77.0236129769999,0
			37.2033348090002,-77.023056031,0
			37.203609467,-77.023056031,0
			37.2038879400001,-77.0233306889999,0
			37.2038879400001,-77.0236129769999,0
			37.2044448860001,-77.023056031,0
			37.2047233590002,-77.023056031,0
			37.205001832,-77.0227813729999,0
			37.2052764900002,-77.023056031,0
			37.2052764900002,-77.0233306889999,0
			37.2060966500002,-77.023292542,0
			37.2063903820002,-77.023056031,0
			37.2066650400001,-77.023056031,0
			37.2066650400001,-77.0208358769999,0
			37.2063903820002,-77.0205535889999,0
			37.2063903820002,-77.020278931,0
			37.2058334360001,-77.0197219849999,0
			37.2057876590001,-77.018836976,0
			37.2058143620001,-77.018157959,0
			37.206069947,-77.0177001949999,0
			37.2063865670001,-77.01726532,0
			37.2069435130002,-77.0169448849999,0
			37.207221986,-77.0169448849999,0
			37.2075004590001,-77.016670227,0
			37.2075004590001,-77.016387939,0
			37.2083320630001,-77.015556335,0
			37.2083320630001,-77.0149993909999,0
			37.2087287910001,-77.0145339969999,0
			37.2092208870001,-77.0141525259999,0
			37.209712983,-77.0137405389999,0
			37.2101821900002,-77.0133056639999,0
			37.2106056220001,-77.0128402719999,0
			37.2110404970001,-77.0123977659999,0
			37.211399079,-77.011909486,0
			37.2118148810002,-77.0114974969999,0
			37.2124061590001,-77.011337279,0
			37.2130470290002,-77.0114212029999,0
			37.2137298580001,-77.0116806029999,0
			37.213890076,-77.0116653449999,0
			37.2142028810001,-77.0119400019999,0
			37.2144470220001,-77.011985779,0
			37.214828492,-77.0121688829998,0
			37.2154159550001,-77.0122528069999,0
			37.2159996040001,-77.0124435429999,0
			37.2163887030001,-77.0127868649999,0
			37.2166709910002,-77.013198852,0
			37.2168693550001,-77.0136566159999,0
			37.2167816160002,-77.0142135619999,0
			37.2167511000001,-77.0147933959999,0
			37.216831208,-77.014976502,0
			37.2169799810002,-77.015319824,0
			37.217258454,-77.0158615109999,0
			37.2175598150002,-77.016403199,0
			37.2178382880001,-77.016960145,0
			37.2180557260001,-77.0175018309999,0
			37.2188873300001,-77.018333435,0
			37.2191658030002,-77.0180587769999,0
			37.219444276,-77.0180587769999,0
			37.2200012200001,-77.0175018309999,0
			37.2202758800001,-77.0169448849999,0
			37.2205543530001,-77.016670227,0
			37.2208328260002,-77.0169448849999,0
			37.2213897700001,-77.0169448849999,0
			37.2216682430001,-77.016670227,0
			37.2219429010001,-77.016670227,0
			37.22277832,-77.015830995,0
			37.22277832,-77.015556335,0
			37.2224960340001,-77.015274049,0
			37.2222213740001,-77.0149993909999,0
			37.2222213740001,-77.0147247309999,0
			37.2219429010001,-77.0144424449999,0
			37.2219429010001,-77.014167787,0
			37.2213897700001,-77.0136108409999,0
			37.2213897700001,-77.013336183,0
			37.2219429010001,-77.012779237,0
			37.2222213740001,-77.012779237,0
			37.2236099240001,-77.011390687,0
			37.2238883970001,-77.011390687,0
			37.2241668700001,-77.0111083979999,0
			37.2247238160001,-77.0111083979999,0
			37.2249984740001,-77.011390687,0
			37.2252769470001,-77.011390687,0
			37.2258338930002,-77.0119476329999,0
			37.226112366,-77.0119476329999,0
			37.226531983,-77.0120849619999,0
			37.2269439700001,-77.0122222909999,0
			37.2272224430001,-77.0122222909999,0
			37.2275009160002,-77.012496948,0
			37.227779389,-77.012496948,0
			37.2280540470002,-77.012779237,0
			37.229999543,-77.012779237,0
			37.2302780160001,-77.012496948,0
			37.2308349620001,-77.012496948,0
			37.2313880930002,-77.0119476329999,0
			37.2316665660001,-77.0119476329999,0
			37.2319450370001,-77.0116653449999,0
			37.2322235100001,-77.0116653449999,0
			37.2324981700001,-77.011390687,0
			37.2324981700001,-77.0111083979999,0
			37.2322235100001,-77.0108337409999,0
			37.2319450370001,-77.0108337409999,0
			37.2313880930002,-77.010276795,0
			37.2308349620001,-77.0108337409999,0
			37.2308349620001,-77.0111083979999,0
			37.2305564890001,-77.011390687,0
			37.2302780160001,-77.011390687,0
			37.2294425970001,-77.010559083,0
			37.2294425970001,-77.010276795,0
			37.2296485890001,-77.009506226,0
			37.22972107,-77.0088882439999,0
			37.22972107,-77.0083312979999,0
			37.2302780160001,-77.007774352,0
			37.2302780160001,-77.0074996939999,0
			37.2305564890001,-77.007225037,0
			37.2305564890001,-77.0066680909999,0
			37.2302780160001,-77.0063858019999,0
			37.2302780160001,-77.006111144,0
			37.2304115300001,-77.0055618289999,0
			37.2305755620002,-77.0049362189999,0
			37.2308349620001,-77.004447937,0
			37.2308349620001,-77.0038909899999,0
			37.2311096200002,-77.003608704,0
			37.2311096200002,-77.003334044,0
			37.2313880930002,-77.003051758,0
			37.2313880930002,-77.0025024399999,0
			37.2317161560001,-77.0021667469999,0
			37.232025146,-77.001678467,0
			37.2323532110001,-77.0011672979999,0
			37.2327651980002,-77.000495911,0
			37.233333587,-76.9999999999999,0
			37.2348022460001,-76.9982376099999,0
			37.2352790830001,-76.997375488,0
			37.2349700930001,-76.997375488,0
			37.2341651910001,-76.9966659539999,0
			37.2338905330001,-76.9966659539999,0
			37.2338905330001,-76.996391296,0
			37.2337379460002,-76.9962387089999,0
			37.23361206,-76.9961090079998,0
			37.23361206,-76.9958343499999,0
			37.2341651910001,-76.995277404,0
			37.2341651910001,-76.995002746,0
			37.2343826290002,-76.9940109249999,0
			37.2343826290002,-76.993888854,0
			37.2342262260001,-76.9936141959998,0
			37.2344741830001,-76.9934844979999,0
			37.2344436640001,-76.9930572499999,0
			37.2344436640001,-76.9919433599999,0
			37.2341651910001,-76.9916686999999,0
			37.2341651910001,-76.991386414,0
			37.23361206,-76.9908370959999,0
			37.2333641060002,-76.988182067,0
			37.23500061,-76.9869461059999,0
			37.2352790830001,-76.9869461059999,0
			37.2358322140001,-76.9863891599999,0
			37.2361106870001,-76.9863891599999,0
			37.2363891600002,-76.986114502,0
			37.236667633,-76.986114502,0
			37.2369461060001,-76.985832214,0
			37.2374992370001,-76.985832214,0
			37.2377777100001,-76.9855575559999,0
			37.2383346560002,-76.9855575559999,0
			37.2388877870001,-76.98500061,0
			37.2388877870001,-76.9841690059999,0
			37.2391662600001,-76.983886718,0
			37.2391662600001,-76.983055114,0
			37.2394447330001,-76.9827804559999,0
			37.2394447330001,-76.9824981679999,0
			37.2402915960001,-76.9816513059999,0
			37.24055481,-76.9813919059999,0
			37.24055481,-76.9811096199999,0
			37.2408332830001,-76.9808349599999,0
			37.2408332830001,-76.9800033559999,0
			37.2406768810001,-76.979843139,0
			37.24055481,-76.97972107,0
			37.24055481,-76.9788894659999,0
			37.2402763370002,-76.9786148079999,0
			37.2402763370002,-76.977775574,0
			37.2397232060002,-76.9772186279999,0
			37.2397232060002,-76.976669312,0
			37.2394447330001,-76.976387024,0
			37.2394447330001,-76.973609924,0
			37.2391662600001,-76.9733352659999,0
			37.2392044070001,-76.9716491699999,0
			37.2388877870001,-76.97138977,0
			37.2388877870001,-76.971107484,0
			37.238609314,-76.970832824,0
			37.238609314,-76.970558166,0
			37.2383346560002,-76.97027588,0
			37.2383346560002,-76.97000122,0
			37.2377777100001,-76.9694442759999,0
			37.2377777100001,-76.9688873299999,0
			37.2374992370001,-76.96861267,0
			37.2374992370001,-76.96749878,0
			37.237220764,-76.9672241219999,0
			37.237220764,-76.966667176,0
			37.2369461060001,-76.9663925179999,0
			37.2369461060001,-76.9661102299999,0
			37.236667633,-76.9658355719999,0
			37.236667633,-76.965553284,0
			37.2352790830001,-76.9641647339999,0
			37.2352790830001,-76.963890076,0
			37.23500061,-76.9634933469999,0
			37.2347221370002,-76.9630584719999,0
			37.2344436640001,-76.9630584719999,0
			37.2341651910001,-76.9627761839999,0
			37.2341651910001,-76.9625015259999,0
			37.2338905330001,-76.9622192379999,0
			37.2338905330001,-76.96194458,0
			37.23361206,-76.9616699219999,0
			37.23361206,-76.961112976,0
			37.233333587,-76.960830688,0
			37.2328376760001,-76.958335876,0
			37.2327766410002,-76.9577789299999,0
			37.2326545720001,-76.9576568609999,0
			37.2324981700001,-76.9572219859999,0
			37.2322349550001,-76.956611633,0
			37.2320556640001,-76.9560775749999,0
			37.2319450370001,-76.955558778,0
			37.2316665660001,-76.95527649,0
			37.2316665660001,-76.954170228,0
			37.2315750120001,-76.9538879399998,0
			37.2315750120001,-76.9533309939999,0
			37.2313880930002,-76.952774048,0
			37.2313880930002,-76.9511108399999,0
			37.2311096200002,-76.9508361819999,0
			37.2311096200002,-76.949996948,0
			37.2308959950001,-76.949996948,0
			37.230758666,-76.949142455,0
			37.2306289680001,-76.9489364629999,0
			37.2302932740001,-76.948951721,0
			37.2299957280002,-76.948661805,0
			37.2298469540001,-76.9482727039999,0
			37.2294425970001,-76.9479904179998,0
			37.2291679390001,-76.9478378289999,0
			37.2288894660001,-76.947502136,0
			37.2286109930001,-76.947502136,0
			37.2263870240002,-76.9452743529999,0
			37.2258338930002,-76.9447250379999,0
			37.2258338930002,-76.9441680919999,0
			37.2257385260002,-76.944046021,0
			37.2255401620001,-76.943618774,0
			37.2254638680002,-76.9434585559999,0
			37.2252807620001,-76.9430694579999,0
			37.224948884,-76.9425659189999,0
			37.2246170040001,-76.9420776359999,0
			37.2244186390001,-76.9415206899999,0
			37.2241821280002,-76.940986633,0
			37.2239685060001,-76.940437317,0
			37.2235832220002,-76.9401702869999,0
			37.2229194640001,-76.9398803709999,0
			37.222587586,-76.9391708379999,0
			37.2226066590001,-76.938926696,0
			37.2219924930001,-76.9385910029999,0
			37.221565248,-76.9379882819999,0
			37.2215270990001,-76.9372024529999,0
			37.2213897700001,-76.936668395,0
			37.2213897700001,-76.9361114489999,0
			37.221111297,-76.9358367909999,0
			37.221111297,-76.9355545049999,0
			37.2208328260002,-76.935279845,0
			37.219444276,-76.9336090089999,0
			37.2180557260001,-76.932685851,0
			37.2176856990001,-76.9325637829999,0
			37.216880798,-76.9314193719999,0
			37.2167282110001,-76.930122376,0
			37.2169456490001,-76.9294433589999,0
			37.2168502820002,-76.9291687009999,0
			37.2169456490001,-76.9288864129999,0
			37.2164497380001,-76.928085328,0
			37.21641922,-76.927497863,0
			37.2164497380001,-76.9270706179999,0
			37.21611023,-76.9263916009999,0
			37.21611023,-76.9261093129999,0
			37.215831757,-76.925834655,0
			37.215831757,-76.9255523689999,0
			37.2155570990002,-76.9252777089999,0
			37.2155570990002,-76.925003051,0
			37.2150001530001,-76.9244461049999,0
			37.2150001530001,-76.9241638189999,0
			37.2147216800001,-76.9238891589999,0
			37.2143516550001,-76.923515319,0
			37.2141304020002,-76.9228973399999,0
			37.213890076,-76.922225951,0
			37.2135887140001,-76.9222412119999,0
			37.2132949830001,-76.9215698249999,0
			37.2129325860002,-76.9211425779999,0
			37.2129020690001,-76.92086029,0
			37.212501526,-76.920677186,0
			37.212203979,-76.920570373,0
			37.2120971690001,-76.920310974,0
			37.2105560300002,-76.9183349609999,0
			37.2105560300002,-76.918052673,0
			37.2099990840001,-76.9175033569999,0
			37.2096862790001,-76.917533874,0
			37.2097206130001,-76.9172210689999,0
			37.2091903680002,-76.9166564949999,0
			37.2088623050001,-76.9160537719999,0
			37.2084999080001,-76.9155120839999,0
			37.2081336980002,-76.914978027,0
			37.2079696660001,-76.914901733,0
			37.2076110840001,-76.914604187,0
			37.2068595890001,-76.9140777589999,0
			37.2061119090001,-76.913406373,0
			37.2055206310001,-76.912567138,0
			37.2049980170002,-76.9118041999998,0
			37.2041664130001,-76.9107437129999,0
			37.203609467,-76.9100036629999,0
			37.2024993900001,-76.9083328249999,0
			37.2024993900001,-76.9080581669999,0
			37.202220917,-76.9077758789999,0
			37.2019462590001,-76.9069442749999,0
			37.201698304,-76.9067001339999,0
			37.2012825020001,-76.90588379,0
			37.2012062070001,-76.9055938719999,0
			37.2011070250001,-76.905357361,0
			37.2008361820002,-76.904960632,0
			37.2006607060002,-76.904457093,0
			37.2005043030001,-76.903579712,0
			37.200317382,-76.903327943,0
			37.2002830510001,-76.9030380249999,0
			37.199905396,-76.901947021,0
			37.1997222900002,-76.9013900749999,0
			37.1997222900002,-76.9005584709999,0
			37.1991653440001,-76.9000015269999,0
			37.1991653440001,-76.8997192389999,0
			37.1991348270001,-76.899444581,0
			37.1988906860001,-76.897781373,0
			37.1990737920001,-76.8972244269999,0
			37.1994056700001,-76.895721436,0
			37.199394226,-76.8955612189999,0
			37.1992263790001,-76.8934860219999,0
			37.1994438170001,-76.893058777,0
			37.1994743350002,-76.8925323489999,0
			37.1994857780002,-76.8920211779999,0
			37.199642181,-76.8915481559999,0
			37.199726105,-76.891014099,0
			37.1998138440001,-76.8904876709999,0
			37.1999855040001,-76.8899688719999,0
			37.2001342780002,-76.8894424449999,0
			37.2003021240002,-76.8889389039999,0
			37.200435638,-76.8886566159999,0
			37.2004547110001,-76.8883895879999,0
			37.201095581,-76.8865203849999,0
			37.2010536190001,-76.885993958,0
			37.2011222850001,-76.885635376,0
			37.2013053890001,-76.885345458,0
			37.201358796,-76.884971618,0
			37.2013664240001,-76.884544373,0
			37.2014999400002,-76.8840942389999,0
			37.2017135630002,-76.8835830679999,0
			37.202003479,-76.883003235,0
			37.20229721,-76.8824005119999,0
			37.2025184630002,-76.881729126,0
			37.2027778630001,-76.8810882559999,0
			37.2030563360001,-76.8804473879999,0
			37.2033348090002,-76.8798217769999,0
			37.203609467,-76.8791885369999,0
			37.2038764960002,-76.878570558,0
			37.2041015620001,-76.877983093,0
			37.2043266300001,-76.877586364,0
			37.2044448860001,-76.8771591189999,0
			37.2045516980001,-76.8767318719999,0
			37.2047081000001,-76.8763351429999,0
			37.2048110960001,-76.875915528,0
			37.2049026500002,-76.8754882809999,0
			37.204982758,-76.875045775,0
			37.205039979,-76.8745880139999,0
			37.2052192690002,-76.874198913,0
			37.2053375250002,-76.873748779,0
			37.2055282590001,-76.873313904,0
			37.20565033,-76.8728561399999,0
			37.2058486940001,-76.8724441529999,0
			37.206104279,-76.8720779409999,0
			37.206359863,-76.871696473,0
			37.2066116340002,-76.8713150029999,0
			37.2068367000001,-76.8709106439999,0
			37.2069511410001,-76.87046814,0
			37.2070732110001,-76.8700256349999,0
			37.207248687,-76.869606018,0
			37.2074928290002,-76.8692169189999,0
			37.2077445980001,-76.8687820439999,0
			37.2078056330001,-76.868621827,0
			37.207916261,-76.8683166499999,0
			37.208095552,-76.8678207389999,0
			37.2083320630001,-76.867500304,0
			37.208610536,-76.8672256459999,0
			37.208610536,-76.8669433599999,0
			37.208889009,-76.8666686999999,0
			37.208889009,-76.8663864139999,0
			37.2091674800001,-76.866111756,0
			37.2091674800001,-76.8655548099999,0
			37.2092590340002,-76.864570617,0
			37.2091331480001,-76.864013671,0
			37.2092285150001,-76.8638916019999,0
			37.2092285150001,-76.863304138,0
			37.2093200690002,-76.8628692619999,0
			37.2090721130001,-76.862220764,0
			37.208889009,-76.861663818,0
			37.208518982,-76.8601837159999,0
			37.2080879210002,-76.8591690059999,0
			37.207962036,-76.85710144,0
			37.207992554,-76.8568191529999,0
			37.2081184380002,-76.85583496,0
			37.2082099920001,-76.855552674,0
			37.2083320630001,-76.8550033559999,0
			37.2080574050001,-76.85472107,0
			37.2080574050001,-76.8538894659999,0
			37.2077789320001,-76.8536148059999,0
			37.2077789320001,-76.8533325199999,0
			37.2075004590001,-76.853057862,0
			37.2075004590001,-76.8522186279999,0
			37.2077789320001,-76.85194397,0
			37.2077789320001,-76.8511123659999,0
			37.2080574050001,-76.8508300779999,0
			37.2080574050001,-76.8505554199999,0
			37.2080879210002,-76.850433349,0
			37.2077789320001,-76.8497238159999,0
			37.2077789320001,-76.8477783199999,0
			37.2075004590001,-76.847503662,0
			37.2075004590001,-76.8469467159999,0
			37.2071609500001,-76.8466644279999,0
			37.2074050900001,-76.845680237,0
			37.2073135380002,-76.845397949,0
			37.207439423,-76.8450012199999,0
			37.2072830210002,-76.844718934,0
			37.207221986,-76.84361267,0
			37.2075004590001,-76.843330384,0
			37.2075004590001,-76.842781066,0
			37.207221986,-76.8424987799999,0
			37.2069435130002,-76.8424987799999,0
			37.2069435130002,-76.84111023,0
			37.2075004590001,-76.840553284,0
			37.2075004590001,-76.83972168,0
			37.207221986,-76.8394470219998,0
			37.207221986,-76.8391647339999,0
			37.2066612250001,-76.8386077879999,0
			37.2066726680001,-76.8380584719999,0
			37.2063903820002,-76.8377761839999,0
			37.2063903820002,-76.837501526,0
			37.206420898,-76.837219238,0
			37.206047058,-76.8370971669999,0
			37.2063903820002,-76.8366699219999,0
			37.2061424250002,-76.83657074,0
			37.2061119090001,-76.8358306879999,0
			37.2061119090001,-76.8327789299998,0
			37.2063903820002,-76.8324966439999,0
			37.2063903820002,-76.8313903819999,0
			37.206420898,-76.8311080939999,0
			37.2063903820002,-76.830833436,0
			37.2063903820002,-76.8305587779999,0
			37.2061119090001,-76.8302764899999,0
			37.2061119090001,-76.8300018319999,0
			37.2058334360001,-76.8297195439999,0
			37.2058334360001,-76.8294448859999,0
			37.2061119090001,-76.829170228,0
			37.2061119090001,-76.8283309939999,0
			37.2063903820002,-76.828056336,0
			37.2061119090001,-76.827774048,0
			37.2063903820002,-76.8274993899999,0
			37.2063903820002,-76.8269424439999,0
			37.2061119090001,-76.8266677859999,0
			37.2061119090001,-76.8258361819999,0
			37.2061080940001,-76.8252563469999,0
			37.2061119090001,-76.82472992,0
			37.2061119090001,-76.824226379,0
			37.2061119090001,-76.8237457269999,0
			37.2061119090001,-76.823287965,0
			37.2061119090001,-76.8227767939999,0
			37.2058334360001,-76.822502136,0
			37.2058334360001,-76.8208312999998,0
			37.2061119090001,-76.8205566399999,0
			37.2061119090001,-76.8202743539999,0
			37.2058334360001,-76.819999696,0
			37.2058334360001,-76.819725036,0
			37.2052764900002,-76.819168092,0
			37.2052764900002,-76.8177795419999,0
			37.2055549630001,-76.8174972529999,0
			37.2055549630001,-76.8166656499999,0
			37.2058334360001,-76.816390992,0
			37.2058334360001,-76.815551757,0
			37.2057724000002,-76.8150024419999,0
			37.2056465150002,-76.8145675659999,0
			37.2058334360001,-76.8141632069999,0
			37.2058334360001,-76.813613892,0
			37.205615998,-76.813484193,0
			37.2058334360001,-76.813056946,0
			37.2054634090001,-76.8130874639999,0
			37.2052764900002,-76.8122253419999,0
			37.2052764900002,-76.810836792,0
			37.2055549630001,-76.8105545029999,0
			37.2055549630001,-76.809997559,0
			37.2058334360001,-76.8097228989999,0
			37.2058334360001,-76.8075027469999,0
			37.2063903820002,-76.806945801,0
			37.2063903820002,-76.806663513,0
			37.2069435130002,-76.8061141969999,0
			37.2069435130002,-76.805000305,0
			37.207221986,-76.8047256469999,0
			37.207221986,-76.804168701,0
			37.2069473280001,-76.803535462,0
			37.2067260750001,-76.8029251109999,0
			37.2065429690001,-76.8023376459999,0
			37.2061729440001,-76.8018341069999,0
			37.2055549630001,-76.8015136719999,0
			37.2048454290002,-76.8013610849999,0
			37.2041320810001,-76.801315308,0
			37.2034873960001,-76.801521302,0
			37.2029380800001,-76.8018569949999,0
			37.2023696910001,-76.8021850589999,0
			37.2017745980002,-76.802459716,0
			37.2011337280001,-76.8026351919999,0
			37.200447083,-76.802612304,0
			37.1997451780001,-76.802459716,0
			37.199058533,-76.8022308349999,0
			37.1983680730001,-76.8019943239999,0
			37.1976737980002,-76.8017730719999,0
			37.1970405590001,-76.8015136719999,0
			37.1964454660001,-76.8011932369999,0
			37.195819854,-76.800918579,0
			37.1955871580001,-76.8007812499998,0
			37.1954994210001,-76.800712585,0
			37.1952781690001,-76.800552367,0
			37.1949996950001,-76.800834655,0
			37.193622589,-76.800758362,0
			37.1936073300001,-76.800979614,0
			37.1935920720001,-76.8012313839999,0
			37.193504333,-76.8014831529999,0
			37.1933403030001,-76.8017120359999,0
			37.1931762700002,-76.801971436,0
			37.1930313110001,-76.8022766109999,0
			37.192840577,-76.8025588989999,0
			37.1926689140001,-76.802894592,0
			37.1924934380002,-76.8032760619998,0
			37.1923141470002,-76.8036880489999,0
			37.1921882640002,-76.8041458129999,0
			37.1919403070002,-76.804542541,0
			37.1916389460001,-76.8049087529998,0
			37.1912803660002,-76.8052139279999,0
			37.1908569340001,-76.8054275509999,0
			37.1904411320002,-76.805671692,0
			37.1900444030001,-76.8059310909999,0
			37.1896743780001,-76.806221008,0
			37.189231873,-76.80643463,0
			37.188793182,-76.8066711429999,0
			37.188354492,-76.806915283,0
			37.1878891000001,-76.8071136469999,0
			37.187385559,-76.807304383,0
			37.1868209850001,-76.8074722289999,0
			37.1862182620002,-76.8075027469999,0
			37.185619354,-76.807479859,0
			37.185050964,-76.8073348999999,0
			37.184551239,-76.8070449839999,0
			37.1841659550001,-76.806663513,0
			37.1827774050001,-76.806663513,0
			37.1824989320001,-76.8063888549999,0
			37.1822204590001,-76.8063888549999,0
			37.1819458010001,-76.8061141969999,0
			37.1813888550002,-76.8061141969999,0
			37.1811103820002,-76.8058319089998,0
			37.1808319090001,-76.8058319089998,0
			37.1805572510001,-76.8055572509999,0
			37.1802787780001,-76.8055572509999,0
			37.180000305,-76.8052749629999,0
			37.1794433590001,-76.8052749629999,0
			37.1786117550001,-76.8061141969999,0
			37.1786117550001,-76.806663513,0
			37.1788902280001,-76.806945801,0
			37.1788902280001,-76.807220459,0
			37.1791648860001,-76.8075027469999,0
			37.1791648860001,-76.808609009,0
			37.1788902280001,-76.8088912949999,0
			37.1788902280001,-76.809448242,0
			37.1786117550001,-76.8097228989999,0
			37.1786117550001,-76.809997559,0
			37.178333282,-76.810279846,0
			37.178333282,-76.8105545029999,0
			37.1780548090002,-76.8105545029999,0
			37.1777763360001,-76.810836792,0
			37.1769447320001,-76.810836792,0
			37.1763877860002,-76.810279846,0
			37.1772232050001,-76.809448242,0
			37.1772232050001,-76.8091659549999,0
			37.1775016780002,-76.8088912949999,0
			37.1775016780002,-76.807220459,0
			37.1777763360001,-76.806945801,0
			37.1777763360001,-76.8063888549999,0
			37.1772232050001,-76.8058319089998,0
			37.1772232050001,-76.8055572509999,0
			37.1775016780002,-76.8052749629999,0
			37.1775016780002,-76.805000305,0
			37.178333282,-76.804168701,0
			37.1786117550001,-76.804168701,0
			37.1791648860001,-76.803611755,0
			37.1794433590001,-76.803611755,0
			37.179721832,-76.8033370969998,0
			37.1802787780001,-76.8033370969998,0
			37.1813888550002,-76.8044433589999,0
			37.1813888550002,-76.8047256469999,0
			37.1816673280001,-76.805000305,0
			37.1822204590001,-76.8044433589999,0
			37.1824989320001,-76.8044433589999,0
			37.1827774050001,-76.804168701,0
			37.1847229010002,-76.804168701,0
			37.1854667660002,-76.8039550789999,0
			37.1861343380002,-76.8039932259999,0
			37.1866912840001,-76.8038482659999,0
			37.1871337890001,-76.8035583499999,0
			37.187496186,-76.8031692499999,0
			37.1878128060001,-76.802726746,0
			37.1880645760002,-76.802223205,0
			37.1883239750001,-76.8017196659999,0
			37.1885223390001,-76.801177979,0
			37.1886215220001,-76.8005905159999,0
			37.1887397770002,-76.8000183099999,0
			37.18889618,-76.799476624,0
			37.1890830990001,-76.7989501949999,0
			37.1892013560001,-76.798408509,0
			37.1894073490001,-76.7979507449999,0
			37.1895256040001,-76.7974472039999,0
			37.1897239680002,-76.7969436649999,0
			37.1897239680002,-76.7966690069999,0
			37.1899986260001,-76.7963867189999,0
			37.188610076,-76.7949981689999,0
			37.1891670220001,-76.794441223,0
			37.1891670220001,-76.793891907,0
			37.1888885490001,-76.7936096189999,0
			37.1888885490001,-76.7933349609999,0
			37.1886253370001,-76.7928924559999,0
			37.1883316030002,-76.792419433,0
			37.1880569450001,-76.7919082639999,0
			37.1877899180002,-76.791374207,0
			37.1875495910001,-76.7908096309999,0
			37.1873359690002,-76.790222168,0
			37.1870346070001,-76.7897033689999,0
			37.1867103570001,-76.7891769409999,0
			37.186401368,-76.788619995,0
			37.1860656740001,-76.7880783079999,0
			37.185657501,-76.787590027,0
			37.1851921090001,-76.787147521,0
			37.1847686760001,-76.7866516109999,0
			37.1843986510002,-76.786102295,0
			37.1839942930001,-76.785560607,0
			37.183559417,-76.785049438,0
			37.1830520630001,-76.7846069349999,0
			37.1825180060001,-76.784194946,0
			37.1819839480001,-76.783790589,0
			37.1814613340001,-76.7833709719999,0
			37.1809310910002,-76.782852173,0
			37.1803741450001,-76.7822647099999,0
			37.179916381,-76.7821960439999,0
			37.1797180170001,-76.782333373,0
			37.1794853210001,-76.782463074,0
			37.1791915900002,-76.782501221,0
			37.1788673400002,-76.782501221,0
			37.1785202030001,-76.7824554439999,0
			37.1781806950001,-76.782279968,0
			37.1778030400001,-76.7821807859999,0
			37.1775169370001,-76.7819671629999,0
			37.1772422790001,-76.7817459109999,0
			37.177024841,-76.7814483639999,0
			37.1768760690002,-76.7810668939999,0
			37.1766662590001,-76.780700684,0
			37.17647171,-76.7803344719999,0
			37.1763954160001,-76.779922485,0
			37.1763877860002,-76.77949524,0
			37.1763877860002,-76.7791671749999,0
			37.1763877860002,-76.7786102289999,0
			37.1766662590001,-76.778335571,0
			37.1766662590001,-76.7777786249999,0
			37.1761093150001,-76.777221679,0
			37.1761093150001,-76.776947021,0
			37.1758346550002,-76.776664733,0
			37.1758346550002,-76.7755584709998,0
			37.1749992380001,-76.7747192389999,0
			37.174888611,-76.7741928089999,0
			37.1747055050002,-76.7738113409999,0
			37.1744880670001,-76.773460388,0
			37.1743316650001,-76.773094178,0
			37.174144746,-76.7727737429999,0
			37.1739234930001,-76.7724990849999,0
			37.173809052,-76.77217102,0
			37.1736297620001,-76.7719268799999,0
			37.1735038760002,-76.7716903689999,0
			37.173412324,-76.771469117,0
			37.1734809870001,-76.7712249749999,0
			37.1734046940001,-76.7709426869999,0
			37.1727638240002,-76.7706069939999,0
			37.1722755430002,-76.77016449,0
			37.1719207770001,-76.769653319,0
			37.1716461190002,-76.7690887449999,0
			37.1713790890001,-76.768547057,0
			37.171127319,-76.7680206299999,0
			37.1709175120002,-76.767494201,0
			37.170822143,-76.766929626,0
			37.1707115180002,-76.7663879389999,0
			37.170478821,-76.7659454349999,0
			37.1701889030001,-76.7655410759999,0
			37.1699028020001,-76.76512909,0
			37.1696624760001,-76.764656067,0
			37.1694259650001,-76.7641830449999,0
			37.1691665650002,-76.7637252809999,0
			37.1689071660001,-76.7632751469999,0
			37.1686744690002,-76.7628173839999,0
			37.1684570320002,-76.76235199,0
			37.1681480400002,-76.761970519,0
			37.1677932730001,-76.7616271979999,0
			37.1674118050001,-76.7613067629999,0
			37.166938783,-76.7610626219999,0
			37.1664733890001,-76.7607955939999,0
			37.1660308830001,-76.760467529,0
			37.1656036380002,-76.7601165769999,0
			37.165199279,-76.7597274789999,0
			37.1648063660001,-76.7593307499999,0
			37.164443969,-76.758888245,0
			37.1640777590001,-76.7584381109999,0
			37.163661957,-76.7580184939999,0
			37.1632270820002,-76.7576065069999,0
			37.1627349860001,-76.7572479249999,0
			37.1622009290001,-76.7569274899999,0
			37.1616516110001,-76.756607055,0
			37.1611289980002,-76.756217957,0
			37.160617829,-76.75579071,0
			37.1601104730001,-76.755340576,0
			37.1595916740001,-76.754913331,0
			37.1591224670001,-76.7544403079999,0
			37.158676148,-76.7539291369999,0
			37.1582603460001,-76.7533874519999,0
			37.157848357,-76.752830506,0
			37.1574897780001,-76.7521972659999,0
			37.1571350090002,-76.7515869149999,0
			37.1566925050001,-76.7513885509999,0
			37.156234742,-76.7513351429999,0
			37.1558036810001,-76.751121521,0
			37.1553649910001,-76.750900268,0
			37.1549797050002,-76.7506027219999,0
			37.1545829770002,-76.750289917,0
			37.1541481010001,-76.7499847419999,0
			37.1536865240002,-76.7496795659999,0
			37.1532249460002,-76.7493515009999,0
			37.1527061460001,-76.7490997309999,0
			37.1521797190001,-76.7488403309999,0
			37.151668548,-76.7485580449999,0
			37.1511726370001,-76.74823761,0
			37.1507415770001,-76.7478179929999,0
			37.150310517,-76.7473907459999,0
			37.1499977120002,-76.7468566889999,0
			37.1497192390001,-76.7462844839999,0
			37.1494598390001,-76.7457046519999,0
			37.1492652900001,-76.745094298,0
			37.1491165160001,-76.7444763189999,0
			37.148864746,-76.7439346309999,0
			37.1486091620002,-76.7433776849999,0
			37.148334504,-76.742851258,0
			37.1480560310002,-76.742332459,0
			37.1477088920001,-76.741836548,0
			37.1474990850001,-76.741317749,0
			37.1472396850002,-76.7408065799999,0
			37.1470489510002,-76.740257264,0
			37.1468963620001,-76.7396926879999,0
			37.1467056280001,-76.7391509999999,0
			37.1466369620001,-76.7385787959999,0
			37.146503448,-76.7380294799999,0
			37.146404266,-76.7374725339999,0
			37.1463432310001,-76.7369155879999,0
			37.1461715700001,-76.736412049,0
			37.1461143500002,-76.7358932499998,0
			37.1461105350002,-76.7353668219999,0
			37.1461105350002,-76.73500824,0
			37.1460723880001,-76.7348480229999,0
			37.1461105350002,-76.7343215939998,0
			37.1461143500002,-76.7337951659999,0
			37.1461105350002,-76.7332763669999,0
			37.146068573,-76.7327575679999,0
			37.1459083550001,-76.7322769169999,0
			37.145839692,-76.73173523,0
			37.1458244340002,-76.7312087999999,0
			37.1457633980001,-76.7306976309999,0
			37.1455955510002,-76.7302246089999,0
			37.1455574040001,-76.7297286979999,0
			37.1455535890001,-76.729225159,0
			37.1455535890001,-76.728713988,0
			37.1455535890001,-76.7282104499999,0
			37.1455574040001,-76.72769928,0
			37.1456031810001,-76.72719574,0
			37.1457786570001,-76.7267074589999,0
			37.1458282470001,-76.726165771,0
			37.1458358770001,-76.7256011969999,0
			37.1458778390001,-76.7250442509999,0
			37.1460876460001,-76.7245407099999,0
			37.1462593090002,-76.724014283,0
			37.1463127140001,-76.7238388069999,0
			37.146415711,-76.723495484,0
			37.1466293340002,-76.7230148309999,0
			37.1466979970001,-76.7224731449999,0
			37.1466827390001,-76.7218933109999,0
			37.1467247010002,-76.721313476,0
			37.1469001770001,-76.7207489019999,0
			37.146942139,-76.720146179,0
			37.1469535840002,-76.7195358279999,0
			37.1469879160002,-76.718933105,0
			37.1472358700001,-76.7183914189999,0
			37.1473731990002,-76.718177795,0
			37.1475448620001,-76.7179107669999,0
			37.1479339600001,-76.7174758909998,0
			37.1482543950001,-76.7169876089999,0
			37.148441314,-76.716377258,0
			37.1485672000001,-76.71573639,0
			37.1486663820002,-76.7151107779999,0
			37.1489410400001,-76.7145919789999,0
			37.1493606570001,-76.714195251,0
			37.1498680110002,-76.7138900759999,0
			37.150398255,-76.7136077879999,0
			37.1509284980001,-76.7133254999999,0
			37.151439667,-76.713005067,0
			37.1519317630001,-76.7126693719999,0
			37.1524124150002,-76.7123107919999,0
			37.1529083260001,-76.7119522099999,0
			37.1534004210001,-76.71157837,0
			37.15385437,-76.7111740109999,0
			37.154369354,-76.7108306879999,0
			37.1548881530001,-76.710494995,0
			37.1553382870002,-76.710083008,0
			37.1558341980001,-76.7097320559999,0
			37.156379701,-76.7094497679999,0
			37.1569366450001,-76.70917511,0
			37.157497406,-76.7088928219999,0
			37.1580581670001,-76.7086105339999,0
			37.1586189280001,-76.7083282479999,0
			37.1591949460001,-76.70805359,0
			37.159778595,-76.7078170769999,0
			37.160411835,-76.70777893,0
			37.1610488900001,-76.7077484129999,0
			37.1616516110001,-76.707595826,0
			37.1622314450001,-76.707382201,0
			37.162822723,-76.7071762089999,0
			37.1634330740002,-76.7069778449999,0
			37.1641120910001,-76.7068328849999,0
			37.1648139960002,-76.706855774,0
			37.1655273440001,-76.7065048219999,0
			37.166255951,-76.7062606809999,0
			37.1665840140001,-76.705871583,0
			37.166877748,-76.705497743,0
			37.1669807430002,-76.7053375249999,0
			37.1671257020001,-76.705108642,0
			37.167419433,-76.704803468,0
			37.1677131650002,-76.704521179,0
			37.1680374150002,-76.704299927,0
			37.1683387760002,-76.704078674,0
			37.1686553960001,-76.7039184559999,0
			37.1690216060002,-76.70388794,0
			37.1693840030001,-76.7038955679999,0
			37.1697387690001,-76.7039489749999,0
			37.170078278,-76.70400238,0
			37.1705245960002,-76.703468323,0
			37.1709747320001,-76.702888488,0
			37.171340942,-76.7023010249999,0
			37.1715850830001,-76.7017135629999,0
			37.1718139640001,-76.7011337279999,0
			37.1720886220001,-76.700584412,0
			37.1724205020002,-76.700080871,0
			37.1727523810001,-76.6995925909999,0
			37.173057557,-76.69909668,0
			37.1733741770001,-76.6986618049999,0
			37.173786164,-76.698410033,0
			37.174301148,-76.69833374,0
			37.174854279,-76.69796753,0
			37.1753883370002,-76.6974563609999,0
			37.1759986880002,-76.6970291139999,0
			37.176677704,-76.6967010499999,0
			37.177410126,-76.6964645389999,0
			37.1781616220001,-76.6962738029999,0
			37.1785163880001,-76.69593811,0
			37.178798676,-76.6955871579999,0
			37.1791496280001,-76.695343017,0
			37.1796226500002,-76.695281982,0
			37.180133819,-76.6952743539999,0
			37.1803894040002,-76.6952743539999,0
			37.1806449900002,-76.6952743539999,0
			37.181148529,-76.6952285769999,0
			37.1815872200002,-76.6950378419999,0
			37.1820526120001,-76.6948852529999,0
			37.182575226,-76.6946792609999,0
			37.1829566960001,-76.694496155,0
			37.1834335330001,-76.6943893419999,0
			37.183822632,-76.694168092,0
			37.1842002870001,-76.693946839,0
			37.184581757,-76.6937332159999,0
			37.184906005,-76.6934585559999,0
			37.1853218070002,-76.6932678219999,0
			37.1857109080001,-76.6930541999999,0
			37.1860885630002,-76.6928863519999,0
			37.1864700310001,-76.6930465689999,0
			37.1868782050001,-76.693145752,0
			37.1874084470002,-76.692863464,0
			37.187973024,-76.6925353999999,0
			37.188560486,-76.6922760009999,0
			37.1891708380001,-76.692085267,0
			37.1897239680002,-76.6919479379999,0
			37.1899986260001,-76.6916656499999,0
			37.1899986260001,-76.691390992,0
			37.1894454950001,-76.6908340459999,0
			37.1894454950001,-76.6905517579999,0
			37.1891670220001,-76.6902770999999,0
			37.1891670220001,-76.6897201539999,0
			37.1888885490001,-76.689445496,0
			37.1888885490001,-76.6888885499999,0
			37.1883316030002,-76.688331604,0
			37.1883316030002,-76.6880569459999,0
			37.1880569450001,-76.6877746579999,0
			37.1880569450001,-76.6874999999999,0
			37.1883316030002,-76.6872253419999,0
			37.188610076,-76.6872253419999,0
			37.1888885490001,-76.6874999999999,0
			37.1894454950001,-76.6874999999999,0
			37.1899986260001,-76.6880569459999,0
			37.1899986260001,-76.688331604,0
			37.1902770990002,-76.688613892,0
			37.1902770990002,-76.6888885499999,0
			37.1905555720001,-76.689163208,0
			37.1905555720001,-76.6908340459999,0
			37.1913871760001,-76.6916656499999,0
			37.1916656490001,-76.6916656499999,0
			37.1921081550001,-76.6918792719999,0
			37.1926803590001,-76.691864014,0
			37.1932373050001,-76.6917266849999,0
			37.193778991,-76.691566467,0
			37.1942596440001,-76.6913299559998,0
			37.1946830760002,-76.6909942629999,0
			37.1950225840002,-76.6905517579999,0
			37.1954498290001,-76.690200806,0
			37.1957893380002,-76.6897506719999,0
			37.1961021420001,-76.6892700199999,0
			37.196403504,-76.6887741089998,0
			37.1966896050001,-76.6882781979999,0
			37.1969223030001,-76.687767029,0
			37.1971092220002,-76.6872405999999,0
			37.1972427380002,-76.6867141729999,0
			37.1971893310001,-76.6861114499999,0
			37.196956635,-76.685646057,0
			37.1966552730001,-76.685272217,0
			37.1963500990001,-76.684898377,0
			37.1960945120001,-76.68447113,0
			37.1958236690001,-76.684036255,0
			37.195529938,-76.683609009,0
			37.19519043,-76.6832122809999,0
			37.194786073,-76.682868957,0
			37.1943206790001,-76.6825942999999,0
			37.1938438420001,-76.6823577879999,0
			37.193408966,-76.6820297229999,0
			37.1930198680002,-76.6816406249999,0
			37.1926345820001,-76.6812515259999,0
			37.192241669,-76.680854798,0
			37.1918487550002,-76.6804580689999,0
			37.1914405820001,-76.680076599,0
			37.1910057060002,-76.6797409059999,0
			37.1905212410001,-76.6795196529999,0
			37.190036773,-76.6793212889999,0
			37.1896591180001,-76.679008484,0
			37.1893730170002,-76.6785964969999,0
			37.1891250610001,-76.678146361,0
			37.1888656610001,-76.6777038579999,0
			37.1885757450001,-76.6772842409999,0
			37.1882438660001,-76.6769027709999,0
			37.1878776550001,-76.6765518189999,0
			37.1875343330001,-76.6761932369998,0
			37.187221526,-76.675804139,0
			37.1869392400001,-76.6753997799999,0
			37.1866645820002,-76.6749877929999,0
			37.1863861090001,-76.6745834339999,0
			37.1861114510001,-76.6741790779999,0
			37.1858329780001,-76.6737747189999,0
			37.185554505,-76.673370362,0
			37.1852798470001,-76.6729660029999,0
			37.1850051870001,-76.6725540159999,0
			37.1847419750001,-76.6721420299999,0
			37.1845169070002,-76.671707154,0
			37.1843376160002,-76.67124939,0
			37.1841239930002,-76.670829773,0
			37.1838645940001,-76.670463561,0
			37.1835784910002,-76.6701278679999,0
			37.1832656860001,-76.669807433,0
			37.1829223640001,-76.6695251469999,0
			37.1825332640001,-76.669288636,0
			37.1821174620002,-76.6690902719999,0
			37.1816635130002,-76.6690978999999,0
			37.1812133800001,-76.669052125,0
			37.180812836,-76.6688690189999,0
			37.180442811,-76.668632508,0
			37.1800727840001,-76.6683883659999,0
			37.179710389,-76.668121339,0
			37.1793441770001,-76.667861939,0
			37.178955079,-76.667625428,0
			37.178581239,-76.6673660279999,0
			37.1781959530001,-76.6671066289999,0
			37.177783966,-76.6668777459999,0
			37.1773719790002,-76.666641235,0
			37.176975251,-76.666389465,0
			37.176601411,-76.6660995489999,0
			37.1763496390001,-76.6658859239999,0
			37.176242829,-76.6657943719999,0
			37.1758995060001,-76.665466309,0
			37.175582886,-76.6651229859999,0
			37.1752777090001,-76.6647644039999,0
			37.1749572760002,-76.664428711,0
			37.1745834360001,-76.664146423,0
			37.174095154,-76.663955689,0
			37.1735496530001,-76.6638412479999,0
			37.1730079650001,-76.663749694,0
			37.172489166,-76.663803101,0
			37.1720390320001,-76.6640243519999,0
			37.1715850830001,-76.664253235,0
			37.1711349500001,-76.664505005,0
			37.1707382210002,-76.6648178089999,0
			37.170417786,-76.665222168,0
			37.1701965330001,-76.665710449,0
			37.1699638370001,-76.666198731,0
			37.1697120660001,-76.666687012,0
			37.169445038,-76.6672210689999,0
			37.169445038,-76.667503357,0
			37.1691665650002,-76.667778015,0
			37.1691665650002,-76.6686096189999,0
			37.169445038,-76.6688919069999,0
			37.169445038,-76.6697235109999,0
			37.169445038,-76.6699981689999,0
			37.1691665650002,-76.670280457,0
			37.1691665650002,-76.670555115,0
			37.169445038,-76.670829773,0
			37.169445038,-76.671669005,0
			37.1708335880002,-76.6730575549999,0
			37.1708335880002,-76.673614501,0
			37.171112061,-76.6738891589999,0
			37.171112061,-76.6747207629999,0
			37.1702766420001,-76.6755523669999,0
			37.1702766420001,-76.6758346549999,0
			37.1713905340001,-76.676940917,0
			37.1713905340001,-76.677223205,0
			37.171665192,-76.6774978629999,0
			37.171665192,-76.6777801509999,0
			37.1719436650001,-76.6780548089999,0
			37.1722221380001,-76.6780548089999,0
			37.172500611,-76.6783370969999,0
			37.172779084,-76.6780548089999,0
			37.173053742,-76.6780548089999,0
			37.1736106880001,-76.6786117549999,0
			37.1736106880001,-76.678886413,0
			37.172779084,-76.679725648,0
			37.172779084,-76.680000305,0
			37.173053742,-76.6802749629999,0
			37.173053742,-76.680557251,0
			37.1722221380001,-76.6813888549999,0
			37.1719436650001,-76.6813888549999,0
			37.171665192,-76.681663513,0
			37.1713905340001,-76.681663513,0
			37.171112061,-76.681945801,0
			37.1708335880002,-76.681945801,0
			37.1705551150001,-76.6822204589999,0
			37.1697235110001,-76.6822204589999,0
			37.1683349610001,-76.6808319089999,0
			37.1683349610001,-76.680000305,0
			37.1686096190001,-76.679725648,0
			37.1680564880001,-76.679168701,0
			37.1663894650001,-76.679168701,0
			37.1655540460001,-76.6783370969999,0
			37.1655540460001,-76.6780548089999,0
			37.166110992,-76.6774978629999,0
			37.1663894650001,-76.6777801509999,0
			37.1677780150001,-76.6777801509999,0
			37.1686096190001,-76.676940917,0
			37.1680564880001,-76.676391601,0
			37.1672210690002,-76.676391601,0
			37.1669425960001,-76.676109313,0
			37.1669425960001,-76.6758346549999,0
			37.1691665650002,-76.673614501,0
			37.1691665650002,-76.6733322149999,0
			37.1683349610001,-76.6725006109999,0
			37.1680564880001,-76.6725006109999,0
			37.167499542,-76.671943665,0
			37.1672210690002,-76.671943665,0
			37.1669425960001,-76.671669005,0
			37.1666679380001,-76.671669005,0
			37.166110992,-76.671112061,0
			37.166110992,-76.670829773,0
			37.166564941,-76.6703720089999,0
			37.1669425960001,-76.6699981689999,0
			37.1672210690002,-76.6699981689999,0
			37.1677780150001,-76.6694412229999,0
			37.1677780150001,-76.669166565,0
			37.1672210690002,-76.6686096189999,0
			37.1663894650001,-76.6686096189999,0
			37.166110992,-76.668334961,0
			37.165832519,-76.668334961,0
			37.165294648,-76.6687774649999,0
			37.164825439,-76.6690216059999,0
			37.164325713,-76.669227601,0
			37.163841248,-76.6694412229999,0
			37.163326264,-76.6695632939999,0
			37.1627655030001,-76.6695632939999,0
			37.1623039260002,-76.669898987,0
			37.1618537900001,-76.670249939,0
			37.1613273630001,-76.6704711909999,0
			37.1607437130002,-76.6705703739999,0
			37.1601638810001,-76.670677186,0
			37.1596031190001,-76.6708526619999,0
			37.159053804,-76.6710205069999,0
			37.158470154,-76.671058654,0
			37.157882691,-76.670982361,0
			37.157222748,-76.670829773,0
			37.1569442750002,-76.670555115,0
			37.1555557250001,-76.670555115,0
			37.1533050540001,-76.671356201,0
			37.1515426640001,-76.6699981689999,0
			37.1497230540002,-76.670150757,0
			37.1495666510001,-76.670356751,0
			37.1494445810001,-76.670555115,0
			37.1491661080001,-76.670829773,0
			37.148803711,-76.6711044309999,0
			37.148334504,-76.6713867189999,0
			37.146389008,-76.6713867189999,0
			37.1461105350002,-76.671669005,0
			37.1451530450001,-76.6712188719999,0
			37.1448135390001,-76.6712188719999,0
			37.144412995,-76.671188355,0
			37.1438903810001,-76.671112061,0
			37.143333435,-76.671669005,0
			37.1430549620002,-76.671669005,0
			37.1427230840001,-76.6720275869999,0
			37.1422729500001,-76.672172546,0
			37.141967773,-76.6721191409999,0
		</coordinates>
	</polygon>
</kml>
