<?xml version="1.0" encoding="UTF-8"?>
<kml xmlns="http://earth.google.com/kml/2.2">
	<polygon id="USA_MI_Tuscola" samplingProbability="1">
		<coordinates>
			43.4884315090001,-83.6999208739999,0
			43.534206929,-83.6997412409999,0
			43.5642063850001,-83.6996234879999,0
			43.564331,-83.6996229999999,0
			43.564469165,-83.6996200629999,0
			43.5966489950002,-83.6989362329999,0
			43.5962091920001,-83.6983608659999,0
			43.5956484920001,-83.6976273379999,0
			43.592899324,-83.6940307629999,0
			43.5887283180001,-83.6822364349999,0
			43.58824524,-83.680870439,0
			43.5880508420001,-83.68032074,0
			43.587838763,-83.6799068029999,0
			43.5873898630001,-83.679030634,0
			43.587101026,-83.67846688,0
			43.5875205990002,-83.6765518189999,0
			43.5936698920002,-83.666175842,0
			43.5966599020001,-83.6614409429999,0
			43.5982504040001,-83.658922264,0
			43.6055603020001,-83.6473464969999,0
			43.6237792960001,-83.626991271,0
			43.631790161,-83.6184310899999,0
			43.6357994090001,-83.6138381949999,0
			43.6394477370002,-83.612501186,0
			43.6401111200001,-83.6122580749999,0
			43.641670049,-83.6116867709999,0
			43.6426450000001,-83.6071679999999,0
			43.6428824570002,-83.606069425,0
			43.6429100050001,-83.6059417719999,0
			43.650039674,-83.598678589,0
			43.653148652,-83.59538269,0
			43.6674308790001,-83.5821228039999,0
			43.6696281890002,-83.5793397229999,0
			43.6717159470001,-83.5766953989999,0
			43.6736412050002,-83.5742568979999,0
			43.6736515790001,-83.5742501669999,0
			43.6738975910001,-83.574090543,0
			43.6767807020001,-83.57221985,0
			43.6817016600002,-83.5682067869998,0
			43.6833579110001,-83.5660696879999,0
			43.6835873450001,-83.5657736449999,0
			43.6852493290002,-83.5636291499999,0
			43.6865501400001,-83.5610427859999,0
			43.6864013680002,-83.5540771489999,0
			43.6866034120002,-83.5537784739999,0
			43.6867187580002,-83.5536079619999,0
			43.686840058,-83.5534286489998,0
			43.6913795460001,-83.552597045,0
			43.6918106090002,-83.5519485469999,0
			43.6935806270001,-83.549339295,0
			43.6944618230002,-83.5480270389999,0
			43.694500927,-83.548007377,0
			43.6948272940001,-83.547843271,0
			43.69581214,-83.547348066,0
			43.699501037,-83.5490875239999,0
			43.6998689720002,-83.549072064,0
			43.700009,-83.549066,0
			43.7004089050002,-83.5490490039999,0
			43.7011090000001,-83.548525,0
			43.7012459600001,-83.5484225,0
			43.7022018430002,-83.547706604,0
			43.707569059,-83.543670702,0
			43.7092094420001,-83.5353698729999,0
			43.717731476,-83.529296876,0
			43.7185045350001,-83.5288745259999,0
			43.720049083,-83.5280306829999,0
			43.724029541,-83.5258560169999,0
			43.7253417980002,-83.5232696529999,0
			43.7249229520002,-83.5199758759999,0
			43.724780999,-83.5188599999999,0
			43.7210693160001,-83.515846257,0
			43.7165656340002,-83.5165663399999,0
			43.7158049180001,-83.5166879679999,0
			43.715629758,-83.516715974,0
			43.7140600590001,-83.51536334,0
			43.7128487980002,-83.5143197169999,0
			43.712841,-83.5143129999999,0
			43.7127815860001,-83.5143269049999,0
			43.7092219910002,-83.5151600479999,0
			43.7028694150002,-83.516647338,0
			43.699180604,-83.514907837,0
			43.6991155160002,-83.5119912249999,0
			43.699076259,-83.5102320789999,0
			43.6990394600001,-83.508583068,0
			43.6979103100001,-83.4991378779999,0
			43.7013702390001,-83.490753175,0
			43.7046135270001,-83.4906103879999,0
			43.7049864240001,-83.4905939719998,0
			43.705009026,-83.4905929769998,0
			43.7215309140001,-83.47592926,0
			43.7264099130002,-83.47001648,0
			43.7277241310002,-83.4699566,0
			43.7280251100001,-83.4699428859999,0
			43.7295913690002,-83.469871521,0
			43.7341336410001,-83.4692175659999,0
			43.7351512110001,-83.469071065,0
			43.7359500330001,-83.468956057,0
			43.7362725350001,-83.469517245,0
			43.736707794,-83.4702751999999,0
			43.7373700000001,-83.471427999,0
			43.7383084460001,-83.4717093799999,0
			43.7392007,-83.47197691,0
			43.7409095970001,-83.466827195,0
			43.6657410000001,-83.46637,0
			43.6685600000001,-83.353577,0
			43.672531,-83.2356569999999,0
			43.6750410490002,-83.1184310849999,0
			43.6603324900001,-83.1178890629999,0
			43.6531783270001,-83.117625427,0
			43.587051392,-83.1151885989999,0
			43.5528697700001,-83.1139068619999,0
			43.528240279,-83.1129833099999,0
			43.4999694820001,-83.111923218,0
			43.3272514340001,-83.1059494009999,0
			43.326740129,-83.1217193539999,0
			43.324758,-83.2299159999999,0
			43.3244943780001,-83.2443076449999,0
			43.3224906930001,-83.353675842,0
			43.3072159820001,-83.3536065149999,0
			43.2719300000001,-83.353446,0
			43.2350809690001,-83.35327907,0
			43.2335205140002,-83.4608989909999,0
			43.2234989990001,-83.46071612,0
			43.2225910000002,-83.580856,0
			43.2225906830001,-83.5809894429999,0
			43.222462598,-83.634684821,0
			43.2223205570001,-83.694046021,0
			43.3251912090001,-83.694252013,0
			43.3316802980001,-83.699645996,0
			43.3940696720001,-83.7008895869999,0
			43.4787292490001,-83.699958999,0
			43.4884315090001,-83.6999208739999,0
		</coordinates>
	</polygon>
</kml>
