<?xml version="1.0" encoding="UTF-8"?>
<kml xmlns="http://earth.google.com/kml/2.2">
	<polygon id="USA_AZ_La_Paz" samplingProbability="1">
		<coordinates>
			34.317520142,-113.334182739,0
			34.302520751,-113.334480285,0
			34.2339096060001,-113.333862306,0
			34.121189117,-113.334136964,0
			34.1166496290001,-113.334068298,0
			34.086650848,-113.334106445,0
			34.0011901860001,-113.333763123,0
			33.961189269,-113.333625793,0
			33.8898086540001,-113.333518982,0
			33.8629798900002,-113.333610534,0
			33.7988700880001,-113.333068848,0
			33.6397094720001,-113.332572938,0
			33.5528411870002,-113.332191467,0
			33.4818801890001,-113.332077027,0
			33.467319489,-113.332389832,0
			33.4495811460001,-113.332092285,0
			33.3795089720001,-113.332557677,0
			33.3800506600002,-113.363899231,0
			33.379440309,-113.414459228,0
			33.3796501160001,-113.434249878,0
			33.3801803590002,-113.49913025,0
			33.3795585640001,-113.644241333,0
			33.3798408500001,-113.748146057,0
			33.3798103340002,-113.750350952,0
			33.3800506600002,-113.764099121,0
			33.3797798150001,-113.867996215,0
			33.3801307690002,-113.874046326,0
			33.3804321300001,-113.93837738,0
			33.3798789970001,-113.943870545,0
			33.3801422120001,-113.955421447,0
			33.4670600900001,-113.954826354,0
			33.4664611820002,-113.990036011,0
			33.465831757,-113.999931335,0
			33.4661598200001,-114.058280944,0
			33.4664688120001,-114.091308594,0
			33.4660491950001,-114.163406373,0
			33.4657897950001,-114.248146056,0
			33.4663391110001,-114.266326905,0
			33.3789901730001,-114.265472413,0
			33.291179658,-114.264587402,0
			33.2915916450001,-114.266799927,0
			33.2055892950002,-114.265426636,0
			33.0311889650001,-114.267539977,0
			33.0299987790002,-114.370956421,0
			33.0297889720001,-114.381362916,0
			33.029232026,-114.471656799,0
			33.0297508250001,-114.489738464,0
			33.0298194880002,-114.516487123,0
			33.0314102180001,-114.521057129,0
			33.0321617130001,-114.524307252,0
			33.0334205620001,-114.529823303,0
			33.0345993050001,-114.538612365,0
			33.0353088380002,-114.54738617,0
			33.0366592410001,-114.557991028,0
			33.0388603220002,-114.566619872,0
			33.0377311710001,-114.572166442,0
			33.0362205510002,-114.574867248,0
			33.035190583,-114.576705932,0
			33.032661439,-114.580093383,0
			33.0321388250001,-114.580718995,0
			33.0299491890001,-114.583351136,0
			33.027481079,-114.588157654,0
			33.027622223,-114.591430664,0
			33.02783203,-114.596351623,0
			33.0278205870001,-114.606773376,0
			33.0285186770001,-114.613403319,0
			33.0286216750001,-114.614379883,0
			33.0304603580001,-114.621139527,0
			33.0317192080001,-114.623199463,0
			33.0345687860002,-114.626068115,0
			33.0388603220002,-114.631820679,0
			33.0433502200001,-114.63469696,0
			33.0464515680002,-114.637397766,0
			33.049129486,-114.640922546,0
			33.049499513,-114.644218445,0
			33.0480499270002,-114.648010253,0
			33.043899536,-114.650047301,0
			33.0388717650002,-114.652107238,0
			33.0348510740001,-114.653999329,0
			33.0331687930001,-114.65738678,0
			33.0333099370001,-114.660667419,0
			33.036270141,-114.665969848,0
			33.0416488650001,-114.669692994,0
			33.0442810060002,-114.672058105,0
			33.049320222,-114.672851562,0
			33.0524787900001,-114.672813416,0
			33.0579299930002,-114.671775817,0
			33.0606613160001,-114.673629761,0
			33.0631408700001,-114.676391601,0
			33.0677719120001,-114.680976868,0
			33.0697593700001,-114.682022095,0
			33.074420929,-114.68447113,0
			33.080841064,-114.686912536,0
			33.0826797480001,-114.687103272,0
			33.083450317,-114.687187194,0
			33.0858001710001,-114.688720703,0
			33.0866394040002,-114.692039489,0
			33.0869789120002,-114.696983338,0
			33.086429596,-114.700798034,0
			33.088180543,-114.703598023,0
			33.0913391110001,-114.704795837,0
			33.096359254,-114.704421997,0
			33.1045608530002,-114.704147339,0
			33.1116409300001,-114.702491761,0
			33.1196899420001,-114.69973755,0
			33.126369477,-114.696037292,0
			33.1271018990001,-114.695640563,0
			33.1372489930001,-114.688827514,0
			33.1472396860001,-114.682220459,0
			33.1529502880001,-114.679496766,0
			33.153930664,-114.679039002,0
			33.1584701540002,-114.676940919,0
			33.1633720390001,-114.675743103,0
			33.1671485910001,-114.676055908,0
			33.168392182,-114.676170348,0
			33.1716003420001,-114.676246644,0
			33.172550202,-114.67627716,0
			33.1753120430002,-114.676086426,0
			33.1765899660001,-114.675987244,0
			33.1824302670001,-114.67402649,0
			33.1881484980001,-114.67301178,0
			33.1931419370002,-114.673728943,0
			33.1976394650001,-114.676078796,0
			33.1998405460001,-114.676246644,0
			33.2027702330001,-114.676879883,0
			33.2038993830001,-114.676048279,0
			33.2067794800001,-114.674736023,0
			33.210922242,-114.672676087,0
			33.2151794440001,-114.671646118,0
			33.2159500130001,-114.671463012,0
			33.2209701530002,-114.671379089,0
			33.2263984680001,-114.672660828,0
			33.2279090880001,-114.673538207,0
			33.2303199760001,-114.674926757,0
			33.2344589230001,-114.678421021,0
			33.2379989630001,-114.682937622,0
			33.2392005920001,-114.683898925,0
			33.2421913150001,-114.686286927,0
			33.2463188180001,-114.687141419,0
			33.2479400640001,-114.686019897,0
			33.251590728,-114.682426453,0
			33.2534103400001,-114.679527283,0
			33.2542610180001,-114.678192138,0
			33.2558403020001,-114.675025939,0
			33.2582893370001,-114.671546936,0
			33.2602195750001,-114.670921327,0
			33.2616310130001,-114.670471191,0
			33.2647399910001,-114.670082093,0
			33.2691802970001,-114.67301178,0
			33.2736587520002,-114.676460266,0
			33.277999878,-114.681907654,0
			33.2815704350001,-114.691032409,0
			33.2831497190001,-114.698753356,0
			33.2834892280002,-114.702445984,0
			33.2841911330001,-114.710105896,0
			33.2858009340001,-114.716056824,0
			33.2891922000001,-114.720802307,0
			33.2966117850002,-114.726127624,0
			33.3022804260001,-114.728813172,0
			33.3074989330001,-114.727600098,0
			33.3121299750002,-114.724456788,0
			33.3168411260002,-114.717468261,0
			33.321178436,-114.712257386,0
			33.3311920180001,-114.703987121,0
			33.3370819090001,-114.700286865,0
			33.3446197520001,-114.697563171,0
			33.3524398810001,-114.697311401,0
			33.3532791130001,-114.697288513,0
			33.3541984560001,-114.697425842,0
			33.3587188730001,-114.698036195,0
			33.3641586300001,-114.698776245,0
			33.3680305490001,-114.700073243,0
			33.3687705990001,-114.700317382,0
			33.3745193480001,-114.702407837,0
			33.3776512150002,-114.704261779,0
			33.37871933,-114.704902649,0
			33.382629396,-114.705673218,0
			33.3835220350001,-114.705841064,0
			33.3865585330001,-114.707176208,0
			33.3898811330001,-114.710266113,0
			33.3951492300001,-114.716346741,0
			33.400859833,-114.722267151,0
			33.4045791620002,-114.724243163,0
			33.4077301020001,-114.723381043,0
			33.4095191960002,-114.722290039,0
			33.4102592480002,-114.718391419,0
			33.41014862,-114.715637207,0
			33.4098510740001,-114.710800171,0
			33.4104003900001,-114.706420898,0
			33.4114189150001,-114.702056886,0
			33.4130287180001,-114.697296143,0
			33.4154891980002,-114.694847108,0
			33.4180717470001,-114.690177917,0
			33.4200210580001,-114.684753418,0
			33.4201698300002,-114.678146363,0
			33.4198608400002,-114.672088624,0
			33.4185905460001,-114.667640686,0
			33.4162902830001,-114.658149719,0
			33.4157791140001,-114.656402589,0
			33.4148101810002,-114.653137206,0
			33.41709137,-114.64655304,0
			33.418910981,-114.642433167,0
			33.4207191480002,-114.639167786,0
			33.4234619140001,-114.634239196,0
			33.429031373,-114.629478455,0
			33.4341697690001,-114.626060485,0
			33.4348297120001,-114.625617981,0
			33.4368400580001,-114.624267578,0
			33.4412918100001,-114.622306824,0
			33.4467201240001,-114.621421815,0
			33.4516906740002,-114.620559692,0
			33.4528999330001,-114.620628358,0
			33.456260681,-114.620826722,0
			33.459739684,-114.619491577,0
			33.463890076,-114.61743164,0
			33.466072083,-114.615806579,0
			33.4680786130002,-114.614326477,0
			33.473960876,-114.608695984,0
			33.4770011900001,-114.605873109,0
			33.4787788390001,-114.604187012,0
			33.4793815620002,-114.603637694,0
			33.482509614,-114.601036072,0
			33.484779358,-114.599411011,0
			33.495250703,-114.595252991,0
			33.5004196180001,-114.591667176,0
			33.5040092460001,-114.586990356,0
			33.5065422070001,-114.582496643,0
			33.5081214910001,-114.578430175,0
			33.508430481,-114.577606202,0
			33.5088691710001,-114.576057434,0
			33.509429932,-114.574012756,0
			33.5098190310002,-114.573188782,0
			33.511550904,-114.570098877,0
			33.5128097530002,-114.567855835,0
			33.5132102970001,-114.567146302,0
			33.5153007500001,-114.563667298,0
			33.5179290780002,-114.561401367,0
			33.5193290710001,-114.560783386,0
			33.5210685730002,-114.560012817,0
			33.5243492120001,-114.559402466,0
			33.5279998780002,-114.558982849,0
			33.5311889650001,-114.558517457,0
			33.534740449,-114.555007935,0
			33.5367507930001,-114.55404663,0
			33.5400695810001,-114.548347473,0
			33.5438117990001,-114.543510437,0
			33.5464897160001,-114.536903382,0
			33.5498199470002,-114.533119202,0
			33.5522193900002,-114.530403137,0
			33.5546493540002,-114.527351379,0
			33.5553894040001,-114.52671051,0
			33.5578804030001,-114.524681092,0
			33.561000824,-114.524940491,0
			33.5634002690001,-114.527549744,0
			33.5650100720001,-114.529357911,0
			33.5655708310001,-114.52999115,0
			33.5677185060001,-114.532791137,0
			33.5713996890001,-114.533660888,0
			33.574600219,-114.534011841,0
			33.5771789550001,-114.536315917,0
			33.580329895,-114.538078307,0
			33.5825920110001,-114.538696289,0
			33.5862388620001,-114.538269043,0
			33.5888710030001,-114.537521363,0
			33.591701508,-114.538436889,0
			33.5935020450001,-114.539047242,0
			33.5948791510002,-114.538551331,0
			33.596569061,-114.536476135,0
			33.6023101800001,-114.531616212,0
			33.6085090630001,-114.525901794,0
			33.6095199580001,-114.52496338,0
			33.6134414670001,-114.522056579,0
			33.61618042,-114.521591187,0
			33.618431093,-114.522766114,0
			33.62110138,-114.52443695,0
			33.6234588630002,-114.526496887,0
			33.6257820120001,-114.527450562,0
			33.6287918080001,-114.527511597,0
			33.6325492870002,-114.525917052,0
			33.6347885140001,-114.525222777,0
			33.637241364,-114.522987365,0
			33.6380004880001,-114.52229309,0
			33.6407394410002,-114.521827698,0
			33.643779755,-114.522453307,0
			33.6464996330002,-114.524726869,0
			33.650180818,-114.52709961,0
			33.653129579,-114.527915956,0
			33.655399323,-114.527778625,0
			33.6570205690001,-114.526206971,0
			33.6588211060001,-114.522590636,0
			33.6603622430002,-114.51914978,0
			33.6613388060001,-114.515869141,0
			33.6628417960001,-114.513000489,0
			33.6645889280001,-114.513206482,0
			33.6652717600001,-114.513893126,0
			33.6672286990001,-114.517166137,0
			33.6679000860001,-114.522010804,0
			33.6683998120001,-114.526031495,0
			33.6706199660001,-114.528312682,0
			33.674240113,-114.529533387,0
			33.6781997680002,-114.528541565,0
			33.6831207270001,-114.526573181,0
			33.687549592,-114.523887634,0
			33.6888389590002,-114.522109986,0
			33.689819336,-114.520599365,0
			33.690299988,-114.519851685,0
			33.6909408580001,-114.518592834,0
			33.692230226,-114.516036987,0
			33.6942214970001,-114.510307313,0
			33.6956787100001,-114.505943299,0
			33.6962890630001,-114.504188537,0
			33.69765091,-114.500312805,0
			33.6983299270001,-114.498382569,0
			33.7003822330001,-114.493972778,0
			33.706169129,-114.490837098,0
			33.711009979,-114.490966797,0
			33.7204093940001,-114.493797302,0
			33.7254486080001,-114.496391296,0
			33.729759217,-114.499282837,0
			33.7321319580001,-114.503227234,0
			33.7346115120001,-114.506156921,0
			33.7383995070001,-114.507850648,0
			33.7410621640001,-114.507957458,0
			33.7443504330001,-114.505836486,0
			33.7489585870002,-114.503219604,0
			33.7557792660001,-114.500930786,0
			33.7637290960001,-114.502197266,0
			33.7695693970001,-114.503921509,0
			33.7718887340002,-114.504882812,0
			33.7806701650002,-114.509208679,0
			33.7842903150002,-114.511009216,0
			33.787712098,-114.512718201,0
			33.797939302,-114.517601013,0
			33.8058013930001,-114.520416259,0
			33.81219101,-114.523498536,0
			33.8160209660001,-114.525306701,0
			33.8205413810001,-114.524467469,0
			33.8218803410002,-114.523826599,0
			33.823619843,-114.522056579,0
			33.8262290950001,-114.519126892,0
			33.828670502,-114.518501282,0
			33.8321609500002,-114.519302367,0
			33.8372497560001,-114.521537782,0
			33.8446388250001,-114.524085999,0
			33.8454513560001,-114.524368287,0
			33.8517189020002,-114.526908874,0
			33.856220245,-114.528282165,0
			33.8598403930001,-114.528358459,0
			33.8621406550001,-114.527320863,0
			33.863090515,-114.525695802,0
			33.8627014170002,-114.522361756,0
			33.8622207640001,-114.519592286,0
			33.8620300300001,-114.515167236,0
			33.8629608160001,-114.510749817,0
			33.8649520870001,-114.506736756,0
			33.8653793340001,-114.505867005,0
			33.8670692440002,-114.503326416,0
			33.8704414370002,-114.501029968,0
			33.8745498670002,-114.499412537,0
			33.8795890810002,-114.500198364,0
			33.882228852,-114.503067016,0
			33.8877601630002,-114.510208131,0
			33.893039703,-114.516517639,0
			33.8973197940001,-114.520683289,0
			33.9015502920001,-114.523727417,0
			33.9040794380001,-114.523193359,0
			33.905090333,-114.521507263,0
			33.9049911510002,-114.519081117,0
			33.9032402040002,-114.515991212,0
			33.9031791680001,-114.508666992,0
			33.9053306590002,-114.507125854,0
			33.908500672,-114.50554657,0
			33.9141197210001,-114.50907898,0
			33.9192810060001,-114.513671876,0
			33.9236793520002,-114.519546509,0
			33.9269218460001,-114.526008606,0
			33.9283409120001,-114.528816223,0
			33.9293785090001,-114.530609132,0
			33.931598663,-114.532897949,0
			33.9338302620001,-114.533309936,0
			33.9353218070001,-114.533096314,0
			33.9407196050001,-114.531532288,0
			33.9480819700001,-114.527893067,0
			33.9530601510002,-114.525436402,0
			33.9573020940001,-114.522087098,0
			33.960021972,-114.517776488,0
			33.9609794620002,-114.51387024,0
			33.9613914490001,-114.512207032,0
			33.9616508480001,-114.510597229,0
			33.9623489380002,-114.505622864,0
			33.9631919860001,-114.502342225,0
			33.9646606440001,-114.497406006,0
			33.966320037,-114.49520111,0
			33.9715805060002,-114.490432739,0
			33.9781188970002,-114.484542846,0
			33.9809799190001,-114.481781006,0
			33.9824714660001,-114.480346679,0
			33.9838104240001,-114.478538512,0
			33.9843902590002,-114.477882386,0
			33.9864120490001,-114.475585938,0
			33.987918854,-114.472656249,0
			33.989780426,-114.471046448,0
			33.9904403700001,-114.470588684,0
			33.992080689,-114.469459534,0
			33.9946708680002,-114.466735839,0
			33.9968490600001,-114.464378356,0
			33.9985008250001,-114.460388184,0
			33.9988517760001,-114.458152772,0
			34.0001106260002,-114.455307006,0
			34.0018806460001,-114.454620361,0
			34.0032806390001,-114.455963134,0
			34.005310059,-114.459953309,0
			34.007720947,-114.463119507,0
			34.0098190310001,-114.465110778,0
			34.0119209290001,-114.465621949,0
			34.0140495310002,-114.462951659,0
			34.01638031,-114.460258483,0
			34.0159721390001,-114.458023071,0
			34.015430451,-114.452079772,0
			34.0157089240001,-114.449150085,0
			34.0175895690002,-114.445877074,0
			34.0225906370001,-114.438850402,0
			34.0268898010002,-114.436203003,0
			34.0332984930001,-114.434165955,0
			34.0401306160001,-114.43383789,0
			34.0428810120001,-114.433959961,0
			34.045139313,-114.434059143,0
			34.0509986880002,-114.435836791,0
			34.0573387150001,-114.437149048,0
			34.0634918210001,-114.437301635,0
			34.0714492810002,-114.436477661,0
			34.0797500620001,-114.434539795,0
			34.0815315260001,-114.434127808,0
			34.0856094370001,-114.43308258,0
			34.0879020690001,-114.432556152,0
			34.0927505490001,-114.429847718,0
			34.0961914060002,-114.427261352,0
			34.1008300780001,-114.422966003,0
			34.1063117990001,-114.418777466,0
			34.109630585,-114.414916993,0
			34.113368988,-114.41004181,0
			34.1151504510001,-114.404052734,0
			34.1158103950002,-114.401786803,0
			34.1155509950001,-114.399467469,0
			34.1154212960002,-114.398452759,0
			34.1149291990001,-114.394653321,0
			34.1146507270001,-114.389526366,0
			34.1161804200001,-114.384040832,0
			34.1185607910002,-114.379119873,0
			34.1206512460002,-114.370796203,0
			34.122940064,-114.364822388,0
			34.127418518,-114.359230041,0
			34.131359101,-114.355636598,0
			34.134948731,-114.352348329,0
			34.135520936,-114.351821899,0
			34.136878967,-114.350257873,0
			34.1383399960001,-114.345306396,0
			34.1378707880001,-114.338531494,0
			34.13935089,-114.33065033,0
			34.141521454,-114.322639464,0
			34.1455307000001,-114.316352845,0
			34.1520195010001,-114.308692933,0
			34.1601486200001,-114.300422668,0
			34.1678085340001,-114.29421997,0
			34.1726608280001,-114.28856659,0
			34.1741714470001,-114.284957886,0
			34.175830842,-114.28151703,0
			34.176189424,-114.279266357,0
			34.1756591790001,-114.274780274,0
			34.17552185,-114.269760131,0
			34.1754989620001,-114.268806457,0
			34.1764221200001,-114.26423645,0
			34.1774597160001,-114.256942748,0
			34.1783714290002,-114.252082825,0
			34.1819190980002,-114.244956969,0
			34.1842002870002,-114.24205017,0
			34.1853713990001,-114.24054718,0
			34.1870422370001,-114.237380982,0
			34.1900100710002,-114.232727051,0
			34.1909599310001,-114.229187012,0
			34.1911506650001,-114.228370667,0
			34.1928901670001,-114.225852966,0
			34.194808961,-114.224777221,0
			34.197349548,-114.223876954,0
			34.2005500800001,-114.224220275,0
			34.204200744,-114.223220825,0
			34.206851958,-114.222686768,0
			34.2089805600001,-114.220741272,0
			34.2111701960001,-114.217369079,0
			34.2139587410002,-114.213546752,0
			34.2144584650001,-114.212882996,0
			34.215171813,-114.211242677,0
			34.2187995910002,-114.20601654,0
			34.2262115480001,-114.197990418,0
			34.2348289490002,-114.187377929,0
			34.2425117490001,-114.178337097,0
			34.2452888490002,-114.175636291,0
			34.2475891120002,-114.17402649,0
			34.2508201610001,-114.171340942,0
			34.2526893610002,-114.168617249,0
			34.2534217830001,-114.16606903,0
			34.2545890800001,-114.164222718,0
			34.2564392090001,-114.162612915,0
			34.2586593630002,-114.161247254,0
			34.2596588130001,-114.161201477,0
			34.261920929,-114.161087036,0
			34.262859345,-114.159446717,0
			34.2630805980002,-114.158576966,0
			34.2638397210002,-114.155578613,0
			34.2639198300001,-114.151138305,0
			34.2643699660001,-114.146942139,0
			34.2646484370001,-114.14302826,0
			34.2639694220001,-114.138061523,0
			34.2637901310001,-114.133895875,0
			34.265209198,-114.130599975,0
			34.267211914,-114.129486083,0
			34.271129608,-114.130203247,0
			34.275051117,-114.131729126,0
			34.2778892520001,-114.133171081,0
			34.2824401850002,-114.134002685,0
			34.2887916580001,-114.133560181,0
			34.2943611140001,-114.135955811,0
			34.2978515620001,-114.136276246,0
			34.3012199400001,-114.136596679,0
			34.3050804140001,-114.137268066,0
			34.3043022150001,-114.13054657,0
			34.3038902280001,-114.128318786,0
			34.2977104180002,-114.118141174,0
			34.29550171,-114.114738465,0
			34.2951011660001,-114.111946106,0
			34.2951507560001,-114.109169006,0
			34.2975006110001,-114.104782105,0
			34.29940033,-114.100379944,0
			34.299919129,-114.096496582,0
			34.2990913400002,-114.092033386,0
			34.2964286810001,-114.088623046,0
			34.2951087960002,-114.086357117,0
			34.2942390450001,-114.083557129,0
			34.2925300600002,-114.077949523,0
			34.2925796510001,-114.075157165,0
			34.2908401490001,-114.070671082,0
			34.2899894720001,-114.067306519,0
			34.2868499770001,-114.065002441,0
			34.2836990370002,-114.06326294,0
			34.2837295530001,-114.061576843,0
			34.2805900580001,-114.059280396,0
			34.2788200380002,-114.056449891,0
			34.2779922490002,-114.051979064,0
			34.2757720950001,-114.049140931,0
			34.2730789190001,-114.046836853,0
			34.2689895630001,-114.046737671,0
			34.2658691410001,-114.043319703,0
			34.2658996580001,-114.041648865,0
			34.2663993840001,-114.038879395,0
			34.265510559,-114.037750244,0
			34.2614097600001,-114.038200378,0
			34.2605209360001,-114.037055969,0
			34.2596588130001,-114.034255981,0
			34.2597122200002,-114.031478881,0
			34.2620391840001,-114.028205872,0
			34.264801026,-114.026611328,0
			34.2666206360001,-114.026100159,0
			34.267101289,-114.025001527,0
			34.267581939,-114.023345947,0
			34.266262055,-114.021087646,0
			34.2649192820001,-114.019943238,0
			34.2626419070002,-114.019882202,0
			34.2604103080002,-114.017601013,0
			34.2577285770001,-114.014747619,0
			34.2555313120001,-114.010803222,0
			34.2542190550001,-114.007431031,0
			34.254749298,-114.003562927,0
			34.2548103330002,-113.999656677,0
			34.2549095150001,-113.994102479,0
			34.2545318600002,-113.989646911,0
			34.2555007930001,-113.985778809,0
			34.2569999700001,-113.978027344,0
			34.258129121,-113.96472168,0
			34.2569313050002,-113.955230713,0
			34.2565689080001,-113.949661254,0
			34.254032134,-113.938476563,0
			34.25138092,-113.933410645,0
			34.2496109020001,-113.931137086,0
			34.249210358,-113.92780304,0
			34.249290467,-113.922798158,0
			34.2486305240002,-113.907775879,0
			34.248260499,-113.902206421,0
			34.248321534,-113.898872375,0
			34.248851776,-113.894439697,0
			34.2512512210001,-113.88671112,0
			34.2522506710001,-113.88117981,0
			34.2541389470001,-113.876777649,0
			34.254619599,-113.875122071,0
			34.2551307680001,-113.871238709,0
			34.2542991640001,-113.866783143,0
			34.2534790030002,-113.861198426,0
			34.252651214,-113.856170654,0
			34.2517890940001,-113.853370667,0
			34.25090027,-113.85167694,0
			34.2495613100001,-113.850540162,0
			34.2463798530001,-113.850456238,0
			34.2427520750001,-113.849822998,0
			34.24048996,-113.849212647,0
			34.2382392890001,-113.847488404,0
			34.2364616400002,-113.845222473,0
			34.2315101630001,-113.842330932,0
			34.2279014590001,-113.840576172,0
			34.22518158,-113.839958191,0
			34.2238388070002,-113.838256836,0
			34.2229614260002,-113.83657074,0
			34.222999573,-113.834350586,0
			34.2230110180001,-113.833236694,0
			34.2239608770001,-113.831039428,0
			34.2239913940001,-113.828811646,0
			34.2244796760002,-113.82660675,0
			34.2258720400001,-113.824966431,0
			34.2258911130002,-113.823860169,0
			34.226829529,-113.821662904,0
			34.2277488700001,-113.821121216,0
			34.2282218940002,-113.820022582,0
			34.2295799260001,-113.820053101,0
			34.2309494020001,-113.820075989,0
			34.2327690130001,-113.819572448,0
			34.2341499330001,-113.818496703,0
			34.2346305850001,-113.817390441,0
			34.2355499280001,-113.816299438,0
			34.2351188650002,-113.815177917,0
			34.2342109680001,-113.814613343,0
			34.232860565,-113.81401825,0
			34.2315101630001,-113.812866211,0
			34.2319908140001,-113.811218262,0
			34.2315711970001,-113.809539796,0
			34.233409883,-113.807907104,0
			34.2334289560001,-113.806800842,0
			34.234359742,-113.805160523,0
			34.2362289420001,-113.80242157,0
			34.2362518310001,-113.800758362,0
			34.2353897100001,-113.797401429,0
			34.2349815370002,-113.794616699,0
			34.2336692820001,-113.791252136,0
			34.2323608410001,-113.787887574,0
			34.2319488520002,-113.785102843,0
			34.2301406870001,-113.783943176,0
			34.229278564,-113.781143188,0
			34.2284393320001,-113.776679993,0
			34.228939056,-113.773910523,0
			34.2307815550001,-113.77229309,0
			34.2317199710002,-113.770088195,0
			34.2326622,-113.767883301,0
			34.233161926,-113.765106201,0
			34.2331810000002,-113.763450623,0
			34.2359695430001,-113.759620667,0
			34.236469269,-113.756851197,0
			34.2373886120001,-113.755760193,0
			34.2378997810001,-113.751876831,0
			34.2392921460001,-113.75025177,0
			34.2383995060001,-113.749107361,0
			34.238880157,-113.747459412,0
			34.2398109430001,-113.745811462,0
			34.2402992250002,-113.743598938,0
			34.240859985,-113.736946106,0
			34.2413520820002,-113.734176637,0
			34.24092102,-113.732498168,0
			34.24048996,-113.730819702,0
			34.2359809880001,-113.728500366,0
			34.2319297790001,-113.72618866,0
			34.2274093640001,-113.72441864,0
			34.2265014640001,-113.724403381,0
			34.2255897520002,-113.724380493,0
			34.2233390810001,-113.72265625,0
			34.2224388130002,-113.722640991,0
			34.2215690610001,-113.719841003,0
			34.2220611580001,-113.717079163,0
			34.2216186530002,-113.715957641,0
			34.2180099490002,-113.714767457,0
			34.2171287550001,-113.712516784,0
			34.216228485,-113.71193695,0
			34.2167205810001,-113.709732056,0
			34.2122192390001,-113.706306458,0
			34.211791992,-113.70462799,0
			34.2113494870001,-113.70350647,0
			34.2109603880002,-113.699050903,0
			34.210109711,-113.695137025,0
			34.2101593030001,-113.691810609,0
			34.2101898200002,-113.690139771,0
			34.2097702030002,-113.687347412,0
			34.209869385,-113.68068695,0
			34.2098999030001,-113.678466796,0
			34.2112808230001,-113.676826477,0
			34.2122001640001,-113.676849365,0
			34.213119507,-113.675758362,0
			34.2126998900002,-113.672966003,0
			34.212280273,-113.671302796,0
			34.2132110590001,-113.669647218,0
			34.2127799990002,-113.667968749,0
			34.2127990720001,-113.666313172,0
			34.2119293210001,-113.664062499,0
			34.2123909000001,-113.662956237,0
			34.213298798,-113.662979126,0
			34.2142295840001,-113.661888122,0
			34.2169990540001,-113.659172057,0
			34.217021942,-113.657501221,0
			34.2161216730001,-113.656929017,0
			34.2170600890001,-113.654716491,0
			34.218448639,-113.652526856,0
			34.220748902,-113.650917053,0
			34.2221488950001,-113.648162841,0
			34.2212600710001,-113.647026063,0
			34.2203598030001,-113.645896912,0
			34.2212905900001,-113.644805909,0
			34.2226600640001,-113.64428711,0
			34.223579407,-113.643196106,0
			34.2253799440001,-113.644897461,0
			34.2262992870002,-113.644363403,0
			34.227680207,-113.642723084,0
			34.2272605900001,-113.64050293,0
			34.2231903090002,-113.63874054,0
			34.2245903020001,-113.635986328,0
			34.2237205510002,-113.633750916,0
			34.2255706780001,-113.631568909,0
			34.226039887,-113.630462647,0
			34.2283592230001,-113.627182008,0
			34.227931976,-113.624946594,0
			34.2279510500002,-113.623840332,0
			34.2270889290002,-113.619926453,0
			34.2271308910001,-113.617149353,0
			34.2294693000002,-113.612197876,0
			34.2308311470002,-113.612792969,0
			34.2313613890001,-113.607238769,0
			34.2295608520001,-113.606086732,0
			34.2309494020001,-113.603897095,0
			34.231880188,-113.602249145,0
			34.2323493960001,-113.601142883,0
			34.233291627,-113.598937987,0
			34.2350997920001,-113.59953308,0
			34.2360305780001,-113.597892761,0
			34.2374191280002,-113.596237183,0
			34.2383499140001,-113.594596863,0
			34.2397499100001,-113.59185028,0
			34.2430000300001,-113.586906433,0
			34.2594184890001,-113.582801819,0
			34.2640495310001,-113.576782226,0
			34.2677192680001,-113.573516846,0
			34.2686691280002,-113.570747376,0
			34.2695999140001,-113.569107057,0
			34.2727699270001,-113.569717408,0
			34.2746086130002,-113.568656921,0
			34.2760086060001,-113.565902709,0
			34.2769317620001,-113.564796447,0
			34.2796897890001,-113.562080383,0
			34.2852287290001,-113.556076049,0
			34.2880401600001,-113.55001831,0
			34.2894287100001,-113.547821044,0
			34.2930793760002,-113.546775818,0
			34.296730042,-113.545738219,0
			34.2985496530001,-113.545776366,0
			34.3008499150001,-113.543586731,0
			34.3049697880001,-113.540901185,0
			34.3059005740001,-113.539802551,0
			34.3077697750002,-113.535392762,0
			34.3091888440001,-113.531517028,0
			34.310619355,-113.526542664,0
			34.3115806580001,-113.522117615,0
			34.3111686710002,-113.51876831,0
			34.3107795710001,-113.513755798,0
			34.3058891290001,-113.505317688,0
			34.305099487,-113.496398925,0
			34.3060913090002,-113.489746093,0
			34.304389954,-113.480812072,0
			34.3055114740001,-113.464141846,0
			34.3015022280002,-113.457389832,0
			34.3002014150001,-113.452911377,0
			34.2997818000001,-113.450126649,0
			34.2998390200001,-113.445121765,0
			34.300350189,-113.440681457,0
			34.301780701,-113.435142517,0
			34.3013610840001,-113.432350158,0
			34.3005294800002,-113.426216126,0
			34.2974395760002,-113.418930054,0
			34.2952003480002,-113.415557861,0
			34.2938804640002,-113.412193299,0
			34.2952804570001,-113.408882141,0
			34.2975997930001,-113.405586242,0
			34.2985305790001,-113.403381348,0
			34.2999305720002,-113.400627137,0
			34.2999610910001,-113.397842407,0
			34.2951087960002,-113.38607788,0
			34.2942504890001,-113.381607056,0
			34.2933807380001,-113.378257751,0
			34.2916603100002,-113.369888306,0
			34.2926406860001,-113.36377716,0
			34.2945098880001,-113.359367371,0
			34.2982215870001,-113.35331726,0
			34.3032722470002,-113.348396302,0
			34.3087501530001,-113.3462677,0
			34.3115196230001,-113.342979431,0
			34.3124389660001,-113.341880799,0
			34.31513977,-113.343597412,0
			34.3174095160001,-113.344192505,0
			34.3187713630001,-113.344223022,0
			34.3192596430001,-113.341445924,0
			34.3179397590002,-113.338081361,0
			34.317520142,-113.334182739,0
		</coordinates>
	</polygon>
</kml>
