<?xml version="1.0" encoding="UTF-8"?>
<kml xmlns="http://earth.google.com/kml/2.2">
	<polygon id="USA_KY_Boone" samplingProbability="1">
		<coordinates>
			39.0333595270001,-84.8751831059999,0
			39.0340919490001,-84.8759231579999,0
			39.0405807500001,-84.882537843,0
			39.045970916,-84.888023377,0
			39.0539894110001,-84.893119811,0
			39.0555686950001,-84.893020629,0
			39.0603713980001,-84.8922271719999,0
			39.0617218010001,-84.8917007449999,0
			39.0633888250002,-84.890281678,0
			39.065040589,-84.888412476,0
			39.0754699710002,-84.8674697869999,0
			39.0807495130001,-84.8568572999999,0
			39.0983009330001,-84.8341827389999,0
			39.1061592110001,-84.8204574589999,0
			39.1066894530001,-84.819534301,0
			39.1068687440001,-84.819068909,0
			39.1100120540002,-84.8029861449999,0
			39.1166114810001,-84.784828187,0
			39.1171188350001,-84.7838058469999,0
			39.1188888550002,-84.7809524529999,0
			39.1220092770001,-84.7764282229999,0
			39.1268386850002,-84.7722396849999,0
			39.1328086850002,-84.767066955,0
			39.1413993850001,-84.7596282959999,0
			39.145751954,-84.7520523059999,0
			39.1461410520001,-84.7506103509999,0
			39.1472320560001,-84.7453231809999,0
			39.1470909120001,-84.744583131,0
			39.14604187,-84.739028931,0
			39.144050599,-84.7338867189999,0
			39.1421089180002,-84.7295684819999,0
			39.1390609750002,-84.7239761349999,0
			39.1346206670001,-84.7185058589999,0
			39.1297302250002,-84.713020324,0
			39.1203689570001,-84.704429627,0
			39.1096611030002,-84.6946182249999,0
			39.1081504820002,-84.6931076039999,0
			39.1029701240001,-84.687889099,0
			39.1012191770001,-84.6847763059999,0
			39.0992393490001,-84.680633544,0
			39.0981712340001,-84.6776733399999,0
			39.0969314590001,-84.6705093379999,0
			39.096099855,-84.66634369,0
			39.0943908700002,-84.6603469839999,0
			39.0923118600001,-84.6551666259999,0
			39.0842094430001,-84.6440658559999,0
			39.0799217220001,-84.638122559,0
			39.0735511780002,-84.6236877429999,0
			39.0221710210002,-84.6175231939999,0
			39.02035141,-84.6169433599999,0
			38.9999389660001,-84.6142272949999,0
			38.879249573,-84.597969056,0
			38.802330017,-84.6154479969999,0
			38.803749085,-84.624290467,0
			38.8028793340001,-84.6296157839999,0
			38.7975387570001,-84.6438522329999,0
			38.7925720220001,-84.645683289,0
			38.7908210750001,-84.65573883,0
			38.7876510610001,-84.655769349,0
			38.7849388120002,-84.6575775139999,0
			38.7776794440001,-84.6552963249999,0
			38.7772521970001,-84.660026551,0
			38.8317794810001,-84.752716064,0
			38.8404121410001,-84.754997254,0
			38.8477020270001,-84.761428833,0
			38.8468818670001,-84.7756118769999,0
			38.8505287170001,-84.779716492,0
			38.852779388,-84.778511048,0
			38.8550605770001,-84.7796707149998,0
			38.8555297850002,-84.783210754,0
			38.8541793830001,-84.7855758669999,0
			38.8591308600001,-84.792999267,0
			38.8668899540002,-84.788398742,0
			38.8823013310001,-84.78766632,0
			38.8853492740001,-84.789230346,0
			38.8860511770001,-84.7895889279999,0
			38.889030457,-84.7914428719999,0
			38.8918190000001,-84.796112061,0
			38.892570495,-84.7981491089998,0
			38.8997116100001,-84.8212127689999,0
			38.9012794500002,-84.8556060789999,0
			38.9017486580001,-84.8603363029999,0
			38.9031791690001,-84.8650207519999,0
			38.9100494390001,-84.873802186,0
			38.9146308910001,-84.8766860959999,0
			38.9187393190002,-84.877716064,0
			38.9196090700001,-84.8775482169999,0
			38.9256896970001,-84.874847412,0
			38.9268608090002,-84.8739624029999,0
			38.9299392710001,-84.870941162,0
			38.9371185300001,-84.8624801629999,0
			38.941181183,-84.8576965339999,0
			38.941669464,-84.857109069,0
			38.9560394290002,-84.840179443,0
			38.9607391370002,-84.83467102,0
			38.9643898010001,-84.832290649,0
			38.9664306640001,-84.831947327,0
			38.9741096510002,-84.8323516839999,0
			38.9860496530001,-84.835998535,0
			38.9871101380002,-84.836502076,0
			38.9886817940002,-84.837409973,0
			38.9999389660001,-84.845672608,0
			39.0086021420001,-84.8520431509999,0
			39.0159301760002,-84.8574295039999,0
			39.0333595270001,-84.8751831059999,0
		</coordinates>
	</polygon>
</kml>
