<?xml version="1.0" encoding="UTF-8"?>
<kml xmlns="http://earth.google.com/kml/2.2">
	<polygon id="USA_OR_Lincoln" samplingProbability="1">
		<coordinates>
			44.6518290000001,-123.606781,0
			44.6520200000001,-123.598442,0
			44.5644,-123.598907,0
			44.5311491030001,-123.599196138,0
			44.5055198660001,-123.59941864,0
			44.497760773,-123.599708558,0
			44.4916896010002,-123.599425503,0
			44.4913790000002,-123.599411,0
			44.4767800000002,-123.59938,0
			44.4621700000001,-123.599998,0
			44.4487985820001,-123.599970523,0
			44.447570801,-123.599967956,0
			44.4446678240001,-123.599959126,0
			44.4325220050001,-123.599922182,0
			44.432823749,-123.611018081,0
			44.4330100000001,-123.617867,0
			44.4332080000001,-123.628746,0
			44.4333478560001,-123.63521088,0
			44.4334297180002,-123.639007568,0
			44.4334106450001,-123.658836364,0
			44.4338417050001,-123.679351808,0
			44.4338230650001,-123.69185944,0
			44.4338110000001,-123.699829,0
			44.4338063500001,-123.707946364,0
			44.4337997430001,-123.719031998,0
			44.4233743920001,-123.718957536,0
			44.4178390500002,-123.718917847,0
			44.4032287600002,-123.719497681,0
			44.3954317720002,-123.719392656,0
			44.390202,-123.719322,0
			44.3901926780001,-123.715677223,0
			44.3901900000001,-123.714630124,0
			44.3606300000001,-123.714241,0
			44.360671003,-123.718270648,0
			44.3608398440001,-123.73487854,0
			44.3513593820001,-123.734742871,0
			44.3453789960002,-123.734657289,0
			44.3450192880001,-123.761421649,0
			44.34428,-123.816429,0
			44.316490172,-123.815071008,0
			44.3161390000001,-123.774147037,0
			44.3014145240002,-123.774273484,0
			44.2823791500001,-123.774436999,0
			44.2821176350001,-123.853788562,0
			44.2818298340001,-123.941116334,0
			44.2781732220001,-123.941299382,0
			44.275429,-123.941437,0
			44.2777100000001,-124.062897,0
			44.2770650670001,-124.062871579,0
			44.276340485,-124.062843323,0
			44.2771263120002,-124.114822388,0
			44.2783470000001,-124.113602,0
			44.2787020000001,-124.113503,0
			44.2790180000002,-124.113297,0
			44.2792970000002,-124.113052,0
			44.2795490000001,-124.112808,0
			44.2797970000001,-124.112595,0
			44.2800870000002,-124.112442,0
			44.279999,-124.112221,0
			44.2802770000001,-124.111946,0
			44.2802770000001,-124.111664,0
			44.2811130000002,-124.110832,0
			44.2813870000001,-124.110832,0
			44.2816660000001,-124.110558,0
			44.2819440000002,-124.110832,0
			44.281979,-124.111061,0
			44.282249,-124.111557,0
			44.2826190000001,-124.112114,0
			44.2827640000002,-124.112328,0
			44.2831950000001,-124.112442,0
			44.2833630000002,-124.112488,0
			44.2836110000001,-124.112503,0
			44.2836110000001,-124.112778,0
			44.2841680000001,-124.113335,0
			44.2844430000002,-124.113335,0
			44.2855950000001,-124.114441,0
			44.2858430000002,-124.114449,0
			44.2861210000001,-124.114708,0
			44.2861100000001,-124.11528,0
			44.2866670000001,-124.115837,0
			44.2869450000001,-124.115837,0
			44.287224,-124.115555,0
			44.2874980000001,-124.115555,0
			44.287872,-124.115181,0
			44.288055,-124.114998,0
			44.2894440000001,-124.114998,0
			44.2897220000002,-124.114723,0
			44.2897220000002,-124.114441,0
			44.2902790000001,-124.113892,0
			44.2902790000001,-124.113609,0
			44.2908330000001,-124.113052,0
			44.2925000000001,-124.114738,0
			44.2925000000001,-124.114998,0
			44.2930490000001,-124.114792,0
			44.2934760000001,-124.114563,0
			44.2938080000002,-124.114067,0
			44.2941930000001,-124.113617,0
			44.2946170000001,-124.113182,0
			44.2950970000001,-124.112778,0
			44.2955630000001,-124.112366,0
			44.29594,-124.111832,0
			44.29641,-124.111374,0
			44.296928,-124.111015,0
			44.2974820000001,-124.110947,0
			44.297997,-124.111069,0
			44.2984960000001,-124.111237,0
			44.2990150000001,-124.111336,0
			44.2995260000001,-124.11132,0
			44.2999990000001,-124.111198,0
			44.300453,-124.111038,0
			44.3008840000002,-124.110832,0
			44.3013110000002,-124.110626,0
			44.3017540000002,-124.110474,0
			44.3021580000001,-124.11026,0
			44.3025440000002,-124.110008,0
			44.3025020000001,-124.109726,0
			44.3022230000001,-124.109444,0
			44.3022230000001,-124.109169,0
			44.3027760000001,-124.108612,0
			44.303055,-124.108887,0
			44.3033330000001,-124.108887,0
			44.3038900000002,-124.10833,0
			44.304165,-124.10833,0
			44.3044970000001,-124.108093,0
			44.3047370000001,-124.107704,0
			44.3050040000002,-124.107346,0
			44.305279,-124.107018,0
			44.3055530000001,-124.106705,0
			44.30582,-124.106407,0
			44.3060720000001,-124.106125,0
			44.306267,-124.105812,0
			44.3064500000001,-124.105507,0
			44.3067170000002,-124.10527,0
			44.3070530000001,-124.105103,0
			44.3074380000001,-124.105064,0
			44.307514,-124.105057,0
			44.3078350000001,-124.105118,0
			44.308231,-124.105286,0
			44.3086470000001,-124.105446,0
			44.3088680000001,-124.105675,0
			44.309021,-124.105949,0
			44.3091810000001,-124.106239,0
			44.3093300000002,-124.10656,0
			44.3093870000001,-124.106918,0
			44.3093720000001,-124.1073,0
			44.309444,-124.10778,0
			44.3097230000002,-124.108055,0
			44.3097230000002,-124.108612,0
			44.309444,-124.108887,0
			44.3097230000002,-124.109169,0
			44.3097230000002,-124.109726,0
			44.3108330000002,-124.109726,0
			44.3113900000001,-124.110275,0
			44.3122220000002,-124.110275,0
			44.3125000000001,-124.110558,0
			44.312778,-124.110558,0
			44.3130570000002,-124.110832,0
			44.313446,-124.110443,0
			44.3138890000001,-124.110001,0
			44.315277,-124.110001,0
			44.3155560000002,-124.109726,0
			44.3161130000001,-124.109726,0
			44.3166660000002,-124.109169,0
			44.3171770000002,-124.108978,0
			44.3177640000001,-124.108986,0
			44.3184510000001,-124.108856,0
			44.3191530000001,-124.108612,0
			44.319874,-124.108353,0
			44.3206560000001,-124.108154,0
			44.3214190000002,-124.107964,0
			44.322025,-124.107704,0
			44.3226320000002,-124.107475,0
			44.3232350000001,-124.107239,0
			44.323837,-124.107018,0
			44.323994,-124.106956,0
			44.3244090000001,-124.106789,0
			44.3245770000001,-124.106667,0
			44.3248710000001,-124.106453,0
			44.3252490000002,-124.106018,0
			44.3256030000001,-124.105545,0
			44.326012,-124.105087,0
			44.3264880000002,-124.104675,0
			44.3270030000002,-124.104317,0
			44.3274840000001,-124.103889,0
			44.3279500000002,-124.103439,0
			44.3284340000001,-124.103004,0
			44.3289990000001,-124.102631,0
			44.329578,-124.102287,0
			44.3301280000001,-124.10183,0
			44.3306390000001,-124.101357,0
			44.3311840000001,-124.100975,0
			44.3317870000002,-124.100769,0
			44.3323820000001,-124.10054,0
			44.3329660000001,-124.100281,0
			44.3335530000001,-124.100029,0
			44.334164,-124.099815,0
			44.334793,-124.099701,0
			44.33543,-124.099602,0
			44.336079,-124.099525,0
			44.3367200000001,-124.099457,0
			44.337322,-124.09935,0
			44.3378300000002,-124.099144,0
			44.3382990000001,-124.098907,0
			44.3387760000001,-124.098694,0
			44.3392600000002,-124.098534,0
			44.3397180000001,-124.098343,0
			44.3401870000001,-124.098175,0
			44.3407170000001,-124.098106,0
			44.341263,-124.098091,0
			44.3418050000001,-124.098091,0
			44.3423230000001,-124.097961,0
			44.3428000000001,-124.097755,0
			44.3432660000001,-124.097542,0
			44.3437420000001,-124.097366,0
			44.3442000000002,-124.097198,0
			44.344658,-124.097038,0
			44.345158,-124.096931,0
			44.3456880000002,-124.096901,0
			44.3462220000001,-124.096832,0
			44.3467370000001,-124.09671,0
			44.3472630000001,-124.096611,0
			44.3477940000002,-124.096542,0
			44.3483160000002,-124.096626,0
			44.3488390000001,-124.096718,0
			44.349342,-124.09684,0
			44.3498570000002,-124.096901,0
			44.3503800000001,-124.096886,0
			44.3508760000001,-124.096779,0
			44.3513150000002,-124.096542,0
			44.3517190000001,-124.096252,0
			44.352131,-124.095993,0
			44.3525810000001,-124.095779,0
			44.3530270000001,-124.095566,0
			44.3534810000002,-124.095367,0
			44.3539660000001,-124.095222,0
			44.3544650000001,-124.095139,0
			44.3549540000002,-124.095192,0
			44.3554500000002,-124.095238,0
			44.355957,-124.095238,0
			44.3564610000002,-124.095161,0
			44.3569450000001,-124.095001,0
			44.3574330000001,-124.094841,0
			44.3579440000001,-124.094742,0
			44.358471,-124.094673,0
			44.3589940000002,-124.094566,0
			44.3595350000002,-124.094498,0
			44.3600650000001,-124.094406,0
			44.3605880000001,-124.094269,0
			44.3611110000002,-124.094131,0
			44.3616290000001,-124.093948,0
			44.3621640000001,-124.093819,0
			44.3626590000002,-124.093651,0
			44.3631780000001,-124.093491,0
			44.3637160000001,-124.093361,0
			44.3642580000001,-124.0933,0
			44.3647730000001,-124.093414,0
			44.3652950000001,-124.093498,0
			44.365818,-124.093445,0
			44.3662830000002,-124.0933,0
			44.366741,-124.093132,0
			44.3672330000001,-124.092995,0
			44.3677020000002,-124.092812,0
			44.3681530000002,-124.092575,0
			44.3686220000001,-124.092346,0
			44.3690950000001,-124.092117,0
			44.36956,-124.091858,0
			44.3700450000001,-124.091621,0
			44.3705330000001,-124.091393,0
			44.3710400000001,-124.091179,0
			44.3716010000002,-124.091011,0
			44.372166,-124.090828,0
			44.3727340000002,-124.090668,0
			44.373302,-124.090576,0
			44.3738670000001,-124.09053,0
			44.3744280000001,-124.090462,0
			44.3749500000002,-124.090263,0
			44.3754430000001,-124.090027,0
			44.375957,-124.089996,0
			44.3764650000001,-124.090149,0
			44.3769800000001,-124.090294,0
			44.3774950000001,-124.090424,0
			44.3780480000001,-124.090401,0
			44.3786320000002,-124.090302,0
			44.3792110000001,-124.090187,0
			44.379738,-124.089996,0
			44.3802570000001,-124.089813,0
			44.3808210000001,-124.089676,0
			44.3813900000001,-124.089546,0
			44.3819540000001,-124.089531,0
			44.3825150000001,-124.089577,0
			44.383072,-124.089478,0
			44.3836100000001,-124.089371,0
			44.3840940000002,-124.089218,0
			44.3845670000001,-124.089081,0
			44.385067,-124.089081,0
			44.3855780000001,-124.08902,0
			44.3860780000001,-124.088882,0
			44.3866270000001,-124.088951,0
			44.3871800000001,-124.089058,0
			44.3877370000002,-124.08902,0
			44.3881950000001,-124.088844,0
			44.3886150000001,-124.088615,0
			44.38903,-124.088425,0
			44.3894730000001,-124.088409,0
			44.3899230000002,-124.088409,0
			44.3903880000001,-124.088364,0
			44.3908540000002,-124.088325,0
			44.391312,-124.088264,0
			44.3917270000001,-124.088158,0
			44.392143,-124.088058,0
			44.3925670000001,-124.087975,0
			44.3930130000001,-124.087975,0
			44.3934360000001,-124.087906,0
			44.393848,-124.087875,0
			44.3942450000001,-124.087952,0
			44.3946340000001,-124.08799,0
			44.3950310000001,-124.087929,0
			44.395451,-124.087753,0
			44.3959500000001,-124.087654,0
			44.396454,-124.087547,0
			44.3969500000001,-124.087448,0
			44.3974300000002,-124.087311,0
			44.3979340000001,-124.087212,0
			44.3984380000001,-124.087097,0
			44.3989370000001,-124.086983,0
			44.3994330000002,-124.086884,0
			44.3999020000001,-124.086761,0
			44.4003910000002,-124.086693,0
			44.4008830000002,-124.08667,0
			44.401375,-124.086655,0
			44.4018590000001,-124.086601,0
			44.402321,-124.086487,0
			44.4027860000001,-124.086388,0
			44.4032480000001,-124.086273,0
			44.4036980000001,-124.086128,0
			44.4041560000001,-124.086174,0
			44.4045300000001,-124.086098,0
			44.4050830000001,-124.086212,0
			44.4055480000002,-124.086151,0
			44.4060170000001,-124.086136,0
			44.4064980000001,-124.086121,0
			44.4069900000001,-124.085846,0
			44.4074970000001,-124.085823,0
			44.4080050000001,-124.085541,0
			44.4085010000001,-124.085518,0
			44.4089740000002,-124.085442,0
			44.4094240000001,-124.08535,0
			44.4099010000001,-124.085335,0
			44.4103740000002,-124.085358,0
			44.4108280000001,-124.08532,0
			44.411251,-124.08506,0
			44.4117010000002,-124.084793,0
			44.4122240000001,-124.084633,0
			44.4127960000002,-124.084633,0
			44.4133680000001,-124.084595,0
			44.4139180000001,-124.08448,0
			44.4144590000001,-124.084373,0
			44.4149780000001,-124.084244,0
			44.415493,-124.084145,0
			44.4159890000001,-124.084023,0
			44.4164540000002,-124.083832,0
			44.4168780000001,-124.083603,0
			44.4172820000001,-124.083366,0
			44.4176750000001,-124.083122,0
			44.4180220000001,-124.082848,0
			44.4183350000002,-124.082497,0
			44.4191670000001,-124.081604,0
			44.4191670000001,-124.081947,0
			44.4188880000001,-124.082222,0
			44.4191670000001,-124.082497,0
			44.419724,-124.081947,0
			44.42112,-124.081665,0
			44.4229280000001,-124.081299,0
			44.4217640000001,-124.081947,0
			44.4244460000001,-124.081947,0
			44.4249990000002,-124.08139,0
			44.4252780000002,-124.08139,0
			44.4255560000001,-124.081108,0
			44.4255560000001,-124.080833,0
			44.4258350000001,-124.081108,0
			44.4258350000001,-124.08139,0
			44.426109,-124.081665,0
			44.426109,-124.081947,0
			44.4262770000001,-124.0821,0
			44.4265790000002,-124.082375,0
			44.4266660000001,-124.082497,0
			44.4269450000001,-124.082497,0
			44.427223,-124.082779,0
			44.427223,-124.083054,0
			44.4275210000001,-124.083282,0
			44.4275020000002,-124.083611,0
			44.4280550000001,-124.084167,0
			44.4285850000001,-124.083633,0
			44.4291650000001,-124.083054,0
			44.429722,-124.083054,0
			44.4300000000001,-124.083336,0
			44.4305570000001,-124.083336,0
			44.4308320000002,-124.083611,0
			44.4308320000002,-124.083763,0
			44.4308320000002,-124.084167,0
			44.4311100000001,-124.083885,0
			44.4314380000001,-124.083839,0
			44.4316670000002,-124.083611,0
			44.4322200000001,-124.083611,0
			44.4324990000001,-124.083885,0
			44.4342770000001,-124.083885,0
			44.4347950000002,-124.083885,0
			44.4353100000001,-124.083893,0
			44.4358290000001,-124.083885,0
			44.4363440000001,-124.083878,0
			44.4368550000001,-124.083839,0
			44.4373510000001,-124.083748,0
			44.4378400000001,-124.083641,0
			44.4383390000001,-124.083549,0
			44.4388310000002,-124.08342,0
			44.4393500000001,-124.083344,0
			44.4398880000001,-124.083282,0
			44.4404410000001,-124.083267,0
			44.440994,-124.083199,0
			44.4415280000002,-124.083069,0
			44.4420700000001,-124.082939,0
			44.442619,-124.082825,0
			44.443188,-124.082741,0
			44.4437600000001,-124.082634,0
			44.4443360000002,-124.082535,0
			44.4449230000001,-124.082466,0
			44.4455110000001,-124.082436,0
			44.4461020000001,-124.082527,0
			44.4467510000002,-124.082474,0
			44.4473380000001,-124.082283,0
			44.4479410000002,-124.082123,0
			44.4485780000002,-124.08213,0
			44.4492490000001,-124.082092,0
			44.4499320000001,-124.082031,0
			44.4506230000001,-124.082054,0
			44.4513090000002,-124.082115,0
			44.451939,-124.082001,0
			44.4525870000001,-124.081955,0
			44.4532510000001,-124.081932,0
			44.4539110000002,-124.081871,0
			44.4545560000001,-124.081726,0
			44.4552,-124.08168,0
			44.4558450000001,-124.081665,0
			44.4564820000001,-124.08165,0
			44.4571080000002,-124.081589,0
			44.457699,-124.08168,0
			44.4583590000001,-124.081604,0
			44.458897,-124.081612,0
			44.459526,-124.081459,0
			44.4601440000002,-124.081451,0
			44.460758,-124.081474,0
			44.4613380000001,-124.081558,0
			44.461937,-124.081551,0
			44.4625320000001,-124.081444,0
			44.4630890000001,-124.081474,0
			44.4637370000002,-124.081406,0
			44.4642870000002,-124.08152,0
			44.464996,-124.081566,0
			44.4656220000001,-124.081512,0
			44.4662400000001,-124.081551,0
			44.4668500000001,-124.081589,0
			44.4673730000001,-124.081635,0
			44.4680630000001,-124.081757,0
			44.4685820000001,-124.081764,0
			44.4689900000001,-124.081848,0
			44.4697380000002,-124.082008,0
			44.47049,-124.082169,0
			44.471012,-124.081993,0
			44.4716950000001,-124.082092,0
			44.4722790000001,-124.082115,0
			44.4724430000002,-124.082153,0
			44.4727900000001,-124.082245,0
			44.4730190000002,-124.082222,0
			44.4733920000002,-124.082184,0
			44.4739300000001,-124.082153,0
			44.4744950000001,-124.082214,0
			44.475063,-124.082245,0
			44.4756240000001,-124.082306,0
			44.476166,-124.082413,0
			44.4767340000001,-124.082405,0
			44.4773180000001,-124.082291,0
			44.477901,-124.082207,0
			44.4784740000002,-124.082184,0
			44.4789310000002,-124.082436,0
			44.479408,-124.082527,0
			44.4797400000001,-124.082634,0
			44.4804460000001,-124.082687,0
			44.4808200000001,-124.082962,0
			44.4811400000002,-124.083221,0
			44.4819680000001,-124.083267,0
			44.4823800000001,-124.083458,0
			44.4828340000001,-124.083603,0
			44.4833150000002,-124.083878,0
			44.483891,-124.084152,0
			44.4844440000001,-124.084213,0
			44.484859,-124.084648,0
			44.484722,-124.084999,0
			44.4844440000001,-124.085281,0
			44.4844440000001,-124.085831,0
			44.485001,-124.086388,0
			44.4855540000001,-124.086388,0
			44.486946,-124.084999,0
			44.487221,-124.084999,0
			44.4874760000002,-124.085167,0
			44.4881100000001,-124.084991,0
			44.4887010000001,-124.084656,0
			44.4893190000001,-124.084335,0
			44.4900360000001,-124.084183,0
			44.4907840000001,-124.084068,0
			44.4915730000001,-124.083908,0
			44.4923400000001,-124.083893,0
			44.4924200000002,-124.084007,0
			44.4926570000001,-124.083946,0
			44.4930570000001,-124.084122,0
			44.4935720000001,-124.08429,0
			44.4938890000002,-124.084541,0
			44.494518,-124.084793,0
			44.494984,-124.084671,0
			44.495033,-124.084846,0
			44.4952770000001,-124.084846,0
			44.495598,-124.084953,0
			44.4963870000001,-124.085136,0
			44.4967770000001,-124.084702,0
			44.4971390000002,-124.08429,0
			44.4976310000002,-124.084183,0
			44.4985310000001,-124.084183,0
			44.4991680000002,-124.084061,0
			44.4997220000002,-124.083885,0
			44.5001950000001,-124.083435,0
			44.5006450000002,-124.083054,0
			44.5011830000001,-124.082779,0
			44.5017510000002,-124.08255,0
			44.502354,-124.08239,0
			44.502979,-124.08226,0
			44.5036160000001,-124.082153,0
			44.504246,-124.082008,0
			44.5048830000002,-124.081909,0
			44.5055160000002,-124.081825,0
			44.5061650000002,-124.081841,0
			44.5067830000002,-124.081749,0
			44.5073590000001,-124.081558,0
			44.5079310000001,-124.081367,0
			44.5084950000001,-124.081177,0
			44.5090710000001,-124.081047,0
			44.5096320000002,-124.080856,0
			44.5102040000001,-124.080681,0
			44.5108300000002,-124.080566,0
			44.5114560000001,-124.080452,0
			44.512028,-124.080254,0
			44.5125730000001,-124.080025,0
			44.5131230000002,-124.079819,0
			44.5136760000001,-124.079643,0
			44.5142170000001,-124.079445,0
			44.514755,-124.079239,0
			44.5153050000001,-124.079056,0
			44.5158620000001,-124.078896,0
			44.5164260000001,-124.078789,0
			44.516979,-124.078796,0
			44.5175090000002,-124.078712,0
			44.5179440000001,-124.078484,0
			44.518383,-124.07827,0
			44.5188220000001,-124.078049,0
			44.5192490000001,-124.077812,0
			44.519688,-124.077599,0
			44.5200960000002,-124.077354,0
			44.5204390000001,-124.077019,0
			44.5206950000002,-124.076584,0
			44.520897,-124.076118,0
			44.5211490000001,-124.075691,0
			44.5214390000001,-124.075302,0
			44.5217630000001,-124.074936,0
			44.5219460000001,-124.074997,0
			44.5219460000001,-124.073059,0
			44.5216670000001,-124.072777,0
			44.5216670000001,-124.07222,0
			44.5222210000001,-124.071663,0
			44.522778,-124.071663,0
			44.5230560000001,-124.071945,0
			44.5230560000001,-124.07222,0
			44.5233350000001,-124.072502,0
			44.5233350000001,-124.073059,0
			44.5241660000002,-124.073891,0
			44.5241660000002,-124.074165,0
			44.524349,-124.074501,0
			44.524841,-124.07486,0
			44.5252910000002,-124.075264,0
			44.525768,-124.075623,0
			44.5263330000002,-124.075859,0
			44.5269390000001,-124.075996,0
			44.5275650000002,-124.075996,0
			44.528214,-124.075912,0
			44.5288770000002,-124.075859,0
			44.5295410000001,-124.075867,0
			44.5301900000001,-124.075935,0
			44.5308000000001,-124.076027,0
			44.5313870000001,-124.076012,0
			44.5319140000001,-124.075874,0
			44.5324400000001,-124.075752,0
			44.5329700000001,-124.07563,0
			44.5335010000002,-124.0756,0
			44.5340350000001,-124.075623,0
			44.5345270000001,-124.075584,0
			44.535015,-124.075554,0
			44.5355000000002,-124.075508,0
			44.5359650000001,-124.075424,0
			44.5364270000001,-124.075325,0
			44.536911,-124.075249,0
			44.5373990000001,-124.075142,0
			44.5378800000001,-124.074997,0
			44.5383640000002,-124.074883,0
			44.5388640000002,-124.074936,0
			44.5393870000001,-124.074982,0
			44.5399170000001,-124.074989,0
			44.540443,-124.074959,0
			44.5409470000002,-124.07486,0
			44.5414310000001,-124.074715,0
			44.5419240000001,-124.074577,0
			44.5424580000002,-124.074554,0
			44.542961,-124.074509,0
			44.5434040000001,-124.074371,0
			44.5438420000001,-124.074234,0
			44.5443040000001,-124.074196,0
			44.544773,-124.074226,0
			44.545235,-124.074333,0
			44.5457080000001,-124.074341,0
			44.546181,-124.074219,0
			44.546658,-124.074112,0
			44.5471,-124.073959,0
			44.547562,-124.07383,0
			44.548019,-124.073662,0
			44.5485,-124.073532,0
			44.5490190000002,-124.073631,0
			44.5495640000001,-124.073685,0
			44.5499110000001,-124.073776,0
			44.550507,-124.073853,0
			44.5510640000001,-124.073746,0
			44.5513500000001,-124.07373,0
			44.5516660000002,-124.073624,0
			44.5519450000002,-124.073509,0
			44.552345,-124.073624,0
			44.5527040000001,-124.073502,0
			44.55294,-124.073448,0
			44.5530970000001,-124.073395,0
			44.5538900000001,-124.073059,0
			44.55426,-124.072838,0
			44.5548590000002,-124.072708,0
			44.555462,-124.072662,0
			44.5560650000002,-124.072609,0
			44.5566640000002,-124.072517,0
			44.5572700000002,-124.072449,0
			44.5578800000001,-124.072403,0
			44.5584830000002,-124.072235,0
			44.559082,-124.072075,0
			44.5597000000002,-124.071968,0
			44.5603070000001,-124.071907,0
			44.560883,-124.071808,0
			44.5613860000001,-124.071655,0
			44.5618740000001,-124.071495,0
			44.5624350000002,-124.071404,0
			44.563011,-124.07132,0
			44.5635760000001,-124.071175,0
			44.5641330000001,-124.071053,0
			44.564651,-124.070877,0
			44.5651550000002,-124.070717,0
			44.5656810000002,-124.070786,0
			44.5662310000002,-124.070824,0
			44.5667840000001,-124.070831,0
			44.5673330000001,-124.070831,0
			44.5678790000001,-124.070824,0
			44.5684200000001,-124.07077,0
			44.568943,-124.07061,0
			44.569462,-124.070488,0
			44.5699310000001,-124.07032,0
			44.570435,-124.070213,0
			44.570999,-124.070221,0
			44.571579,-124.07016,0
			44.5721550000001,-124.070053,0
			44.5727390000001,-124.07,0
			44.5733110000002,-124.069939,0
			44.5738600000001,-124.069847,0
			44.5744210000001,-124.069878,0
			44.5749700000001,-124.069786,0
			44.575523,-124.06974,0
			44.5760770000001,-124.069725,0
			44.5766260000001,-124.069717,0
			44.5771680000001,-124.069702,0
			44.5776900000001,-124.069641,0
			44.5781670000001,-124.069489,0
			44.5786630000001,-124.069359,0
			44.5791440000002,-124.069199,0
			44.579639,-124.069077,0
			44.580128,-124.068947,0
			44.5806470000002,-124.068901,0
			44.5811730000001,-124.068878,0
			44.5816990000001,-124.068817,0
			44.5822180000001,-124.068695,0
			44.582745,-124.06868,0
			44.5832820000001,-124.068748,0
			44.5838240000001,-124.068687,0
			44.5843850000002,-124.068619,0
			44.5849380000001,-124.06855,0
			44.5854380000001,-124.068405,0
			44.5859530000001,-124.068375,0
			44.5864560000001,-124.068436,0
			44.5869220000001,-124.06855,0
			44.5874140000001,-124.068558,0
			44.5879140000001,-124.068459,0
			44.588402,-124.068306,0
			44.5888820000001,-124.06813,0
			44.5894130000001,-124.068039,0
			44.5899430000001,-124.06794,0
			44.5904620000001,-124.067833,0
			44.5909880000001,-124.067787,0
			44.591507,-124.067757,0
			44.592022,-124.06768,0
			44.592518,-124.067528,0
			44.5930290000001,-124.067421,0
			44.5935940000001,-124.067451,0
			44.5941280000002,-124.067635,0
			44.594654,-124.067833,0
			44.5951770000001,-124.067894,0
			44.5956190000001,-124.067772,0
			44.5960460000001,-124.067612,0
			44.5965000000002,-124.067482,0
			44.5969660000002,-124.067345,0
			44.5974430000001,-124.067215,0
			44.5979230000002,-124.06707,0
			44.5984150000002,-124.066917,0
			44.5989110000002,-124.06678,0
			44.5994640000001,-124.066765,0
			44.6000250000001,-124.066856,0
			44.6005630000001,-124.066887,0
			44.6010780000001,-124.066849,0
			44.601578,-124.066734,0
			44.6020810000001,-124.066704,0
			44.6025810000001,-124.066742,0
			44.6030620000001,-124.066872,0
			44.6035730000001,-124.066925,0
			44.6041030000001,-124.066948,0
			44.604637,-124.066978,0
			44.6051640000001,-124.067055,0
			44.6056750000001,-124.067184,0
			44.6061780000002,-124.067314,0
			44.606632,-124.067528,0
			44.6070560000002,-124.06778,0
			44.6074680000002,-124.068054,0
			44.6078800000001,-124.068329,0
			44.6083260000001,-124.068573,0
			44.6087110000001,-124.068878,0
			44.609135,-124.069145,0
			44.6095500000001,-124.069412,0
			44.6099930000001,-124.069641,0
			44.6104930000001,-124.069771,0
			44.6109850000001,-124.069901,0
			44.611389,-124.07,0
			44.611389,-124.070274,0
			44.611046,-124.072426,0
			44.6102520000001,-124.072777,0
			44.6095810000002,-124.076355,0
			44.6081730000002,-124.079796,0
			44.6072430000002,-124.081528,0
			44.6074980000001,-124.082222,0
			44.608055,-124.082779,0
			44.609444,-124.081108,0
			44.610554,-124.078888,0
			44.6116680000002,-124.075554,0
			44.6122210000001,-124.074165,0
			44.612778,-124.072502,0
			44.612778,-124.071663,0
			44.6130560000001,-124.071388,0
			44.6130560000001,-124.070557,0
			44.6133350000001,-124.070274,0
			44.6133350000001,-124.069443,0
			44.6137730000001,-124.069054,0
			44.6139560000001,-124.068695,0
			44.6140100000002,-124.068237,0
			44.6141050000001,-124.06781,0
			44.6141700000001,-124.067337,0
			44.6142580000001,-124.066895,0
			44.6144410000001,-124.066483,0
			44.6146510000001,-124.066093,0
			44.6148530000001,-124.06572,0
			44.6150590000001,-124.065392,0
			44.6152950000001,-124.065125,0
			44.6154370000001,-124.065056,0
			44.6155550000001,-124.065002,0
			44.6155200000001,-124.064713,0
			44.6161120000002,-124.064163,0
			44.6161120000002,-124.063614,0
			44.6163900000001,-124.063332,0
			44.6163900000001,-124.062775,0
			44.6160620000001,-124.062485,0
			44.6163900000001,-124.062225,0
			44.6163900000001,-124.061668,0
			44.6166650000001,-124.061386,0
			44.6166650000001,-124.060837,0
			44.6173480000001,-124.060211,0
			44.6171610000001,-124.061005,0
			44.6192090000001,-124.060394,0
			44.6194530000002,-124.061661,0
			44.6201670000002,-124.061966,0
			44.6229020000001,-124.061646,0
			44.6230430000001,-124.06131,0
			44.6232680000001,-124.061378,0
			44.6223790000002,-124.062508,0
			44.6216930000001,-124.063103,0
			44.6212580000002,-124.063416,0
			44.6210370000002,-124.063698,0
			44.6208340000001,-124.063614,0
			44.6194460000002,-124.065002,0
			44.6191670000002,-124.065002,0
			44.6186100000001,-124.065552,0
			44.6183320000002,-124.065552,0
			44.6181070000001,-124.065895,0
			44.6177060000001,-124.066238,0
			44.6109050000001,-124.082069,0
			44.6115840000002,-124.082977,0
			44.618008,-124.067337,0
			44.6197200000001,-124.066391,0
			44.6199990000001,-124.066391,0
			44.6208340000001,-124.065552,0
			44.6208340000001,-124.065277,0
			44.621387,-124.06472,0
			44.6216660000002,-124.06472,0
			44.6219440000001,-124.065002,0
			44.6222270000001,-124.065674,0
			44.6227840000001,-124.065857,0
			44.6232830000002,-124.065887,0
			44.6237140000002,-124.06591,0
			44.624069,-124.066322,0
			44.6247900000002,-124.066246,0
			44.6253970000001,-124.066422,0
			44.62595,-124.066406,0
			44.6264800000001,-124.066772,0
			44.627098,-124.066696,0
			44.6276400000001,-124.066574,0
			44.6282650000001,-124.066299,0
			44.6288260000002,-124.066055,0
			44.6294400000002,-124.065941,0
			44.6299550000002,-124.065765,0
			44.6304890000001,-124.065811,0
			44.6310690000001,-124.065575,0
			44.63163,-124.065475,0
			44.6321370000001,-124.06543,0
			44.6327710000001,-124.065308,0
			44.6333310000001,-124.065201,0
			44.634022,-124.065063,0
			44.634621,-124.064865,0
			44.6352420000001,-124.064796,0
			44.6357990000002,-124.064255,0
			44.6363560000001,-124.064224,0
			44.6367260000001,-124.06398,0
			44.63715,-124.063782,0
			44.637455,-124.063698,0
			44.6379130000001,-124.06366,0
			44.638386,-124.063576,0
			44.6390270000001,-124.063354,0
			44.6395420000001,-124.06308,0
			44.64019,-124.062958,0
			44.6407780000002,-124.062698,0
			44.6413690000001,-124.062637,0
			44.6419910000002,-124.0625,0
			44.6425700000001,-124.062553,0
			44.6431160000002,-124.062485,0
			44.643726,-124.062325,0
			44.644505,-124.0625,0
			44.6449360000001,-124.061943,0
			44.6454810000001,-124.061707,0
			44.6459660000001,-124.061584,0
			44.6465000000001,-124.061417,0
			44.647144,-124.061348,0
			44.6475680000001,-124.061363,0
			44.6480980000001,-124.061409,0
			44.6486360000001,-124.061134,0
			44.6492960000001,-124.060791,0
			44.6499250000001,-124.060692,0
			44.6504210000001,-124.060562,0
			44.6512220000001,-124.060501,0
			44.6517830000002,-124.060257,0
			44.652275,-124.059967,0
			44.6528740000001,-124.059715,0
			44.6535490000001,-124.059578,0
			44.6541370000001,-124.059479,0
			44.6548270000002,-124.059296,0
			44.655476,-124.059227,0
			44.656036,-124.058884,0
			44.6566120000001,-124.058578,0
			44.657204,-124.058418,0
			44.6579170000001,-124.058304,0
			44.6584320000002,-124.057938,0
			44.6589810000002,-124.057571,0
			44.659611,-124.05748,0
			44.660137,-124.05761,0
			44.6607480000001,-124.057716,0
			44.6614460000002,-124.058052,0
			44.662067,-124.058022,0
			44.6627500000001,-124.058121,0
			44.663486,-124.057976,0
			44.6640970000001,-124.057961,0
			44.6646350000001,-124.058296,0
			44.665154,-124.058395,0
			44.6656270000001,-124.058586,0
			44.6661190000001,-124.058723,0
			44.6665840000001,-124.058876,0
			44.6670040000001,-124.059059,0
			44.6673890000002,-124.059258,0
			44.6677510000001,-124.059494,0
			44.6681370000001,-124.059746,0
			44.6687360000001,-124.059853,0
			44.6692280000001,-124.060165,0
			44.6696590000001,-124.060738,0
			44.6699450000001,-124.061249,0
			44.6702690000001,-124.061401,0
			44.6709330000002,-124.061676,0
			44.6715700000001,-124.06192,0
			44.6717070000001,-124.062134,0
			44.6720850000001,-124.062706,0
			44.672604,-124.062897,0
			44.672924,-124.062996,0
			44.673119,-124.063301,0
			44.6733820000001,-124.063576,0
			44.6734050000001,-124.06411,0
			44.6733440000002,-124.064316,0
			44.6732480000001,-124.064636,0
			44.6730380000001,-124.065155,0
			44.6727940000001,-124.065659,0
			44.6725010000001,-124.066109,0
			44.6723370000001,-124.06778,0
			44.672256,-124.069725,0
			44.6725010000001,-124.07,0
			44.672222,-124.070274,0
			44.672245,-124.070839,0
			44.6724090000001,-124.07135,0
			44.6724050000001,-124.071838,0
			44.6722490000001,-124.072289,0
			44.672157,-124.072739,0
			44.6720810000001,-124.073189,0
			44.6721000000001,-124.073586,0
			44.6722760000001,-124.073929,0
			44.6724360000002,-124.07428,0
			44.6725010000001,-124.074661,0
			44.6725580000002,-124.075066,0
			44.6726800000001,-124.075485,0
			44.6727680000001,-124.075943,0
			44.6727140000001,-124.076462,0
			44.6726650000001,-124.077019,0
			44.672737,-124.077599,0
			44.672894,-124.078156,0
			44.6731800000001,-124.078674,0
			44.6735690000001,-124.079155,0
			44.673965,-124.079651,0
			44.674358,-124.080162,0
			44.6746830000001,-124.080681,0
			44.6749990000001,-124.08139,0
			44.675556,-124.08139,0
			44.675835,-124.081108,0
			44.6761090000002,-124.081108,0
			44.6763880000001,-124.080833,0
			44.6766660000001,-124.080833,0
			44.676945,-124.081108,0
			44.6777760000001,-124.081108,0
			44.6786120000001,-124.080276,0
			44.6786120000001,-124.080002,0
			44.6783330000001,-124.07972,0
			44.6780890000002,-124.079208,0
			44.6779400000001,-124.078789,0
			44.6777920000001,-124.078369,0
			44.6777420000001,-124.077942,0
			44.6777460000001,-124.077736,0
			44.6777530000001,-124.077522,0
			44.6776500000001,-124.077217,0
			44.6776390000001,-124.076942,0
			44.6778070000001,-124.07682,0
			44.6778260000001,-124.076424,0
			44.6780470000001,-124.075592,0
			44.677849,-124.075119,0
			44.6778370000001,-124.074364,0
			44.677853,-124.073929,0
			44.6776160000001,-124.073372,0
			44.677795,-124.072777,0
			44.6781310000001,-124.072227,0
			44.6785430000001,-124.071777,0
			44.6790080000002,-124.071419,0
			44.6794850000001,-124.071083,0
			44.6799320000001,-124.070732,0
			44.6803400000001,-124.070374,0
			44.680756,-124.070038,0
			44.6811900000001,-124.069763,0
			44.6816560000001,-124.069519,0
			44.6821860000001,-124.069328,0
			44.6827130000001,-124.06913,0
			44.6832200000002,-124.068886,0
			44.683723,-124.068642,0
			44.6842540000001,-124.068459,0
			44.684811,-124.068329,0
			44.6853640000001,-124.068184,0
			44.685867,-124.067978,0
			44.6863820000002,-124.067772,0
			44.6868970000001,-124.067574,0
			44.68742,-124.067421,0
			44.687935,-124.067413,0
			44.688461,-124.067329,0
			44.6889920000001,-124.067383,0
			44.6896360000001,-124.067139,0
			44.6901130000001,-124.067039,0
			44.6905440000001,-124.066681,0
			44.691044,-124.066246,0
			44.6915820000002,-124.066261,0
			44.6921580000001,-124.066299,0
			44.6924670000002,-124.066071,0
			44.6930310000001,-124.065796,0
			44.6936840000002,-124.065475,0
			44.6941340000001,-124.065201,0
			44.6948360000001,-124.065132,0
			44.6953090000002,-124.065033,0
			44.6958960000001,-124.064964,0
			44.6963460000002,-124.064774,0
			44.696877,-124.064629,0
			44.6974260000002,-124.064499,0
			44.697933,-124.064217,0
			44.6984440000001,-124.064117,0
			44.698925,-124.063988,0
			44.6994860000001,-124.063896,0
			44.6999660000002,-124.063637,0
			44.7004850000001,-124.063454,0
			44.7009620000002,-124.063179,0
			44.7013440000002,-124.062706,0
			44.7017210000001,-124.0625,0
			44.7020870000002,-124.062286,0
			44.702484,-124.062134,0
			44.7028920000002,-124.062012,0
			44.703339,-124.062027,0
			44.7037770000001,-124.062149,0
			44.7042310000001,-124.062218,0
			44.7047,-124.062149,0
			44.7051540000001,-124.061928,0
			44.7056010000001,-124.061676,0
			44.706085,-124.061493,0
			44.7066120000001,-124.061417,0
			44.7071460000001,-124.061394,0
			44.707676,-124.061378,0
			44.7081990000001,-124.061386,0
			44.7085420000001,-124.061615,0
			44.7086520000001,-124.061615,0
			44.7088890000001,-124.06179,0
			44.7102780000001,-124.061562,0
			44.7105980000001,-124.061569,0
			44.7109570000001,-124.06134,0
			44.7122610000002,-124.06073,0
			44.7129060000001,-124.060623,0
			44.713417,-124.060333,0
			44.7139850000002,-124.060135,0
			44.7144930000001,-124.059906,0
			44.7148320000001,-124.05986,0
			44.7151450000001,-124.059738,0
			44.7156600000002,-124.059578,0
			44.7160800000001,-124.059334,0
			44.7165070000001,-124.059235,0
			44.7169690000002,-124.059181,0
			44.717453,-124.059166,0
			44.717777,-124.059166,0
			44.7179530000002,-124.059166,0
			44.719166,-124.059166,0
			44.7194440000001,-124.059448,0
			44.7197230000001,-124.059448,0
			44.720001,-124.059166,0
			44.72361,-124.059166,0
			44.7238880000001,-124.058891,0
			44.725555,-124.058891,0
			44.7258340000002,-124.058609,0
			44.726665,-124.058609,0
			44.727135,-124.058533,0
			44.7276500000002,-124.058548,0
			44.728172,-124.058479,0
			44.728683,-124.058365,0
			44.7291950000001,-124.058258,0
			44.7296680000002,-124.05809,0
			44.7301600000002,-124.057983,0
			44.7306820000001,-124.058029,0
			44.7307970000001,-124.058037,0
			44.7311100000001,-124.058052,0
			44.7324980000002,-124.058052,0
			44.7327770000002,-124.057777,0
			44.7336120000002,-124.057777,0
			44.7338910000001,-124.057503,0
			44.7363850000001,-124.057556,0
			44.7366680000001,-124.05722,0
			44.737221,-124.05722,0
			44.7374990000001,-124.057503,0
			44.7386090000001,-124.057503,0
			44.7388880000001,-124.057777,0
			44.7402760000002,-124.057777,0
			44.7405550000001,-124.058052,0
			44.741112,-124.058052,0
			44.7413900000001,-124.058334,0
			44.7416650000002,-124.058334,0
			44.741943,-124.058609,0
			44.7422220000001,-124.058609,0
			44.7425000000002,-124.058891,0
			44.7430570000001,-124.058891,0
			44.7438890000001,-124.059723,0
			44.7441670000001,-124.059723,0
			44.7449990000002,-124.060555,0
			44.7449990000002,-124.060837,0
			44.7458340000001,-124.061668,0
			44.7458340000001,-124.061943,0
			44.7463870000001,-124.0625,0
			44.7463870000001,-124.062775,0
			44.7466660000001,-124.063057,0
			44.7458340000001,-124.063889,0
			44.7455560000001,-124.063889,0
			44.7452390000001,-124.064201,0
			44.7447200000001,-124.06472,0
			44.7447200000001,-124.065002,0
			44.7455560000001,-124.065834,0
			44.7458340000001,-124.065834,0
			44.7461130000002,-124.066109,0
			44.7467380000002,-124.06604,0
			44.7469440000002,-124.066391,0
			44.7470130000002,-124.066322,0
			44.7475010000001,-124.065834,0
			44.7478260000001,-124.065781,0
			44.748497,-124.065231,0
			44.7487560000001,-124.065155,0
			44.748901,-124.064941,0
			44.7492940000001,-124.064964,0
			44.7494810000001,-124.06498,0
			44.749981,-124.064743,0
			44.7505570000001,-124.064842,0
			44.7510490000001,-124.065331,0
			44.7517780000001,-124.065788,0
			44.7525220000002,-124.065765,0
			44.7529750000002,-124.065559,0
			44.753162,-124.065048,0
			44.753403,-124.064812,0
			44.753613,-124.064606,0
			44.75415,-124.064613,0
			44.754734,-124.064697,0
			44.755371,-124.064766,0
			44.7560350000001,-124.064857,0
			44.756432,-124.064995,0
			44.7568630000002,-124.065399,0
			44.7568970000002,-124.06572,0
			44.756943,-124.066109,0
			44.7572210000001,-124.066391,0
			44.757778,-124.066391,0
			44.7580570000002,-124.066666,0
			44.7586100000001,-124.066666,0
			44.7586100000001,-124.066948,0
			44.759167,-124.067497,0
			44.759167,-124.06778,0
			44.7594450000001,-124.068054,0
			44.760277,-124.068054,0
			44.7605550000001,-124.068336,0
			44.7608340000001,-124.068336,0
			44.761112,-124.068611,0
			44.7613910000002,-124.068611,0
			44.7618710000001,-124.0681,0
			44.7618140000002,-124.067497,0
			44.7619740000001,-124.066818,0
			44.7622340000001,-124.066727,0
			44.762501,-124.066628,0
			44.763062,-124.066917,0
			44.763203,-124.067184,0
			44.7642560000001,-124.068375,0
			44.7649990000001,-124.06778,0
			44.7652780000001,-124.06778,0
			44.7655560000002,-124.068054,0
			44.765835,-124.068054,0
			44.766666,-124.068886,0
			44.7669450000002,-124.068886,0
			44.7675020000001,-124.069443,0
			44.767776,-124.069443,0
			44.767776,-124.07,0
			44.7675020000001,-124.070274,0
			44.7675020000001,-124.070557,0
			44.7672230000001,-124.070831,0
			44.7672230000001,-124.071114,0
			44.7675020000001,-124.071388,0
			44.7675020000001,-124.071945,0
			44.767776,-124.07222,0
			44.767776,-124.072777,0
			44.7680550000002,-124.073059,0
			44.7680550000002,-124.073334,0
			44.7683330000001,-124.073334,0
			44.7708320000001,-124.075836,0
			44.7713890000002,-124.075836,0
			44.7719460000001,-124.076385,0
			44.7722210000001,-124.076385,0
			44.772499,-124.076111,0
			44.7727780000002,-124.076111,0
			44.7733350000001,-124.075554,0
			44.7741660000001,-124.075554,0
			44.7744450000001,-124.075279,0
			44.7747230000002,-124.075279,0
			44.7750020000001,-124.074997,0
			44.7757190000002,-124.074997,0
			44.77639,-124.074997,0
			44.776512,-124.075119,0
			44.7766690000001,-124.075279,0
			44.7768100000002,-124.075134,0
			44.7769430000002,-124.074997,0
			44.7769430000002,-124.074722,0
			44.7772220000002,-124.074722,0
			44.7775000000001,-124.074448,0
			44.7777790000001,-124.074165,0
			44.7777790000001,-124.073891,0
			44.7772220000002,-124.073334,0
			44.7780570000002,-124.072502,0
			44.7783320000001,-124.072502,0
			44.7786100000001,-124.072777,0
			44.7793960000001,-124.073563,0
			44.7805560000002,-124.074722,0
			44.7808340000001,-124.074722,0
			44.7811130000001,-124.074448,0
			44.7813870000002,-124.074448,0
			44.7816660000001,-124.074722,0
			44.7819480000001,-124.074615,0
			44.7826080000001,-124.074562,0
			44.7832220000001,-124.074661,0
			44.7837910000001,-124.074844,0
			44.7843130000002,-124.075073,0
			44.784859,-124.075119,0
			44.785381,-124.07486,0
			44.7858090000001,-124.074432,0
			44.786171,-124.073952,0
			44.786583,-124.073486,0
			44.7866330000001,-124.073433,0
			44.7869640000001,-124.072998,0
			44.7872430000001,-124.072456,0
			44.7874180000002,-124.071915,0
			44.7874300000001,-124.071396,0
			44.7873380000001,-124.070923,0
			44.7874370000002,-124.070442,0
			44.7874980000001,-124.070274,0
			44.7875900000002,-124.070107,0
			44.7875900000002,-124.069771,0
			44.7876360000001,-124.069496,0
			44.7876360000001,-124.069107,0
			44.7878190000001,-124.068726,0
			44.7880550000002,-124.068611,0
			44.7883340000001,-124.068611,0
			44.7885700000001,-124.068825,0
			44.7892270000001,-124.069412,0
			44.7895390000002,-124.069572,0
			44.789814,-124.069801,0
			44.790085,-124.070023,0
			44.7903020000001,-124.070274,0
			44.7905460000002,-124.070511,0
			44.790718,-124.070763,0
			44.7907680000001,-124.071014,0
			44.7905540000002,-124.071114,0
			44.7905540000002,-124.071388,0
			44.7904210000002,-124.071526,0
			44.7891650000001,-124.072777,0
			44.7891650000001,-124.073891,0
			44.7894440000001,-124.074165,0
			44.790001,-124.074165,0
			44.7902790000001,-124.073891,0
			44.7908330000001,-124.073891,0
			44.7910650000001,-124.073662,0
			44.7916680000001,-124.073059,0
			44.7916680000001,-124.072777,0
			44.7919430000001,-124.072502,0
			44.792221,-124.072502,0
			44.7925,-124.07222,0
			44.7933770000001,-124.07299,0
			44.793846,-124.07328,0
			44.7940790000001,-124.073387,0
			44.7943340000001,-124.073502,0
			44.794838,-124.0737,0
			44.7953720000002,-124.073868,0
			44.7959210000001,-124.07402,0
			44.7964630000002,-124.074249,0
			44.796925,-124.074471,0
			44.7974320000001,-124.074661,0
			44.7978860000002,-124.074593,0
			44.7983020000001,-124.074379,0
			44.7987140000001,-124.07412,0
			44.7991600000001,-124.073807,0
			44.7995260000001,-124.073349,0
			44.7997700000001,-124.072624,0
			44.8001100000001,-124.071953,0
			44.8005640000001,-124.071396,0
			44.8010480000002,-124.0709,0
			44.801369,-124.07061,0
			44.8015560000001,-124.070442,0
			44.8020970000001,-124.070015,0
			44.8026120000001,-124.069572,0
			44.803146,-124.068993,0
			44.8035960000001,-124.068222,0
			44.8037680000001,-124.067215,0
			44.8032880000002,-124.066246,0
			44.8031350000002,-124.065575,0
			44.8031270000002,-124.065086,0
			44.8032460000001,-124.06469,0
			44.8035160000001,-124.064224,0
			44.8041150000001,-124.063995,0
			44.8047490000001,-124.063896,0
			44.8053890000001,-124.063843,0
			44.8060110000001,-124.063728,0
			44.8066410000002,-124.063644,0
			44.8072780000001,-124.063606,0
			44.8078990000001,-124.063553,0
			44.8084910000001,-124.063454,0
			44.8090860000001,-124.063438,0
			44.8096850000001,-124.063515,0
			44.8102840000001,-124.063522,0
			44.8107340000001,-124.063454,0
			44.810867,-124.063431,0
			44.811474,-124.063461,0
			44.8119580000001,-124.063629,0
			44.812458,-124.063889,0
			44.8129310000001,-124.064194,0
			44.8134500000001,-124.064423,0
			44.8138690000001,-124.06485,0
			44.8142810000001,-124.065216,0
			44.8145330000002,-124.065636,0
			44.8146480000001,-124.066063,0
			44.8146360000002,-124.066475,0
			44.8145710000001,-124.066849,0
			44.8146740000001,-124.067238,0
			44.8151210000001,-124.067657,0
			44.8156700000001,-124.068001,0
			44.8162500000001,-124.06823,0
			44.8168530000001,-124.068298,0
			44.8174510000002,-124.068283,0
			44.818005,-124.068253,0
			44.8186680000002,-124.068443,0
			44.8193780000001,-124.06868,0
			44.8194430000001,-124.068336,0
			44.8200000000001,-124.06778,0
			44.8200000000001,-124.066803,0
			44.8200000000001,-124.066666,0
			44.8202780000001,-124.066391,0
			44.820835,-124.066391,0
			44.8209800000001,-124.066536,0
			44.8211100000001,-124.066666,0
			44.821674,-124.066628,0
			44.821945,-124.066948,0
			44.8230780000002,-124.06691,0
			44.823334,-124.067223,0
			44.8236120000001,-124.067223,0
			44.8237950000002,-124.067406,0
			44.8238910000001,-124.067497,0
			44.8241650000001,-124.067497,0
			44.824753,-124.068092,0
			44.8253060000001,-124.067802,0
			44.825882,-124.067581,0
			44.8265270000001,-124.067444,0
			44.82716,-124.067253,0
			44.8277700000001,-124.067032,0
			44.82843,-124.066933,0
			44.828609,-124.066948,0
			44.8288880000001,-124.066666,0
			44.8294450000001,-124.067223,0
			44.8302760000001,-124.067223,0
			44.8305590000001,-124.06694,0
			44.8313900000001,-124.066109,0
			44.8313900000001,-124.065834,0
			44.8305550000001,-124.065002,0
			44.8302760000001,-124.065002,0
			44.8294450000001,-124.064163,0
			44.830002,-124.063614,0
			44.830002,-124.061943,0
			44.8297230000001,-124.061668,0
			44.8297230000001,-124.060555,0
			44.8294450000001,-124.06028,0
			44.8294450000001,-124.059723,0
			44.830002,-124.059166,0
			44.8302760000001,-124.059448,0
			44.8305550000001,-124.059448,0
			44.830833,-124.059166,0
			44.8313900000001,-124.059166,0
			44.8316650000002,-124.059448,0
			44.8325000000001,-124.058609,0
			44.833332,-124.058609,0
			44.8341980000001,-124.059433,0
			44.8344650000002,-124.059685,0
			44.8344460000002,-124.059998,0
			44.8347210000001,-124.06028,0
			44.8354800000001,-124.060234,0
			44.8355520000001,-124.060226,0
			44.835835,-124.059998,0
			44.8366360000001,-124.059517,0
			44.8373180000002,-124.059174,0
			44.8377800000002,-124.058678,0
			44.8377570000001,-124.058235,0
			44.8377760000002,-124.058052,0
			44.8375020000001,-124.057777,0
			44.8375020000001,-124.057503,0
			44.8377760000002,-124.05722,0
			44.8377760000002,-124.056946,0
			44.8383330000001,-124.056389,0
			44.8377760000002,-124.055832,0
			44.8377760000002,-124.055557,0
			44.8369450000002,-124.054726,0
			44.8372230000001,-124.054443,0
			44.8372230000001,-124.054169,0
			44.8377760000002,-124.053612,0
			44.8377760000002,-124.053337,0
			44.838055,-124.053055,0
			44.8383330000001,-124.053337,0
			44.839169,-124.053337,0
			44.838871,-124.052612,0
			44.8390120000001,-124.05217,0
			44.839169,-124.051941,0
			44.8394430000001,-124.051666,0
			44.8397220000001,-124.051666,0
			44.84,-124.051941,0
			44.8402790000002,-124.051941,0
			44.8405570000001,-124.052223,0
			44.8408320000001,-124.052223,0
			44.841389,-124.05278,0
			44.8417320000001,-124.052902,0
			44.8419380000001,-124.05275,0
			44.8421590000002,-124.052597,0
			44.8424150000002,-124.052475,0
			44.8426780000001,-124.052322,0
			44.8429990000002,-124.052231,0
			44.8432350000002,-124.052017,0
			44.8435630000001,-124.051895,0
			44.8438870000001,-124.051765,0
			44.8442420000002,-124.051743,0
			44.8445970000001,-124.051826,0
			44.8446920000001,-124.051849,0
			44.8450010000001,-124.051941,0
			44.8450010000001,-124.052223,0
			44.8452760000001,-124.052498,0
			44.845554,-124.052498,0
			44.8463900000001,-124.051666,0
			44.8463550000002,-124.051414,0
			44.8461110000001,-124.050995,0
			44.8461950000001,-124.050552,0
			44.8464970000001,-124.050087,0
			44.8471980000002,-124.049736,0
			44.8475690000001,-124.049644,0
			44.8479080000001,-124.0495,0
			44.8484080000001,-124.049294,0
			44.8491130000002,-124.049088,0
			44.849567,-124.048714,0
			44.8499760000001,-124.048508,0
			44.850464,-124.048195,0
			44.8508150000001,-124.048096,0
			44.8514100000001,-124.047913,0
			44.8520770000001,-124.047798,0
			44.8526380000001,-124.047462,0
			44.853092,-124.047134,0
			44.8535420000001,-124.046913,0
			44.8539620000001,-124.046715,0
			44.8545300000002,-124.04657,0
			44.8550870000001,-124.046242,0
			44.8555640000001,-124.04599,0
			44.8561100000002,-124.04567,0
			44.8566060000002,-124.045685,0
			44.8571360000001,-124.045387,0
			44.8577610000002,-124.045357,0
			44.8582610000001,-124.045395,0
			44.8587680000002,-124.045372,0
			44.8593860000001,-124.04512,0
			44.8599010000001,-124.044968,0
			44.8602640000001,-124.04467,0
			44.8607670000002,-124.044533,0
			44.8612630000002,-124.044388,0
			44.861725,-124.044098,0
			44.8622060000001,-124.044044,0
			44.8626820000002,-124.043839,0
			44.8631210000001,-124.043816,0
			44.863659,-124.043549,0
			44.8639760000002,-124.043266,0
			44.864494,-124.043266,0
			44.864986,-124.043205,0
			44.8654750000002,-124.043114,0
			44.8660160000002,-124.042908,0
			44.8664170000001,-124.042809,0
			44.866856,-124.042686,0
			44.867191,-124.042366,0
			44.867573,-124.042236,0
			44.867867,-124.042206,0
			44.8683360000001,-124.042114,0
			44.8686600000001,-124.041878,0
			44.8690110000002,-124.041946,0
			44.8695680000001,-124.041733,0
			44.8698460000002,-124.041786,0
			44.8700830000001,-124.041618,0
			44.8704830000001,-124.04145,0
			44.870956,-124.041176,0
			44.8714710000002,-124.041008,0
			44.8719100000001,-124.04084,0
			44.8725010000001,-124.040787,0
			44.8727760000001,-124.040619,0
			44.8732030000001,-124.040565,0
			44.873661,-124.040176,0
			44.8747220000002,-124.040001,0
			44.8748780000001,-124.03978,0
			44.8750110000001,-124.03978,0
			44.875454,-124.03978,0
			44.8757210000001,-124.03965,0
			44.8760450000001,-124.039474,0
			44.876221,-124.039261,0
			44.876701,-124.039246,0
			44.8768920000002,-124.039146,0
			44.87738,-124.039116,0
			44.8777690000001,-124.039032,0
			44.8782500000001,-124.038803,0
			44.8787190000002,-124.038742,0
			44.879173,-124.038712,0
			44.8796200000001,-124.038696,0
			44.8799060000001,-124.038689,0
			44.8804360000001,-124.038551,0
			44.8809170000001,-124.038361,0
			44.8814470000001,-124.038162,0
			44.8818130000002,-124.037956,0
			44.882236,-124.037552,0
			44.882702,-124.037422,0
			44.883316,-124.037346,0
			44.883926,-124.037216,0
			44.8841630000001,-124.037071,0
			44.8846360000002,-124.036942,0
			44.8849910000001,-124.036812,0
			44.8854480000001,-124.036705,0
			44.8859100000001,-124.036766,0
			44.8863910000001,-124.036697,0
			44.8869630000002,-124.036484,0
			44.8873790000001,-124.036194,0
			44.8878020000001,-124.036156,0
			44.888359,-124.036003,0
			44.8888630000001,-124.036072,0
			44.8893130000001,-124.035713,0
			44.8897630000002,-124.035599,0
			44.8902780000001,-124.035423,0
			44.8906900000001,-124.035454,0
			44.8913150000002,-124.035225,0
			44.891762,-124.035172,0
			44.8921090000001,-124.034958,0
			44.8926240000001,-124.03479,0
			44.8928990000001,-124.03479,0
			44.893456,-124.034615,0
			44.8938560000001,-124.034454,0
			44.8944050000001,-124.034393,0
			44.8947220000002,-124.034233,0
			44.895,-124.034119,0
			44.8951950000001,-124.034126,0
			44.8957520000001,-124.034012,0
			44.8961940000001,-124.033958,0
			44.8969840000001,-124.033676,0
			44.897385,-124.033508,0
			44.898651,-124.033058,0
			44.8988880000001,-124.032898,0
			44.89933,-124.032722,0
			44.899525,-124.03273,0
			44.900833,-124.032219,0
			44.9011120000001,-124.031944,0
			44.9016690000001,-124.031944,0
			44.9019430000001,-124.03167,0
			44.9025000000001,-124.03167,0
			44.9027790000001,-124.031387,0
			44.903057,-124.031387,0
			44.903332,-124.031113,0
			44.9038890000001,-124.031113,0
			44.904446,-124.030838,0
			44.9047240000001,-124.030785,0
			44.9049990000001,-124.03067,0
			44.9053190000001,-124.03067,0
			44.905556,-124.030556,0
			44.9069440000001,-124.030556,0
			44.9072230000001,-124.030281,0
			44.90889,-124.030281,0
			44.9091680000001,-124.029999,0
			44.9094430000001,-124.029999,0
			44.909721,-124.029724,0
			44.91,-124.029724,0
			44.91032,-124.029617,0
			44.9105570000001,-124.029442,0
			44.910831,-124.029449,0
			44.913055,-124.029167,0
			44.9134560000002,-124.029282,0
			44.9161110000001,-124.028893,0
			44.9166980000002,-124.028717,0
			44.9172210000001,-124.028786,0
			44.9175800000002,-124.028503,0
			44.9178200000001,-124.028168,0
			44.9180560000001,-124.028061,0
			44.918652,-124.028114,0
			44.918888,-124.028008,0
			44.9191670000002,-124.027779,0
			44.9197240000001,-124.027779,0
			44.9199980000002,-124.027496,0
			44.9205550000001,-124.027496,0
			44.9208340000001,-124.027222,0
			44.921391,-124.027222,0
			44.9216650000001,-124.026947,0
			44.922222,-124.026947,0
			44.9225010000002,-124.026665,0
			44.9230540000001,-124.026665,0
			44.9233320000002,-124.02639,0
			44.9238890000001,-124.02639,0
			44.9241680000001,-124.026108,0
			44.9244460000002,-124.026108,0
			44.9252780000001,-124.025276,0
			44.9252780000001,-124.025002,0
			44.925556,-124.024719,0
			44.925556,-124.024445,0
			44.9258350000002,-124.02417,0
			44.9258350000002,-124.023888,0
			44.9259030000001,-124.023819,0
			44.925556,-124.022781,0
			44.9252360000002,-124.022835,0
			44.9249990000001,-124.023056,0
			44.9244460000002,-124.023056,0
			44.9241680000001,-124.023331,0
			44.9238890000001,-124.023331,0
			44.9233320000002,-124.023888,0
			44.9230540000001,-124.023888,0
			44.9227790000001,-124.02417,0
			44.9225010000002,-124.02417,0
			44.9219440000001,-124.024719,0
			44.921391,-124.024719,0
			44.9211120000002,-124.024445,0
			44.9205550000001,-124.025002,0
			44.9202770000002,-124.025002,0
			44.9198880000001,-124.025024,0
			44.91959,-124.025139,0
			44.9191670000002,-124.025276,0
			44.918888,-124.025276,0
			44.9180560000001,-124.026108,0
			44.9175000000001,-124.026108,0
			44.916943,-124.026665,0
			44.9166680000002,-124.02639,0
			44.9161110000001,-124.026947,0
			44.9158330000002,-124.026665,0
			44.915554,-124.026665,0
			44.9152790000002,-124.026947,0
			44.9150010000001,-124.026947,0
			44.9147220000001,-124.027222,0
			44.913055,-124.027222,0
			44.9127770000001,-124.026947,0
			44.912224,-124.026947,0
			44.911945,-124.026665,0
			44.9113880000001,-124.026665,0
			44.91111,-124.02639,0
			44.9105570000001,-124.02639,0
			44.909489,-124.026154,0
			44.909092,-124.026398,0
			44.9087030000002,-124.026192,0
			44.9082300000001,-124.025948,0
			44.9078370000001,-124.026306,0
			44.9076160000001,-124.026512,0
			44.9072230000001,-124.026711,0
			44.9065630000001,-124.026794,0
			44.9059370000001,-124.027069,0
			44.9046170000001,-124.027313,0
			44.90419,-124.026802,0
			44.904049,-124.026634,0
			44.903332,-124.02639,0
			44.9029960000001,-124.026596,0
			44.9025000000001,-124.026756,0
			44.9022600000002,-124.027008,0
			44.9018670000002,-124.02742,0
			44.9011120000001,-124.028023,0
			44.9005930000001,-124.028191,0
			44.9002610000002,-124.028214,0
			44.8997190000001,-124.028709,0
			44.8991890000001,-124.028336,0
			44.898647,-124.028336,0
			44.8981020000001,-124.028366,0
			44.8975490000001,-124.028473,0
			44.8968240000002,-124.028229,0
			44.8963360000001,-124.028458,0
			44.8960530000002,-124.029045,0
			44.8955800000001,-124.029205,0
			44.8951230000001,-124.029381,0
			44.8946720000001,-124.029366,0
			44.8942680000001,-124.02916,0
			44.8938640000001,-124.028915,0
			44.8933870000002,-124.028763,0
			44.8929980000001,-124.028488,0
			44.8926240000001,-124.02816,0
			44.8923230000001,-124.027771,0
			44.892071,-124.027328,0
			44.8919070000001,-124.026817,0
			44.8916660000001,-124.026344,0
			44.8914490000001,-124.025864,0
			44.89135,-124.025299,0
			44.8911860000002,-124.024719,0
			44.891376,-124.024147,0
			44.8915900000002,-124.023567,0
			44.891777,-124.02298,0
			44.8920860000002,-124.022499,0
			44.8923990000001,-124.022034,0
			44.8926470000001,-124.02153,0
			44.8929250000002,-124.02108,0
			44.893173,-124.02063,0
			44.8935280000001,-124.020287,0
			44.8939360000001,-124.020004,0
			44.8943670000001,-124.019806,0
			44.8948360000002,-124.019836,0
			44.895283,-124.019753,0
			44.8958320000002,-124.019722,0
			44.8955570000002,-124.019447,0
			44.8958320000002,-124.019165,0
			44.8958320000002,-124.01889,0
			44.8955570000002,-124.018608,0
			44.8955570000002,-124.018059,0
			44.8952790000001,-124.017776,0
			44.8952790000001,-124.01722,0
			44.8947220000002,-124.01667,0
			44.8947220000002,-124.016388,0
			44.8944440000001,-124.016113,0
			44.8944440000001,-124.015831,0
			44.895,-124.015274,0
			44.8955570000002,-124.015274,0
			44.8961110000001,-124.014725,0
			44.8966670000001,-124.015274,0
			44.8974380000002,-124.015266,0
			44.8977510000001,-124.016273,0
			44.8983190000001,-124.016754,0
			44.8991660000002,-124.017235,0
			44.9002760000001,-124.015556,0
			44.9002760000001,-124.015274,0
			44.900002,-124.014999,0
			44.900002,-124.014442,0
			44.9002760000001,-124.014442,0
			44.900833,-124.014999,0
			44.9011120000001,-124.014999,0
			44.9013900000001,-124.015274,0
			44.9016690000001,-124.015274,0
			44.9025000000001,-124.016113,0
			44.9026990000001,-124.016121,0
			44.9029120000001,-124.016121,0
			44.9031220000001,-124.016205,0
			44.9034,-124.01635,0
			44.90369,-124.016403,0
			44.903961,-124.016479,0
			44.9042660000001,-124.016563,0
			44.9043730000002,-124.016228,0
			44.9039080000001,-124.015205,0
			44.9038160000001,-124.014328,0
			44.9029850000001,-124.013496,0
			44.9030990000001,-124.013054,0
			44.9026150000001,-124.012703,0
			44.9022220000001,-124.012497,0
			44.9013900000001,-124.012497,0
			44.9013900000001,-124.012222,0
			44.901711,-124.011826,0
			44.9014780000001,-124.011627,0
			44.9004400000001,-124.010406,0
			44.9003140000001,-124.009796,0
			44.8986130000001,-124.007774,0
			44.8986130000001,-124.0075,0
			44.8983350000001,-124.007225,0
			44.8983350000001,-124.006943,0
			44.8988880000001,-124.006386,0
			44.8991660000002,-124.006386,0
			44.8997230000001,-124.006943,0
			44.8997230000001,-124.007225,0
			44.9015200000001,-124.009026,0
			44.9019430000001,-124.009445,0
			44.9025000000001,-124.009445,0
			44.9027790000001,-124.00972,0
			44.903332,-124.00972,0
			44.9036100000001,-124.010002,0
			44.9051020000001,-124.010162,0
			44.9061130000001,-124.010834,0
			44.9063870000001,-124.010559,0
			44.9069440000001,-124.010559,0
			44.9072230000001,-124.010834,0
			44.907501,-124.010559,0
			44.9079510000001,-124.010559,0
			44.9084510000001,-124.010162,0
			44.908611,-124.010002,0
			44.908611,-124.00972,0
			44.9088100000001,-124.0093,0
			44.9092710000001,-124.008324,0
			44.9103810000001,-124.00808,0
			44.9105380000001,-124.008041,0
			44.910408,-124.009003,0
			44.9105570000001,-124.00972,0
			44.9105570000001,-124.010277,0
			44.910831,-124.010559,0
			44.910831,-124.011665,0
			44.910854,-124.01236,0
			44.9109760000001,-124.013039,0
			44.9111790000001,-124.01368,0
			44.9114490000002,-124.014267,0
			44.9118610000002,-124.014755,0
			44.9122920000001,-124.015236,0
			44.9127310000001,-124.015724,0
			44.9130060000001,-124.016327,0
			44.9130860000001,-124.017036,0
			44.9132770000001,-124.017708,0
			44.9135630000001,-124.018318,0
			44.9139520000002,-124.018837,0
			44.9144210000001,-124.019279,0
			44.9150010000001,-124.019722,0
			44.9158330000002,-124.020554,0
			44.9161110000001,-124.020554,0
			44.916389,-124.020279,0
			44.9166680000002,-124.020279,0
			44.916943,-124.020554,0
			44.9172210000001,-124.020554,0
			44.9175000000001,-124.020279,0
			44.9177780000002,-124.020279,0
			44.9180640000001,-124.020042,0
			44.9183350000001,-124.019997,0
			44.9183350000001,-124.019722,0
			44.9186100000001,-124.019447,0
			44.9186100000001,-124.019165,0
			44.918888,-124.01889,0
			44.9190370000001,-124.018578,0
			44.9191670000002,-124.018059,0
			44.9191670000002,-124.017502,0
			44.9194450000001,-124.01722,0
			44.9194450000001,-124.01667,0
			44.9197240000001,-124.016388,0
			44.9197240000001,-124.016113,0
			44.9199980000002,-124.015831,0
			44.9199980000002,-124.015556,0
			44.9208340000001,-124.014725,0
			44.921391,-124.014725,0
			44.9216650000001,-124.014999,0
			44.9219440000001,-124.014999,0
			44.922222,-124.015274,0
			44.9241680000001,-124.015274,0
			44.924408,-124.015518,0
			44.924721,-124.015556,0
			44.9255910000001,-124.014687,0
			44.9258350000002,-124.014442,0
			44.9261090000001,-124.014442,0
			44.9263990000001,-124.014732,0
			44.9266660000002,-124.014999,0
			44.9266660000002,-124.015274,0
			44.9269450000002,-124.015556,0
			44.9269450000002,-124.015831,0
			44.9266660000002,-124.016113,0
			44.9266660000002,-124.016388,0
			44.9264030000001,-124.016945,0
			44.9263880000001,-124.01722,0
			44.9263880000001,-124.017502,0
			44.9266660000002,-124.017776,0
			44.9266660000002,-124.018333,0
			44.9269450000002,-124.018608,0
			44.9269450000002,-124.021942,0
			44.9266660000002,-124.022224,0
			44.9266660000002,-124.022499,0
			44.9269450000002,-124.022781,0
			44.9272230000001,-124.022781,0
			44.927265,-124.023613,0
			44.9274290000001,-124.023964,0
			44.9275020000001,-124.024124,0
			44.9277340000001,-124.02462,0
			44.927845,-124.025108,0
			44.9277950000002,-124.025719,0
			44.9282880000001,-124.026085,0
			44.9287150000001,-124.026215,0
			44.9291990000002,-124.026276,0
			44.9296950000002,-124.026329,0
			44.9302520000001,-124.026306,0
			44.9304160000001,-124.026215,0
			44.9306220000001,-124.026093,0
			44.9309920000002,-124.026108,0
			44.9314770000001,-124.025986,0
			44.9317130000001,-124.026077,0
			44.9318620000002,-124.026009,0
			44.9325410000001,-124.026009,0
			44.932899,-124.025902,0
			44.9339220000001,-124.025902,0
			44.9344440000002,-124.025841,0
			44.9355090000001,-124.025841,0
			44.9363900000001,-124.025841,0
			44.9366680000001,-124.025734,0
			44.9377780000002,-124.02562,0
			44.938137,-124.025513,0
			44.9393230000001,-124.025513,0
			44.939724,-124.025291,0
			44.9409140000001,-124.025291,0
			44.9414370000002,-124.025238,0
			44.943447,-124.024788,0
			44.9439280000001,-124.02462,0
			44.9447210000001,-124.024681,0
			44.945366,-124.024681,0
			44.9484480000002,-124.024178,0
			44.9489710000001,-124.024117,0
			44.9491650000001,-124.024231,0
			44.9494440000001,-124.024231,0
			44.950001,-124.024178,0
			44.9505540000001,-124.023903,0
			44.950832,-124.023849,0
			44.9511530000001,-124.023682,0
			44.9515530000002,-124.023567,0
			44.9519840000002,-124.023407,0
			44.9524990000001,-124.023071,0
			44.9527360000002,-124.023071,0
			44.9532130000001,-124.023071,0
			44.9536090000001,-124.022896,0
			44.9538880000001,-124.022957,0
			44.9541240000001,-124.022896,0
			44.9550020000001,-124.02301,0
			44.955276,-124.022842,0
			44.9555550000002,-124.022896,0
			44.9558330000001,-124.022957,0
			44.9561120000001,-124.022903,0
			44.95647,-124.022964,0
			44.9571800000002,-124.022568,0
			44.9576230000001,-124.022064,0
			44.9583320000001,-124.021843,0
			44.9585340000001,-124.0215,0
			44.9588010000002,-124.0215,0
			44.9591670000001,-124.021507,0
			44.9594920000002,-124.0214,0
			44.9596900000002,-124.021347,0
			44.9602780000002,-124.021286,0
			44.960678,-124.021065,0
			44.960854,-124.021004,0
			44.9611550000001,-124.020912,0
			44.9614300000001,-124.020782,0
			44.9616620000001,-124.020767,0
			44.9621470000001,-124.020729,0
			44.962387,-124.020561,0
			44.9625170000002,-124.020416,0
			44.9626540000001,-124.020393,0
			44.9627910000001,-124.02021,0
			44.9636120000002,-124.019951,0
			44.964012,-124.019836,0
			44.9647220000002,-124.019836,0
			44.9651220000001,-124.019562,0
			44.9655570000002,-124.019447,0
			44.965832,-124.019287,0
			44.9661520000002,-124.019173,0
			44.966389,-124.019119,0
			44.9666670000001,-124.019005,0
			44.9673460000002,-124.01873,0
			44.9694440000001,-124.018059,0
			44.9699250000001,-124.01812,0
			44.9702450000001,-124.018059,0
			44.970562,-124.018005,0
			44.9708330000001,-124.017784,0
			44.9713550000001,-124.017677,0
			44.9727780000001,-124.01722,0
			44.9730950000002,-124.017227,0
			44.9733310000001,-124.017227,0
			44.9737320000001,-124.017235,0
			44.9740750000001,-124.017212,0
			44.9744340000001,-124.017189,0
			44.9747850000001,-124.017159,0
			44.9751130000002,-124.017029,0
			44.9752770000001,-124.016945,0
			44.9754830000001,-124.017006,0
			44.976387,-124.016724,0
			44.9772190000002,-124.016731,0
			44.9775390000001,-124.016617,0
			44.9777790000001,-124.016388,0
			44.9785770000001,-124.016228,0
			44.978931,-124.01606,0
			44.9791680000001,-124.016121,0
			44.979721,-124.016006,0
			44.9800420000001,-124.016014,0
			44.981625,-124.015617,0
			44.9819870000001,-124.015564,0
			44.9828190000001,-124.015282,0
			44.9831770000002,-124.015228,0
			44.985279,-124.014893,0
			44.985554,-124.014786,0
			44.9861110000001,-124.014671,0
			44.986389,-124.014725,0
			44.9869460000001,-124.014725,0
			44.9872210000001,-124.014442,0
			44.987778,-124.014442,0
			44.9881360000002,-124.014336,0
			44.9883350000001,-124.014282,0
			44.9886090000001,-124.014229,0
			44.98912,-124.014099,0
			44.9895590000001,-124.014008,0
			44.989723,-124.013947,0
			44.9900020000002,-124.014008,0
			44.9902760000001,-124.01384,0
			44.9905550000001,-124.013847,0
			44.991943,-124.013283,0
			44.992222,-124.013336,0
			44.9925420000002,-124.013336,0
			44.9930570000002,-124.013222,0
			44.9933740000001,-124.013176,0
			44.994446,-124.012779,0
			44.994762,-124.012894,0
			44.9966660000002,-124.012497,0
			44.9969440000001,-124.012451,0
			44.9975010000002,-124.012222,0
			44.997776,-124.012337,0
			44.9980550000002,-124.012169,0
			44.9983330000001,-124.012062,0
			44.9994430000001,-124.011665,0
			44.9996830000001,-124.011612,0
			45.0000000000002,-124.011665,0
			45.0002780000001,-124.011665,0
			45.0019450000001,-124.011665,0
			45.0024990000002,-124.011108,0
			45.0027770000001,-124.010834,0
			45.0036130000001,-124.010834,0
			45.0038870000001,-124.010559,0
			45.0052800000001,-124.010559,0
			45.0055540000002,-124.010277,0
			45.0072210000001,-124.010277,0
			45.0075000000001,-124.010002,0
			45.0077780000001,-124.010002,0
			45.0080570000001,-124.00972,0
			45.0086100000001,-124.00972,0
			45.0088880000002,-124.009445,0
			45.0097240000001,-124.009445,0
			45.0099980000002,-124.009163,0
			45.0119440000001,-124.009163,0
			45.0122220000001,-124.008888,0
			45.0130540000001,-124.008888,0
			45.0133320000002,-124.009163,0
			45.0136110000001,-124.009163,0
			45.0138890000001,-124.009445,0
			45.014168,-124.009163,0
			45.0163880000001,-124.009163,0
			45.0166660000002,-124.008888,0
			45.017502,-124.008888,0
			45.0177760000001,-124.009163,0
			45.0191650000002,-124.009163,0
			45.0194440000001,-124.009445,0
			45.0200000000002,-124.009445,0
			45.0202790000001,-124.009163,0
			45.020832,-124.009163,0
			45.021111,-124.009445,0
			45.0213890000001,-124.009445,0
			45.021667,-124.00972,0
			45.0230560000001,-124.00972,0
			45.023335,-124.010002,0
			45.0236130000001,-124.010002,0
			45.0238880000001,-124.010277,0
			45.024166,-124.010277,0
			45.0250020000001,-124.011108,0
			45.0250020000001,-124.012566,0
			45.0250020000001,-124.013054,0
			45.025276,-124.013336,0
			45.0259550000001,-124.013336,0
			45.0261120000001,-124.013336,0
			45.02639,-124.013054,0
			45.026669,-124.013054,0
			45.0272220000001,-124.013611,0
			45.0275,-124.013611,0
			45.0277790000002,-124.013885,0
			45.0277790000002,-124.014168,0
			45.0283320000001,-124.014168,0
			45.0286100000002,-124.013885,0
			45.028889,-124.013885,0
			45.029724,-124.013054,0
			45.029999,-124.013054,0
			45.0302770000001,-124.012779,0
			45.0305560000001,-124.012779,0
			45.030849,-124.012436,0
			45.0311130000002,-124.012497,0
			45.0319440000002,-124.011665,0
			45.0327760000001,-124.011665,0
			45.033333,-124.011108,0
			45.0336110000001,-124.011108,0
			45.03405,-124.010666,0
			45.0355570000002,-124.009163,0
			45.0355570000002,-124.008888,0
			45.0344430000002,-124.007774,0
			45.0344430000002,-124.0075,0
			45.0361100000001,-124.005836,0
			45.036388,-124.005836,0
			45.0366670000002,-124.006111,0
			45.0369450000001,-124.005836,0
			45.037498,-124.005836,0
			45.0380550000001,-124.00528,0
			45.0383340000001,-124.00528,0
			45.0391650000001,-124.004997,0
			45.0433350000001,-124.00528,0
			45.0446470000002,-124.00528,0
			45.0455550000001,-124.00528,0
			45.0466840000001,-124.005493,0
			45.0477790000002,-124.005836,0
			45.0477790000002,-124.006111,0
			45.0475010000001,-124.006668,0
			45.0472220000001,-124.006943,0
			45.0472220000001,-124.0075,0
			45.0469440000002,-124.007774,0
			45.0469440000002,-124.00972,0
			45.0466650000002,-124.010002,0
			45.0466650000002,-124.010277,0
			45.046391,-124.010559,0
			45.0466650000002,-124.010834,0
			45.0466650000002,-124.011391,0
			45.0469440000002,-124.011665,0
			45.0469440000002,-124.012497,0
			45.0472220000001,-124.012779,0
			45.0472220000001,-124.013054,0
			45.0475010000001,-124.013336,0
			45.0475010000001,-124.013611,0
			45.0477790000002,-124.013885,0
			45.0477790000002,-124.014168,0
			45.0475010000001,-124.014442,0
			45.0475010000001,-124.015556,0
			45.0480540000001,-124.016113,0
			45.0480540000001,-124.016388,0
			45.0483320000001,-124.01667,0
			45.0486110000001,-124.01667,0
			45.0488890000001,-124.016632,0
			45.0490000000001,-124.01667,0
			45.0490610000002,-124.014687,0
			45.0490990000001,-124.013397,0
			45.0491220000001,-124.012749,0
			45.04834,-124.007538,0
			45.0480190000001,-124.005685,0
			45.04755,-124.002983,0
			45.0462610000001,-123.99968,0
			45.0462990000001,-123.96286,0
			45.0459900000001,-123.957031,0
			45.0459970000001,-123.955288,0
			45.0460700000002,-123.936363,0
			45.0460700000002,-123.864006,0
			45.0456310000001,-123.845253,0
			45.0461120000001,-123.825897,0
			45.046071,-123.82376,0
			45.045712,-123.805206,0
			45.045422,-123.72316,0
			45.0019990000002,-123.724297,0
			44.9718090000002,-123.726082,0
			44.9119420000001,-123.72773,0
			44.8265190000001,-123.728783,0
			44.7685390000001,-123.728577,0
			44.7585843380001,-123.728555188,0
			44.7543910000001,-123.728546,0
			44.7388920000001,-123.727806,0
			44.738911,-123.707878,0
			44.720669,-123.707008,0
			44.7204899470001,-123.656665304,0
			44.7203100020002,-123.606071474,0
			44.6518290000001,-123.606781,0
		</coordinates>
	</polygon>
</kml>
