<?xml version="1.0" encoding="UTF-8"?>
<kml xmlns="http://earth.google.com/kml/2.2">
	<polygon id="USA_NJ_Mercer" samplingProbability="1">
		<coordinates>
			40.1395420000001,-74.592232,0
			40.139080048,-74.5934295649998,0
			40.1381721500001,-74.601852417,0
			40.141780854,-74.6229095469999,0
			40.1431388860001,-74.6247177119999,0
			40.1472206120002,-74.6247177119999,0
			40.1503906250002,-74.62713623,0
			40.1526412960002,-74.639167786,0
			40.157619477,-74.6475982659999,0
			40.1621398930001,-74.6602478039999,0
			40.1666603080001,-74.6686782839999,0
			40.1666488650002,-74.67590332,0
			40.168010711,-74.678909301,0
			40.1711921700001,-74.6765060429999,0
			40.174362184,-74.6765213009999,0
			40.1752700810001,-74.6771163939999,0
			40.1770820610001,-74.6777267449999,0
			40.1788902290002,-74.6813430779999,0
			40.1788787850001,-74.684356689,0
			40.178421021,-74.6891708369999,0
			40.178871155,-74.6939773569999,0
			40.179771423,-74.696395873,0
			40.1820411690001,-74.6994094839999,0
			40.1838417060001,-74.7030258179999,0
			40.1838417060001,-74.705429076,0
			40.1838417060001,-74.7078399659999,0
			40.1833801270002,-74.7096405029999,0
			40.1820106500001,-74.71144867,0
			40.1797409060001,-74.7138366699999,0
			40.1774787900002,-74.7138366699999,0
			40.1756591800001,-74.7132263189999,0
			40.1738510130001,-74.712020875,0
			40.171588899,-74.7108230589999,0
			40.1693191530001,-74.7114105219999,0
			40.1675109880002,-74.7095870979999,0
			40.1652488720001,-74.7065811149999,0
			40.157081604,-74.7125701909999,0
			40.1543502810001,-74.7143707279999,0
			40.1511688240002,-74.7203674309999,0
			40.1520996100001,-74.725242615,0
			40.1528511060001,-74.7247619619999,0
			40.156219483,-74.7229309089998,0
			40.1618385320002,-74.723266602,0
			40.1661186220001,-74.7252273559999,0
			40.170150757,-74.728279114,0
			40.1740417490001,-74.7322387699999,0
			40.1763114930001,-74.7358016969999,0
			40.1768608090001,-74.736541749,0
			40.1787910460002,-74.7391204829999,0
			40.1806488040001,-74.7410430899999,0
			40.1810493470001,-74.7421264659999,0
			40.1823997500002,-74.746353149,0
			40.1833114630001,-74.748756409,0
			40.184669494,-74.7511672969999,0
			40.186599732,-74.7541427609999,0
			40.1882820140002,-74.7566070569998,0
			40.190578461,-74.7583389279999,0
			40.1922302240002,-74.759170532,0
			40.1950416580001,-74.7604598999999,0
			40.1973419180002,-74.760848998,0
			40.199600219,-74.7620620719999,0
			40.2023200990002,-74.7644805909999,0
			40.2054710390001,-74.7666625979999,0
			40.2086791990002,-74.7683410639999,0
			40.2114410410001,-74.7700424189999,0
			40.214660645,-74.7723312379999,0
			40.2172584540001,-74.7747726429999,0
			40.218269349,-74.7759017939999,0
			40.2197799690001,-74.7781600939999,0
			40.2227592470001,-74.7821960459999,0
			40.2240104680001,-74.7852172849999,0
			40.2277603160001,-74.7911071779999,0
			40.2303695680001,-74.796485901,0
			40.230659485,-74.797096252,0
			40.233070375,-74.801933288,0
			40.2349700940001,-74.806129455,0
			40.236900329,-74.811515807,0
			40.238521575,-74.8165359499999,0
			40.2401885990001,-74.8207778939999,0
			40.2438888550001,-74.827888489,0
			40.247039795,-74.8351287839999,0
			40.24779892,-74.8373565679999,0
			40.2493400570001,-74.8393173219999,0
			40.2496490490001,-74.8397064209999,0
			40.2511100780001,-74.841171264,0
			40.2538185120002,-74.8431625369999,0
			40.2575111400001,-74.846038818,0
			40.2606010450001,-74.848480224,0
			40.2640609750001,-74.849845886,0
			40.2673988340001,-74.852096559,0
			40.2712707520002,-74.854019164,0
			40.2760009770001,-74.8557586679999,0
			40.281360625,-74.8584213249999,0
			40.2854919440002,-74.8606796259999,0
			40.2918510440002,-74.8654785159999,0
			40.29335022,-74.8670501719999,0
			40.2959213250001,-74.8697204599999,0
			40.2996902470002,-74.8735427859999,0
			40.3044586180001,-74.8786773689999,0
			40.3092117300001,-74.883560181,0
			40.310539245,-74.8862762449999,0
			40.31193161,-74.888656617,0
			40.3138008130001,-74.8916015619999,0
			40.3144302370001,-74.8939361569999,0
			40.3157806400002,-74.8975601189999,0
			40.3162307740001,-74.8999710069999,0
			40.316761017,-74.9029464719999,0
			40.3172798160001,-74.9065628059999,0
			40.3182792670001,-74.910736084,0
			40.3199195870001,-74.9144210819999,0
			40.3201408400002,-74.9149169919999,0
			40.3222198500001,-74.9177398669999,0
			40.324810029,-74.9217071529999,0
			40.327941895,-74.9253692619999,0
			40.3311004640001,-74.929000855,0
			40.3333587640001,-74.931427001,0
			40.3356208800001,-74.9338531499999,0
			40.3387298590002,-74.9371795659999,0
			40.3449287420001,-74.8579101559999,0
			40.3766403200001,-74.869537354,0
			40.386329651,-74.803192139,0
			40.4162521360001,-74.8093566889999,0
			40.4240989690002,-74.748397827,0
			40.421379089,-74.7465667719999,0
			40.4050712590002,-74.7380676279998,0
			40.4019012460001,-74.7362365719999,0
			40.391929626,-74.7313766469999,0
			40.3855895990001,-74.727737426,0
			40.3765296950001,-74.722892762,0
			40.3738098150001,-74.7198562619999,0
			40.3911399840001,-74.6577529899999,0
			40.3916015630002,-74.6504974369999,0
			40.387088777,-74.624542236,0
			40.3825607300001,-74.6227188099999,0
			40.380290986,-74.6215133659999,0
			40.3771209720001,-74.620903015,0
			40.3734893800002,-74.620903015,0
			40.350811005,-74.62687683,0
			40.3449096680002,-74.62928772,0
			40.340381623,-74.6298828129999,0
			40.3340301510001,-74.6268463139999,0
			40.328590393,-74.626235962,0
			40.3249702460001,-74.625030518,0
			40.325431823,-74.6177978519999,0
			40.325431823,-74.612373353,0
			40.3227195730001,-74.6081466669999,0
			40.3154602060001,-74.601501464,0
			40.3145599360001,-74.5942611689999,0
			40.3136596690001,-74.589439391,0
			40.311851502,-74.587631226,0
			40.307319642,-74.5833969119999,0
			40.2982597350001,-74.5640869129999,0
			40.293720245,-74.5598678579999,0
			40.2919197080002,-74.5550460819999,0
			40.2914695740001,-74.5490188589999,0
			40.2905616760001,-74.541175842,0
			40.290111543,-74.5393829349999,0
			40.2905616760001,-74.5375671379999,0
			40.2919197080002,-74.533348083,0
			40.2928314200001,-74.529731751,0
			40.2914695740001,-74.525512695,0
			40.2882995600002,-74.523101807,0
			40.2855796810001,-74.5164718619999,0
			40.2815017700001,-74.510437011,0
			40.2810401930001,-74.506233215,0
			40.280590057,-74.500198364,0
			40.2796897890001,-74.495376586,0
			40.2783203130002,-74.4929733279999,0
			40.2760505690001,-74.4857330309999,0
			40.2742385870001,-74.4821166989999,0
			40.271068573,-74.4815216059999,0
			40.2542920000001,-74.4851379999999,0
			40.2542920000001,-74.485741,0
			40.2540333930001,-74.4864319579999,0
			40.2538410000001,-74.486946,0
			40.2533892510001,-74.487245017,0
			40.25293,-74.4875489999999,0
			40.2520220000002,-74.4875489999999,0
			40.2511220000002,-74.4875489999999,0
			40.25021,-74.486946,0
			40.2497600000001,-74.4863429999999,0
			40.2493992500001,-74.4858688269999,0
			40.2493020000001,-74.485741,0
			40.2490869390001,-74.485452819,0
			40.248851777,-74.485137939,0
			40.2486874060002,-74.4849260229999,0
			40.2483900000001,-74.4845429999999,0
			40.248161139,-74.484232258,0
			40.2479400640001,-74.483932495,0
			40.2475999050001,-74.4834770289999,0
			40.24749,-74.4833299999999,0
			40.247359687,-74.483155381,0
			40.247039795,-74.4827270499999,0
			40.2465580730001,-74.4824079219999,0
			40.2452200000001,-74.481522,0
			40.243492536,-74.480949344,0
			40.2434009860001,-74.4809190189999,0
			40.2430497260002,-74.481388663,0
			40.2429504400001,-74.4815216059999,0
			40.2420501710001,-74.4833297739999,0
			40.240692139,-74.4863433849999,0
			40.2397804270001,-74.4881515499999,0
			40.2391584600001,-74.4897962489999,0
			40.2388687540001,-74.4905623339999,0
			40.238840721,-74.4906003969999,0
			40.2384190000002,-74.4911729999999,0
			40.2370610000001,-74.494766,0
			40.2356990000002,-74.4977869999999,0
			40.234791,-74.499603,0
			40.2343410000001,-74.500801,0
			40.2298090000001,-74.510437,0
			40.2287674860001,-74.5127372439999,0
			40.2257194530001,-74.519470215,0
			40.2257194530001,-74.5200729379998,0
			40.2231714510001,-74.526276767,0
			40.22028,-74.5333179999999,0
			40.2175049890002,-74.5406790279999,0
			40.2171020000001,-74.541748,0
			40.21619,-74.542946,0
			40.2152900000002,-74.544746,0
			40.2143820000002,-74.5453639999999,0
			40.2130200000001,-74.5465619999999,0
			40.2107510000001,-74.547157,0
			40.2100338160001,-74.547429847,0
			40.2075810000002,-74.5483629999999,0
			40.206669,-74.549568,0
			40.2057610000001,-74.551369,0
			40.2054450410001,-74.551577561,0
			40.204849243,-74.551971435,0
			40.2016792290001,-74.554977416,0
			40.2003210000001,-74.5561829999999,0
			40.200311852,-74.5561891189999,0
			40.1994090000001,-74.556793,0
			40.1958458630001,-74.5591529489999,0
			40.1948810000001,-74.559792,0
			40.1943805100001,-74.5602336159999,0
			40.1907920840002,-74.563400268,0
			40.1871604910002,-74.567596435,0
			40.1867103580001,-74.57484436,0
			40.1867009230002,-74.575335008,0
			40.1866989160001,-74.5754393349999,0
			40.186650145,-74.575634528,0
			40.1862490000001,-74.57724,0
			40.185799,-74.5778429999999,0
			40.1853410000002,-74.580246,0
			40.1844291210001,-74.5820467609998,0
			40.1838656030001,-74.5850649289999,0
			40.1835289100002,-74.586868236,0
			40.1821590000001,-74.590477,0
			40.1803400000001,-74.5916819999999,0
			40.1802843660001,-74.591793329,0
			40.1794400000001,-74.5934829999999,0
			40.180339985,-74.5988999069999,0
			40.18197302,-74.5995217349999,0
			40.186690917,-74.6013182199998,0
			40.1845959180002,-74.6068552769999,0
			40.1839600000001,-74.6085359999999,0
			40.182964892,-74.610511948,0
			40.1812400000001,-74.613937,0
			40.1453802340001,-74.595270968,0
			40.1395420000001,-74.592232,0
		</coordinates>
	</polygon>
</kml>
