<?xml version="1.0" encoding="UTF-8"?>
<kml xmlns="http://earth.google.com/kml/2.2">
	<polygon id="USA_OK_Texas" samplingProbability="1">
		<coordinates>
			36.9924888610001,-102.028053284,0
			36.9925308230001,-101.988090516,0
			36.9928588860001,-101.917976379,0
			36.9951286320002,-101.555236816,0
			36.995151521,-101.543960572,0
			36.9967002860002,-101.267936706,0
			36.9978294370001,-101.067108155,0
			36.9987716680001,-100.953590393,0
			36.9988288880001,-100.944076537,0
			36.8477706920001,-100.944778443,0
			36.8476295480002,-100.953399659,0
			36.4997711180002,-100.952377319,0
			36.5003204360002,-101.0908432,0
			36.502460479,-101.625549316,0
			36.5034408570001,-101.870040894,0
			36.5040893550001,-102.032463073,0
			36.8493309030001,-102.033203125,0
			36.8494720470001,-102.027450561,0
			36.867160798,-102.02760315,0
			36.9924888610001,-102.028053284,0
		</coordinates>
	</polygon>
</kml>
