<?xml version="1.0" encoding="UTF-8"?>
<kml xmlns="http://earth.google.com/kml/2.2">
	<polygon id="USA_NY_Ontario" samplingProbability="1">
		<coordinates>
			42.5773620610001,-77.490409851,0
			42.596920013,-77.489723206,0
			42.670589448,-77.487480163,0
			42.6720390330001,-77.5979080199999,0
			42.6897506710001,-77.599693299,0
			42.7214202870002,-77.6093902589999,0
			42.7472610480002,-77.6139221189999,0
			42.7636108390001,-77.6150512689999,0
			42.7631187440002,-77.5894317629999,0
			42.8235893250002,-77.5893936159999,0
			42.8399696350001,-77.589256287,0
			42.8536300670001,-77.5877914439998,0
			42.8536605840001,-77.557151795,0
			42.8577499400002,-77.557266236,0
			42.862319947,-77.5561599739999,0
			42.8655319220001,-77.5543823239999,0
			42.8664817820001,-77.5519103999999,0
			42.8651695260002,-77.5487365719999,0
			42.8661003120001,-77.5475158689999,0
			42.8687896730001,-77.5494766239999,0
			42.871940613,-77.5514373779999,0
			42.8751220700001,-77.55216217,0
			42.876499176,-77.550956726,0
			42.8796920780001,-77.550422668,0
			42.8855590810001,-77.5531005859999,0
			42.8955192580001,-77.555900574,0
			42.9090805060002,-77.561309815,0
			42.9213218690001,-77.564178467,0
			42.9339790350002,-77.568939208,0
			42.9370918280001,-77.5734100349999,0
			42.9388198850002,-77.5791015619999,0
			42.9438018800001,-77.5805129999999,0
			42.943050385,-77.482192993,0
			43.0321388250001,-77.486633301,0
			43.0329093930001,-77.3719329839999,0
			43.0327987680001,-77.2484207159999,0
			43.0396118170001,-77.249221801,0
			43.037891389,-77.1363296509999,0
			43.0119819650001,-77.1350860599999,0
			43.0121917720002,-76.963386535,0
			42.8725814830001,-76.9635467519999,0
			42.8688697820001,-76.9691009519998,0
			42.864730835,-76.974021911,0
			42.8610687260002,-76.976440429,0
			42.8515205390001,-76.9756164549999,0
			42.8433685310001,-76.9729385369999,0
			42.8379287720001,-76.972198485,0
			42.8301887510002,-76.972656249,0
			42.814731597,-76.972946168,0
			42.7906417860002,-76.971817017,0
			42.7847290040002,-76.972312928,0
			42.7765312200001,-76.973388671,0
			42.7719802860001,-76.9739227289999,0
			42.764270783,-76.971878052,0
			42.7625885010001,-77.1142120369999,0
			42.7608909620001,-77.312728882,0
			42.7498397840001,-77.322425842,0
			42.7291488640001,-77.3387374879998,0
			42.7103919980001,-77.3469772339999,0
			42.6994400020001,-77.350433349,0
			42.6675300590001,-77.3564300529999,0
			42.6673889150002,-77.365791321,0
			42.576011658,-77.3664398189999,0
			42.576358795,-77.405693054,0
			42.576938629,-77.458023071,0
			42.5773620610001,-77.490409851,0
		</coordinates>
	</polygon>
</kml>
