<?xml version="1.0" encoding="UTF-8"?>
<kml xmlns="http://earth.google.com/kml/2.2">
	<polygon id="USA_ND_Oliver" samplingProbability="1">
		<coordinates>
			47.1579017650001,-100.959602357,0
			47.1533317560001,-100.953567504,0
			47.1487503060001,-100.949539185,0
			47.14233017,-100.946830749,0
			47.134990691,-100.943450928,0
			47.1226005560001,-100.94003296,0
			47.106529235,-100.939926148,0
			47.100101471,-100.939208984,0
			47.0932197570002,-100.93650055,0
			47.08864212,-100.933807373,0
			47.0808486940002,-100.926437378,0
			47.0767288210001,-100.922416687,0
			47.0721588140001,-100.91771698,0
			47.0657501220001,-100.910362245,0
			47.0611801150002,-100.90434265,0
			47.0556907650001,-100.897003174,0
			47.0520286560002,-100.891647338,0
			47.049282075,-100.888969422,0
			47.0456199660002,-100.884956359,0
			47.0410385140001,-100.880943299,0
			47.0364494330001,-100.879577637,0
			47.0254402150002,-100.879516602,0
			47.0171585090001,-100.882797241,0
			47.013938904,-100.885437012,0
			47.0070304880001,-100.892036438,0
			47.0024299620001,-100.898666382,0
			46.9982719420001,-100.906616212,0
			46.996871949,-100.915252686,0
			46.992698669,-100.92652893,0
			46.9890098580001,-100.9318161,0
			46.9825706490001,-100.935096741,0
			46.981819154,-101.3824234,0
			46.982070923,-101.763320924,0
			47.242019654,-101.763671875,0
			47.2420387270001,-101.257156373,0
			47.2682304380002,-101.256797791,0
			47.263210297,-101.250061035,0
			47.260929108,-101.246696473,0
			47.255020141,-101.235282898,0
			47.2509613030001,-101.22189331,0
			47.2464103700001,-101.211822509,0
			47.2464714050001,-101.201141358,0
			47.247879029,-101.195816041,0
			47.249729158,-101.19316864,0
			47.2534103400002,-101.191207885,0
			47.2566299440001,-101.19190979,0
			47.2694892890001,-101.192047119,0
			47.274559021,-101.189430237,0
			47.2782592770001,-101.184791565,0
			47.2801208500001,-101.178131103,0
			47.280601502,-101.174797058,0
			47.282939911,-101.167480468,0
			47.2862091070001,-101.155487061,0
			47.2885704050001,-101.142829895,0
			47.2904319770001,-101.13684082,0
			47.2927894600001,-101.124839783,0
			47.2947006230002,-101.106163025,0
			47.2947616580001,-101.093467712,0
			47.2952804570002,-101.078109741,0
			47.2911796580001,-101.071395873,0
			47.2912292480001,-101.058036805,0
			47.2903518690001,-101.04801941,0
			47.2885398860001,-101.040657043,0
			47.2853508000001,-101.033287048,0
			47.2803306590001,-101.025886536,0
			47.2784996030001,-101.022537231,0
			47.2752990730002,-101.01850891,0
			47.2725601200001,-101.013153076,0
			47.2693710330001,-101.006446838,0
			47.2675590510001,-101.000419617,0
			47.2648201000001,-100.995056153,0
			47.263450623,-100.992378235,0
			47.2579612740001,-100.985656738,0
			47.2547492980001,-100.983642579,0
			47.2487907410001,-100.980926514,0
			47.2437400820001,-100.979553222,0
			47.2414398190001,-100.978866577,0
			47.236850739,-100.978172302,0
			47.2354812630001,-100.976821899,0
			47.2322692870001,-100.976142882,0
			47.229499817,-100.976776122,0
			47.2258186350001,-100.979415893,0
			47.2230606080001,-100.982070923,0
			47.220298766,-100.983383179,0
			47.2161407470001,-100.986686706,0
			47.2124710090001,-100.987998963,0
			47.206951141,-100.990615845,0
			47.2023506170001,-100.990592957,0
			47.199600219,-100.990570068,0
			47.1940803530001,-100.991203308,0
			47.1858215330001,-100.988456727,0
			47.1826095580001,-100.986442565,0
			47.178031921,-100.984413147,0
			47.1743698120002,-100.981048584,0
			47.1670417780001,-100.974990846,0
			47.1624603280001,-100.968292237,0
			47.1579017650001,-100.959602357,0
		</coordinates>
	</polygon>
</kml>
