<?xml version="1.0" encoding="UTF-8"?>
<kml xmlns="http://earth.google.com/kml/2.2">
	<polygon id="USA_SC_Sumter" samplingProbability="1">
		<coordinates>
			33.6441421500001,-80.534362793,0
			33.6496505730001,-80.548103332,0
			33.6651802060001,-80.5651168819999,0
			33.6801795960002,-80.5628280639999,0
			33.6802406320001,-80.580482482,0
			33.6907501220001,-80.594772339,0
			33.7012100220002,-80.5952682499999,0
			33.7131004340001,-80.615631104,0
			33.7304191580002,-80.6271362299999,0
			33.7345085150001,-80.624916076,0
			33.7372512830001,-80.6293182379999,0
			33.7390708930001,-80.629310607,0
			33.7417716980002,-80.6210174559999,0
			33.7431297310002,-80.6204528799999,0
			33.7494888310002,-80.6165618899998,0
			33.7512702950002,-80.6071624749999,0
			33.7612800590001,-80.6065597539999,0
			33.7630805960001,-80.6032333379999,0
			33.7667198190002,-80.604316711,0
			33.77217865,-80.6032028189999,0
			33.7771606460001,-80.5992965709999,0
			33.786731719,-80.6025619509999,0
			33.7908096330001,-80.600326539,0
			33.7994499200001,-80.6008529659999,0
			33.8021888740001,-80.6030426019999,0
			33.8053588870001,-80.6013565069999,0
			33.8090095530002,-80.6024627689999,0
			33.8099403390001,-80.610740662,0
			33.8145103460001,-80.615692139,0
			33.8185997,-80.6173171999999,0
			33.826332092,-80.6167373659999,0
			33.829978943,-80.620590211,0
			33.8340606690001,-80.6161422729999,0
			33.839530946,-80.6194381719999,0
			33.8418121350002,-80.6232910149999,0
			33.8477516180002,-80.6309967039999,0
			33.8554687500001,-80.6276473989998,0
			33.8613700870001,-80.6243133549999,0
			33.8681907660001,-80.6259307859999,0
			33.8718185440002,-80.6231460559999,0
			33.878181457,-80.6209030159999,0
			33.8886413570001,-80.6219558719998,0
			33.8917999270001,-80.6153106689999,0
			33.895439148,-80.616950988,0
			33.8954620370001,-80.623039246,0
			33.8981895450002,-80.6257858269999,0
			33.9036407470002,-80.6240997309999,0
			33.9145698550001,-80.629592895,0
			33.9209404000001,-80.630661011,0
			33.9332008370001,-80.6272811899999,0
			33.9331893920001,-80.6217498779999,0
			33.9349899290002,-80.6184158319999,0
			33.9377098090001,-80.6167373659999,0
			33.9386291500001,-80.6184005739999,0
			33.9427413950001,-80.6250228889999,0
			33.9495697020001,-80.628311158,0
			33.952289582,-80.6260833739999,0
			33.9522705090002,-80.6211013799999,0
			33.9563598630002,-80.618873596,0
			33.9613494870002,-80.6166229249998,0
			33.9627189630002,-80.615509033,0
			33.9654388430001,-80.6160507209999,0
			33.9686508190001,-80.624336242,0
			33.9786605830002,-80.6265106209999,0
			33.988700866,-80.6386489869999,0
			33.9959716790001,-80.6391677859999,0
			34.0000686660001,-80.640823364,0
			34.0027809150002,-80.6358108519999,0
			34.0077819830001,-80.6363372789999,0
			34.0095901500001,-80.6341171269999,0
			34.0064010630001,-80.6302566519999,0
			34.0073013300002,-80.627479554,0
			34.0132102970002,-80.626342773,0
			34.015468598,-80.6224594109999,0
			34.0172691350001,-80.6180114749999,0
			34.0254402170001,-80.614646912,0
			34.0263404850002,-80.61075592,0
			34.0245094310002,-80.6069030769999,0
			34.0254020680001,-80.601905823,0
			34.0317687990001,-80.6051864619998,0
			34.0358505250001,-80.6013030999999,0
			34.0390319820002,-80.6007232669999,0
			34.044960022,-80.6056823729999,0
			34.052700042,-80.610076904,0
			34.057231902,-80.6056213369999,0
			34.0586013790001,-80.607276917,0
			34.0595321650002,-80.6128158569999,0
			34.062252045,-80.612251283,0
			34.0636215210001,-80.61390686,0
			34.063190461,-80.620010376,0
			34.0659294120001,-80.6238708499999,0
			34.0722999580001,-80.6255111689999,0
			34.0795516980001,-80.619369507,0
			34.0827293400001,-80.6193542479999,0
			34.0831909180001,-80.622131348,0
			34.0791320810001,-80.6299133299999,0
			34.0791397090002,-80.6354598999998,0
			34.0827903750001,-80.6371002199999,0
			34.0877799990001,-80.634307861,0
			34.090042115,-80.6309661869999,0
			34.0895500190002,-80.6215362549999,0
			34.0968093870001,-80.6153869619999,0
			34.099529267,-80.6159362779999,0
			34.1090888970002,-80.6186676029999,0
			34.1017684940001,-80.6042785639999,0
			34.0998687750001,-80.580436707,0
			34.1689987190001,-80.480133057,0
			34.1126518240002,-80.4816131589999,0
			34.0813789360001,-80.4058380129999,0
			34.0895118720001,-80.3957900999999,0
			34.0807800300001,-80.3786697399999,0
			34.0816612240002,-80.3725585939999,0
			34.080471039,-80.322113037,0
			34.0786209120001,-80.3176803589999,0
			34.0621795660001,-80.3034133909999,0
			34.0393905640001,-80.2947540279999,0
			34.0351409920001,-80.2692871089998,0
			34.0009613030001,-80.2540969849999,0
			33.99225998,-80.2447586049999,0
			34.0050621030001,-80.1886672969999,0
			33.9736404430001,-80.1812515259999,0
			33.9522819520001,-80.180923461,0
			33.958969117,-80.162017823,0
			34.0001792910001,-80.082901001,0
			34.0082702630002,-80.0706176749999,0
			34.008369445,-80.027397155,0
			34.0476913450001,-80.0008468629999,0
			34.02048111,-79.9557571399999,0
			34.0161819460001,-79.93309021,0
			34.0036506660001,-79.905563355,0
			33.9894409180002,-79.894126892,0
			33.9469985970001,-79.9744567859999,0
			33.935401916,-80.0000686639999,0
			33.9152908330001,-80.0418395989999,0
			33.8695602430001,-80.1220474249999,0
			33.8691596990002,-80.129798888,0
			33.8674087520002,-80.1386566159999,0
			33.8624801640001,-80.148666382,0
			33.8611412060001,-80.15145874,0
			33.8391799920001,-80.1953735359999,0
			33.804119111,-80.255966187,0
			33.7864799500001,-80.2710571299999,0
			33.7676506050001,-80.3971710199999,0
			33.7471885690001,-80.3973312369999,0
			33.726699829,-80.393074035,0
			33.7153320310001,-80.392059327,0
			33.7119102480002,-80.434593201,0
			33.7210006720002,-80.4334259029999,0
			33.7241516120001,-80.4262161249999,0
			33.7382698060001,-80.431091309,0
			33.7374496470001,-80.449867249,0
			33.7133712770001,-80.4544525139999,0
			33.7143898020001,-80.4787368769999,0
			33.695339204,-80.490447998,0
			33.673999787,-80.498306274,0
			33.6626892090002,-80.509971618,0
			33.6441421500001,-80.534362793,0
		</coordinates>
	</polygon>
</kml>
