<?xml version="1.0" encoding="UTF-8"?>
<kml xmlns="http://earth.google.com/kml/2.2">
	<polygon id="USA_CT_New_Haven" samplingProbability="1">
		<coordinates>
			41.1903800000002,-73.117897,0
			41.2022210000001,-73.1094669999999,0
			41.2112880000001,-73.1107559999999,0
			41.2185590000001,-73.107773,0
			41.2299000000002,-73.1103059999999,0
			41.239922,-73.1024629999999,0
			41.2467800000001,-73.0909119999999,0
			41.2517890000001,-73.0878979999999,0
			41.2549710000001,-73.0867,0
			41.2722020000001,-73.0886759999999,0
			41.2813,-73.083252,0
			41.2895390000002,-73.0686489999999,0
			41.29454,-73.0650329999999,0
			41.2999800000001,-73.066292,0
			41.3081020000001,-73.077972,0
			41.3121800000001,-73.0792239999999,0
			41.3139610000001,-73.0853579999999,0
			41.3211900000001,-73.0927579999999,0
			41.3324320000002,-73.116096,0
			41.3469010000001,-73.126007,0
			41.3513910000001,-73.135849,0
			41.3540990000002,-73.138313,0
			41.3613590000001,-73.1396099999999,0
			41.3776020000001,-73.1581189999999,0
			41.383499,-73.1587829999999,0
			41.3843310000001,-73.1741029999999,0
			41.3915410000002,-73.183342,0
			41.3978690000001,-73.1883009999999,0
			41.4024200000001,-73.185287,0
			41.408772,-73.1865769999999,0
			41.4132310000002,-73.2000889999999,0
			41.4159510000002,-73.2013399999999,0
			41.4254110000001,-73.2149119999999,0
			41.4294820000001,-73.2180099999999,0
			41.4303320000001,-73.226601,0
			41.4266510000002,-73.2357479999999,0
			41.4270900000001,-73.239433,0
			41.4288900000001,-73.2412799999999,0
			41.4366000000002,-73.2419819999999,0
			41.4397620000001,-73.2444609999999,0
			41.4383700000001,-73.2505719999999,0
			41.4337810000002,-73.2578659999999,0
			41.4346620000001,-73.2633969999999,0
			41.43692,-73.265869,0
			41.4437100000001,-73.267166,0
			41.4518510000001,-73.273376,0
			41.4527210000002,-73.2782969999998,0
			41.4517900000001,-73.2831879999999,0
			41.4476390000002,-73.2941669999998,0
			41.4485210000001,-73.2978669999998,0
			41.4512290000002,-73.2997359999999,0
			41.458939,-73.3004299999999,0
			41.4648590000001,-73.2980499999999,0
			41.469841,-73.2993319999999,0
			41.4716300000001,-73.3042529999999,0
			41.4688721660002,-73.3103486319999,0
			41.476070079,-73.3196330649999,0
			41.4851000000001,-73.3270869999999,0
			41.490108311,-73.3246992769999,0
			41.4906473730002,-73.3251920509999,0
			41.492820862,-73.3271788739999,0
			41.500110627,-73.3223571789999,0
			41.5004645850001,-73.3218891339999,0
			41.500552188,-73.321773293,0
			41.5005721110002,-73.3217469469999,0
			41.5055809010001,-73.3193588259999,0
			41.5128097530002,-73.2501373299999,0
			41.5129669720001,-73.2476314099999,0
			41.5133089990001,-73.242172,0
			41.5132519560001,-73.24171759,0
			41.5103709920001,-73.2187675339999,0
			41.5100905210001,-73.2165336149999,0
			41.5085296640002,-73.2041015619999,0
			41.5142288210002,-73.155715943,0
			41.5359992990001,-73.1602096559999,0
			41.557762001,-73.1647109699999,0
			41.558319,-73.1450809999999,0
			41.5586180000001,-73.1433509999998,0
			41.5600608080001,-73.1350122539999,0
			41.5606498720002,-73.131607055,0
			41.570369854,-73.09240714,0
			41.5853996290001,-73.082710267,0
			41.585901457,-73.0825440419999,0
			41.586346964,-73.082396473,0
			41.5872190600001,-73.082107602,0
			41.587457064,-73.080531214,0
			41.587541054,-73.0799745179999,0
			41.5876808160001,-73.079048157,0
			41.5886919900001,-73.0575562229999,0
			41.592387321,-73.0584828329999,0
			41.5926910540001,-73.0585589949999,0
			41.6013793950001,-73.0607376099999,0
			41.6054811380001,-73.0593856389999,0
			41.6068420000001,-73.0589369999999,0
			41.6082352670002,-73.0553177329999,0
			41.610512698,-73.0494013969998,0
			41.6155586250002,-73.036293029,0
			41.614730836,-73.019088745,0
			41.6274299630001,-73.0216369619999,0
			41.6275415590001,-73.0202478149999,0
			41.6281913120001,-73.012159684,0
			41.6288604730001,-73.0038299559999,0
			41.6311492930002,-72.9995498649999,0
			41.6398391730001,-72.9830169679999,0
			41.6445312500001,-72.9388198839999,0
			41.6082305910002,-72.9336929309998,0
			41.556900024,-72.946250915,0
			41.563899991,-72.8843230919999,0
			41.5634689360002,-72.8793869229999,0
			41.5610438070001,-72.8764604739999,0
			41.5593909990002,-72.874466,0
			41.5590140000002,-72.874379,0
			41.5588949080001,-72.8743515089998,0
			41.5566787730001,-72.873840332,0
			41.5571288200001,-72.872002,0
			41.556051085,-72.8719944029999,0
			41.554859161,-72.87198639,0
			41.5535088640001,-72.868911979,0
			41.5494309090001,-72.868278511,0
			41.5449485780001,-72.844329834,0
			41.5676420080001,-72.8487319559999,0
			41.5690650000001,-72.8406659999999,0
			41.5700819210001,-72.834903595,0
			41.571319579,-72.8278884879999,0
			41.563681037,-72.8294823839998,0
			41.5632901750002,-72.8295639429999,0
			41.5626908740001,-72.829688996,0
			41.5645217900001,-72.8254013069999,0
			41.5587807150001,-72.8257772699999,0
			41.5569671650002,-72.8258960329999,0
			41.5559007750001,-72.8259658669999,0
			41.554985088,-72.820969497,0
			41.5549781600002,-72.820931688,0
			41.5545501710002,-72.818595886,0
			41.562290191,-72.809432984,0
			41.566695319,-72.805986428,0
			41.5717429470001,-72.8020371839999,0
			41.5732116700001,-72.800888061,0
			41.5768627350002,-72.771401009,0
			41.5792120000002,-72.752426,0
			41.483459,-72.7434999999999,0
			41.485741,-72.7336959999998,0
			41.4385300000002,-72.7390589999999,0
			41.4235420000001,-72.7463529999998,0
			41.4244610000001,-72.7402269999999,0
			41.4386600000001,-72.6545179999998,0
			41.4350320000001,-72.6526719999999,0
			41.4359400000001,-72.6489869999999,0
			41.4314120000001,-72.6453089999999,0
			41.4296000000001,-72.6422419999999,0
			41.4223290000002,-72.6489559999999,0
			41.41824,-72.6495669999999,0
			41.4159700000001,-72.6471179999999,0
			41.4150700000001,-72.6446609999999,0
			41.4128110000001,-72.637306,0
			41.4123610000001,-72.6317979999999,0
			41.4014700000002,-72.6293259999999,0
			41.3973880000001,-72.625648,0
			41.391041,-72.6176759999999,0
			41.386509,-72.61216,0
			41.3810690000001,-72.6139909999999,0
			41.37381,-72.6090929999999,0
			41.3679080000001,-72.6078489999999,0
			41.365639,-72.60907,0
			41.360641,-72.6127319999999,0
			41.343399,-72.611481,0
			41.340672,-72.6139299999999,0
			41.329781,-72.612694,0
			41.327969,-72.612068,0
			41.327969,-72.6053469999999,0
			41.3288920000002,-72.596779,0
			41.3229900000002,-72.5912699999999,0
			41.3243600000002,-72.5857699999999,0
			41.3184590000001,-72.585136,0
			41.3143690000001,-72.585136,0
			41.3130110000001,-72.585136,0
			41.30983,-72.585747,0
			41.305302,-72.5808489999999,0
			41.302582,-72.5765689999999,0
			41.29805,-72.571671,0
			41.2925990000001,-72.565552,0
			41.288071,-72.561272,0
			41.2848890000002,-72.5588229999999,0
			41.2821690000002,-72.557602,0
			41.2808110000001,-72.554543,0
			41.2817190000001,-72.5490419999999,0
			41.280361,-72.5466,0
			41.275372,-72.5447619999999,0
			41.2735520000001,-72.5447619999999,0
			41.2681120000001,-72.545967,0
			41.264481,-72.547806,0
			41.2630540000001,-72.546844,0
			41.2630540000001,-72.547501,0
			41.263332,-72.5477749999999,0
			41.2616650000001,-72.5477749999999,0
			41.2613910000002,-72.547501,0
			41.261112,-72.547226,0
			41.261112,-72.546669,0
			41.2608340000001,-72.546387,0
			41.2608340000001,-72.5461119999999,0
			41.2605550000001,-72.5458299999999,0
			41.2605550000001,-72.5452799999999,0
			41.260277,-72.5449979999999,0
			41.260277,-72.544724,0
			41.2597240000001,-72.5441669999999,0
			41.2597240000001,-72.543892,0
			41.2594450000001,-72.5436099999999,0
			41.2594450000001,-72.5433349999999,0
			41.259575,-72.5432049999999,0
			41.2581330000001,-72.5407759999999,0
			41.256767,-72.5384749999999,0
			41.2563900000001,-72.538528,0
			41.255955,-72.538055,0
			41.255955,-72.537697,0
			41.2559130000001,-72.5372619999999,0
			41.2554510000001,-72.536896,0
			41.255337,-72.5365829999999,0
			41.25526,-72.5364529999999,0
			41.2547110000001,-72.536438,0
			41.2543680000001,-72.536659,0
			41.2542570000002,-72.5371319999999,0
			41.2543870000001,-72.5373,0
			41.2541470000002,-72.5375369999999,0
			41.2530560000001,-72.537224,0
			41.2530560000001,-72.5369719999999,0
			41.2530560000001,-72.5366669999999,0
			41.253334,-72.536392,0
			41.2530560000001,-72.53611,0
			41.2527770000001,-72.53611,0
			41.2524990000001,-72.5358349999999,0
			41.2522240000002,-72.5358349999999,0
			41.251945,-72.53611,0
			41.2516670000001,-72.53611,0
			41.2505570000001,-72.537224,0
			41.2502780000001,-72.5374979999999,0
			41.2502780000001,-72.538055,0
			41.2500000000001,-72.5383299999999,0
			41.2500000000001,-72.5402759999998,0
			41.2497220000001,-72.540558,0
			41.2497220000001,-72.5411149999999,0
			41.2494430000002,-72.541389,0
			41.2494430000002,-72.5416639999999,0
			41.2488900000002,-72.542221,0
			41.2488900000002,-72.542503,0
			41.248611,-72.5427779999999,0
			41.248611,-72.5433349999999,0
			41.2483330000001,-72.5436099999999,0
			41.2483330000001,-72.544724,0
			41.248611,-72.5449979999999,0
			41.248611,-72.5452799999999,0
			41.2488900000002,-72.545555,0
			41.2488900000002,-72.5458299999999,0
			41.249489,-72.5457839999999,0
			41.2500570000001,-72.546387,0
			41.2502780000001,-72.546387,0
			41.2505420000001,-72.5466919999998,0
			41.2508320000001,-72.546669,0
			41.2513890000002,-72.547226,0
			41.251335,-72.5475539999999,0
			41.2516170000001,-72.5478289999999,0
			41.2516670000001,-72.5483319999999,0
			41.2530560000001,-72.549721,0
			41.253334,-72.549721,0
			41.253613,-72.5500029999999,0
			41.2538870000001,-72.550339,0
			41.2538870000001,-72.550423,0
			41.253952,-72.5504989999999,0
			41.254448,-72.551102,0
			41.254444,-72.551392,0
			41.255322,-72.552177,0
			41.2555540000002,-72.552223,0
			41.2561110000001,-72.5527799999999,0
			41.2561110000001,-72.553055,0
			41.2563900000001,-72.5533829999999,0
			41.2563900000001,-72.553886,0
			41.256943,-72.5544429999999,0
			41.256943,-72.554726,0
			41.2575000000001,-72.5552749999999,0
			41.257778,-72.5552749999999,0
			41.2580570000002,-72.555557,0
			41.258274,-72.5556109999999,0
			41.2586100000001,-72.555832,0
			41.2586100000001,-72.5561139999999,0
			41.2591900000002,-72.556641,0
			41.259167,-72.5569459999999,0
			41.2605550000001,-72.5583339999999,0
			41.2605550000001,-72.5586089999999,0
			41.2608340000001,-72.558891,0
			41.2608340000001,-72.5594479999999,0
			41.261112,-72.559723,0
			41.261112,-72.5602799999999,0
			41.2613910000002,-72.560555,0
			41.2613910000002,-72.5608369999999,0
			41.2627790000001,-72.562225,0
			41.2627790000001,-72.5624999999999,0
			41.2641680000001,-72.563889,0
			41.2644460000002,-72.563889,0
			41.2650030000001,-72.5644449999999,0
			41.2649990000001,-72.56472,0
			41.2653350000002,-72.564964,0
			41.2652780000001,-72.565552,0
			41.2661090000001,-72.5663909999998,0
			41.2661090000001,-72.5666659999999,0
			41.2663880000001,-72.5669479999999,0
			41.2663880000001,-72.567223,0
			41.2666660000002,-72.5674969999999,0
			41.2666660000002,-72.568054,0
			41.2672230000001,-72.5686109999999,0
			41.2672230000001,-72.5694429999999,0
			41.2675020000001,-72.5697249999999,0
			41.2675020000001,-72.5702739999999,0
			41.267776,-72.5705569999998,0
			41.267776,-72.5708309999999,0
			41.2680550000002,-72.5711139999999,0
			41.2680550000002,-72.571388,0
			41.2686120000001,-72.5719449999999,0
			41.2686120000001,-72.5727769999999,0
			41.2691380000001,-72.573303,0
			41.2694440000002,-72.5736079999999,0
			41.2694440000002,-72.5738909999999,0
			41.2697220000001,-72.5741649999999,0
			41.2700000000002,-72.5741649999999,0
			41.2708320000001,-72.576668,0
			41.2711110000001,-72.5777739999999,0
			41.2713890000002,-72.5780559999999,0
			41.2713890000002,-72.57917,0
			41.2716670000001,-72.5794449999999,0
			41.2716670000001,-72.5805589999999,0
			41.2719460000001,-72.580833,0
			41.272182,-72.5831379999998,0
			41.2721710000002,-72.5835339999999,0
			41.2721330000001,-72.584167,0
			41.2721140000001,-72.584282,0
			41.2720870000002,-72.5844419999999,0
			41.2719190000001,-72.5848539999999,0
			41.2711110000001,-72.5863879999999,0
			41.2708320000001,-72.58667,0
			41.2708320000001,-72.5872189999999,0
			41.2705570000001,-72.587502,0
			41.2705570000001,-72.589447,0
			41.2702790000001,-72.5897219999999,0
			41.2702790000001,-72.590836,0
			41.2700000000002,-72.59111,0
			41.2700000000002,-72.591942,0
			41.2705570000001,-72.592499,0
			41.2705570000001,-72.5927809999999,0
			41.2702790000001,-72.5930559999999,0
			41.2702790000001,-72.5938869999999,0
			41.2700000000002,-72.59417,0
			41.2700000000002,-72.594444,0
			41.2697220000001,-72.5947189999999,0
			41.2697220000001,-72.595833,0
			41.2691650000002,-72.5963899999999,0
			41.2691650000002,-72.5977779999999,0
			41.2688900000002,-72.5980529999999,0
			41.2688900000002,-72.5997239999999,0
			41.2691650000002,-72.599998,0
			41.2691650000002,-72.6005549999999,0
			41.2694440000002,-72.60083,0
			41.2694440000002,-72.6011119999999,0
			41.2700000000002,-72.6011119999999,0
			41.2700000000002,-72.6016689999998,0
			41.2702790000001,-72.6019439999999,0
			41.2702290000001,-72.6022259999999,0
			41.2705570000001,-72.602501,0
			41.271214,-72.603691,0
			41.2710720000001,-72.604362,0
			41.2708930000002,-72.605789,0
			41.270973,-72.606071,0
			41.270855,-72.6069409999999,0
			41.2706410000001,-72.6073299999999,0
			41.270039,-72.6074299999999,0
			41.2699130000001,-72.607452,0
			41.2697220000001,-72.6077799999999,0
			41.2697220000001,-72.6086119999999,0
			41.2700000000002,-72.6088869999999,0
			41.2699850000002,-72.6092,0
			41.270473,-72.6094589999998,0
			41.2708320000001,-72.611115,0
			41.2711110000001,-72.6113889999999,0
			41.2711110000001,-72.611946,0
			41.2713890000002,-72.6122209999999,0
			41.2713890000002,-72.6133349999999,0
			41.2716670000001,-72.6136089999999,0
			41.2716330000001,-72.614769,0
			41.2719460000001,-72.6149979999998,0
			41.2719460000001,-72.6169429999999,0
			41.27169,-72.617203,0
			41.27169,-72.6177979999999,0
			41.2719460000001,-72.618057,0
			41.2723050000001,-72.6203159999999,0
			41.2719460000001,-72.621948,0
			41.2719460000001,-72.622223,0
			41.2722210000001,-72.6224979999999,0
			41.2722210000001,-72.62278,0
			41.2719460000001,-72.62278,0
			41.2716830000002,-72.6238249999998,0
			41.2716830000002,-72.624443,0
			41.2711110000001,-72.626114,0
			41.2711110000001,-72.6273729999999,0
			41.2711110000001,-72.6283339999999,0
			41.2705570000001,-72.629723,0
			41.2700000000002,-72.63028,0
			41.2697870000001,-72.6307069999999,0
			41.2697220000001,-72.6308359999999,0
			41.2688900000002,-72.631271,0
			41.268852,-72.6313479999999,0
			41.2679020000001,-72.631363,0
			41.267776,-72.631943,0
			41.267776,-72.633888,0
			41.2675020000001,-72.6341629999999,0
			41.2675020000001,-72.635277,0
			41.2672230000001,-72.6355589999999,0
			41.2672230000001,-72.6366649999999,0
			41.2675020000001,-72.6369479999998,0
			41.2675020000001,-72.637779,0
			41.2672230000001,-72.638054,0
			41.2672230000001,-72.6383359999999,0
			41.2669450000002,-72.638611,0
			41.2669450000002,-72.6399989999999,0
			41.2672230000001,-72.640274,0
			41.2672230000001,-72.640991,0
			41.2672230000001,-72.6413879999999,0
			41.2669720000001,-72.643066,0
			41.2666660000002,-72.6433329999999,0
			41.2663880000001,-72.6441649999999,0
			41.2661090000001,-72.6458359999999,0
			41.2655560000002,-72.646385,0
			41.2655560000002,-72.646942,0
			41.2652780000001,-72.6472239999999,0
			41.2652780000001,-72.6486129999999,0
			41.2649990000001,-72.6488879999999,0
			41.2649990000001,-72.6494449999999,0
			41.2647210000002,-72.6497189999999,0
			41.2647210000002,-72.6500019999999,0
			41.2649990000001,-72.6502759999998,0
			41.2652780000001,-72.6502759999998,0
			41.2658350000002,-72.6508329999999,0
			41.2658200000002,-72.651085,0
			41.2661090000001,-72.6513899999999,0
			41.2661090000001,-72.6524959999999,0
			41.2658770000001,-72.6527329999999,0
			41.2658350000002,-72.6536099999999,0
			41.2655560000002,-72.653893,0
			41.2655560000002,-72.654724,0
			41.2656560000001,-72.6553959999999,0
			41.2657740000001,-72.655716,0
			41.2651750000001,-72.6563719999999,0
			41.2649570000002,-72.657463,0
			41.2653390000002,-72.6586069999999,0
			41.2652780000001,-72.6591639999999,0
			41.2655560000002,-72.6594469999999,0
			41.2658350000002,-72.6597209999998,0
			41.2663880000001,-72.6602779999999,0
			41.2666660000002,-72.6602779999999,0
			41.2669450000002,-72.6605529999999,0
			41.2672230000001,-72.6605529999999,0
			41.2675020000001,-72.660835,0
			41.2675020000001,-72.6611099999999,0
			41.2680550000002,-72.661392,0
			41.2683330000001,-72.661667,0
			41.2692950000001,-72.662018,0
			41.2697410000001,-72.662178,0
			41.2702790000001,-72.6636119999999,0
			41.2705570000001,-72.663887,0
			41.2713890000002,-72.6633299999999,0
			41.2716670000001,-72.6633299999999,0
			41.2711110000001,-72.665001,0
			41.2705570000001,-72.665558,0
			41.2705570000001,-72.665833,0
			41.2702790000001,-72.6661149999999,0
			41.2697220000001,-72.6661149999999,0
			41.2686120000001,-72.667221,0
			41.2686120000001,-72.667503,0
			41.267776,-72.668335,0
			41.2675020000001,-72.668335,0
			41.2671360000002,-72.6680759999999,0
			41.2669450000002,-72.668053,0
			41.2666660000002,-72.6677779999999,0
			41.2663880000001,-72.6677779999999,0
			41.2655560000002,-72.6686099999999,0
			41.2655560000002,-72.669724,0
			41.2658350000002,-72.669998,0
			41.2661090000001,-72.669998,0
			41.2665480000002,-72.670219,0
			41.2666660000002,-72.6702799999999,0
			41.2666660000002,-72.670555,0
			41.2669450000002,-72.67083,0
			41.2669450000002,-72.6711119999999,0
			41.2672230000001,-72.671387,0
			41.2672230000001,-72.6719439999999,0
			41.2669450000002,-72.6722259999999,0
			41.2669450000002,-72.674721,0
			41.2672230000001,-72.675552,0
			41.2675020000001,-72.676666,0
			41.2675020000001,-72.6772229999999,0
			41.2672230000001,-72.6769409999999,0
			41.2669450000002,-72.6769409999999,0
			41.2663880000001,-72.6763919999999,0
			41.2661090000001,-72.6763919999999,0
			41.2658350000002,-72.6761089999999,0
			41.2658350000002,-72.6758349999999,0
			41.2655560000002,-72.675552,0
			41.2655560000002,-72.6750029999999,0
			41.2647210000002,-72.674164,0
			41.2644460000002,-72.6761089999999,0
			41.2642630000001,-72.67659,0
			41.2642630000001,-72.6769489999999,0
			41.2640080000002,-72.6771009999999,0
			41.263611,-72.677261,0
			41.2630540000001,-72.677498,0
			41.2627790000001,-72.677498,0
			41.2617490000001,-72.6788099999999,0
			41.261269,-72.6789319999999,0
			41.26099,-72.6789319999999,0
			41.260277,-72.6783369999999,0
			41.260277,-72.678055,0
			41.2588880000002,-72.676666,0
			41.2580570000002,-72.676666,0
			41.2572210000001,-72.677498,0
			41.256943,-72.6777799999999,0
			41.256668,-72.6777799999999,0
			41.2563900000001,-72.677498,0
			41.2561110000001,-72.677498,0
			41.2558020000001,-72.677208,0
			41.2555540000002,-72.6769409999999,0
			41.2552800000001,-72.6769409999999,0
			41.2547230000002,-72.677498,0
			41.254444,-72.677498,0
			41.254444,-72.6783369999999,0
			41.2547230000002,-72.6783369999999,0
			41.2550740000001,-72.6786879999999,0
			41.2555540000002,-72.6791689999999,0
			41.2555540000002,-72.6797259999999,0
			41.255833,-72.6799999999999,0
			41.2566300000001,-72.680199,0
			41.256668,-72.6813889999999,0
			41.256668,-72.681664,0
			41.256943,-72.6819459999999,0
			41.257778,-72.6833339999999,0
			41.257778,-72.6836089999999,0
			41.2583350000001,-72.6841659999999,0
			41.2580570000002,-72.684998,0
			41.2575000000001,-72.684998,0
			41.2572210000001,-72.6847229999999,0
			41.2561110000001,-72.6847229999999,0
			41.255833,-72.684448,0
			41.2550010000001,-72.684448,0
			41.2547230000002,-72.6847229999999,0
			41.254444,-72.684448,0
			41.2538870000001,-72.684448,0
			41.253613,-72.6847229999999,0
			41.253334,-72.6847229999999,0
			41.2530560000001,-72.684998,0
			41.2524990000001,-72.684998,0
			41.2522240000002,-72.6855549999999,0
			41.2511480000002,-72.6855549999999,0
			41.2508320000001,-72.6861109999999,0
			41.2505570000001,-72.6861109999999,0
			41.2500000000001,-72.6872249999999,0
			41.2497220000001,-72.6874999999999,0
			41.2494430000002,-72.6874999999999,0
			41.2491680000001,-72.6883319999999,0
			41.2483330000001,-72.6883319999999,0
			41.248055,-72.6894449999999,0
			41.247776,-72.689163,0
			41.2475510000001,-72.6893159999999,0
			41.2469440000002,-72.6897199999999,0
			41.2466660000001,-72.6900019999998,0
			41.2469440000002,-72.6911089999999,0
			41.2475510000001,-72.6910629999999,0
			41.247662,-72.6910549999999,0
			41.2475510000001,-72.6913989999999,0
			41.2473340000001,-72.6920699999999,0
			41.246387,-72.6924969999999,0
			41.245556,-72.693336,0
			41.245277,-72.693611,0
			41.2449990000001,-72.6938859999999,0
			41.2449990000001,-72.6941679999999,0
			41.2447200000001,-72.6944429999999,0
			41.2447200000001,-72.6952739999999,0
			41.2449990000001,-72.6955569999999,0
			41.2449990000001,-72.6958309999999,0
			41.2447200000001,-72.696114,0
			41.2449990000001,-72.6963879999999,0
			41.2449990000001,-72.6966629999999,0
			41.245277,-72.696945,0
			41.245556,-72.6972199999999,0
			41.2461130000001,-72.6972199999999,0
			41.2469440000002,-72.6963879999999,0
			41.2472230000001,-72.6966629999999,0
			41.2472230000001,-72.697502,0
			41.2475010000001,-72.697777,0
			41.2472230000001,-72.6980589999999,0
			41.2472230000001,-72.6986079999999,0
			41.2469440000002,-72.6988909999999,0
			41.2469440000002,-72.7005539999999,0
			41.2462310000001,-72.701271,0
			41.2458340000001,-72.701668,0
			41.245556,-72.701668,0
			41.245277,-72.701942,0
			41.245277,-72.7022249999999,0
			41.2449990000001,-72.702499,0
			41.2449990000001,-72.702774,0
			41.2447200000001,-72.7030559999999,0
			41.2447200000001,-72.7033309999999,0
			41.2441670000001,-72.7038879999999,0
			41.2441670000001,-72.70417,0
			41.2436100000002,-72.706665,0
			41.2438890000001,-72.706947,0
			41.2438890000001,-72.708611,0
			41.244446,-72.709167,0
			41.244446,-72.709442,0
			41.2447200000001,-72.7097239999999,0
			41.2449990000001,-72.7097239999999,0
			41.2458340000001,-72.7088849999999,0
			41.2458340000001,-72.7083359999999,0
			41.2461130000001,-72.7080539999999,0
			41.2461130000001,-72.707779,0
			41.2467,-72.707191,0
			41.2472230000001,-72.706665,0
			41.2472230000001,-72.706947,0
			41.2475010000001,-72.7072219999999,0
			41.247776,-72.707497,0
			41.248055,-72.707497,0
			41.248055,-72.7080539999999,0
			41.2479250000001,-72.7081829999999,0
			41.247776,-72.7083359999999,0
			41.247776,-72.708611,0
			41.2475010000001,-72.7088849999999,0
			41.2475010000001,-72.709442,0
			41.2472230000001,-72.709999,0
			41.2469440000002,-72.709999,0
			41.2469440000002,-72.711945,0
			41.2472230000001,-72.7130579999999,0
			41.247711,-72.713982,0
			41.2479740000001,-72.7144319999999,0
			41.2484400000001,-72.714706,0
			41.2487830000001,-72.714569,0
			41.2492260000001,-72.713646,0
			41.2502780000001,-72.7122189999999,0
			41.2502780000001,-72.7116699999999,0
			41.25111,-72.710831,0
			41.25111,-72.7105559999999,0
			41.2513890000002,-72.710281,0
			41.2513890000002,-72.709999,0
			41.2516670000001,-72.7097239999999,0
			41.2516670000001,-72.7088849999999,0
			41.251945,-72.708611,0
			41.251945,-72.7080539999999,0
			41.253334,-72.706665,0
			41.253334,-72.706108,0
			41.253613,-72.705833,0
			41.253613,-72.7055589999999,0
			41.2538870000001,-72.705276,0
			41.2538870000001,-72.705002,0
			41.254444,-72.704445,0
			41.2547230000002,-72.704445,0
			41.2552800000001,-72.7038879999999,0
			41.2555540000002,-72.7038879999999,0
			41.2560460000001,-72.7033999999999,0
			41.2563900000001,-72.7030559999999,0
			41.256668,-72.7030559999999,0
			41.2568050000002,-72.7031939999999,0
			41.2583350000001,-72.7047199999999,0
			41.2588880000002,-72.705002,0
			41.2594490000001,-72.7055589999999,0
			41.2597240000001,-72.705833,0
			41.259998,-72.7063899999999,0
			41.2597240000001,-72.706665,0
			41.2597240000001,-72.706947,0
			41.2588880000002,-72.7083359999999,0
			41.2586100000001,-72.708611,0
			41.2586100000001,-72.7088849999999,0
			41.2583350000001,-72.709167,0
			41.2583350000001,-72.709442,0
			41.2580570000002,-72.7097239999999,0
			41.2580570000002,-72.7105559999999,0
			41.257778,-72.7122189999999,0
			41.2575000000001,-72.7125019999999,0
			41.2572210000001,-72.713608,0
			41.256943,-72.7138899999999,0
			41.256943,-72.714165,0
			41.256668,-72.714447,0
			41.256668,-72.714996,0
			41.2563900000001,-72.715279,0
			41.2564390000001,-72.7164539999999,0
			41.256451,-72.716751,0
			41.255833,-72.7177809999999,0
			41.255833,-72.71833,0
			41.2563900000001,-72.7188869999999,0
			41.256668,-72.7188869999999,0
			41.2573170000001,-72.718239,0
			41.2575000000001,-72.7180559999999,0
			41.2580570000002,-72.7174989999999,0
			41.2580570000002,-72.716942,0
			41.257778,-72.7166669999999,0
			41.257778,-72.7163929999999,0
			41.2580570000002,-72.71611,0
			41.2583350000001,-72.71611,0
			41.2586100000001,-72.7158359999999,0
			41.2588880000002,-72.7158359999999,0
			41.2594450000001,-72.715279,0
			41.259998,-72.715279,0
			41.2600980000001,-72.715401,0
			41.260258,-72.7152399999998,0
			41.2605320000001,-72.715202,0
			41.2608340000001,-72.715477,0
			41.261471,-72.7149199999999,0
			41.2619440000001,-72.7158359999999,0
			41.2622220000002,-72.7163929999999,0
			41.2625010000002,-72.7166669999999,0
			41.2622220000002,-72.7180559999999,0
			41.2619440000001,-72.7180559999999,0
			41.2613910000002,-72.7197189999999,0
			41.261112,-72.7200009999999,0
			41.2608340000001,-72.7197189999999,0
			41.2605550000001,-72.7200009999999,0
			41.2605550000001,-72.720276,0
			41.259998,-72.7208329999999,0
			41.259998,-72.721107,0
			41.2597240000001,-72.7213899999999,0
			41.2597240000001,-72.7216639999999,0
			41.2594450000001,-72.7219469999998,0
			41.259167,-72.7222209999999,0
			41.259167,-72.7225039999999,0
			41.2590750000001,-72.722595,0
			41.2586100000001,-72.7230529999999,0
			41.2586100000001,-72.7233349999999,0
			41.2583350000001,-72.72361,0
			41.2583350000001,-72.723892,0
			41.2586100000001,-72.7241669999999,0
			41.2588810000001,-72.7242129999999,0
			41.259167,-72.724442,0
			41.2594450000001,-72.724442,0
			41.2597240000001,-72.7241669999999,0
			41.2597240000001,-72.72361,0
			41.260277,-72.7230529999999,0
			41.2608340000001,-72.72361,0
			41.2608340000001,-72.723892,0
			41.2605550000001,-72.7241669999999,0
			41.2605550000001,-72.724442,0
			41.259998,-72.7249979999999,0
			41.259998,-72.7252809999999,0
			41.260277,-72.7255549999999,0
			41.260277,-72.7258299999999,0
			41.259998,-72.7261119999998,0
			41.259998,-72.7263869999999,0
			41.2597240000001,-72.7263869999999,0
			41.2594450000001,-72.7261119999998,0
			41.2588880000002,-72.7261119999998,0
			41.2586100000001,-72.7258299999999,0
			41.2583050000001,-72.7261349999999,0
			41.2580570000002,-72.7263869999999,0
			41.257778,-72.7263869999999,0
			41.2572210000001,-72.7269439999999,0
			41.257843,-72.727524,0
			41.2577630000002,-72.727768,0
			41.2580570000002,-72.7275009999999,0
			41.2583350000001,-72.7275009999999,0
			41.2588880000002,-72.728058,0
			41.2588880000002,-72.7283329999999,0
			41.2580570000002,-72.7291639999999,0
			41.2580570000002,-72.7294459999999,0
			41.2588880000002,-72.7302779999998,0
			41.2588880000002,-72.7305529999999,0
			41.2583350000001,-72.7311099999998,0
			41.2580570000002,-72.7311099999998,0
			41.257778,-72.7308349999999,0
			41.2575000000001,-72.7308349999999,0
			41.256943,-72.731392,0
			41.2566570000002,-72.731102,0
			41.2563900000001,-72.7308349999999,0
			41.2561110000001,-72.7308349999999,0
			41.2552800000001,-72.7316669999999,0
			41.2552800000001,-72.7319409999999,0
			41.2550010000001,-72.732224,0
			41.2550010000001,-72.7324979999999,0
			41.2552800000001,-72.7327799999999,0
			41.255833,-72.7327799999999,0
			41.2558250000001,-72.7336119999999,0
			41.2561110000001,-72.733887,0
			41.2561110000001,-72.7341689999999,0
			41.2563900000001,-72.7344509999999,0
			41.2563900000001,-72.734726,0
			41.256668,-72.7350009999999,0
			41.256668,-72.7358319999999,0
			41.2572210000001,-72.736389,0
			41.2572210000001,-72.7366639999999,0
			41.2575000000001,-72.736946,0
			41.2583350000001,-72.736946,0
			41.2583350000001,-72.736389,0
			41.2586100000001,-72.736115,0
			41.2597240000001,-72.736115,0
			41.259998,-72.736389,0
			41.260277,-72.736389,0
			41.2605860000002,-72.736145,0
			41.2606890000002,-72.7362439999999,0
			41.2608340000001,-72.736389,0
			41.2613910000002,-72.736389,0
			41.2613910000002,-72.7375029999999,0
			41.2616650000001,-72.7377779999999,0
			41.2619440000001,-72.738052,0
			41.2619440000001,-72.7391659999999,0
			41.2622220000002,-72.7394409999998,0
			41.2622220000002,-72.739723,0
			41.2619440000001,-72.7399979999999,0
			41.2619440000001,-72.741386,0
			41.2606240000001,-72.7427059999999,0
			41.260616,-72.7427829999999,0
			41.2605550000001,-72.7433319999999,0
			41.2603840000002,-72.743507,0
			41.2603000000001,-72.743591,0
			41.260277,-72.743889,0
			41.259998,-72.7441639999999,0
			41.259998,-72.744446,0
			41.2597240000001,-72.74472,0
			41.2597240000001,-72.745277,0
			41.2594450000001,-72.745552,0
			41.2594450000001,-72.747223,0
			41.2588880000002,-72.7477799999999,0
			41.2588880000002,-72.748886,0
			41.2586100000001,-72.7491679999999,0
			41.2586100000001,-72.749443,0
			41.2588880000002,-72.749725,0
			41.2588880000002,-72.7499999999999,0
			41.2597240000001,-72.7508319999999,0
			41.260277,-72.7508319999999,0
			41.2605550000001,-72.750557,0
			41.2608340000001,-72.750557,0
			41.261112,-72.750275,0
			41.2613910000002,-72.7499999999999,0
			41.2617110000002,-72.7499539999999,0
			41.2619440000001,-72.749725,0
			41.2622220000002,-72.749443,0
			41.2625010000002,-72.749725,0
			41.2625010000002,-72.7499999999999,0
			41.262386,-72.750259,0
			41.2623410000001,-72.7503589999999,0
			41.2622220000002,-72.750916,0
			41.262302,-72.7510299999999,0
			41.2623630000001,-72.751389,0
			41.2623410000001,-72.751663,0
			41.2625010000002,-72.7519449999999,0
			41.263332,-72.7527769999999,0
			41.263611,-72.7527769999999,0
			41.2638890000001,-72.753052,0
			41.2641680000001,-72.753052,0
			41.2652780000001,-72.7519449999999,0
			41.2661090000001,-72.7519449999999,0
			41.2663880000001,-72.752144,0
			41.2665480000002,-72.7520289999999,0
			41.2670780000001,-72.7519449999999,0
			41.2673030000001,-72.7519149999999,0
			41.2672390000001,-72.7522959999999,0
			41.2670440000002,-72.753418,0
			41.2675020000001,-72.7541659999999,0
			41.2686120000001,-72.7552799999999,0
			41.2687230000002,-72.7556079999999,0
			41.2688900000002,-72.7561109999999,0
			41.2691650000002,-72.7566679999999,0
			41.2691650000002,-72.7569429999999,0
			41.2688900000002,-72.7566679999999,0
			41.2683330000001,-72.7566679999999,0
			41.2680550000002,-72.7569429999999,0
			41.2675020000001,-72.7569429999999,0
			41.2672230000001,-72.7574999999999,0
			41.2669450000002,-72.7574999999999,0
			41.2666660000002,-72.758057,0
			41.2663880000001,-72.7583309999999,0
			41.2661090000001,-72.7583309999999,0
			41.2661090000001,-72.7591629999999,0
			41.2663880000001,-72.7591629999999,0
			41.2663880000001,-72.7605589999999,0
			41.2666660000002,-72.7608339999999,0
			41.2666660000002,-72.7611079999999,0
			41.2670210000001,-72.7614059999999,0
			41.2669260000002,-72.7619479999999,0
			41.2672230000001,-72.762222,0
			41.2675020000001,-72.763054,0
			41.2672230000001,-72.7636109999999,0
			41.2669450000002,-72.7644419999999,0
			41.266529,-72.7642359999999,0
			41.2663880000001,-72.764168,0
			41.2661090000001,-72.764168,0
			41.2658350000002,-72.7647249999999,0
			41.2661090000001,-72.7649989999999,0
			41.2661090000001,-72.7658309999999,0
			41.2662350000001,-72.7659609999999,0
			41.2663880000001,-72.7661129999999,0
			41.2661400000002,-72.7665019999999,0
			41.2658540000002,-72.7663879999998,0
			41.265434,-72.7667849999999,0
			41.2648620000001,-72.7676159999999,0
			41.2652780000001,-72.7680589999999,0
			41.2655560000002,-72.7686079999999,0
			41.2655870000001,-72.7691959999999,0
			41.2658350000002,-72.7694469999999,0
			41.2658350000002,-72.771385,0
			41.2655560000002,-72.771385,0
			41.2652780000001,-72.771667,0
			41.2651520000001,-72.771919,0
			41.2649990000001,-72.7722239999999,0
			41.2647210000002,-72.7722239999999,0
			41.263611,-72.773331,0
			41.263611,-72.7744449999999,0
			41.2638890000001,-72.7747189999998,0
			41.2638890000001,-72.7752759999999,0
			41.2641680000001,-72.7755579999999,0
			41.2641680000001,-72.775833,0
			41.2644460000002,-72.7761079999999,0
			41.2644460000002,-72.776665,0
			41.2647210000002,-72.776947,0
			41.2647210000002,-72.777496,0
			41.2649990000001,-72.777779,0
			41.2649990000001,-72.7788929999999,0
			41.2652780000001,-72.779167,0
			41.2652780000001,-72.779724,0
			41.2655560000002,-72.779999,0
			41.2655560000002,-72.7802809999999,0
			41.2652780000001,-72.7805559999999,0
			41.2652780000001,-72.78083,0
			41.2649990000001,-72.7811129999999,0
			41.2649990000001,-72.78167,0
			41.2647210000002,-72.781944,0
			41.2647210000002,-72.7830579999999,0
			41.2644460000002,-72.783333,0
			41.2644460000002,-72.7838899999999,0
			41.2647210000002,-72.784164,0
			41.2647210000002,-72.7844469999999,0
			41.26503,-72.7847289999999,0
			41.265026,-72.784912,0
			41.2649990000001,-72.78611,0
			41.2647210000002,-72.7863919999999,0
			41.2647210000002,-72.786667,0
			41.2638890000001,-72.787498,0
			41.263332,-72.7880549999999,0
			41.2630540000001,-72.7877809999999,0
			41.2625010000002,-72.7877809999999,0
			41.2613640000001,-72.7888639999999,0
			41.2608340000001,-72.7894439999999,0
			41.2608340000001,-72.7897189999999,0
			41.2604830000002,-72.79007,0
			41.259998,-72.7905579999999,0
			41.259167,-72.7913889999999,0
			41.2594450000001,-72.791664,0
			41.2594450000001,-72.7919459999999,0
			41.259998,-72.7925029999998,0
			41.2602160000001,-72.7922129999999,0
			41.2605550000001,-72.7936099999999,0
			41.2605550000001,-72.7944409999999,0
			41.260277,-72.7961119999999,0
			41.2594450000001,-72.7969439999999,0
			41.2594450000001,-72.7977749999999,0
			41.259167,-72.7980579999999,0
			41.2583350000001,-72.7988889999999,0
			41.2583350000001,-72.799164,0
			41.258049,-72.799446,0
			41.2580570000002,-72.8002779999999,0
			41.2577510000001,-72.8005449999999,0
			41.257778,-72.8011089999999,0
			41.2575300000001,-72.801361,0
			41.2574500000001,-72.8016509999999,0
			41.257778,-72.8019409999999,0
			41.2575000000001,-72.8030549999999,0
			41.2572210000001,-72.8033369999999,0
			41.256943,-72.8044429999999,0
			41.256668,-72.8052749999999,0
			41.2563900000001,-72.8052749999999,0
			41.2561110000001,-72.806114,0
			41.2547230000002,-72.806114,0
			41.254444,-72.8063889999999,0
			41.2538870000001,-72.8063889999999,0
			41.253613,-72.806946,0
			41.253334,-72.806946,0
			41.2524990000001,-72.807777,0
			41.2514,-72.8088759999999,0
			41.2514,-72.8091659999999,0
			41.2508320000001,-72.8097229999999,0
			41.2508320000001,-72.8099979999999,0
			41.2502780000001,-72.8105549999999,0
			41.2502780000001,-72.8108369999999,0
			41.2500000000001,-72.811111,0
			41.2500000000001,-72.8113859999999,0
			41.2497220000001,-72.8116679999999,0
			41.2497220000001,-72.811943,0
			41.2502780000001,-72.8124999999999,0
			41.2503470000001,-72.813911,0
			41.2500000000001,-72.8141629999999,0
			41.2500000000001,-72.814781,0
			41.2500000000001,-72.815277,0
			41.2497220000001,-72.8155519999999,0
			41.2497220000001,-72.8158339999999,0
			41.2494430000002,-72.816109,0
			41.2494430000002,-72.816391,0
			41.2498440000001,-72.817032,0
			41.2494430000002,-72.818054,0
			41.2494430000002,-72.8188859999999,0
			41.2508320000001,-72.818611,0
			41.251945,-72.81778,0
			41.2522240000002,-72.81778,0
			41.253334,-72.818054,0
			41.2541660000001,-72.819443,0
			41.254444,-72.8197249999999,0
			41.2547230000002,-72.820274,0
			41.2547230000002,-72.820557,0
			41.2550010000001,-72.821114,0
			41.2550010000001,-72.8216629999999,0
			41.2552800000001,-72.821945,0
			41.2552800000001,-72.8225019999999,0
			41.2555540000002,-72.822777,0
			41.2555540000002,-72.8230589999999,0
			41.2552800000001,-72.8230589999999,0
			41.2552800000001,-72.8238909999999,0
			41.255833,-72.8238909999999,0
			41.2561110000001,-72.8233339999999,0
			41.256943,-72.8225019999999,0
			41.256943,-72.82222,0
			41.2572210000001,-72.821945,0
			41.2575000000001,-72.821945,0
			41.257778,-72.8216629999999,0
			41.2594450000001,-72.820557,0
			41.2594450000001,-72.819443,0
			41.259167,-72.819443,0
			41.259167,-72.8183359999999,0
			41.259998,-72.8183359999999,0
			41.259998,-72.816109,0
			41.2594450000001,-72.816109,0
			41.2594450000001,-72.815277,0
			41.2588620000002,-72.815285,0
			41.2583350000001,-72.8147199999999,0
			41.257778,-72.8141629999999,0
			41.257778,-72.813614,0
			41.257637,-72.8131789999999,0
			41.2580570000002,-72.812775,0
			41.259167,-72.811111,0
			41.259998,-72.8108369999999,0
			41.260277,-72.8105549999999,0
			41.2605550000001,-72.8105549999999,0
			41.2608340000001,-72.81028,0
			41.2608340000001,-72.8099979999999,0
			41.2619440000001,-72.8099979999999,0
			41.2619440000001,-72.81028,0
			41.2622220000002,-72.81028,0
			41.2622220000002,-72.8105549999999,0
			41.2625010000002,-72.8108369999999,0
			41.2631190000001,-72.8108369999999,0
			41.2638890000001,-72.8108369999999,0
			41.2641680000001,-72.8105549999999,0
			41.2644460000002,-72.8105549999999,0
			41.2647210000002,-72.8108369999999,0
			41.2647210000002,-72.811111,0
			41.2641680000001,-72.8116679999999,0
			41.2641680000001,-72.811943,0
			41.2638890000001,-72.812225,0
			41.263607,-72.812225,0
			41.263332,-72.8124999999999,0
			41.2630540000001,-72.8124999999999,0
			41.2627790000001,-72.812775,0
			41.2627790000001,-72.813057,0
			41.2625010000002,-72.8133319999999,0
			41.2625010000002,-72.813889,0
			41.2619440000001,-72.814445,0
			41.2619440000001,-72.8150019999999,0
			41.2622220000002,-72.815277,0
			41.2622220000002,-72.8166659999999,0
			41.2619440000001,-72.816948,0
			41.2622220000002,-72.817223,0
			41.2622220000002,-72.81778,0
			41.2630540000001,-72.818611,0
			41.2630540000001,-72.8188859999999,0
			41.2629590000001,-72.8189849999999,0
			41.2627790000001,-72.8191679999999,0
			41.2627790000001,-72.819443,0
			41.2625010000002,-72.819443,0
			41.2622220000002,-72.8197249999999,0
			41.2619440000001,-72.8197249999999,0
			41.2616650000001,-72.819443,0
			41.2616650000001,-72.820274,0
			41.2619440000001,-72.820557,0
			41.2619440000001,-72.821114,0
			41.2622220000002,-72.821388,0
			41.2619440000001,-72.8216629999999,0
			41.2619440000001,-72.821945,0
			41.2616650000001,-72.82222,0
			41.2616650000001,-72.8225019999999,0
			41.2613910000002,-72.8241649999999,0
			41.2616650000001,-72.8241649999999,0
			41.2616650000001,-72.824448,0
			41.2622220000002,-72.8249969999999,0
			41.2625010000002,-72.824722,0
			41.2627790000001,-72.824722,0
			41.263332,-72.8241649999999,0
			41.2636800000002,-72.824516,0
			41.2638890000001,-72.824722,0
			41.263783,-72.8248289999999,0
			41.263611,-72.8249969999999,0
			41.263611,-72.825554,0
			41.263332,-72.8258359999999,0
			41.263332,-72.826111,0
			41.263611,-72.826385,0
			41.263611,-72.8266679999999,0
			41.2638890000001,-72.8266679999999,0
			41.2643430000002,-72.8271259999999,0
			41.2644460000002,-72.8272249999999,0
			41.2644460000002,-72.8274989999999,0
			41.2647210000002,-72.827774,0
			41.2647210000002,-72.8280559999999,0
			41.2641680000001,-72.828613,0
			41.263332,-72.828613,0
			41.2630540000001,-72.8288879999999,0
			41.2619440000001,-72.8288879999999,0
			41.2613910000002,-72.829445,0
			41.261112,-72.82972,0
			41.261112,-72.8300019999999,0
			41.2608340000001,-72.830276,0
			41.2605550000001,-72.8305589999999,0
			41.259998,-72.831108,0
			41.2597240000001,-72.8308329999999,0
			41.2594450000001,-72.82972,0
			41.2588270000001,-72.8295669999998,0
			41.2582930000002,-72.8298799999999,0
			41.257778,-72.8305589999999,0
			41.256668,-72.8305589999999,0
			41.2563900000001,-72.8308329999999,0
			41.2561110000001,-72.831306,0
			41.2558170000001,-72.8317489999999,0
			41.2555540000002,-72.8319469999998,0
			41.2552800000001,-72.8319469999998,0
			41.2550010000001,-72.8322979999999,0
			41.2547230000002,-72.8327789999998,0
			41.254444,-72.8330539999999,0
			41.253613,-72.8330539999999,0
			41.253334,-72.8327789999998,0
			41.2524990000001,-72.8327789999998,0
			41.2522240000002,-72.8330539999999,0
			41.251945,-72.8330539999999,0
			41.2516670000001,-72.8333359999999,0
			41.2513390000001,-72.8333359999999,0
			41.25111,-72.8333359999999,0
			41.2508320000001,-72.833611,0
			41.2505570000001,-72.833611,0
			41.2502780000001,-72.8341669999999,0
			41.2500000000001,-72.834442,0
			41.2497220000001,-72.834442,0
			41.2491680000001,-72.8355559999999,0
			41.2488900000002,-72.8355559999999,0
			41.248611,-72.8358309999999,0
			41.2487110000001,-72.8361889999998,0
			41.248611,-72.8363879999999,0
			41.248611,-72.8366699999999,0
			41.2491680000001,-72.8372189999999,0
			41.2500000000001,-72.8372189999999,0
			41.2507740000001,-72.8368609999999,0
			41.2508320000001,-72.837776,0
			41.25111,-72.8380579999999,0
			41.2516670000001,-72.8391649999999,0
			41.2516670000001,-72.8394469999999,0
			41.2522240000002,-72.8402789999999,0
			41.2541660000001,-72.8402789999999,0
			41.254444,-72.8399959999999,0
			41.2547230000002,-72.8399959999999,0
			41.2551960000001,-72.839523,0
			41.2555540000002,-72.8391649999999,0
			41.2555540000002,-72.8388899999999,0
			41.255833,-72.838608,0
			41.2561110000001,-72.8388899999999,0
			41.2561110000001,-72.8391649999999,0
			41.2563900000001,-72.8394469999999,0
			41.2563900000001,-72.8397219999999,0
			41.2569050000001,-72.8403089999999,0
			41.256943,-72.8405529999999,0
			41.256668,-72.8408359999999,0
			41.2563900000001,-72.8408359999999,0
			41.256943,-72.841393,0
			41.2572210000001,-72.841393,0
			41.257778,-72.8419419999998,0
			41.2586100000001,-72.8411099999998,0
			41.259167,-72.8416669999999,0
			41.259167,-72.8419419999998,0
			41.2586100000001,-72.8430559999999,0
			41.2583350000001,-72.8447189999999,0
			41.2578510000002,-72.8447189999999,0
			41.2563900000001,-72.8447189999999,0
			41.2563900000001,-72.8452759999999,0
			41.256668,-72.8452759999999,0
			41.256943,-72.8466639999999,0
			41.2572630000002,-72.8475109999999,0
			41.257252,-72.847717,0
			41.2572210000001,-72.848335,0
			41.256943,-72.848335,0
			41.256943,-72.848892,0
			41.2572210000001,-72.848892,0
			41.2572210000001,-72.849167,0
			41.256943,-72.849724,0
			41.256668,-72.8499979999999,0
			41.2563900000001,-72.8499979999999,0
			41.2561110000001,-72.8502809999999,0
			41.2555540000002,-72.849724,0
			41.2552800000001,-72.8499979999999,0
			41.2551190000001,-72.849838,0
			41.2550010000001,-72.849724,0
			41.253613,-72.849724,0
			41.253334,-72.8499979999999,0
			41.2530560000001,-72.8499979999999,0
			41.2524990000001,-72.850555,0
			41.2524990000001,-72.8511119999999,0
			41.2530560000001,-72.851669,0
			41.2530560000001,-72.851929,0
			41.2530560000001,-72.8527759999999,0
			41.2527770000001,-72.853058,0
			41.2524990000001,-72.853058,0
			41.2524990000001,-72.854721,0
			41.2530560000001,-72.854721,0
			41.253334,-72.854721,0
			41.253613,-72.855003,0
			41.253613,-72.8552779999999,0
			41.2541660000001,-72.855835,0
			41.2541660000001,-72.8561099999999,0
			41.2538870000001,-72.856392,0
			41.253334,-72.8569409999999,0
			41.2530560000001,-72.8569409999999,0
			41.2522240000002,-72.857498,0
			41.25111,-72.858055,0
			41.2500000000001,-72.858887,0
			41.2491680000001,-72.859726,0
			41.248611,-72.859726,0
			41.2483330000001,-72.860001,0
			41.2472230000001,-72.860001,0
			41.2469440000002,-72.8602749999999,0
			41.2468220000002,-72.8602749999999,0
			41.2466660000001,-72.8602749999999,0
			41.2458340000001,-72.8611149999999,0
			41.2458340000001,-72.861389,0
			41.245556,-72.861664,0
			41.245556,-72.8625029999999,0
			41.245277,-72.8672259999999,0
			41.245556,-72.8674999999999,0
			41.245277,-72.86972,0
			41.2447200000001,-72.8708339999999,0
			41.244446,-72.8711089999999,0
			41.244446,-72.8727799999999,0
			41.2445680000002,-72.8729019999999,0
			41.2447200000001,-72.8730549999999,0
			41.2447200000001,-72.8752749999999,0
			41.244446,-72.8755569999999,0
			41.2441670000001,-72.876663,0
			41.2438890000001,-72.8788909999999,0
			41.2438890000001,-72.8791659999999,0
			41.243752,-72.8791659999999,0
			41.2433320000001,-72.8791659999999,0
			41.241943,-72.8805539999999,0
			41.241943,-72.8811109999999,0
			41.242222,-72.8813859999998,0
			41.242222,-72.8816679999998,0
			41.2425000000001,-72.8819429999999,0
			41.2425000000001,-72.8822249999999,0
			41.2427790000002,-72.8824999999999,0
			41.2427790000002,-72.8827739999999,0
			41.2436100000002,-72.883614,0
			41.2436100000002,-72.8838879999999,0
			41.2438890000001,-72.8841629999999,0
			41.2438890000001,-72.885834,0
			41.2441670000001,-72.8861079999999,0
			41.2441670000001,-72.8863909999999,0
			41.2443240000001,-72.886543,0
			41.244446,-72.8866649999999,0
			41.2447200000001,-72.8872219999999,0
			41.2447200000001,-72.8894419999999,0
			41.2441670000001,-72.8908309999998,0
			41.2436030000001,-72.8913959999999,0
			41.2427790000002,-72.8922199999999,0
			41.2427790000002,-72.892502,0
			41.2425000000001,-72.892776,0
			41.2425000000001,-72.8930589999999,0
			41.241943,-72.893608,0
			41.242222,-72.894447,0
			41.2441670000001,-72.896111,0
			41.2449990000001,-72.896942,0
			41.245556,-72.897781,0
			41.2458340000001,-72.898613,0
			41.2458340000001,-72.899445,0
			41.2461130000001,-72.8997189999999,0
			41.2461130000001,-72.900002,0
			41.246387,-72.900276,0
			41.246387,-72.9005579999999,0
			41.2472230000001,-72.9013899999999,0
			41.2475010000001,-72.9013899999999,0
			41.2483330000001,-72.9022219999999,0
			41.2483330000001,-72.902496,0
			41.248055,-72.902779,0
			41.248055,-72.9033359999999,0
			41.2483330000001,-72.90361,0
			41.2483330000001,-72.9038929999999,0
			41.2488900000002,-72.904442,0
			41.2494430000002,-72.904167,0
			41.2497220000001,-72.904167,0
			41.25111,-72.90361,0
			41.2513890000002,-72.9033359999999,0
			41.251945,-72.9033359999999,0
			41.251945,-72.9030529999999,0
			41.2522240000002,-72.902779,0
			41.2524990000001,-72.902779,0
			41.253613,-72.9022219999999,0
			41.2538870000001,-72.901947,0
			41.2538870000001,-72.901665,0
			41.2547230000002,-72.900833,0
			41.2547230000002,-72.9005579999999,0
			41.2550010000001,-72.900276,0
			41.2550010000001,-72.8997189999999,0
			41.2552800000001,-72.899445,0
			41.2552800000001,-72.8988879999999,0
			41.2555540000002,-72.898613,0
			41.2555540000002,-72.8981399999999,0
			41.2555540000002,-72.897781,0
			41.2559090000001,-72.897545,0
			41.255833,-72.8972239999999,0
			41.2555540000002,-72.896942,0
			41.2555540000002,-72.896667,0
			41.255833,-72.8963849999999,0
			41.2561110000001,-72.896111,0
			41.2561110000001,-72.895836,0
			41.2563900000001,-72.8955539999999,0
			41.2563900000001,-72.8947219999999,0
			41.2575000000001,-72.893608,0
			41.2583350000001,-72.8930589999999,0
			41.2586100000001,-72.893333,0
			41.2588880000002,-72.893333,0
			41.259167,-72.893608,0
			41.2594450000001,-72.893608,0
			41.2597240000001,-72.8938899999999,0
			41.260277,-72.8938899999999,0
			41.2608340000001,-72.894447,0
			41.261112,-72.894447,0
			41.2613910000002,-72.8947219999999,0
			41.2619440000001,-72.894997,0
			41.2621990000001,-72.895317,0
			41.2625010000002,-72.895279,0
			41.2630960000002,-72.89579,0
			41.2631530000001,-72.895836,0
			41.263611,-72.895836,0
			41.2638890000001,-72.896111,0
			41.2644460000002,-72.8963849999999,0
			41.26482,-72.8966749999999,0
			41.2649610000001,-72.89679,0
			41.2653580000001,-72.8970639999999,0
			41.2656520000001,-72.8974299999999,0
			41.2657050000001,-72.8974909999999,0
			41.2660560000002,-72.8980179999999,0
			41.2664340000002,-72.898491,0
			41.266529,-72.8988109999999,0
			41.2672230000001,-72.8996809999999,0
			41.267521,-72.900276,0
			41.2677990000001,-72.9008709999998,0
			41.2679630000002,-72.901031,0
			41.2691650000002,-72.9022219999999,0
			41.2694440000002,-72.902496,0
			41.2694440000002,-72.9033359999999,0
			41.2697220000001,-72.9038929999999,0
			41.2705570000001,-72.9047239999999,0
			41.2713890000002,-72.904999,0
			41.2716670000001,-72.9052809999999,0
			41.2724990000002,-72.904442,0
			41.2727780000001,-72.904442,0
			41.273335,-72.9038929999999,0
			41.2738270000001,-72.9026489999999,0
			41.2738880000002,-72.902496,0
			41.2741660000001,-72.902496,0
			41.2743640000001,-72.9025959999999,0
			41.2752760000001,-72.9030529999999,0
			41.2758330000001,-72.9030529999999,0
			41.2761120000001,-72.9033359999999,0
			41.2775,-72.9033359999999,0
			41.2783320000001,-72.90361,0
			41.2786100000001,-72.9033359999999,0
			41.2791670000001,-72.9038929999999,0
			41.279999,-72.9038929999999,0
			41.2802770000001,-72.904167,0
			41.280834,-72.904167,0
			41.2811130000001,-72.9047239999999,0
			41.2813870000002,-72.9047239999999,0
			41.2816660000001,-72.904999,0
			41.2819440000001,-72.904999,0
			41.282223,-72.9052809999999,0
			41.2825010000001,-72.9052809999999,0
			41.2827760000001,-72.9055559999999,0
			41.2836110000001,-72.9055559999999,0
			41.2838900000001,-72.90583,0
			41.2844430000001,-72.9055559999999,0
			41.2847210000002,-72.9055559999999,0
			41.285557,-72.904999,0
			41.2861100000001,-72.904999,0
			41.2866670000002,-72.9052809999999,0
			41.287498,-72.9052809999999,0
			41.2883340000001,-72.9055559999999,0
			41.2891650000001,-72.9063869999999,0
			41.2891650000001,-72.906944,0
			41.289722,-72.9072189999999,0
			41.2900010000002,-72.9072189999999,0
			41.2902790000001,-72.9075009999999,0
			41.2905540000001,-72.9075009999999,0
			41.290993,-72.9074249999999,0
			41.2913360000002,-72.9071809999999,0
			41.292023,-72.9065479999999,0
			41.292221,-72.9065479999999,0
			41.2919430000001,-72.9061129999999,0
			41.292221,-72.90583,0
			41.292221,-72.9055559999999,0
			41.2925000000002,-72.9052809999999,0
			41.293056,-72.9052809999999,0
			41.29361,-72.90583,0
			41.2938880000001,-72.90583,0
			41.2952770000001,-72.904442,0
			41.2952770000001,-72.904167,0
			41.295555,-72.9038929999999,0
			41.2958340000002,-72.9038929999999,0
			41.2966650000002,-72.9030529999999,0
			41.2966650000002,-72.902779,0
			41.296944,-72.902496,0
			41.2972220000001,-72.902496,0
			41.298054,-72.902779,0
			41.2986110000001,-72.902779,0
			41.298889,-72.902496,0
			41.298889,-72.901947,0
			41.2991680000002,-72.901665,0
			41.2991680000002,-72.900002,0
			41.298889,-72.8997189999999,0
			41.298889,-72.898331,0
			41.2991680000002,-72.8980559999999,0
			41.2991680000002,-72.897781,0
			41.2997210000001,-72.896942,0
			41.3008350000001,-72.8955539999999,0
			41.301388,-72.894447,0
			41.3016660000001,-72.891113,0
			41.3019450000001,-72.8908309999998,0
			41.3019450000001,-72.8905559999999,0
			41.3025020000002,-72.889999,0
			41.3030550000001,-72.889999,0
			41.3034440000001,-72.88958,0
			41.3038020000001,-72.88942,0
			41.3041650000001,-72.889168,0
			41.3043630000001,-72.889168,0
			41.304722,-72.889168,0
			41.3050000000001,-72.8888849999999,0
			41.3057630000001,-72.888832,0
			41.3061100000001,-72.888611,0
			41.3069460000002,-72.888611,0
			41.3077770000002,-72.887779,0
			41.3080560000001,-72.887779,0
			41.3091660000002,-72.8866649999999,0
			41.309383,-72.8864289999999,0
			41.3094440000001,-72.8861079999999,0
			41.3100010000002,-72.8855589999999,0
			41.3100010000002,-72.8852769999999,0
			41.3105550000001,-72.8847199999999,0
			41.3105550000001,-72.884445,0
			41.3108330000001,-72.8841629999999,0
			41.3108330000001,-72.8838879999999,0
			41.3119430000001,-72.8827739999999,0
			41.3122220000001,-72.8827739999999,0
			41.312778,-72.8822249999999,0
			41.3130570000001,-72.8822249999999,0
			41.3133320000001,-72.8819429999999,0
			41.3138890000001,-72.8824999999999,0
			41.3141670000001,-72.8824999999999,0
			41.3144450000001,-72.8827739999999,0
			41.3149990000002,-72.8827739999999,0
			41.315277,-72.8830569999999,0
			41.3155560000001,-72.8830569999999,0
			41.3158340000002,-72.8833309999999,0
			41.3180540000001,-72.8833309999999,0
			41.3183330000002,-72.883614,0
			41.318611,-72.883614,0
			41.3188900000001,-72.8838879999999,0
			41.3191680000001,-72.8838879999999,0
			41.3197210000001,-72.884445,0
			41.3197210000001,-72.8847199999999,0
			41.3202780000001,-72.8852769999999,0
			41.3202780000001,-72.8866649999999,0
			41.3205570000001,-72.886948,0
			41.3205570000001,-72.8872219999999,0
			41.3205180000001,-72.8876569999999,0
			41.3203960000001,-72.888336,0
			41.3200610000001,-72.888611,0
			41.3191680000001,-72.887779,0
			41.3188900000001,-72.887779,0
			41.318611,-72.8874969999999,0
			41.3180540000001,-72.8874969999999,0
			41.31778,-72.8872219999999,0
			41.3169440000001,-72.8872219999999,0
			41.3166660000001,-72.886948,0
			41.3158340000002,-72.886948,0
			41.3155560000001,-72.8866649999999,0
			41.3138890000001,-72.8866649999999,0
			41.3136100000002,-72.8868639999999,0
			41.3132740000001,-72.886826,0
			41.3130570000001,-72.886948,0
			41.312778,-72.886948,0
			41.3119430000001,-72.887779,0
			41.3116680000001,-72.887779,0
			41.3113900000001,-72.8880539999999,0
			41.3111110000002,-72.8880539999999,0
			41.3108330000001,-72.888336,0
			41.3105550000001,-72.888336,0
			41.3102760000002,-72.888611,0
			41.3100010000002,-72.888611,0
			41.3097230000001,-72.888573,0
			41.3091850000001,-72.888924,0
			41.3091050000001,-72.889,0
			41.308971,-72.889,0
			41.3085710000001,-72.8893199999999,0
			41.3083340000001,-72.8894809999999,0
			41.3074990000001,-72.889999,0
			41.3072200000001,-72.890236,0
			41.3070640000001,-72.8905109999999,0
			41.3067670000001,-72.890709,0
			41.3066670000002,-72.890907,0
			41.3061870000001,-72.8910289999999,0
			41.3058320000002,-72.8911509999999,0
			41.3046460000001,-72.8915019999998,0
			41.3037870000001,-72.8915629999999,0
			41.3036230000002,-72.891609,0
			41.3027760000001,-72.891945,0
			41.302223,-72.895836,0
			41.3019450000001,-72.896111,0
			41.301388,-72.897499,0
			41.301109,-72.897781,0
			41.301109,-72.8991699999999,0
			41.3008350000001,-72.900276,0
			41.3008540000001,-72.9012299999999,0
			41.3009720000001,-72.9014129999999,0
			41.3016660000001,-72.902496,0
			41.3019450000001,-72.902496,0
			41.3019450000001,-72.9022219999999,0
			41.302223,-72.901947,0
			41.3027760000001,-72.901947,0
			41.3030550000001,-72.9022219999999,0
			41.3030550000001,-72.90361,0
			41.3036120000002,-72.904167,0
			41.3036120000002,-72.9047239999999,0
			41.302223,-72.9061129999999,0
			41.301109,-72.9061129999999,0
			41.3005560000001,-72.9055559999999,0
			41.2997210000001,-72.9047239999999,0
			41.299484,-72.9047239999999,0
			41.2975010000001,-72.906105,0
			41.2972220000001,-72.9066699999999,0
			41.296944,-72.906944,0
			41.296944,-72.9075009999999,0
			41.2966650000002,-72.907776,0
			41.2966650000002,-72.9080579999999,0
			41.2963910000001,-72.9083329999999,0
			41.2963910000001,-72.908607,0
			41.2966650000002,-72.9088899999999,0
			41.2963910000001,-72.909164,0
			41.2966650000002,-72.9094469999999,0
			41.2966650000002,-72.9097209999999,0
			41.296944,-72.9100039999999,0
			41.296944,-72.9103849999999,0
			41.296944,-72.9105529999999,0
			41.2966650000002,-72.9108349999999,0
			41.2966650000002,-72.911942,0
			41.2963910000001,-72.9136119999999,0
			41.2963520000001,-72.9139709999999,0
			41.2963520000001,-72.9141689999999,0
			41.2966650000002,-72.9147189999999,0
			41.2967030000002,-72.9149629999999,0
			41.2967030000002,-72.9150769999999,0
			41.2967000000001,-72.9155959999999,0
			41.2961120000001,-72.9161149999999,0
			41.2958340000002,-72.9161149999999,0
			41.295555,-72.9163889999999,0
			41.2952770000001,-72.9163889999999,0
			41.2949980000001,-72.9166639999999,0
			41.294724,-72.9166639999999,0
			41.294445,-72.9169459999998,0
			41.294205,-72.916985,0
			41.294048,-72.9173429999999,0
			41.293507,-72.91774,0
			41.293213,-72.9180979999999,0
			41.293114,-72.9183729999999,0
			41.2927780000001,-72.9186099999999,0
			41.2925000000002,-72.9183349999999,0
			41.292221,-72.9186099999999,0
			41.292221,-72.918892,0
			41.2919430000001,-72.9191669999999,0
			41.2916680000001,-72.9191669999999,0
			41.2913890000001,-72.919724,0
			41.2894480000001,-72.9214709999999,0
			41.2887920000002,-72.9216309999999,0
			41.2888570000001,-72.9223399999999,0
			41.2874410000001,-72.9227749999999,0
			41.2869450000001,-72.9227749999999,0
			41.2850800000002,-72.924408,0
			41.2847210000002,-72.924721,0
			41.2838900000001,-72.924721,0
			41.2836110000001,-72.9250029999999,0
			41.283333,-72.9252779999999,0
			41.283054,-72.9255519999999,0
			41.2826420000001,-72.9269409999999,0
			41.282223,-72.927223,0
			41.2819440000001,-72.927223,0
			41.2813870000002,-72.92778,0
			41.2811130000001,-72.92778,0
			41.2805560000002,-72.9283369999999,0
			41.2803000000001,-72.928886,0
			41.2802770000001,-72.930557,0
			41.2802770000001,-72.931114,0
			41.2805560000002,-72.931946,0
			41.2805560000002,-72.93222,0
			41.2809750000002,-72.9326399999999,0
			41.2811130000001,-72.932777,0
			41.2816660000001,-72.933891,0
			41.2816660000001,-72.9358369999999,0
			41.282227,-72.9366609999999,0
			41.2816660000001,-72.937225,0
			41.2813870000002,-72.9374999999999,0
			41.2805560000002,-72.938057,0
			41.2799610000001,-72.938217,0
			41.279385,-72.938171,0
			41.2791060000001,-72.938171,0
			41.2787700000002,-72.937897,0
			41.2781140000001,-72.937263,0
			41.2777290000002,-72.936844,0
			41.2772220000002,-72.936348,0
			41.2769430000001,-72.936111,0
			41.276669,-72.9366679999999,0
			41.27639,-72.936386,0
			41.2761120000001,-72.936386,0
			41.2758330000001,-72.936111,0
			41.2750020000001,-72.936111,0
			41.2747500000001,-72.9358669999999,0
			41.2746350000002,-72.9358599999999,0
			41.2744450000001,-72.9358369999999,0
			41.2741660000001,-72.936111,0
			41.2738880000002,-72.9358369999999,0
			41.2724990000002,-72.9358369999999,0
			41.2722210000001,-72.935555,0
			41.2719460000001,-72.934723,0
			41.2716670000001,-72.9344479999999,0
			41.2713890000002,-72.933891,0
			41.2711110000001,-72.933891,0
			41.2708320000001,-72.9336089999999,0
			41.2693060000001,-72.9310379999999,0
			41.2687300000001,-72.9310759999999,0
			41.2680550000002,-72.930595,0
			41.2672230000001,-72.9299999999999,0
			41.2666660000002,-72.930557,0
			41.2666660000002,-72.931114,0
			41.2663880000001,-72.931389,0
			41.2663880000001,-72.93222,0
			41.2661090000001,-72.9325029999999,0
			41.2655560000002,-72.9325029999999,0
			41.2652780000001,-72.93222,0
			41.2649990000001,-72.93222,0
			41.2647210000002,-72.931946,0
			41.2644460000002,-72.931946,0
			41.2641680000001,-72.9316639999999,0
			41.2638890000001,-72.931946,0
			41.263611,-72.931946,0
			41.2627790000001,-72.932777,0
			41.2627790000001,-72.933052,0
			41.2622220000002,-72.9336089999999,0
			41.2622220000002,-72.933891,0
			41.2613910000002,-72.934723,0
			41.261112,-72.934723,0
			41.2608340000001,-72.9349979999999,0
			41.2605550000001,-72.9349979999999,0
			41.259998,-72.935555,0
			41.2594450000001,-72.937225,0
			41.259167,-72.9374999999999,0
			41.2588880000002,-72.939445,0
			41.2588880000002,-72.941109,0
			41.2586100000001,-72.941391,0
			41.2580950000001,-72.942146,0
			41.2578010000001,-72.9427799999999,0
			41.2576180000001,-72.943687,0
			41.2575800000001,-72.9441219999999,0
			41.2572210000001,-72.945274,0
			41.2571830000002,-72.945557,0
			41.2571030000001,-72.9463649999999,0
			41.255833,-72.9502789999999,0
			41.255833,-72.950836,0
			41.2561110000001,-72.9511109999999,0
			41.2555540000002,-72.9516679999999,0
			41.2555540000002,-72.9519419999999,0
			41.2552800000001,-72.9522249999998,0
			41.2552800000001,-72.9530559999999,0
			41.2550010000001,-72.9530559999999,0
			41.2547230000002,-72.9538879999999,0
			41.254444,-72.95417,0
			41.2547230000002,-72.9544449999999,0
			41.254444,-72.95472,0
			41.2544630000002,-72.9552379999999,0
			41.2542800000001,-72.955597,0
			41.2538870000001,-72.9563899999998,0
			41.253334,-72.9563899999998,0
			41.2527770000001,-72.9569469999999,0
			41.2527770000001,-72.9572219999998,0
			41.2524990000001,-72.9574969999999,0
			41.2522240000002,-72.9577789999999,0
			41.251945,-72.9580539999999,0
			41.251945,-72.9611129999999,0
			41.2516670000001,-72.9613879999998,0
			41.2513890000002,-72.96167,0
			41.2513890000002,-72.9619449999999,0
			41.25111,-72.9622189999999,0
			41.2508320000001,-72.9622189999999,0
			41.2502780000001,-72.9627759999999,0
			41.2497220000001,-72.9627759999999,0
			41.2494430000002,-72.9630579999999,0
			41.2490270000002,-72.9630579999999,0
			41.248611,-72.9630579999999,0
			41.248055,-72.9636079999999,0
			41.247776,-72.9636079999999,0
			41.2471850000002,-72.9643629999999,0
			41.247063,-72.964844,0
			41.2470400000001,-72.9653169999999,0
			41.2470250000001,-72.965591,0
			41.2464260000001,-72.9659879999999,0
			41.246185,-72.9659349999999,0
			41.2459830000002,-72.9658969999999,0
			41.2456820000002,-72.966301,0
			41.245556,-72.9669419999999,0
			41.2456170000001,-72.9672619999998,0
			41.2455180000001,-72.967545,0
			41.245277,-72.9678189999999,0
			41.244781,-72.968292,0
			41.244446,-72.9687729999999,0
			41.2440450000001,-72.9689709999998,0
			41.2436490000002,-72.969757,0
			41.243057,-72.9697189999999,0
			41.2427790000002,-72.9697189999999,0
			41.2425000000001,-72.970001,0
			41.2405850000001,-72.970001,0
			41.2402530000001,-72.970245,0
			41.2400020000001,-72.9702759999999,0
			41.2397580000001,-72.9706039999999,0
			41.2394450000002,-72.970558,0
			41.2391660000001,-72.970833,0
			41.2388880000001,-72.970833,0
			41.2386090000001,-72.9711069999999,0
			41.2369460000002,-72.971664,0
			41.2366680000001,-72.971664,0
			41.235279,-72.9730529999999,0
			41.235279,-72.973335,0
			41.2350010000001,-72.97361,0
			41.2347220000001,-72.9738919999999,0
			41.2341650000001,-72.9744419999999,0
			41.2336120000002,-72.974998,0
			41.2336120000002,-72.9752809999999,0
			41.2333340000001,-72.975555,0
			41.2333340000001,-72.9761119999999,0
			41.2334140000001,-72.9763109999999,0
			41.2334140000001,-72.976707,0
			41.2332570000001,-72.9769819999999,0
			41.2333180000002,-72.9775769999999,0
			41.2331350000001,-72.9777759999999,0
			41.2330550000001,-72.9780579999999,0
			41.2330550000001,-72.978333,0
			41.2333340000001,-72.9786149999999,0
			41.2333340000001,-72.9788889999999,0
			41.2338910000001,-72.9794459999999,0
			41.2338910000001,-72.979721,0
			41.2341650000001,-72.980003,0
			41.234203,-72.98143,0
			41.2344440000001,-72.981667,0
			41.2344440000001,-72.9822239999999,0
			41.2347220000001,-72.982498,0
			41.2347220000001,-72.9830549999999,0
			41.235279,-72.9836119999999,0
			41.235279,-72.9838869999999,0
			41.2355540000001,-72.9844439999999,0
			41.2355540000001,-72.9847259999999,0
			41.235279,-72.985001,0
			41.2358320000002,-72.985832,0
			41.2358320000002,-72.986115,0
			41.2355540000001,-72.9863889999999,0
			41.2350010000001,-72.9863889999999,0
			41.2347220000001,-72.986664,0
			41.2344700000001,-72.986664,0
			41.2338910000001,-72.986664,0
			41.2336120000002,-72.9869459999999,0
			41.2333340000001,-72.9869459999999,0
			41.2330550000001,-72.9872209999999,0
			41.2322240000001,-72.9872209999999,0
			41.2319450000001,-72.9875029999998,0
			41.2313880000002,-72.9875029999998,0
			41.2311100000001,-72.9877779999999,0
			41.2305560000001,-72.9877779999999,0
			41.2300000000001,-72.9883349999998,0
			41.2297210000001,-72.9883349999998,0
			41.2294430000002,-72.9886089999999,0
			41.2291680000002,-72.9886089999999,0
			41.2288890000002,-72.9888919999999,0
			41.2283330000002,-72.9894409999999,0
			41.2275010000001,-72.99028,0
			41.2269440000002,-72.99028,0
			41.226665,-72.9905549999999,0
			41.2263870000001,-72.9905549999999,0
			41.2261120000001,-72.9908369999999,0
			41.2258340000002,-72.9908369999999,0
			41.225555,-72.9908369999999,0
			41.2252770000001,-72.9913859999999,0
			41.2243690000001,-72.9910659999999,0
			41.2230570000001,-72.9913859999999,0
			41.222816,-72.9921039999999,0
			41.2230570000001,-72.9924999999998,0
			41.223213,-72.9926609999999,0
			41.2233540000001,-72.9929349999999,0
			41.223595,-72.9930569999999,0
			41.2236100000002,-72.993614,0
			41.2230570000001,-72.994164,0
			41.2230570000001,-72.9947199999999,0
			41.2233730000001,-72.9950179999999,0
			41.223331,-72.9951399999999,0
			41.223331,-72.9958339999999,0
			41.223011,-72.9960939999999,0
			41.2227780000001,-72.9963909999999,0
			41.222816,-72.9966809999999,0
			41.2225,-72.996948,0
			41.2225,-72.9976269999999,0
			41.2225,-72.9980549999999,0
			41.2227780000001,-72.9983369999999,0
			41.222221,-72.9988859999999,0
			41.222221,-72.9991679999999,0
			41.2222670000001,-72.9999999999999,0
			41.2227780000001,-73.0005569999999,0
			41.2230570000001,-73.0008319999999,0
			41.2230570000001,-73.0013889999999,0
			41.2227780000001,-73.0016629999998,0
			41.2227780000001,-73.0022199999999,0
			41.2225,-73.0025019999999,0
			41.2225,-73.002777,0
			41.2216680000001,-73.003609,0
			41.22139,-73.003609,0
			41.2211110000002,-73.003891,0
			41.2208330000001,-73.003891,0
			41.2205540000001,-73.0041659999999,0
			41.2202760000002,-73.0041659999999,0
			41.220001,-73.004448,0
			41.2197570000001,-73.004372,0
			41.219688,-73.0045699999999,0
			41.2195130000001,-73.004723,0
			41.2192920000002,-73.004868,0
			41.2190250000001,-73.0050049999999,0
			41.2187310000001,-73.00515,0
			41.2184140000002,-73.0052719999999,0
			41.2180750000002,-73.005394,0
			41.2177200000001,-73.005524,0
			41.2173000000002,-73.005569,0
			41.2168730000002,-73.0056529999999,0
			41.2164540000002,-73.005791,0
			41.2159920000001,-73.0058819999999,0
			41.215534,-73.0061039999999,0
			41.2150540000001,-73.0063099999999,0
			41.2145310000002,-73.0064699999999,0
			41.2140270000001,-73.00666,0
			41.213558,-73.006943,0
			41.2130550000001,-73.007164,0
			41.2124710000001,-73.0072249999999,0
			41.2118840000001,-73.0072709999999,0
			41.2113420000001,-73.0074079999998,0
			41.210808,-73.007576,0
			41.2103270000002,-73.0079269999999,0
			41.2099150000002,-73.0083999999999,0
			41.209595,-73.00898,0
			41.2092170000002,-73.009537,0
			41.2088430000001,-73.0100859999999,0
			41.2084050000001,-73.010574,0
			41.2079430000001,-73.011024,0
			41.2074170000001,-73.0113909999999,0
			41.20689,-73.0117339999999,0
			41.2064210000001,-73.0121379999999,0
			41.2060050000002,-73.012604,0
			41.20557,-73.0130389999999,0
			41.2051660000002,-73.0135119999999,0
			41.2048000000001,-73.014015,0
			41.2045440000001,-73.0146099999999,0
			41.2043000000001,-73.0152129999999,0
			41.204189,-73.0159229999999,0
			41.2041630000002,-73.0166629999999,0
			41.2041320000001,-73.0174029999999,0
			41.2040290000001,-73.0181269999999,0
			41.2039720000002,-73.018829,0
			41.204056,-73.0194629999999,0
			41.204121,-73.0196759999999,0
			41.2042270000001,-73.020027,0
			41.204601,-73.020393,0
			41.2051390000001,-73.0205839999999,0
			41.2056620000002,-73.020844,0
			41.2061270000002,-73.021179,0
			41.2064360000001,-73.0216669999999,0
			41.2066990000002,-73.0222089999999,0
			41.2069470000001,-73.022758,0
			41.207161,-73.023315,0
			41.2072330000001,-73.0239489999998,0
			41.2073100000001,-73.0245819999999,0
			41.207451,-73.025185,0
			41.2074810000001,-73.025818,0
			41.2074320000001,-73.0264589999999,0
			41.2073590000001,-73.0271069999999,0
			41.2072560000001,-73.0277179999999,0
			41.2072180000002,-73.028305,0
			41.207161,-73.0288699999999,0
			41.207008,-73.029366,0
			41.206959,-73.029892,0
			41.2069970000002,-73.030426,0
			41.2071380000001,-73.030968,0
			41.2072110000001,-73.0315319999999,0
			41.2072260000001,-73.0321039999999,0
			41.2072070000002,-73.0326689999999,0
			41.2070850000002,-73.033195,0
			41.2067600000001,-73.03363,0
			41.2064020000001,-73.034058,0
			41.206055,-73.034508,0
			41.2057190000001,-73.0349879999999,0
			41.2053910000001,-73.035431,0
			41.2050020000001,-73.0359039999999,0
			41.204617,-73.0363389999999,0
			41.2041780000002,-73.036728,0
			41.2037160000001,-73.037094,0
			41.2032090000001,-73.0374149999999,0
			41.2026790000001,-73.037651,0
			41.20224,-73.0380329999999,0
			41.201965,-73.0384599999999,0
			41.2021640000002,-73.038849,0
			41.202564,-73.0391769999999,0
			41.2029880000001,-73.0395279999999,0
			41.2033810000001,-73.039925,0
			41.2037890000001,-73.040306,0
			41.2041780000002,-73.0407099999999,0
			41.2045710000002,-73.0411,0
			41.2049640000002,-73.041481,0
			41.2053300000001,-73.0418699999999,0
			41.2057080000001,-73.042229,0
			41.20607,-73.0425799999999,0
			41.2064090000002,-73.0429529999999,0
			41.2067600000001,-73.0432969999999,0
			41.2071300000002,-73.043602,0
			41.2074970000002,-73.043892,0
			41.2078320000002,-73.044182,0
			41.2081180000002,-73.044518,0
			41.208363,-73.0448679999999,0
			41.2086180000002,-73.0451889999999,0
			41.2088810000001,-73.0454789999999,0
			41.2091480000001,-73.045746,0
			41.2094460000001,-73.0461119999999,0
			41.2097210000001,-73.046387,0
			41.209999,-73.0461119999999,0
			41.210278,-73.0461119999999,0
			41.2105560000001,-73.0458299999999,0
			41.2108350000001,-73.0458299999999,0
			41.2113880000001,-73.0452799999999,0
			41.2112960000001,-73.0450519999999,0
			41.2115360000002,-73.044609,0
			41.2118760000001,-73.0443339999999,0
			41.2121770000001,-73.0440289999999,0
			41.21244,-73.0437009999999,0
			41.2127530000002,-73.0434419999999,0
			41.2130470000002,-73.04319,0
			41.213329,-73.042931,0
			41.2136000000001,-73.0426859999998,0
			41.213848,-73.042458,0
			41.2140660000001,-73.0422359999999,0
			41.2141690000001,-73.0419459999999,0
			41.215557,-73.040558,0
			41.215557,-73.0402759999999,0
			41.2163890000001,-73.0394439999999,0
			41.2163890000001,-73.039169,0
			41.2169460000002,-73.0386119999999,0
			41.2169460000002,-73.0383299999999,0
			41.2174990000001,-73.0377809999999,0
			41.2174990000001,-73.0374979999999,0
			41.2183340000001,-73.0366669999999,0
			41.2186130000001,-73.0366669999999,0
			41.2188870000001,-73.036392,0
			41.219166,-73.036392,0
			41.220001,-73.0355529999999,0
			41.2202760000002,-73.0355529999999,0
			41.2208330000001,-73.035004,0
			41.2211110000002,-73.035004,0
			41.22139,-73.0347209999999,0
			41.2219430000001,-73.0347209999999,0
			41.222221,-73.035004,0
			41.223331,-73.035004,0
			41.2236100000002,-73.0352779999999,0
			41.2236100000002,-73.0355529999999,0
			41.2230570000001,-73.0355529999999,0
			41.2227780000001,-73.0358349999999,0
			41.2225,-73.0358349999999,0
			41.2216680000001,-73.0366669999999,0
			41.22139,-73.0366669999999,0
			41.2205540000001,-73.0374979999999,0
			41.2202760000002,-73.0374979999999,0
			41.2198680000002,-73.037941,0
			41.2194710000001,-73.0383759999999,0
			41.2191120000002,-73.0387499999999,0
			41.218735,-73.0388179999999,0
			41.218376,-73.038719,0
			41.2180210000001,-73.0388719999999,0
			41.217743,-73.0395359999999,0
			41.218056,-73.0397189999999,0
			41.218056,-73.041389,0
			41.2177770000002,-73.0416639999999,0
			41.2177770000002,-73.042503,0
			41.2169460000002,-73.043335,0
			41.216667,-73.043335,0
			41.2163890000001,-73.0436099999999,0
			41.215557,-73.0436099999999,0
			41.2152790000001,-73.043892,0
			41.2150000000001,-73.0436099999999,0
			41.214443,-73.044167,0
			41.214443,-73.044724,0
			41.2138900000001,-73.0452799999999,0
			41.2138900000001,-73.045555,0
			41.2136120000002,-73.0458299999999,0
			41.213333,-73.0458299999999,0
			41.2130550000001,-73.0461119999999,0
			41.2127760000001,-73.0461119999999,0
			41.212502,-73.046387,0
			41.2122310000001,-73.0467609999999,0
			41.2120970000001,-73.047562,0
			41.212227,-73.048103,0
			41.2123680000001,-73.0485609999998,0
			41.2122610000001,-73.0489809999999,0
			41.2125050000001,-73.049721,0
			41.212543,-73.0501559999999,0
			41.2124210000001,-73.050598,0
			41.2125590000001,-73.0512309999999,0
			41.2127760000001,-73.051392,0
			41.213333,-73.0519409999999,0
			41.213333,-73.052223,0
			41.2136120000002,-73.052498,0
			41.2136120000002,-73.0527799999999,0
			41.2147220000001,-73.053886,0
			41.2161100000001,-73.053886,0
			41.2163890000001,-73.0541689999999,0
			41.216667,-73.0541689999999,0
			41.2169460000002,-73.0544429999999,0
			41.2174990000001,-73.0544429999999,0
			41.2177770000002,-73.0547259999998,0
			41.218056,-73.0547259999998,0
			41.2183340000001,-73.0549999999999,0
			41.2186130000001,-73.0549999999999,0
			41.2186130000001,-73.0552749999999,0
			41.2183340000001,-73.055557,0
			41.2183340000001,-73.055832,0
			41.218056,-73.0561139999999,0
			41.2174990000001,-73.0561139999999,0
			41.2172240000001,-73.055832,0
			41.2161100000001,-73.055832,0
			41.215832,-73.0561139999999,0
			41.2141690000001,-73.0561139999999,0
			41.2138900000001,-73.055832,0
			41.2138900000001,-73.0549999999999,0
			41.2136120000002,-73.0547259999998,0
			41.2136340000001,-73.0545649999999,0
			41.2135730000002,-73.053886,0
			41.2132340000002,-73.0532909999999,0
			41.2123600000002,-73.053375,0
			41.2123070000001,-73.0521849999998,0
			41.2117690000001,-73.0517039999999,0
			41.2118070000001,-73.0511089999999,0
			41.2118300000002,-73.0501249999999,0
			41.2112920000001,-73.049927,0
			41.2110710000001,-73.049965,0
			41.2108350000001,-73.0500029999999,0
			41.2105560000001,-73.0501939999999,0
			41.210312,-73.0504459999999,0
			41.2101780000001,-73.050583,0
			41.2101400000001,-73.0513,0
			41.2099460000001,-73.0520709999999,0
			41.2098430000001,-73.0525969999998,0
			41.2094080000002,-73.0533519999998,0
			41.2090840000002,-73.0539469999999,0
			41.208874,-73.054634,0
			41.2086110000001,-73.0552749999999,0
			41.2083360000001,-73.0559009999999,0
			41.2080570000001,-73.0565109999999,0
			41.207779,-73.0571139999999,0
			41.2075,-73.057716,0
			41.2072110000001,-73.058296,0
			41.206875,-73.058838,0
			41.2065010000002,-73.0593259999999,0
			41.2061350000001,-73.0597839999999,0
			41.2058600000001,-73.0603409999999,0
			41.2055360000001,-73.0607679999999,0
			41.205181,-73.0611879999999,0
			41.2047620000002,-73.0615309999999,0
			41.2043650000002,-73.061874,0
			41.2039340000001,-73.0621489999999,0
			41.2034570000002,-73.0623169999999,0
			41.2030560000001,-73.0625919999998,0
			41.2026790000001,-73.0628659999999,0
			41.2023050000001,-73.0631029999999,0
			41.2019810000001,-73.0633539999999,0
			41.2016940000001,-73.0636059999999,0
			41.2015650000001,-73.063705,0
			41.201424,-73.0638199999999,0
			41.2011110000001,-73.063927,0
			41.2008740000002,-73.0641249999999,0
			41.2006840000001,-73.064339,0
			41.2005540000002,-73.064583,0
			41.2004550000001,-73.0648189999999,0
			41.2004010000001,-73.0650329999999,0
			41.2004850000001,-73.065285,0
			41.2002940000002,-73.0655139999999,0
			41.19949,-73.065704,0
			41.1990740000001,-73.065758,0
			41.1986540000001,-73.0658039999998,0
			41.198032,-73.066177,0
			41.1977420000002,-73.066704,0
			41.197491,-73.0672379999999,0
			41.1972240000001,-73.0677639999999,0
			41.1969530000001,-73.0682749999999,0
			41.196716,-73.0688019999998,0
			41.1965680000001,-73.0693509999999,0
			41.196407,-73.069878,0
			41.1963390000001,-73.070419,0
			41.196529,-73.0709459999999,0
			41.196907,-73.0714039999999,0
			41.1972470000001,-73.0718539999999,0
			41.1973270000001,-73.0722959999998,0
			41.1970630000001,-73.072708,0
			41.1966740000001,-73.0731119999999,0
			41.1964040000001,-73.0736079999999,0
			41.1965030000002,-73.0741959999999,0
			41.196381,-73.0748829999999,0
			41.196018,-73.0755229999999,0
			41.195595,-73.0761409999999,0
			41.1952250000001,-73.0768049999999,0
			41.194889,-73.077454,0
			41.1947710000001,-73.078201,0
			41.1945840000002,-73.078918,0
			41.194378,-73.0794679999998,0
			41.1940960000002,-73.079796,0
			41.1937980000002,-73.0801089999999,0
			41.193539,-73.0804899999999,0
			41.1932560000001,-73.0808719999999,0
			41.1930350000001,-73.0813059999999,0
			41.192772,-73.081711,0
			41.1924860000001,-73.0820999999999,0
			41.192169,-73.082458,0
			41.1918260000001,-73.082779,0
			41.191486,-73.083115,0
			41.1912190000002,-73.0835189999999,0
			41.1909870000001,-73.0839769999999,0
			41.1906470000001,-73.084358,0
			41.1902890000001,-73.0847319999999,0
			41.189949,-73.0851359999999,0
			41.1896780000002,-73.085365,0
			41.1895480000001,-73.0854719999999,0
			41.1892050000001,-73.0858459999999,0
			41.1888810000002,-73.086243,0
			41.188541,-73.086624,0
			41.1881790000002,-73.08699,0
			41.187862,-73.08741,0
			41.1875690000001,-73.0878749999998,0
			41.1872480000002,-73.0883249999999,0
			41.1869390000001,-73.088791,0
			41.1865880000001,-73.0892259999999,0
			41.1861690000001,-73.089577,0
			41.185799,-73.0899889999999,0
			41.1854250000002,-73.090408,0
			41.185009,-73.0907969999999,0
			41.184509,-73.09111,0
			41.1839750000001,-73.0913929999999,0
			41.1835100000002,-73.091782,0
			41.1831090000001,-73.0922389999999,0
			41.1827510000001,-73.0927199999999,0
			41.1823840000001,-73.0931629999999,0
			41.181999,-73.0935589999999,0
			41.181606,-73.093948,0
			41.1811940000001,-73.0943449999999,0
			41.1807210000002,-73.0946959999999,0
			41.1803590000001,-73.0949329999999,0
			41.1802250000002,-73.0950159999999,0
			41.1800160000001,-73.0951839999999,0
			41.1797680000002,-73.0953829999999,0
			41.1793440000001,-73.0957569999999,0
			41.1789020000001,-73.0960539999999,0
			41.1784100000001,-73.0962519999999,0
			41.178047,-73.096619,0
			41.1777650000002,-73.0970459999999,0
			41.17749,-73.0974269999999,0
			41.177261,-73.097816,0
			41.1772230000001,-73.0980529999999,0
			41.1772230000001,-73.0983349999998,0
			41.1763880000001,-73.0991669999999,0
			41.1763880000001,-73.099442,0
			41.1761090000001,-73.0997239999999,0
			41.1761090000001,-73.1005549999999,0
			41.174446,-73.1022189999999,0
			41.1738890000001,-73.1022189999999,0
			41.1736110000001,-73.1025009999999,0
			41.1736110000001,-73.1027759999999,0
			41.173332,-73.1030579999999,0
			41.173332,-73.1033329999999,0
			41.1730540000001,-73.1036149999998,0
			41.1730540000001,-73.1038889999999,0
			41.1727790000001,-73.104164,0
			41.1727790000001,-73.1044459999999,0
			41.172222,-73.1050029999999,0
			41.172222,-73.1052779999999,0
			41.1719440000001,-73.1055529999999,0
			41.1719440000001,-73.1058349999999,0
			41.1716650000001,-73.1061099999999,0
			41.1716650000001,-73.1069409999999,0
			41.1719440000001,-73.1072239999999,0
			41.1719440000001,-73.1083299999999,0
			41.1716650000001,-73.1086119999999,0
			41.1716650000001,-73.1100009999999,0
			41.1712530000001,-73.110535,0
			41.1711620000001,-73.1106259999999,0
			41.177662,-73.1214599999999,0
			41.1853710000001,-73.1221389999999,0
			41.1880990000001,-73.121552,0
			41.1903800000002,-73.117897,0
		</coordinates>
	</polygon>
</kml>
