<?xml version="1.0" encoding="UTF-8"?>
<kml xmlns="http://earth.google.com/kml/2.2">
	<polygon id="USA_MO_Nodaway" samplingProbability="1">
		<coordinates>
			40.5790100100002,-95.2027358999999,0
			40.576671601,-95.038017273,0
			40.574840545,-94.9169464099999,0
			40.5725898740001,-94.7672500609999,0
			40.571441651,-94.632843017,0
			40.4723892220001,-94.6335067759999,0
			40.4723091130001,-94.61113739,0
			40.3856697080001,-94.611000061,0
			40.3853797920001,-94.6013259879999,0
			40.1258010860002,-94.609947205,0
			40.1300506600001,-95.0426177969999,0
			40.1309585570002,-95.0426483159999,0
			40.1309318540002,-95.0444564829999,0
			40.1313591010001,-95.0456695549998,0
			40.1327018740001,-95.0463333129999,0
			40.1336021420001,-95.0469589229999,0
			40.1344909680001,-95.0475921619999,0
			40.1344795230002,-95.048187255,0
			40.1340103150001,-95.0487670899999,0
			40.1339988700001,-95.0493774409999,0
			40.133541108,-95.049957276,0
			40.133071899,-95.0505371099999,0
			40.1326103220001,-95.0511322029998,0
			40.1325988770001,-95.051727296,0
			40.1325798040001,-95.0523376469998,0
			40.1330184940002,-95.052947998,0
			40.1339302070002,-95.0529861449999,0
			40.1339416500002,-95.0523757939999,0
			40.1344108590002,-95.0517959589999,0
			40.1344184870001,-95.0511932379998,0
			40.135349273,-95.050025939,0
			40.1358108520001,-95.0494384759999,0
			40.1367187500001,-95.049476623,0
			40.1376304630001,-95.0495071419999,0
			40.1385192870001,-95.0501403809999,0
			40.1385116590002,-95.0507431029999,0
			40.1380500800001,-95.0513229369999,0
			40.1371421820001,-95.0512924199999,0
			40.1366691600001,-95.051879883,0
			40.1357688900002,-95.0518493639999,0
			40.1357498170001,-95.0524368289999,0
			40.1352920530001,-95.0530319219999,0
			40.1352806100001,-95.0536270149998,0
			40.1352500910002,-95.0548324589998,0
			40.1356887820001,-95.0554504399999,0
			40.1361389150001,-95.05606842,0
			40.1370506280002,-95.0554962149999,0
			40.1370697020001,-95.054901122,0
			40.1379699710001,-95.0549316409999,0
			40.139331817,-95.0549774159999,0
			40.1402397150002,-95.0550231929999,0
			40.1407089240002,-95.0544280999999,0
			40.1411399850001,-95.0550460819999,0
			40.1406822210002,-95.0556259159999,0
			40.1397514350001,-95.056800841,0
			40.139739991,-95.0573959339999,0
			40.139270782,-95.057991027,0
			40.1383590690002,-95.0579528799999,0
			40.1383514410001,-95.058563232,0
			40.1383399960001,-95.0591583239999,0
			40.1387786860001,-95.0597763059999,0
			40.139678956,-95.060409545,0
			40.140579223,-95.0604400639999,0
			40.1405906690001,-95.0598373409999,0
			40.1414985660001,-95.0598831179998,0
			40.1419410700001,-95.060485839,0
			40.1432991030002,-95.060539246,0
			40.143760682,-95.0599517819999,0
			40.1455802930001,-95.0600204469999,0
			40.145568847,-95.0606231679999,0
			40.1468811040002,-95.0630722049999,0
			40.147628784,-95.0634307869999,0
			40.1478004460002,-95.0625076289999,0
			40.1478118900001,-95.0618972779999,0
			40.1482696540001,-95.061317443,0
			40.1482887270002,-95.060707092,0
			40.1483001700001,-95.060111999,0
			40.1483116160001,-95.0595169059999,0
			40.1492385870001,-95.058341981,0
			40.1501502990002,-95.0583724969998,0
			40.1505889900002,-95.058990479,0
			40.1510314950001,-95.0596084599999,0
			40.1514587410001,-95.0608291629999,0
			40.1509819030001,-95.0620193479999,0
			40.1509590150001,-95.0632171619999,0
			40.1504821770001,-95.064407348,0
			40.1509208680001,-95.065032959,0
			40.1509094250001,-95.0656280519999,0
			40.1518096920001,-95.0656585689999,0
			40.152729035,-95.065086365,0
			40.1532096870002,-95.063896179,0
			40.1536788950001,-95.0633163439999,0
			40.1541595470001,-95.062126161,0
			40.1555404670002,-95.060966492,0
			40.1560096740001,-95.0603866569999,0
			40.1568984980001,-95.061027527,0
			40.157791137,-95.0616607669999,0
			40.1582298280002,-95.062278748,0
			40.1595802310001,-95.0629272459999,0
			40.1600494380001,-95.062339783,0
			40.1600608840001,-95.0617370599999,0
			40.1596221930002,-95.061119079,0
			40.1600799570001,-95.060539246,0
			40.160549164,-95.0599517819999,0
			40.1614608770001,-95.0599822999999,0
			40.1618995670001,-95.0606002819999,0
			40.1618804940001,-95.0612030029999,0
			40.1623306280002,-95.061820984,0
			40.1632118240001,-95.0630569469999,0
			40.1641197210001,-95.0630874629999,0
			40.1650085450001,-95.0637207029999,0
			40.165920258,-95.06375122,0
			40.1654510510002,-95.0643386839999,0
			40.165439606,-95.064941405,0
			40.165420532,-95.065536498,0
			40.1658706660002,-95.0661621099999,0
			40.1663093570002,-95.0667800909999,0
			40.167671203,-95.066825866,0
			40.1685791030002,-95.0668563849999,0
			40.1690406800001,-95.0662765499999,0
			40.169971466,-95.065101623,0
			40.1740493770002,-95.065246582,0
			40.176269531,-95.067726136,0
			40.1789703370002,-95.068443299,0
			40.1825408940001,-95.071571351,0
			40.1888389600001,-95.07421112,0
			40.192020416,-95.0737228389999,0
			40.1942901600001,-95.0738067629999,0
			40.198421479,-95.0715408319999,0
			40.2020988460001,-95.0686569219999,0
			40.2080192560001,-95.06767273,0
			40.2098197930001,-95.0683364869998,0
			40.212051392,-95.070228576,0
			40.2143096930001,-95.0709075919999,0
			40.2183799740002,-95.071052552,0
			40.222480774,-95.0706024179999,0
			40.2256393440001,-95.0713195789999,0
			40.2270202640001,-95.0701599119999,0
			40.2293396000002,-95.0678329459999,0
			40.2302703860001,-95.066673279,0
			40.2330398560001,-95.064346313,0
			40.2362289430001,-95.063262939,0
			40.23984909,-95.0640029909999,0
			40.242069244,-95.066482545,0
			40.243412017,-95.0671310429998,0
			40.244739532,-95.068992615,0
			40.2446517950001,-95.073196412,0
			40.24597168,-95.075057984,0
			40.248241426,-95.0751419059999,0
			40.2505188000002,-95.074623109,0
			40.252368927,-95.0728759769999,0
			40.252849579,-95.0716857909999,0
			40.2551307680002,-95.0711669919999,0
			40.2564392100001,-95.073631287,0
			40.2554702770001,-95.0766067499999,0
			40.2558593750002,-95.079643249,0
			40.2581901550001,-95.076705932,0
			40.2609100340002,-95.0768127439999,0
			40.261470796,-95.1804885869999,0
			40.4793014530001,-95.177192688,0
			40.4792404180001,-95.2013778689998,0
			40.5790100100002,-95.2027358999999,0
		</coordinates>
	</polygon>
</kml>
