<?xml version="1.0" encoding="UTF-8"?>
<kml xmlns="http://earth.google.com/kml/2.2">
	<polygon id="USA_PA_Chester" samplingProbability="1">
		<coordinates>
			39.837860108,-75.5972595219999,0
			39.8350486760001,-75.6146392809999,0
			39.831409454,-75.6308059689999,0
			39.827030183,-75.646362305,0
			39.8268394470001,-75.646957398,0
			39.8200302130001,-75.666122436,0
			39.815589905,-75.6775207519999,0
			39.8074111940001,-75.6928176869999,0
			39.799121858,-75.7055816649999,0
			39.7912292480001,-75.717651368,0
			39.7865791330001,-75.7240295419999,0
			39.7845420850001,-75.726776123,0
			39.7750320440001,-75.7378311159999,0
			39.7653312690001,-75.7475967409998,0
			39.755958558,-75.7551116939999,0
			39.7477798470001,-75.761070252,0
			39.739311218,-75.766197205,0
			39.730991363,-75.769973755,0
			39.7230606090001,-75.7722702019999,0
			39.7230796820001,-75.7875213619999,0
			39.7229115890001,-75.9247172769999,0
			39.7228383880001,-75.984463392,0
			39.7228010000002,-76.0148089999999,0
			39.7226240000001,-76.0569609999999,0
			39.7225503030001,-76.074519852,0
			39.7222787970001,-76.1391600629999,0
			39.726211549,-76.1373367319999,0
			39.7279815670001,-76.1337203969999,0
			39.7279510500001,-76.130737305,0
			39.7265396120001,-76.1265716549999,0
			39.7242393490001,-76.123626709,0
			39.7260093690002,-76.118812561,0
			39.7300796500001,-76.1187286369999,0
			39.7332801820002,-76.1204681389999,0
			39.7364387510002,-76.119804383,0
			39.7368392940002,-76.1144180299999,0
			39.7349891670001,-76.111457824,0
			39.7318191540001,-76.112121583,0
			39.7286605840001,-76.1133728039999,0
			39.7268219000001,-76.1104202279999,0
			39.7253990180002,-76.1050567619999,0
			39.7285118110001,-76.099617004,0
			39.732559204,-76.0965499879999,0
			39.7361793510001,-76.09588623,0
			39.7380294800002,-76.0988388049999,0
			39.7398719790002,-76.101799011,0
			39.742141723,-76.1017532339999,0
			39.74485016,-76.1010971059999,0
			39.7447891240001,-76.0957183839999,0
			39.745189668,-76.090927124,0
			39.747421265,-76.0872879039999,0
			39.7537307740001,-76.084182739,0
			39.7591705330001,-76.0840682979999,0
			39.760940551,-76.0804443359999,0
			39.7626113890001,-76.0678405749999,0
			39.7644004830001,-76.0660171499999,0
			39.7671203610001,-76.065361024,0
			39.7707519530001,-76.0658874509999,0
			39.7734298710001,-76.0628433229999,0
			39.7752304080001,-76.0616073609999,0
			39.7788619990002,-76.0615386969998,0
			39.7801704400002,-76.0567169189999,0
			39.78194046,-76.053703308,0
			39.7846298210001,-76.050636291,0
			39.7900390620001,-76.04814148,0
			39.7963409430001,-76.044433593,0
			39.8026199340001,-76.037712098,0
			39.8080291750001,-76.035202026,0
			39.812961579,-76.0303115839999,0
			39.8175010690001,-76.0308227529999,0
			39.8206901560001,-76.031951904,0
			39.8246994020001,-76.026481629,0
			39.8260498050001,-76.0252532969999,0
			39.8301315310001,-76.025177001,0
			39.8310089120001,-76.0233612059999,0
			39.8318710330001,-76.019149781,0
			39.8336792000001,-76.0191116339999,0
			39.8377799990002,-76.020233154,0
			39.8464202890001,-76.023040771,0
			39.8518486030002,-76.0217285149999,0
			39.8536605840001,-76.0211029049999,0
			39.8545303340001,-76.0180816659999,0
			39.8540496820002,-76.016296387,0
			39.853099822,-76.0127181999999,0
			39.8530807490002,-76.01032257,0
			39.8544197090001,-76.0090866089999,0
			39.8666419990001,-76.0070419309999,0
			39.8711509710001,-76.005149842,0
			39.872951508,-76.003906249,0
			39.8738288880001,-76.0015029909999,0
			39.873352051,-75.999107362,0
			39.8715095520001,-75.9973525999999,0
			39.870128632,-75.9955825809999,0
			39.8696517950001,-75.9932022099999,0
			39.8705520630002,-75.992576599,0
			39.8718910230001,-75.9907531729999,0
			39.873210907,-75.987731934,0
			39.8745613100002,-75.9870986939999,0
			39.8768386850001,-75.9876632679999,0
			39.8800506600001,-75.9911804199999,0
			39.8827705380001,-75.9905166619999,0
			39.8868408210002,-75.989852906,0
			39.8927116390001,-75.987922668,0
			39.8949890150001,-75.988471986,0
			39.8977203380002,-75.990211487,0
			39.9009513850001,-75.994338989,0
			39.9027786250001,-75.9961013789999,0
			39.9236297620001,-75.9956665029999,0
			39.9259109490001,-75.9962158209999,0
			39.9272918710001,-75.997985839,0
			39.9281806950001,-75.9967727649999,0
			39.9276886000002,-75.993782043,0
			39.926769257,-75.9925994869998,0
			39.9272117620001,-75.991386413,0
			39.9285507200001,-75.9901733409999,0
			39.9307708740001,-75.985916139,0
			39.930751801,-75.98412323,0
			39.9307289120002,-75.982322693,0
			39.9316215520001,-75.98110199,0
			39.9334297190001,-75.9804687509999,0
			39.9361686700001,-75.9822082519999,0
			39.9398612980002,-75.987525939,0
			39.948070527,-75.99154663,0
			39.9512519840001,-75.9920883179999,0
			39.9544219980002,-75.9920196519999,0
			39.9580307020001,-75.9901428219999,0
			39.9607315060002,-75.988891601,0
			39.9634284970001,-75.987030029,0
			39.9675102230001,-75.9869461069999,0
			39.9854698180001,-75.972160339,0
			40.0007896430001,-75.9640274049999,0
			40.00259018,-75.962791443,0
			40.0124816910002,-75.955970763,0
			40.0196609500001,-75.950416565,0
			40.0394287110001,-75.9349670409999,0
			40.0471420300001,-75.9354019169999,0
			40.068908692,-75.93611908,0
			40.0807113650001,-75.936462402,0
			40.0988998420002,-75.9402770999999,0
			40.1066207890001,-75.941307068,0
			40.1093406670001,-75.941246033,0
			40.113750458,-75.9315261849999,0
			40.1212387090001,-75.9139328009999,0
			40.1260795590001,-75.9017868039999,0
			40.1370811470001,-75.8756790159999,0
			40.1464004510001,-75.8604278559999,0
			40.1539688110001,-75.84941864,0
			40.1997108470001,-75.777313232,0
			40.2028198250002,-75.77242279,0
			40.2085495010001,-75.760231018,0
			40.2231292720001,-75.7321777339999,0
			40.2407913220002,-75.6986007679999,0
			40.241668701,-75.6967697149999,0
			40.238769532,-75.6911773679998,0
			40.2378387460001,-75.6893997189999,0
			40.238700866,-75.68636322,0
			40.2435798650001,-75.678405762,0
			40.2457809450001,-75.6741333009999,0
			40.2466392510001,-75.6704864499999,0
			40.2461013800001,-75.6644897469999,0
			40.2427787780001,-75.6549301139999,0
			40.2404098510002,-75.6477661129999,0
			40.2371292120001,-75.640617371,0
			40.2347106940001,-75.630439759,0
			40.230491639,-75.620918273,0
			40.2277297970001,-75.6185760499999,0
			40.224498748,-75.6150512699999,0
			40.224449158,-75.6114273079999,0
			40.2257614150001,-75.607788085,0
			40.2275199900001,-75.604728699,0
			40.229358673,-75.6058883659999,0
			40.2325592040001,-75.6076126089999,0
			40.2348403930001,-75.6087570179999,0
			40.2366409300001,-75.60810852,0
			40.2388687140001,-75.6050262449999,0
			40.2378997810001,-75.60144043,0
			40.2365188590001,-75.59967041,0
			40.234668732,-75.597312927,0
			40.2214202890002,-75.591041565,0
			40.2099685670001,-75.583518983,0
			40.2044792180001,-75.5800628659999,0
			40.2003898630002,-75.579559327,0
			40.1980705270001,-75.5766067509999,0
			40.196651458,-75.572433471,0
			40.1966018680002,-75.56942749,0
			40.197479247,-75.567596436,0
			40.2006111140001,-75.564498901,0
			40.2028694150002,-75.5644378659999,0
			40.2069702140001,-75.5655365,0
			40.209251404,-75.5660781859999,0
			40.2101211550001,-75.563636779,0
			40.209621429,-75.5606460559999,0
			40.2073287960001,-75.558898926,0
			40.2022819520001,-75.5554275509999,0
			40.1899604800001,-75.550338745,0
			40.1794319160001,-75.544013977,0
			40.1739006050001,-75.538742065,0
			40.1664314270001,-75.527046204,0
			40.149150848,-75.5274963379999,0
			40.1467590330001,-75.5239105219999,0
			40.1475486750001,-75.5183868409999,0
			40.1594696040001,-75.5127105719999,0
			40.159301758,-75.5030364989999,0
			40.1562690740001,-75.500045776,0
			40.1506195060001,-75.503631592,0
			40.142150879,-75.510749818,0
			40.134689332,-75.508781433,0
			40.1252594000001,-75.4905395509999,0
			40.128681183,-75.472869873,0
			40.1241188050002,-75.461082458,0
			40.119049072,-75.4627227779999,0
			40.116901399,-75.4691085819999,0
			40.1115798950001,-75.471878051,0
			40.1065597540001,-75.469306946,0
			40.1027297970001,-75.4617614749999,0
			40.0971107490002,-75.4632568349999,0
			40.094451904,-75.4562911979999,0
			40.0876007080001,-75.4558258059999,0
			40.0940589910001,-75.4401092529999,0
			40.0899314880001,-75.436851502,0
			40.0966415420002,-75.41999054,0
			40.0604286200001,-75.392745971,0
			40.072311402,-75.366912843,0
			40.0668220520001,-75.3610076909999,0
			40.0619888310001,-75.370162965,0
			40.0602188100002,-75.373222351,0
			40.0571784980001,-75.381126404,0
			40.0475387580001,-75.4012374879999,0
			40.047111511,-75.402450561,0
			40.0435791030001,-75.4085617069999,0
			40.0418395990001,-75.412818909,0
			40.037269592,-75.4105529779999,0
			40.0335922250002,-75.407646179,0
			40.0294799800002,-75.4059677129999,0
			40.0241699210002,-75.413940429,0
			40.0201988220002,-75.4206619259999,0
			40.0117607120001,-75.4311218259999,0
			39.9957504270001,-75.4507904059999,0
			39.994869233,-75.4520187379999,0
			39.993980409,-75.453247071,0
			39.9925994870002,-75.4520797729999,0
			39.9924888610001,-75.4454803469999,0
			39.9924621580001,-75.4436798099998,0
			39.993331909,-75.441246033,0
			39.991500855,-75.4401092529999,0
			39.986461639,-75.437248231,0
			39.9842109680001,-75.4385070799999,0
			39.9810600280001,-75.4397964479999,0
			39.9792518610001,-75.4398574829999,0
			39.9788322440002,-75.4422683709999,0
			39.9806900030001,-75.4446182239998,0
			39.967990876,-75.472587585,0
			39.955718994,-75.4993438709998,0
			39.9544105520001,-75.5023803709999,0
			39.9517707830001,-75.507858277,0
			39.9482612610001,-75.515151977,0
			39.9452018730001,-75.5224380499999,0
			39.944320679,-75.524261474,0
			39.939720154,-75.5201873779999,0
			39.9374389640001,-75.519050599,0
			39.932178498,-75.530586242,0
			39.923938752,-75.5260162359999,0
			39.9217605600001,-75.5314788819999,0
			39.930461885,-75.5366363529999,0
			39.9273796080002,-75.542716981,0
			39.924160004,-75.53981018,0
			39.9219703670001,-75.544670105,0
			39.91830063,-75.542366027,0
			39.9152488720001,-75.550247193,0
			39.909309388,-75.546806335,0
			39.9058113100001,-75.555313111,0
			39.9085693360001,-75.5576171869999,0
			39.9072418220002,-75.560058593,0
			39.9040412900001,-75.5583496089999,0
			39.9022788990002,-75.5619964589999,0
			39.8969802860001,-75.5711288449999,0
			39.894290925,-75.5729980469999,0
			39.8879203790001,-75.571372986,0
			39.8835105900001,-75.57988739,0
			39.8853607190001,-75.582237243,0
			39.8849296560001,-75.5834426889999,0
			39.8863105780001,-75.5852127069999,0
			39.8845596310001,-75.5888366699999,0
			39.8804092420002,-75.5841598499999,0
			39.8747215280001,-75.598098756,0
			39.8724098200001,-75.5951614379999,0
			39.869659423,-75.593437195,0
			39.868301392,-75.5934829719999,0
			39.8651695250002,-75.5959472649999,0
			39.8620414740001,-75.59903717,0
			39.8602409370002,-75.6002807609999,0
			39.8579902640001,-75.6015396119999,0
			39.8561706540002,-75.6009902959998,0
			39.8538513180001,-75.5974502559999,0
			39.8515319840002,-75.5939178469999,0
			39.8488197320002,-75.594589234,0
			39.8456802370002,-75.596466064,0
			39.8416099540001,-75.5977783209999,0
			39.837860108,-75.5972595219999,0
		</coordinates>
	</polygon>
</kml>
