<?xml version="1.0" encoding="UTF-8"?>
<kml xmlns="http://earth.google.com/kml/2.2">
	<polygon id="USA_GA_Seminole" samplingProbability="1">
		<coordinates>
			31.0021095290001,-85.003517152,0
			31.0094528200001,-85.0036926269999,0
			31.014869689,-85.0048980709999,0
			31.0218410490001,-85.0077362069998,0
			31.028022766,-85.010559082,0
			31.0334911340001,-85.0112304679998,0
			31.039239884,-85.011146545,0
			31.043361664,-85.011611939,0
			31.0474700920001,-85.0120697029999,0
			31.0511398310001,-85.0130691519999,0
			31.0549011230001,-85.014961243,0
			31.0571308140001,-85.0167007449999,0
			31.0608291630001,-85.0198364259999,0
			31.064821243,-85.0221633909998,0
			31.0711326610001,-85.02658081,0
			31.0753002160001,-85.028831483,0
			31.0761203770002,-85.029266358,0
			31.0747203840001,-85.005310058,0
			31.0748100280001,-84.999969483,0
			31.0741481790001,-84.986068726,0
			31.0736503610001,-84.9625473019999,0
			31.073289872,-84.957191466,0
			31.0730209340002,-84.9465026849999,0
			31.0731906900002,-84.9368972779999,0
			31.0725307460001,-84.9224472049999,0
			31.0726203930001,-84.9171218879998,0
			31.0723304750001,-84.90750122,0
			31.0723590860001,-84.9053573599999,0
			31.0724296570002,-84.9016265869999,0
			31.0718994140001,-84.8791809079999,0
			31.071910857,-84.8781127929998,0
			31.0714817050001,-84.8765029899999,0
			31.0715103160001,-84.8749008179999,0
			31.071527482,-84.8738327019999,0
			31.0711612700001,-84.868476867,0
			31.0712299350002,-84.864212037,0
			31.0710811610002,-84.846046448,0
			31.0708904270002,-84.830017089,0
			31.0702705380002,-84.8123931879999,0
			31.069999695,-84.8006286619999,0
			31.0702323910001,-84.7862091059999,0
			31.0692996980001,-84.7589569089999,0
			31.069400787,-84.752548217,0
			31.0694408420001,-84.749877929,0
			31.0691184990001,-84.741317748,0
			31.0692901620002,-84.7306365969999,0
			31.0500812540001,-84.731826783,0
			31.0499191290002,-84.741966248,0
			31.0407810210001,-84.74230957,0
			31.0411205290001,-84.749801635,0
			31.0410709390001,-84.7530059809999,0
			31.0387802120002,-84.7529525759999,0
			31.0003929140001,-84.754257202,0
			30.9967327120002,-84.754180908,0
			30.9775409700001,-84.7543029789999,0
			30.9661083220001,-84.7545928949999,0
			30.9496498110001,-84.7553024279999,0
			30.9359512340001,-84.754997254,0
			30.9258880620001,-84.7553329469999,0
			30.9199504860001,-84.7552032459999,0
			30.8852195740001,-84.7555007929999,0
			30.8855018620002,-84.7667083749999,0
			30.8763504030001,-84.7670364379999,0
			30.8763103490001,-84.769706726,0
			30.8479690560001,-84.769622802,0
			30.843860626,-84.7695312499999,0
			30.8356304180001,-84.7698898319999,0
			30.833761215,-84.7725067139999,0
			30.8332901010002,-84.773033142,0
			30.8323593140001,-84.774612426,0
			30.8304882050002,-84.7767028809999,0
			30.8291206350002,-84.7766723619999,0
			30.828660966,-84.777191162,0
			30.8277282720001,-84.7782363899999,0
			30.8198509210002,-84.784988404,0
			30.81801033,-84.7854766849999,0
			30.8129405970001,-84.788032532,0
			30.810670853,-84.7874374389999,0
			30.803348542,-84.7878189089999,0
			30.8024311070002,-84.787796021,0
			30.8009891520002,-84.7925567639999,0
			30.800970078,-84.793617249,0
			30.8009395600002,-84.7952194209999,0
			30.8009281170002,-84.796279908,0
			30.7994594580001,-84.802108764,0
			30.7980594650002,-84.8042068469999,0
			30.7971305840001,-84.805252076,0
			30.7966594690001,-84.8057708729999,0
			30.7961902620002,-84.806289673,0
			30.792978287,-84.807289124,0
			30.7920703890001,-84.8067321779999,0
			30.7911510460001,-84.8072433469999,0
			30.7902317050002,-84.8077468879999,0
			30.789300919,-84.808273315,0
			30.7888393400002,-84.8087921149999,0
			30.7874584200001,-84.8093032839999,0
			30.786991119,-84.81034851,0
			30.7865200040001,-84.8108673089998,0
			30.7851505280001,-84.810836793,0
			30.7842311870002,-84.8113479619999,0
			30.7828598020001,-84.811317443,0
			30.782842637,-84.8123931879999,0
			30.7832908630002,-84.8129272459999,0
			30.7828197480002,-84.8134460449999,0
			30.7819099430001,-84.8134307869999,0
			30.7814407360001,-84.8139495839999,0
			30.7818794240002,-84.815032959,0
			30.7828006750001,-84.8145065299998,0
			30.7832298280002,-84.816116333,0
			30.7832012180001,-84.818237305,0
			30.7827301040001,-84.8187713619999,0
			30.7827129360001,-84.820365905,0
			30.7817802420001,-84.820877076,0
			30.779960632,-84.8208312989998,0
			30.7804012300001,-84.8219070439999,0
			30.7799301150001,-84.822425841,0
			30.7794628140001,-84.8229522709999,0
			30.7794494630001,-84.8240127559999,0
			30.7785205840001,-84.8245315549999,0
			30.778511048,-84.8255920419999,0
			30.7789497370002,-84.826126099,0
			30.7780208580001,-84.827178956,0
			30.7784690870002,-84.8277206419999,0
			30.7780094150002,-84.8282394409999,0
			30.7775402080001,-84.8287658679999,0
			30.7784404750001,-84.8298492439999,0
			30.7784194950002,-84.830909729,0
			30.7788696280002,-84.8314514159999,0
			30.7784004210002,-84.8319778439999,0
			30.778842927,-84.8330459589998,0
			30.7788181310001,-84.8341064459999,0
			30.7792701720001,-84.834663392,0
			30.7787895200001,-84.836242676,0
			30.777862548,-84.8372879029999,0
			30.7773895260001,-84.8378067019999,0
			30.7769203190001,-84.838333129,0
			30.7764511120001,-84.8393783579999,0
			30.7755393990001,-84.839363097,0
			30.7741603850002,-84.839332581,0
			30.7732505800001,-84.8393096919999,0
			30.7723197940001,-84.8403472909999,0
			30.7727603920001,-84.8414306639999,0
			30.7727298730001,-84.843032837,0
			30.7731704710002,-84.844100952,0
			30.7736206050001,-84.8446426399998,0
			30.7731494900001,-84.8457031239998,0
			30.7731304170001,-84.8467559809999,0
			30.7721805570001,-84.848861695,0
			30.7717094420001,-84.8493881219999,0
			30.7707901000001,-84.8498992909999,0
			30.7698707590002,-84.850410462,0
			30.7685012820001,-84.8503799439998,0
			30.7680492410001,-84.8498382579999,0
			30.7676010130002,-84.84929657,0
			30.767150879,-84.848747254,0
			30.7666912080001,-84.8492660509999,0
			30.7662200930001,-84.849792481,0
			30.7648410800001,-84.85029602,0
			30.7639198300001,-84.8508071909999,0
			30.7634506230001,-84.8513259879999,0
			30.7629528050001,-84.853973389,0
			30.762020111,-84.8550186159999,0
			30.7620010380002,-84.8560791009999,0
			30.7624492640001,-84.856620788,0
			30.7628898620002,-84.8576965339999,0
			30.7633304600002,-84.8582382189999,0
			30.7633209220001,-84.8593063339999,0
			30.7628498070001,-84.859832764,0
			30.7619304670001,-84.8603363029999,0
			30.7614612570002,-84.8608627319999,0
			30.7605495450001,-84.8608398439999,0
			30.7591705320001,-84.861343384,0
			30.758260727,-84.8613204959999,0
			30.7568912510001,-84.86075592,0
			30.7555408470001,-84.8596572879999,0
			30.754631042,-84.8596420299999,0
			30.7537212370001,-84.8590927119999,0
			30.7528095240001,-84.8590698229999,0
			30.7518711100001,-84.8606414789999,0
			30.7514019010001,-84.861160279,0
			30.75138092,-84.8622283939999,0
			30.7513599390002,-84.8638229359999,0
			30.7504196170001,-84.8653869619999,0
			30.7494907390001,-84.8659133909999,0
			30.748092651,-84.8674697869999,0
			30.7467117310001,-84.8679733279999,0
			30.743951797,-84.868972777,0
			30.7407512670001,-84.869430541,0
			30.7393684390001,-84.8699264519999,0
			30.7384510040001,-84.8699111939999,0
			30.736629486,-84.8698730469999,0
			30.7357006080001,-84.8703765879999,0
			30.7338695520001,-84.870857238,0
			30.7334003450001,-84.871391296,0
			30.7324829100001,-84.8713684069999,0
			30.7315692910001,-84.8713531489999,0
			30.7302112580001,-84.870780945,0
			30.728849412,-84.8702163699999,0
			30.7274913780001,-84.869132995,0
			30.7252311720002,-84.8680114749998,0
			30.7238807690001,-84.866912841,0
			30.7229804990002,-84.8658294669999,0
			30.7207107550001,-84.8647232059999,0
			30.7193603520001,-84.8636169439999,0
			30.7175407420002,-84.8630523669999,0
			30.7161693570001,-84.863006592,0
			30.7147998810001,-84.8629837039999,0
			30.7129707350001,-84.862953185,0
			30.7114410410001,-84.8634490959999,0
			30.711629867,-84.8665084839999,0
			30.722549439,-84.8730087289999,0
			30.7255496970001,-84.8759994509999,0
			30.7327098850002,-84.8852004999999,0
			30.7358493800002,-84.8884658809999,0
			30.7408428190002,-84.8907089229999,0
			30.7444915770001,-84.8913269049999,0
			30.7481098170002,-84.8935394279999,0
			30.7508010880002,-84.896789551,0
			30.7521305080001,-84.8989486689999,0
			30.7525310510001,-84.902153015,0
			30.751039506,-84.9090270989999,0
			30.7505817420002,-84.9116058349999,0
			30.751010895,-84.9142684939999,0
			30.754199982,-84.9164428719999,0
			30.7678699500001,-84.920837402,0
			30.7715301520001,-84.920883179,0
			30.7742729200002,-84.920379639,0
			30.777929306,-84.920959473,0
			30.7846012120002,-84.924720764,0
			30.7888393400002,-84.927986145,0
			30.7943000790002,-84.9301910409999,0
			30.7961196910001,-84.9312667839998,0
			30.8016109460001,-84.9313430799999,0
			30.806179048,-84.930320739,0
			30.8098297110001,-84.9309005739999,0
			30.8137092580001,-84.9328613279999,0
			30.817329408,-84.935066224,0
			30.8200397500001,-84.93673706,0
			30.8236827850002,-84.937347411,0
			30.8268699650001,-84.9379730229999,0
			30.8300781250001,-84.937507629,0
			30.8328304290001,-84.937042237,0
			30.835849763,-84.934921265,0
			30.8383998880001,-84.932380676,0
			30.841190338,-84.9297866819999,0
			30.8423004150001,-84.9280776969999,0
			30.8441410070002,-84.9275588999999,0
			30.8462390900002,-84.92830658,0
			30.8504905690001,-84.9324264529999,0
			30.8525180820001,-84.9348373409999,0
			30.8556995380001,-84.93598938,0
			30.858230592,-84.9362411489999,0
			30.8609828960001,-84.9346771239999,0
			30.8632698060001,-84.934165955,0
			30.8660106660002,-84.934196471,0
			30.8684806820001,-84.937347411,0
			30.8705406190001,-84.9390487659999,0
			30.8737506870002,-84.9385528569999,0
			30.8766994470001,-84.9375457759999,0
			30.8803806300001,-84.9360427849999,0
			30.8849525460002,-84.9361495969999,0
			30.8872318260001,-84.93673706,0
			30.8883781440001,-84.9376602179999,0
			30.891250611,-84.941627502,0
			30.8939495080001,-84.9443588249999,0
			30.8979797370001,-84.948722839,0
			30.906501771,-84.955986022,0
			30.9192008970002,-84.9657287589999,0
			30.9242000580002,-84.968986511,0
			30.9269409190001,-84.9700927729999,0
			30.929660797,-84.972251892,0
			30.9308929440001,-84.9745559699999,0
			30.9318981170001,-84.97706604,0
			30.9327907560001,-84.9792175279999,0
			30.9346008300001,-84.9819030759999,0
			30.9396095280001,-84.983032227,0
			30.9455604560001,-84.982566833,0
			30.951049804,-84.9810333259999,0
			30.9538002020001,-84.980003357,0
			30.9579200750002,-84.9789886469999,0
			30.9620304110001,-84.979568482,0
			30.964759826,-84.9806671139999,0
			30.9677295680001,-84.9840011599999,0
			30.9699611670001,-84.98725891,0
			30.9712429050001,-84.9920883189999,0
			30.9729309090001,-85.0001296999999,0
			30.975170136,-85.002319336,0
			30.977890014,-85.0034561159999,0
			30.982460023,-85.0035705569999,0
			30.9870491030001,-85.0020828249999,0
			30.9921016700001,-85.0011367799999,0
			30.9966506960001,-85.0017929079999,0
			31.0021095290001,-85.003517152,0
		</coordinates>
	</polygon>
</kml>
