<?xml version="1.0" encoding="UTF-8"?>
<kml xmlns="http://earth.google.com/kml/2.2">
	<polygon id="USA_FL_Saint_Johns" samplingProbability="1">
		<coordinates>
			29.8401966100001,-81.57522583,0
			29.8402709960002,-81.575256348,0
			29.8959064480001,-81.5992126459999,0
			29.9198894500001,-81.5992126459999,0
			29.951616288,-81.5883789059999,0
			29.9748268140001,-81.599983215,0
			30.0065517430002,-81.6440887439999,0
			30.0444622040001,-81.673492432,0
			30.1055908210002,-81.6719436639999,0
			30.1277351390001,-81.6703567499999,0
			30.1218395230001,-81.6541442879999,0
			30.1288032540001,-81.6231918329999,0
			30.1309909820001,-81.60131073,0
			30.1308708180001,-81.601348876,0
			30.126060486,-81.5909271229999,0
			30.1258506780001,-81.5814285279999,0
			30.1209506990001,-81.566787719,0
			30.1203308120001,-81.5388183589998,0
			30.1038398740002,-81.538787842,0
			30.1047897340001,-81.4796295169999,0
			30.1050701140002,-81.4722290029999,0
			30.1055603020001,-81.4341964709998,0
			30.2374706260001,-81.4369659429999,0
			30.2498283400001,-81.4371108999999,0
			30.252119065,-81.4370422369999,0
			30.252412796,-81.4301528939999,0
			30.2530708320002,-81.3994598379999,0
			30.2529869080001,-81.379722596,0
			30.2525005350001,-81.379722596,0
			30.2522220620001,-81.3794479379999,0
			30.250278474,-81.3794479379999,0
			30.2500000010002,-81.3791656499999,0
			30.2497215270001,-81.3791656499999,0
			30.249443054,-81.378890992,0
			30.24833107,-81.378890992,0
			30.248056412,-81.378608704,0
			30.2458324430002,-81.378608704,0
			30.2455558770002,-81.3783340459999,0
			30.2452774040001,-81.3783340459999,0
			30.2450008390001,-81.3780517579999,0
			30.244443893,-81.3780517579999,0
			30.244167327,-81.3777770999999,0
			30.2436103810002,-81.3777770999999,0
			30.2433338160001,-81.3775024419999,0
			30.242221833,-81.3775024419999,0
			30.2419452680001,-81.3772201539999,0
			30.2413864140001,-81.3772201539999,0
			30.2411117560001,-81.376945496,0
			30.2405567180002,-81.376945496,0
			30.2402763370001,-81.376663208,0
			30.2386112220001,-81.376663208,0
			30.2383327490001,-81.3763885499999,0
			30.2377777100001,-81.3763885499999,0
			30.2374992370001,-81.376113892,0
			30.2369422910002,-81.376113892,0
			30.2366657260001,-81.375831604,0
			30.2361106870001,-81.375831604,0
			30.2358322140001,-81.3755569459999,0
			30.2355556490002,-81.3755569459999,0
			30.2352771760001,-81.3752746579999,0
			30.234167099,-81.3752746579999,0
			30.2338886260002,-81.3749999999999,0
			30.2333335870002,-81.3749999999999,0
			30.2330551140001,-81.3747253419999,0
			30.2325000760001,-81.3747253419999,0
			30.232221603,-81.3744430539999,0
			30.2316665640002,-81.3744430539999,0
			30.2313880930001,-81.374168396,0
			30.2311115260001,-81.3744430539999,0
			30.2308330550001,-81.374168396,0
			30.2302799220002,-81.374168396,0
			30.2299995430002,-81.373886108,0
			30.2294445050001,-81.373886108,0
			30.2291679390001,-81.3736114499999,0
			30.22833252,-81.3736114499999,0
			30.2280578620002,-81.373336792,0
			30.2272224430001,-81.373336792,0
			30.226945878,-81.373054504,0
			30.2263889320001,-81.373054504,0
			30.2261104590001,-81.3727798459999,0
			30.2250003820002,-81.3727798459999,0
			30.2247219090002,-81.3724975579999,0
			30.2238883970001,-81.3724975579999,0
			30.223611832,-81.3722228999999,0
			30.2230548860002,-81.3722228999999,0
			30.22277832,-81.3719482419999,0
			30.2222213740001,-81.3719482419999,0
			30.221944809,-81.3716659539999,0
			30.2216663360002,-81.3716659539999,0
			30.2208328240001,-81.3708343499999,0
			30.2205562590001,-81.3708343499999,0
			30.2202777860001,-81.370552064,0
			30.219999315,-81.370552064,0
			30.219722747,-81.3708343499999,0
			30.2188892380001,-81.3708343499999,0
			30.2186107650001,-81.370552064,0
			30.2163887030001,-81.370552064,0
			30.21611023,-81.370277406,0
			30.2152786260002,-81.370277406,0
			30.2150001530001,-81.3700027459999,0
			30.2147216800001,-81.3700027459999,0
			30.2144451140001,-81.3697204599999,0
			30.2136116030001,-81.3697204599999,0
			30.213054657,-81.3691635139999,0
			30.211946487,-81.368888856,0
			30.2105541220002,-81.3683319099999,0
			30.2097225180001,-81.368301391,0
			30.20916748,-81.367774964,0
			30.208889007,-81.367500306,0
			30.2061119090001,-81.367500306,0
			30.205833436,-81.367225648,0
			30.2050018320002,-81.367225648,0
			30.2047214510001,-81.3669433599999,0
			30.2044448860001,-81.3669433599999,0
			30.2041664130001,-81.3666687019999,0
			30.203611374,-81.3666687019999,0
			30.2033329010002,-81.3663864139999,0
			30.2027797700002,-81.3663864139999,0
			30.2024993900001,-81.3661117559998,0
			30.2022228240001,-81.3661117559998,0
			30.2019443510001,-81.3658370979999,0
			30.2013893130002,-81.3658370979999,0
			30.2011108400001,-81.3655548099999,0
			30.2008342740002,-81.3655548099999,0
			30.2005577090001,-81.365280152,0
			30.1994438170001,-81.365280152,0
			30.1991653440001,-81.364997864,0
			30.1983356470001,-81.364997864,0
			30.1980533610002,-81.364723206,0
			30.196943284,-81.364723206,0
			30.1966667190002,-81.364440918,0
			30.194999696,-81.364440918,0
			30.1947212230002,-81.36416626,0
			30.1941661840002,-81.36416626,0
			30.1938896190001,-81.3638916019999,0
			30.1936111460001,-81.3638916019999,0
			30.193332673,-81.363609314,0
			30.1930561070001,-81.363609314,0
			30.192777634,-81.3633346559998,0
			30.1922225960001,-81.3633346559998,0
			30.1916675570001,-81.3627777099999,0
			30.191110611,-81.3627777099999,0
			30.1900005340001,-81.362503052,0
			30.1869468690001,-81.362220764,0
			30.1866645820001,-81.3619461059999,0
			30.1863861090001,-81.3619461059999,0
			30.1861114500002,-81.361663818,0
			30.1852779400002,-81.361663818,0
			30.1847248070001,-81.361114502,0
			30.18388939,-81.361114502,0
			30.1819438940001,-81.360832214,0
			30.1781139370001,-81.3592987059999,0
			30.17563057,-81.3593368529999,0
			30.175027847,-81.3592224129999,0
			30.1743755340001,-81.3588333119999,0
			30.1738452920001,-81.3588867189999,0
			30.1732139600001,-81.358573913,0
			30.1727790840002,-81.3583831789999,0
			30.172336579,-81.358261108,0
			30.171810149,-81.3581542979999,0
			30.1713104260002,-81.3579101559999,0
			30.1706256860002,-81.357543944,0
			30.1700725550002,-81.3572540279999,0
			30.1693134320001,-81.357131958,0
			30.1687812800001,-81.3569717399999,0
			30.1682834640002,-81.356849669,0
			30.1677074440001,-81.356773376,0
			30.1671733870001,-81.3566513049999,0
			30.1664638510002,-81.3561553959999,0
			30.1658573150001,-81.3560180649999,0
			30.1647739420001,-81.3561477659998,0
			30.164264678,-81.3561477659998,0
			30.163604737,-81.3562164299999,0
			30.163331987,-81.356056214,0
			30.163057327,-81.3559570319999,0
			30.1625728610001,-81.3557510379999,0
			30.1619949340002,-81.3554992679999,0
			30.1613311780001,-81.355361939,0
			30.1607227320001,-81.355110168,0
			30.1602897640001,-81.3550720209999,0
			30.1597309110002,-81.3549499499999,0
			30.1593742370001,-81.35484314,0
			30.158681869,-81.3546829229999,0
			30.157777787,-81.3545379629999,0
			30.1572246560002,-81.354499817,0
			30.1567955030001,-81.35420227,0
			30.1565189370002,-81.353996278,0
			30.1558780680001,-81.3537750249999,0
			30.1553421020002,-81.353683471,0
			30.1543617240001,-81.3535308839998,0
			30.1537590030001,-81.3531799319999,0
			30.153417587,-81.3532562259999,0
			30.1533336640001,-81.3533477779999,0
			30.1532592770001,-81.3533248889999,0
			30.1527786250001,-81.3531875599999,0
			30.1525650020001,-81.3530349729999,0
			30.152221679,-81.352790832,0
			30.150554658,-81.352500915,0
			30.149761201,-81.352371217,0
			30.1479721070002,-81.3520126349999,0
			30.1474971770001,-81.351791382,0
			30.1469631200001,-81.351440431,0
			30.1463623040001,-81.351295471,0
			30.1459369670001,-81.3511123649998,0
			30.144495011,-81.350440979,0
			30.143461228,-81.350349427,0
			30.14286232,-81.35029602,0
			30.1413688650002,-81.3502273559999,0
			30.1381206510002,-81.3496093749999,0
			30.136369706,-81.348960877,0
			30.1354255670001,-81.3489227299999,0
			30.1348705280001,-81.348930358,0
			30.134309769,-81.3487701409999,0
			30.1338996880001,-81.348678589,0
			30.1332950590001,-81.34866333,0
			30.13267517,-81.3483352649998,0
			30.1319351200001,-81.3482055669999,0
			30.131467819,-81.3479919439999,0
			30.1308784490001,-81.3479003899999,0
			30.1303405760002,-81.3474655149999,0
			30.12968254,-81.347457886,0
			30.1288852700001,-81.3473052969999,0
			30.128356933,-81.3472213749999,0
			30.1278038020002,-81.347312927,0
			30.1273078910001,-81.3472976689999,0
			30.1268234260001,-81.347167968,0
			30.1263046270001,-81.3470153809999,0
			30.1257591240001,-81.3469085689998,0
			30.1252403270001,-81.3465652469999,0
			30.124660492,-81.3465347279999,0
			30.1239871980001,-81.3460998529999,0
			30.123262407,-81.3460540779999,0
			30.122606278,-81.3458633419999,0
			30.1222114570002,-81.3456268309999,0
			30.1218891150001,-81.345619201,0
			30.1214218130002,-81.3455810539999,0
			30.1210002910001,-81.3453292839999,0
			30.1201915750001,-81.34513092,0
			30.1190738680002,-81.3450469959999,0
			30.118289949,-81.345069885,0
			30.1175022120001,-81.3447189329999,0
			30.1171493530002,-81.3444976799999,0
			30.1166324610001,-81.3445129389999,0
			30.1161422730002,-81.3442764279999,0
			30.115692139,-81.344230653,0
			30.1155033110001,-81.344306946,0
			30.1150932310001,-81.344131471,0
			30.1146221170001,-81.3440628049999,0
			30.1143093120001,-81.3439712529999,0
			30.1138057710001,-81.3438720709999,0
			30.1132087710001,-81.343490601,0
			30.1125583650001,-81.3432846059998,0
			30.1117362970001,-81.3429336549999,0
			30.1112842560001,-81.342910766,0
			30.1109333040002,-81.3429183959999,0
			30.1104907980002,-81.342895508,0
			30.109966279,-81.342910766,0
			30.1095027920001,-81.3430709839999,0
			30.1088371280001,-81.342376709,0
			30.108135223,-81.342201233,0
			30.1076202390001,-81.3418502809999,0
			30.1073703770002,-81.341835023,0
			30.1070308690001,-81.341835023,0
			30.106954575,-81.3418731699999,0
			30.106664659,-81.3420028689999,0
			30.106111526,-81.342033387,0
			30.105640411,-81.341812134,0
			30.105428696,-81.341835023,0
			30.1049995430001,-81.3416824339999,0
			30.1047859190001,-81.3417739879999,0
			30.1042957310001,-81.3415527349999,0
			30.1039524070002,-81.341575623,0
			30.103443146,-81.341201783,0
			30.1027774820002,-81.3412246699999,0
			30.1025657650002,-81.341323852,0
			30.102228166,-81.3412857049999,0
			30.1016197200001,-81.3407363889999,0
			30.1011486060001,-81.3406906119999,0
			30.100522996,-81.340339661,0
			30.0999488840001,-81.3403472909999,0
			30.0997829440001,-81.340263367,0
			30.0993652340001,-81.3400421139999,0
			30.099067688,-81.339927674,0
			30.098760606,-81.340019226,0
			30.0984172820001,-81.3399581899999,0
			30.0980548860001,-81.3399581899999,0
			30.0977783200001,-81.3399047849999,0
			30.0972862250002,-81.3397598259999,0
			30.096750259,-81.339706421,0
			30.096176148,-81.33947754,0
			30.0958328240001,-81.3395767219999,0
			30.0950641630002,-81.339050293,0
			30.0947227470002,-81.3389968879999,0
			30.0944442760001,-81.3391494749999,0
			30.0941677090001,-81.3391647329999,0
			30.0919227610001,-81.3380889899999,0
			30.0899753570001,-81.338211061,0
			30.089174272,-81.337890626,0
			30.0885696410002,-81.3378067019999,0
			30.088384628,-81.3376083379999,0
			30.0878753660002,-81.337509155,0
			30.0878028880001,-81.3373794549999,0
			30.0872631070001,-81.3371963509999,0
			30.086538316,-81.336929321,0
			30.0857563020002,-81.33644104,0
			30.085279465,-81.3364868169999,0
			30.0848083500001,-81.3364028929998,0
			30.08433342,-81.3363418579999,0
			30.0839366910001,-81.3362960809999,0
			30.0835113520001,-81.3361816409999,0
			30.0829505930001,-81.336227418,0
			30.0824680330002,-81.336090089,0
			30.0819320680001,-81.3359527599999,0
			30.0812969200002,-81.335662841,0
			30.0806007380001,-81.335517882,0
			30.0801792150001,-81.335456849,0
			30.0796051030001,-81.3354034419999,0
			30.079006195,-81.334953308,0
			30.078083039,-81.334579468,0
			30.077390672,-81.3349761969998,0
			30.0768947610002,-81.3349761969998,0
			30.076322555,-81.334808349,0
			30.075830459,-81.3346252449999,0
			30.0752506270002,-81.3345260629999,0
			30.0748844150001,-81.334091187,0
			30.07424736,-81.3340530389999,0
			30.0736866010001,-81.334014892,0
			30.0730304730002,-81.334030152,0
			30.072414399,-81.333885193,0
			30.071836472,-81.3338317879998,0
			30.0713748930002,-81.333717345,0
			30.0708599090001,-81.3335189809999,0
			30.0702724460002,-81.333259582,0
			30.0697650920001,-81.333236695,0
			30.0692024230001,-81.3332138069999,0
			30.0688247680001,-81.332885741,0
			30.0681953440001,-81.3328552249999,0
			30.0677127840001,-81.332572937,0
			30.0670719140002,-81.332191466,0
			30.0658931730001,-81.3322982789999,0
			30.0651988980001,-81.3320541369999,0
			30.0648326890001,-81.332023621,0
			30.0646190640001,-81.3318634029999,0
			30.064123153,-81.3319244389999,0
			30.0636978160001,-81.331741333,0
			30.0632438670001,-81.3316802969999,0
			30.0627155300002,-81.3314895629999,0
			30.061943054,-81.3313903809999,0
			30.061666488,-81.3313903809999,0
			30.0611114500001,-81.330833435,0
			30.0608310710001,-81.330833435,0
			30.0602779380001,-81.3302764889999,0
			30.0597229020001,-81.3302764889999,0
			30.0594444290001,-81.3300018309998,0
			30.0588893900001,-81.3300018309998,0
			30.0586109170001,-81.3302764889999,0
			30.056667329,-81.3302764889999,0
			30.0563907630001,-81.3300018309998,0
			30.055278779,-81.3300018309998,0
			30.055000306,-81.3297195429998,0
			30.0530567170001,-81.3297195429998,0
			30.052778244,-81.3294448849999,0
			30.051664352,-81.3294448849999,0
			30.0513896940001,-81.329170227,0
			30.0508327480002,-81.329170227,0
			30.0505542750001,-81.328887939,0
			30.0499992360001,-81.328887939,0
			30.0497245780002,-81.3286132809999,0
			30.049442292,-81.3286132809999,0
			30.0491657270002,-81.328330993,0
			30.0488891590001,-81.328330993,0
			30.0486106880002,-81.328056335,0
			30.0483322150001,-81.328056335,0
			30.0480556500001,-81.3277740469999,0
			30.0441665650001,-81.3277740469999,0
			30.043888092,-81.327499389,0
			30.0430564880002,-81.327499389,0
			30.0427799230001,-81.3272247309998,0
			30.041667938,-81.3272247309998,0
			30.0411109920001,-81.3266677849999,0
			30.0408325190001,-81.3266677849999,0
			30.0405578610001,-81.3263854989999,0
			30.0394458770001,-81.3263854989999,0
			30.0391674040001,-81.326110839,0
			30.0386104580002,-81.326110839,0
			30.0383358,-81.3258361809999,0
			30.036388398,-81.3258361809999,0
			30.036113738,-81.3255538949999,0
			30.0352783210001,-81.3255538949999,0
			30.0347213750002,-81.324996949,0
			30.0341663370001,-81.324996949,0
			30.032926559,-81.32485199,0
			30.0319442750001,-81.3244857779999,0
			30.0316658020001,-81.324165345,0
			30.0313892370002,-81.324165345,0
			30.0305557250001,-81.3233337409999,0
			30.0302772520001,-81.3233337409999,0
			30.030000687,-81.3230590809999,0
			30.0294437410001,-81.3230590809999,0
			30.0291671750002,-81.3233337409999,0
			30.0288887020001,-81.3233337409999,0
			30.0283336640001,-81.3236694339999,0
			30.0280551910002,-81.323516845,0
			30.027841568,-81.3234634399999,0
			30.0273704530002,-81.323616027,0
			30.0266685480001,-81.3233337409999,0
			30.0263862620002,-81.3230590809999,0
			30.0258331310002,-81.3230590809999,0
			30.0252780930001,-81.322502137,0
			30.0236110700001,-81.322502137,0
			30.0233325960002,-81.3227767949999,0
			30.0230541230001,-81.3227767949999,0
			30.022777558,-81.322502137,0
			30.0219421390001,-81.322502137,0
			30.0216674810001,-81.322219849,0
			30.0208320620002,-81.322219849,0
			30.020555496,-81.3219451909999,0
			30.0202770230002,-81.3219451909999,0
			30.0200004580001,-81.3216629029999,0
			30.0191669460001,-81.3216629029999,0
			30.0188884730001,-81.321388245,0
			30.0177783960002,-81.321388245,0
			30.0174999230001,-81.3211135869999,0
			30.0172214500001,-81.3211135869999,0
			30.0172214500001,-81.3208312989999,0
			30.0163898460002,-81.3208312989999,0
			30.0161113730001,-81.3205566409999,0
			30.0158329000001,-81.3205566409999,0
			30.015556335,-81.3202743529999,0
			30.0152797690001,-81.3202743529999,0
			30.0147228230002,-81.3203124999999,0
			30.0144443520001,-81.3200912469999,0
			30.0143737790001,-81.3200454719999,0
			30.0141677850001,-81.3199081429999,0
			30.013677597,-81.3194656369999,0
			30.012563705,-81.3188705449999,0
			30.011518478,-81.3187942509999,0
			30.010683059,-81.3187789929999,0
			30.0105533600001,-81.3187179569999,0
			30.0097866070001,-81.3187026969999,0
			30.008888245,-81.3183364869999,0
			30.0083312990001,-81.3177795409999,0
			30.0074996950001,-81.3177795409999,0
			30.0072212220001,-81.3174972529999,0
			30.0069446560001,-81.3174972529999,0
			30.006666183,-81.3172225949999,0
			30.0058326720001,-81.3172225949999,0
			30.0055561060001,-81.3174972529999,0
			30.0052776330001,-81.3174972529999,0
			30.0049991600001,-81.3177795409999,0
			30.003055574,-81.3177795409999,0
			30.002500535,-81.3172225949999,0
			30.0022220620002,-81.3175353999999,0
			30.001388551,-81.3172225949999,0
			30.000833512,-81.3172225949999,0
			30.0005569470001,-81.316947937,0
			30.000000001,-81.3170547489999,0
			29.9997215280002,-81.316665649,0
			29.99944687,-81.316665649,0
			29.9991645820001,-81.3163909909999,0
			29.9983348850001,-81.3163909909999,0
			29.9980564120001,-81.3161087029999,0
			29.997224808,-81.3161087029999,0
			29.9969425200001,-81.3163909909999,0
			29.9966640470001,-81.3163909909999,0
			29.9963893890001,-81.3161087029999,0
			29.9961109160001,-81.3161087029999,0
			29.995832443,-81.315834045,0
			29.9952774050001,-81.315834045,0
			29.9950008390001,-81.315551759,0
			29.994443893,-81.315551759,0
			29.9941673280002,-81.315834045,0
			29.9936828620001,-81.3155975339999,0
			29.9932079320002,-81.3154678349999,0
			29.992710114,-81.315345764,0
			29.9921817790001,-81.315269471,0
			29.9916362760002,-81.3151855469999,0
			29.9911022190001,-81.315048218,0
			29.99055481,-81.315002441,0
			29.9908332840002,-81.3147201549999,0
			29.99055481,-81.3144454949999,0
			29.9899997720001,-81.3144454949999,0
			29.9897212990001,-81.314163209,0
			29.9883327490002,-81.314163209,0
			29.988056183,-81.313888549,0
			29.9877777100002,-81.313888549,0
			29.9874992370001,-81.3136138909999,0
			29.986667633,-81.3136138909999,0
			29.98638916,-81.313331605,0
			29.9861106870001,-81.313331605,0
			29.9858341220001,-81.313056945,0
			29.9841651910001,-81.313056945,0
			29.9838886260001,-81.312774659,0
			29.9830532070001,-81.312774659,0
			29.9827785490002,-81.312500001,0
			29.9808311470001,-81.312500001,0
			29.9794445050001,-81.3111114509999,0
			29.9788894660001,-81.3111114509999,0
			29.978609086,-81.3113861089998,0
			29.9775009160002,-81.3113861089998,0
			29.9772224430001,-81.3111114509999,0
			29.9769439700001,-81.3111114509999,0
			29.9766674050001,-81.310836793,0
			29.9763908390001,-81.310836793,0
			29.9761104590002,-81.310554505,0
			29.9750003820001,-81.310554505,0
			29.974721909,-81.3102798469999,0
			29.9738883970002,-81.3102798469999,0
			29.9736118320001,-81.309997559,0
			29.973333359,-81.309997559,0
			29.9730567930001,-81.309722901,0
			29.9708347320002,-81.309722901,0
			29.9705543510001,-81.3094482429999,0
			29.9702777860001,-81.3094482429999,0
			29.9699993130001,-81.3091659549999,0
			29.9680557260001,-81.3091659549999,0
			29.9677772530001,-81.3088912969998,0
			29.967500688,-81.3088912969998,0
			29.9672203070002,-81.3086090089998,0
			29.9663887030001,-81.3086090089998,0
			29.9661102300001,-81.3088912969998,0
			29.9655551920001,-81.3088912969998,0
			29.965278626,-81.3086090089998,0
			29.965278626,-81.3083343509999,0
			29.9648361210001,-81.3081817629999,0
			29.9643573760002,-81.308074951,0
			29.9638786310001,-81.3079528809999,0
			29.9634456630001,-81.307777405,0
			29.9630088800001,-81.3075942989999,0
			29.9625225070001,-81.307510377,0
			29.962022781,-81.3074340809999,0
			29.9615516670001,-81.3073120129999,0
			29.9611148840001,-81.3071212769999,0
			29.960685731,-81.306915284,0
			29.960277557,-81.306663513,0
			29.9599990840002,-81.306388855,0
			29.9597225190001,-81.306388855,0
			29.9594459530001,-81.3061141969998,0
			29.958610534,-81.3061141969998,0
			29.958335876,-81.3058319089999,0
			29.9575004570001,-81.3058319089999,0
			29.9572238920001,-81.3055572509999,0
			29.956666947,-81.3055572509999,0
			29.956388474,-81.3052749629999,0
			29.9552783970001,-81.3052749629999,0
			29.954999924,-81.305000305,0
			29.9544448860001,-81.305000305,0
			29.9538879400001,-81.3044433589999,0
			29.9536113740001,-81.3044433589999,0
			29.9533329010001,-81.304168701,0
			29.953056336,-81.304168701,0
			29.9527778630002,-81.303886413,0
			29.9522228240002,-81.303886413,0
			29.9519443510001,-81.304168701,0
			29.9516658780001,-81.304168701,0
			29.951389313,-81.303886413,0
			29.9511108400001,-81.303886413,0
			29.950677872,-81.303665162,0
			29.950174331,-81.303527833,0
			29.9496784200001,-81.303382874,0
			29.9491634360002,-81.3032608029999,0
			29.9486942290001,-81.3031234739999,0
			29.9482841500001,-81.302955627,0
			29.9479122170001,-81.3027572619999,0
			29.9475440980001,-81.30255127,0
			29.9471626280002,-81.302391052,0
			29.9467582710002,-81.3022613529999,0
			29.9463424690001,-81.3021697999999,0
			29.9459323890001,-81.302062989,0
			29.9455242160001,-81.3019485469999,0
			29.9451179510002,-81.301841736,0
			29.9447269430001,-81.301704407,0
			29.9443206790001,-81.301582337,0
			29.9439315810001,-81.3014450079999,0
			29.9435043330001,-81.301345826,0
			29.9430141450002,-81.3013153069999,0
			29.9424781800001,-81.3013610839998,0
			29.9419269570001,-81.3013992309999,0
			29.9413833620002,-81.3013763419999,0
			29.94086647,-81.3011703499999,0
			29.9403915400002,-81.300888062,0
			29.9399852760001,-81.300544738,0
			29.9395713810001,-81.3002243029999,0
			29.9390850060001,-81.299995423,0
			29.9385757450001,-81.2997894279998,0
			29.9380283370001,-81.299606324,0
			29.9375228880002,-81.2993621829999,0
			29.9370174420001,-81.2990875249999,0
			29.936496735,-81.2988052369998,0
			29.9358329770002,-81.298614503,0
			29.9358329770002,-81.298332215,0
			29.9355564110001,-81.2980575569999,0
			29.9352798460002,-81.2980575569999,0
			29.9349994670002,-81.2977752689999,0
			29.9347229000001,-81.2977752689999,0
			29.9344444290001,-81.2980575569999,0
			29.9341678610001,-81.2977752689999,0
			29.93388939,-81.2977752689999,0
			29.9336109170002,-81.297500611,0
			29.9333324440001,-81.2977752689999,0
			29.9327774060001,-81.2977752689999,0
			29.9322223670001,-81.2972259529999,0
			29.931945802,-81.2972259529999,0
			29.9316673290002,-81.2969436649999,0
			29.9308357250001,-81.2969436649999,0
			29.9305534370002,-81.2966690069999,0
			29.930276871,-81.2966690069999,0
			29.9300003060001,-81.2963867189999,0
			29.9297218330001,-81.2963867189999,0
			29.9294433600001,-81.2961120609999,0
			29.928888321,-81.2961120609999,0
			29.9286136630001,-81.2958297719999,0
			29.928331375,-81.2958297719999,0
			29.9280548100001,-81.295555115,0
			29.9277782440001,-81.295555115,0
			29.9274997710001,-81.2952804569999,0
			29.9263896940002,-81.2952804569999,0
			29.9258327480001,-81.294723511,0
			29.9258327480001,-81.294441222,0
			29.92527771,-81.294441222,0
			29.9249992370002,-81.2941665649999,0
			29.924722671,-81.2941665649999,0
			29.9241657250001,-81.2936096189999,0
			29.9236106880001,-81.2936096189999,0
			29.9227771770002,-81.292778015,0
			29.9222221380002,-81.292778015,0
			29.9219436650001,-81.2925033569999,0
			29.9216671,-81.2922210679999,0
			29.921388627,-81.2922210679999,0
			29.921112061,-81.291946411,0
			29.920833588,-81.291946411,0
			29.9205551150002,-81.291664124,0
			29.9202785500001,-81.291664124,0
			29.9200000770001,-81.2913894649999,0
			29.9197216040002,-81.2913894649999,0
			29.9194469460001,-81.291114807,0
			29.9191665650002,-81.291114807,0
			29.9188861850001,-81.29083252,0
			29.9180564880001,-81.29083252,0
			29.917499542,-81.2913894649999,0
			29.9166641230001,-81.2913894649999,0
			29.9163894650001,-81.291664124,0
			29.9161109920001,-81.2913894649999,0
			29.9161109920001,-81.291114807,0
			29.915832519,-81.29083252,0
			29.915832519,-81.2900009159999,0
			29.9152774810001,-81.2894439699999,0
			29.9147224420001,-81.2894439699999,0
			29.914442062,-81.289169312,0
			29.9142551430001,-81.289169312,0
			29.9138889310001,-81.289169312,0
			29.9136104580001,-81.2894439699999,0
			29.9136104580001,-81.2900009159999,0
			29.9130554190001,-81.2905578609999,0
			29.9127769460001,-81.29083252,0
			29.9127769460001,-81.291114807,0
			29.912500381,-81.2913894649999,0
			29.9122219080002,-81.291664124,0
			29.9122219080002,-81.2925033569999,0
			29.9111118330001,-81.2936096189999,0
			29.91083336,-81.293891907,0
			29.9105548870002,-81.2941665649999,0
			29.9105548870002,-81.294441222,0
			29.9099998480002,-81.2949981689999,0
			29.9099998480002,-81.2953262339998,0
			29.9094371800002,-81.2948074339999,0
			29.909166337,-81.294723511,0
			29.9088897710001,-81.294441222,0
			29.9088058470001,-81.2941818229999,0
			29.9085922250001,-81.2939605719999,0
			29.908365249,-81.2939834589999,0
			29.9081134800001,-81.294219972,0
			29.907777787,-81.2941665649999,0
			29.90748024,-81.2939758299999,0
			29.907222748,-81.293891907,0
			29.9069862370001,-81.293655395,0
			29.9066677100001,-81.2933349609999,0
			29.9062767040001,-81.292778015,0
			29.9060344700002,-81.2922058099999,0
			29.906295777,-81.291114807,0
			29.906721115,-81.2897033699999,0
			29.9067363730001,-81.2890396119999,0
			29.9073085800001,-81.2870941159999,0
			29.9078292840002,-81.2847366329999,0
			29.9080905920001,-81.2842864989999,0
			29.9080905920001,-81.283996583,0
			29.9082202920002,-81.28340149,0
			29.9080905920001,-81.2826614379999,0
			29.9079608930001,-81.282218932,0
			29.9077129360001,-81.281440735,0
			29.9076995860001,-81.28074646,0
			29.9070510880001,-81.2791213989998,0
			29.9062690740002,-81.27822876,0
			29.9052314750001,-81.2773437509999,0
			29.9043216700002,-81.2767562859999,0
			29.9038028730002,-81.2767562859999,0
			29.9028911600001,-81.276306152,0
			29.9022426600001,-81.276016236,0
			29.9013366700001,-81.27571869,0
			29.900684357,-81.27571869,0
			29.9000339510001,-81.275573731,0
			29.899385453,-81.2752761839998,0
			29.895746231,-81.2752761839998,0
			29.8953571320001,-81.2749786379998,0
			29.8927593230002,-81.2749786379998,0
			29.8917198190001,-81.2746810909999,0
			29.891349792,-81.2746810909999,0
			29.8910713190001,-81.2746810909999,0
			29.8901615140001,-81.274238586,0
			29.8895111080001,-81.274238586,0
			29.8884716040001,-81.2740936289999,0
			29.887561799,-81.2734985359999,0
			29.8867836000002,-81.2732086179999,0
			29.8847045900001,-81.272171021,0
			29.8840522770001,-81.2718734749999,0
			29.883405685,-81.2717285159999,0
			29.883014679,-81.2715835559999,0
			29.8818454740002,-81.2714309689999,0
			29.8805465710001,-81.2708435059999,0
			29.8800277710001,-81.2705459599999,0
			29.8791198740001,-81.270401001,0
			29.877819061,-81.270401001,0
			29.8772983560002,-81.2701034539999,0
			29.8769092560001,-81.2698059079999,0
			29.8762588500001,-81.2698059079999,0
			29.8758697520001,-81.2696609489999,0
			29.8750896450001,-81.2693634019999,0
			29.8745727540001,-81.2693634019999,0
			29.8732738500001,-81.269218445,0
			29.872621537,-81.268920899,0
			29.8718433380002,-81.268623352,0
			29.8702831270002,-81.2681808469999,0
			29.867944718,-81.2677383429999,0
			29.8670349130002,-81.2674407969999,0
			29.8646965030001,-81.2674407969999,0
			29.863267899,-81.2669982909999,0
			29.8605556490002,-81.2658309939999,0
			29.8602771760001,-81.2655563359999,0
			29.8600006110001,-81.2655563359999,0
			29.8597202300001,-81.2652740479999,0
			29.8583335870002,-81.2652740479999,0
			29.8580551140001,-81.26499939,0
			29.857221603,-81.26499939,0
			29.856945037,-81.2647247319999,0
			29.8566665640002,-81.2644424439999,0
			29.8561115260001,-81.26499939,0
			29.855833053,-81.26499939,0
			29.8555564870001,-81.2652740479999,0
			29.8552799220002,-81.2652740479999,0
			29.8549995430002,-81.2655563359999,0
			29.8544445050001,-81.26499939,0
			29.8538970950001,-81.2651443469999,0
			29.8533306130001,-81.2652511599999,0
			29.852754593,-81.2653427119999,0
			29.8521842970001,-81.2654495239999,0
			29.8516159050002,-81.265487671,0
			29.851057054,-81.2654647819999,0
			29.8505077360001,-81.2654418939999,0
			29.849954605,-81.265434265,0
			29.8494091040001,-81.2654037469999,0
			29.8488616940001,-81.265434265,0
			29.8483142850002,-81.2654418939999,0
			29.847753524,-81.265533448,0
			29.8471813200002,-81.2656249999999,0
			29.8465614330001,-81.265640258,0
			29.8459568020001,-81.2656631459999,0
			29.845373155,-81.2656860349999,0
			29.8448085790002,-81.265655518,0
			29.8442478180001,-81.2656173709998,0
			29.8436927790001,-81.2656021109999,0
			29.8431472780002,-81.2655563359999,0
			29.8426303870001,-81.2652587899999,0
			29.8420925140001,-81.265243529,0
			29.8408336650001,-81.26499939,0
			29.8402786260001,-81.26499939,0
			29.8394451150002,-81.2649841319999,0
			29.8391666420001,-81.26499939,0
			29.8388881690001,-81.26499939,0
			29.8386116030001,-81.2647247319999,0
			29.8374996190001,-81.2644119249999,0
			29.8372230530002,-81.264427186,0
			29.8349075320002,-81.264060974,0
			29.8333492290001,-81.2639160149999,0
			29.8320484160002,-81.2637634269999,0
			29.8307495120002,-81.2634735109999,0
			29.8295803070002,-81.2634735109999,0
			29.8276329040001,-81.263320924,0
			29.8232154840002,-81.262878418,0
			29.8203563700002,-81.2627334589999,0
			29.8182773600001,-81.2624359129999,0
			29.816978455,-81.262290956,0
			29.8159389510002,-81.2621383659999,0
			29.813989639,-81.261993409,0
			29.8128204350001,-81.261993409,0
			29.8091831220001,-81.261550904,0
			29.8077545170001,-81.261108398,0
			29.8067150110001,-81.260810852,0
			29.8056755070001,-81.2606658939999,0
			29.8022975920001,-81.2603683479999,0
			29.79853058,-81.2597732549999,0
			29.7933311460002,-81.2588882439999,0
			29.7924995420001,-81.2588882439999,0
			29.7922210690001,-81.258613586,0
			29.7919445040001,-81.258613586,0
			29.791666031,-81.258331298,0
			29.789443969,-81.258331298,0
			29.7891674040001,-81.2580566399999,0
			29.7888889310001,-81.2580566399999,0
			29.7886104580001,-81.2577743539999,0
			29.788055419,-81.2577743539999,0
			29.7875003810001,-81.258331298,0
			29.7869453420001,-81.258331298,0
			29.7858333600001,-81.2572250359999,0
			29.7855567940002,-81.2572250359999,0
			29.7852783210001,-81.25694275,0
			29.7844467170001,-81.25694275,0
			29.7841644290002,-81.2566680899999,0
			29.7838897710002,-81.2566680899999,0
			29.7836112980002,-81.2563858039999,0
			29.7833347330001,-81.2566680899999,0
			29.7828216560002,-81.2563858039999,0
			29.7822532650001,-81.2562408449999,0
			29.781709672,-81.2560806269999,0
			29.7811756140001,-81.255897521,0
			29.7806186680002,-81.2557449339999,0
			29.7800617220001,-81.2555923469999,0
			29.7795066840002,-81.255462646,0
			29.7789993300001,-81.255271912,0
			29.7784996040002,-81.255065917,0
			29.7779750820001,-81.25491333,0
			29.777450562,-81.254776001,0
			29.7769279480002,-81.2546386719999,0
			29.7764377600001,-81.2544403079999,0
			29.775951385,-81.2542419439999,0
			29.7754478460001,-81.2540740959999,0
			29.7749328620001,-81.253929139,0
			29.77440834,-81.2537918099999,0
			29.773920059,-81.2536010739999,0
			29.7734355920002,-81.253395081,0
			29.7729225150001,-81.253234864,0
			29.772382737,-81.2530975349999,0
			29.771829606,-81.2530059809999,0
			29.771286011,-81.25289154,0
			29.7707633970002,-81.2527999879999,0
			29.770246507,-81.2527084339999,0
			29.7697544090001,-81.252571105,0
			29.7692527780001,-81.2524414069999,0
			29.7687644950001,-81.2522735589999,0
			29.7682666770002,-81.25213623,0
			29.7678012850002,-81.2519454959999,0
			29.7673358910001,-81.2517547599999,0
			29.7668437950001,-81.2515945439999,0
			29.766365051,-81.2514038079998,0
			29.7658882150002,-81.2512054439999,0
			29.7654266360001,-81.2509841909999,0
			29.7649612420001,-81.25075531,0
			29.764478684,-81.2505493159999,0
			29.7639846810001,-81.2503585819999,0
			29.7634563440001,-81.2502212529999,0
			29.7629413600002,-81.2500534049998,0
			29.7624282830001,-81.2499008179999,0
			29.7619361880002,-81.2497177119999,0
			29.7614479070002,-81.2495422359999,0
			29.7609405510001,-81.2493896489999,0
			29.7604236600001,-81.2492599479999,0
			29.7599201210001,-81.2490692139999,0
			29.7594223020001,-81.2488632189999,0
			29.7589321140001,-81.248641968,0
			29.7584362040001,-81.248435974,0
			29.7579422000001,-81.24822998,0
			29.7574367520002,-81.2480316149999,0
			29.7569313060001,-81.2478332509999,0
			29.7564086910001,-81.2476425169999,0
			29.7558727260001,-81.2474441529999,0
			29.755355835,-81.2472076409999,0
			29.7548408500002,-81.2469711299999,0
			29.7543087,-81.2467498779999,0
			29.7537498470001,-81.2465896599999,0
			29.753196716,-81.2464218139999,0
			29.7526454920001,-81.246253967,0
			29.752128601,-81.246032714,0
			29.7516536710002,-81.245765686,0
			29.751159668,-81.245521545,0
			29.75057602,-81.2453460689999,0
			29.7499675750001,-81.245223999,0
			29.7493858350001,-81.2450561529999,0
			29.7488994600001,-81.2447891229999,0
			29.748439788,-81.2444915769999,0
			29.747955323,-81.244232177,0
			29.7474288950002,-81.2440338129999,0
			29.7468795770002,-81.2438964839999,0
			29.7463245390001,-81.2437667849999,0
			29.745817185,-81.2435989369999,0
			29.7453193670001,-81.2434082029999,0
			29.7448024750001,-81.2432250969999,0
			29.744293213,-81.2430114749999,0
			29.74379158,-81.242774964,0
			29.7432746880001,-81.2425460809999,0
			29.7427082070002,-81.2423553469999,0
			29.7421131140001,-81.242195129,0
			29.7415065780002,-81.242027284,0
			29.740894317,-81.2418670659999,0
			29.7403354650002,-81.241653441,0
			29.7397956850001,-81.241409302,0
			29.739255905,-81.2411727909999,0
			29.738740921,-81.2409133909999,0
			29.7382583630001,-81.240608215,0
			29.7377700800001,-81.2403182989999,0
			29.7372474680002,-81.240074157,0
			29.736682892,-81.2398757929999,0
			29.73611641,-81.2396774289999,0
			29.7355728150001,-81.2394561759999,0
			29.7350177760001,-81.2392501829999,0
			29.7344264990001,-81.239082336,0
			29.7338504790001,-81.238861083,0
			29.7333068860001,-81.2386016849999,0
			29.7327766420001,-81.2383346559999,0
			29.7322502140001,-81.238067628,0
			29.7317199720001,-81.2378158559999,0
			29.7311706540001,-81.2376022339999,0
			29.7305965420001,-81.2374191279999,0
			29.7300605770002,-81.2372131349999,0
			29.7295665740001,-81.2369689939999,0
			29.7290782930001,-81.236732483,0
			29.7285842900002,-81.23651123,0
			29.728086472,-81.2362899779999,0
			29.7275962840001,-81.2360687249999,0
			29.7271308890001,-81.235824585,0
			29.7266674050001,-81.2355651859999,0
			29.7261924750001,-81.2353134159999,0
			29.7256946570001,-81.235084533,0
			29.7251605990001,-81.2348785409999,0
			29.7246246340001,-81.234664916,0
			29.724107743,-81.234428405,0
			29.7236003890002,-81.234161377,0
			29.7230949400002,-81.2339019779999,0
			29.7225780490002,-81.2336349479999,0
			29.7219448090001,-81.2333297739999,0
			29.7211112970001,-81.2333297739999,0
			29.720556259,-81.2327804559999,0
			29.720556259,-81.2324981699999,0
			29.7199993130001,-81.2319412229999,0
			29.7197227470002,-81.2319412229999,0
			29.7194442740001,-81.2316665659999,0
			29.719167709,-81.2316665659999,0
			29.718889236,-81.231391908,0
			29.7186107630001,-81.23110962,0
			29.7180576320001,-81.23110962,0
			29.7177772530001,-81.2308349619999,0
			29.717500688,-81.2308349619999,0
			29.717222215,-81.230552673,0
			29.716945649,-81.230552673,0
			29.716667176,-81.2302780159998,0
			29.7163887030002,-81.2302780159998,0
			29.7161102300001,-81.2300033579999,0
			29.7155532840001,-81.2300033579999,0
			29.715278626,-81.2297210699999,0
			29.7150001530002,-81.2297210699999,0
			29.7141666420001,-81.2288894659999,0
			29.713888169,-81.2288894659999,0
			29.7136135110001,-81.2291641229999,0
			29.7130546570002,-81.228614808,0
			29.7124996190001,-81.2291641229999,0
			29.712221146,-81.2288894659999,0
			29.7119445800001,-81.228614808,0
			29.711666107,-81.22833252,0
			29.7113895420001,-81.228057862,0
			29.7113895420001,-81.227775573,0
			29.7111663810001,-81.227554321,0
			29.7111091610001,-81.2275009159999,0
			29.710832596,-81.227775573,0
			29.7105560300001,-81.228057862,0
			29.7105560300001,-81.22833252,0
			29.709999084,-81.2288894659999,0
			29.7088871,-81.2288894659999,0
			29.7077789300002,-81.2300033579999,0
			29.7075004570002,-81.2300033579999,0
			29.7072219840001,-81.2302780159998,0
			29.7069435130001,-81.2300033579999,0
			29.7066688530001,-81.2300033579999,0
			29.7061119090002,-81.229446412,0
			29.7061119090002,-81.2288894659999,0
			29.7063884750002,-81.228614808,0
			29.7063884750002,-81.22833252,0
			29.7061119090002,-81.228057862,0
			29.705770493,-81.2277221679999,0
			29.7055320750002,-81.2276153559999,0
			29.705301284,-81.2275085459999,0
			29.704830169,-81.227264404,0
			29.704446794,-81.226943969,0
			29.7041664130002,-81.226669312,0
			29.7038879400001,-81.2263870229999,0
			29.7033348090001,-81.225830077,0
			29.703056336,-81.225830077,0
			29.7022247320002,-81.224998473,0
			29.7016658790002,-81.224998473,0
			29.7005558020001,-81.2238922119998,0
			29.7002773290001,-81.2238922119998,0
			29.6997203820001,-81.2233352649999,0
			29.6991672520002,-81.2233352649999,0
			29.6988887790001,-81.2230529789999,0
			29.6986103060001,-81.2230529789999,0
			29.6983337400001,-81.2227783189999,0
			29.6980552670001,-81.2227783189999,0
			29.697778702,-81.222503662,0
			29.6975002290001,-81.222503662,0
			29.697221755,-81.2222213749999,0
			29.6966667170001,-81.2222213749999,0
			29.6966667170001,-81.222503662,0
			29.696388244,-81.2227783189999,0
			29.6961116790002,-81.2227783189999,0
			29.695833205,-81.2230529789999,0
			29.6952781670001,-81.2230529789999,0
			29.6949996960001,-81.2233352649999,0
			29.6944446570001,-81.2233352649999,0
			29.6941661840001,-81.2230529789999,0
			29.6936111460001,-81.2230529789999,0
			29.6933326730001,-81.2227783189999,0
			29.6933326730001,-81.2219467149999,0
			29.6930561070001,-81.221664429,0
			29.6930561070001,-81.2211074829999,0
			29.6927776340001,-81.2208328249999,0
			29.6924991610001,-81.2208328249999,0
			29.6922225960002,-81.2205581669999,0
			29.6908359530001,-81.2205581669999,0
			29.6908359530001,-81.2202758789999,0
			29.690555573,-81.220001221,0
			29.6902751920002,-81.220001221,0
			29.690000534,-81.2202758789999,0
			29.6897220610002,-81.2202758789999,0
			29.6894454960001,-81.2205581669999,0
			29.6890754710001,-81.2204589849999,0
			29.688613892,-81.2202758789999,0
			29.68888855,-81.220001221,0
			29.688613892,-81.219718933,0
			29.6880531310001,-81.219718933,0
			29.6877784730001,-81.2194442749999,0
			29.6875000000001,-81.2194442749999,0
			29.6872215270002,-81.219169617,0
			29.6863880150001,-81.219169617,0
			29.6861114500001,-81.2194442749999,0
			29.6858310690001,-81.2194442749999,0
			29.6855564110001,-81.219169617,0
			29.684999465,-81.219169617,0
			29.6847229000002,-81.218887329,0
			29.6844444270001,-81.219169617,0
			29.6838893880001,-81.219169617,0
			29.6836109170001,-81.2194442749999,0
			29.683332444,-81.2194442749999,0
			29.6830558790002,-81.219169617,0
			29.6830558790002,-81.218887329,0
			29.6822223670001,-81.2180557249998,0
			29.6819438940001,-81.2180557249998,0
			29.681667329,-81.2177810669999,0
			29.6808338170002,-81.2177810669999,0
			29.6805553440001,-81.2174987789999,0
			29.6800003060002,-81.2174987789999,0
			29.6797218330001,-81.217224121,0
			29.6794452670002,-81.217224121,0
			29.6791667940001,-81.216941833,0
			29.6788883210001,-81.216941833,0
			29.6786117560001,-81.2166671749999,0
			29.6780567170001,-81.2166671749999,0
			29.6774997710002,-81.216110229,0
			29.6772212980001,-81.216110229,0
			29.6769466400002,-81.2158355709999,0
			29.676664352,-81.2158355709999,0
			29.676664352,-81.215553283,0
			29.6763896940001,-81.2152786249998,0
			29.676111221,-81.2152786249998,0
			29.6758346560001,-81.2149963369999,0
			29.6755561830001,-81.2149963369999,0
			29.67527771,-81.2152786249998,0
			29.674999237,-81.2149963369999,0
			29.674724579,-81.2149963369999,0
			29.6744422910002,-81.2147216789999,0
			29.673332214,-81.2147216789999,0
			29.6730556480001,-81.2149963369999,0
			29.6722202310002,-81.2158355709999,0
			29.6719436660001,-81.2158355709999,0
			29.6713886270001,-81.2152786249998,0
			29.671110154,-81.2149963369999,0
			29.671110154,-81.2138900749999,0
			29.6708335890002,-81.2136077869999,0
			29.6708335890002,-81.213333129,0
			29.6705513000002,-81.213058471,0
			29.6704998010001,-81.21447754,0
			29.6703796400002,-81.227622986,0
			29.6640491480001,-81.2309722909999,0
			29.6589603420002,-81.2474212639999,0
			29.6617794040002,-81.249946595,0
			29.6627407070001,-81.2520217899999,0
			29.661411285,-81.253639221,0
			29.6642494200001,-81.2572174079999,0
			29.6688995360001,-81.2596969589999,0
			29.66893959,-81.2612686149999,0
			29.6640205390001,-81.266159057,0
			29.6545314800002,-81.2717208849999,0
			29.6506099710002,-81.279731751,0
			29.6499691010001,-81.2907791129999,0
			29.651130676,-81.3007125859999,0
			29.642999649,-81.3057098379999,0
			29.6421794890001,-81.309410096,0
			29.643632889,-81.3125228869999,0
			29.6506404880001,-81.318061829,0
			29.6525897990001,-81.322723388,0
			29.6535606390001,-81.3247985849999,0
			29.6255817410002,-81.324119568,0
			29.6228923800002,-81.500045777,0
			29.6225109100001,-81.5236663809999,0
			29.6306018830001,-81.5239105229999,0
			29.6312866210001,-81.5239257809999,0
			29.6890869140001,-81.524291993,0
			29.700071334,-81.5244750969999,0
			29.7344951640002,-81.5250244149999,0
			29.7447052000002,-81.5251693719999,0
			29.7472000120002,-81.52519989,0
			29.7600479120001,-81.5258789069999,0
			29.7634887700002,-81.5290374749999,0
			29.7635555260002,-81.5284194939999,0
			29.788122177,-81.543403626,0
			29.8401966100001,-81.57522583,0
		</coordinates>
	</polygon>
</kml>
