<?xml version="1.0" encoding="UTF-8"?>
<kml xmlns="http://earth.google.com/kml/2.2">
	<polygon id="USA_UT_Davis" samplingProbability="1">
		<coordinates>
			41.1360206610001,-111.857429504,0
			41.1124191280002,-111.850776672,0
			41.1051597600001,-111.853233337,0
			41.0969886780001,-111.850807191,0
			41.0870094300001,-111.849609375,0
			41.0765686030001,-111.845367431,0
			41.0715789790001,-111.84902954,0
			41.0652313240001,-111.847206115,0
			41.0611419680001,-111.844177245,0
			41.0561409010001,-111.839927674,0
			41.0488815310001,-111.836898804,0
			41.044792176,-111.833862304,0
			41.0388908400001,-111.832046509,0
			41.0325508130001,-111.835716247,0
			41.0284614560001,-111.835105895,0
			41.02165985,-111.835136414,0
			41.0207405090001,-111.825386047,0
			41.0175590530001,-111.821136475,0
			41.012561799,-111.816886902,0
			41.0066604620001,-111.813858032,0
			41.0057487490001,-111.80960083,0
			41.0043792730002,-111.807167053,0
			40.9980201720001,-111.80293274,0
			40.9912109380001,-111.796249389,0
			40.984390259,-111.788352967,0
			40.9784889220002,-111.785331725,0
			40.9703102110001,-111.781097412,0
			40.9603195180001,-111.772605896,0
			40.9571495050001,-111.778701782,0
			40.9580688480001,-111.784172058,0
			40.9617004400002,-111.787811279,0
			40.958080291,-111.792686462,0
			40.9594497680001,-111.795120239,0
			40.9594612130001,-111.801811218,0
			40.9599189770001,-111.807289124,0
			40.9590187070001,-111.812156677,0
			40.9553909300002,-111.811561584,0
			40.9508514400001,-111.807922364,0
			40.9490318290001,-111.805496215,0
			40.9440307620001,-111.800636292,0
			40.9399490360001,-111.798217774,0
			40.9367599490001,-111.792762756,0
			40.9340400690001,-111.791549682,0
			40.929500579,-111.790946961,0
			40.9245109550002,-111.792182922,0
			40.9204292290001,-111.792198182,0
			40.916339875,-111.790992736,0
			40.9149703980002,-111.785522462,0
			40.910881042,-111.779457093,0
			40.9036102310001,-111.774612426,0
			40.8968086250001,-111.777671814,0
			40.8922615060001,-111.768569947,0
			40.8881721500001,-111.763732911,0
			40.8849906930002,-111.764343262,0
			40.88182068,-111.762527467,0
			40.8759193430001,-111.76072693,0
			40.8740997310001,-111.759506225,0
			40.8727302560002,-111.758300781,0
			40.8713493340001,-111.745536803,0
			40.8627090470001,-111.735237121,0
			40.8609085080001,-111.744361878,0
			40.8545684830002,-111.748031615,0
			40.8505210880001,-111.764457702,0
			40.844188691,-111.777839662,0
			40.8446617130001,-111.785133361,0
			40.8387794500002,-111.79850769,0
			40.8383407600001,-111.808227538,0
			40.8342704770001,-111.818572998,0
			40.8333816530001,-111.825851441,0
			40.8324890130001,-111.837387085,0
			40.8266105650001,-111.852592467,0
			40.8234519970001,-111.868392945,0
			40.8234596250001,-111.881141662,0
			40.8230209350001,-111.889640808,0
			40.8225822440001,-111.91028595,0
			40.8207817070001,-111.932762146,0
			40.8262290950001,-111.935180665,0
			40.832580567,-111.941246034,0
			40.8371200550001,-111.94367981,0
			40.8421096810001,-111.94367218,0
			40.846649169,-111.950958252,0
			40.8470993050001,-111.957641602,0
			40.8525505060001,-111.962486267,0
			40.8593521120001,-111.961280823,0
			40.8675193800001,-111.96006012,0
			40.8747787470001,-111.967956543,0
			40.8843002310001,-111.966735841,0
			40.8969993590001,-111.955787658,0
			40.91921997,-111.9557724,0
			40.9201393130002,-112.006858826,0
			40.8920021070002,-112.056701659,0
			40.8456687930001,-112.137458801,0
			40.8079299920001,-112.201126099,0
			40.8074798590001,-112.202949524,0
			40.7706298820002,-112.261100769,0
			40.950820923,-112.397453309,0
			41.0055809020002,-112.440368652,0
			41.0553512570002,-112.478446959,0
			41.0761604310001,-112.49382782,0
			41.0977821350001,-112.409233093,0
			41.1023788450001,-112.38974762,0
			41.1445312500001,-112.222206117,0
			41.1522903440001,-112.190505981,0
			41.152351379,-112.150856018,0
			41.152420045,-112.063606262,0
			41.151531221,-112.022132874,0
			41.151531221,-111.994056701,0
			41.151531221,-111.983695983,0
			41.1510696420002,-111.970275879,0
			41.1465301510001,-111.958076477,0
			41.1374511710002,-111.947097778,0
			41.1329002380001,-111.928802491,0
			41.1338005070001,-111.911109924,0
			41.134239198,-111.898300171,0
			41.135139465,-111.888542174,0
			41.1360206610001,-111.857429504,0
		</coordinates>
	</polygon>
</kml>
