<?xml version="1.0" encoding="UTF-8"?>
<kml xmlns="http://earth.google.com/kml/2.2">
	<polygon id="USA_AL_Limestone" samplingProbability="1">
		<coordinates>
			34.7589988710001,-87.260322571,0
			34.7612419140002,-87.2648162849999,0
			34.7657699590001,-87.26599121,0
			34.7743301400002,-87.27671051,0
			34.7811508170001,-87.276206971,0
			34.7885398860001,-87.2561264049999,0
			34.8105697630001,-87.2205200189999,0
			34.8160591130001,-87.214424133,0
			34.8224105830001,-87.2144699099999,0
			34.83467102,-87.214584351,0
			34.836952209,-87.2146072389999,0
			34.85692978,-87.213668823,0
			34.8791885380002,-87.2127609249999,0
			34.8810005180001,-87.2127761839999,0
			34.9114418020002,-87.2113723749999,0
			34.9541206370001,-87.2111968999998,0
			34.9563903810002,-87.2112274159999,0
			34.9677505490001,-87.211326598,0
			34.9836502080001,-87.2103576649999,0
			34.999931336,-87.210510255,0
			34.9924087540001,-86.884391786,0
			34.9925498960002,-86.8366699219999,0
			34.992710113,-86.7833862299999,0
			34.625308992,-86.7876205439999,0
			34.6189498910001,-86.7875976549998,0
			34.6157722470001,-86.788146973,0
			34.6003303540001,-86.7880859379999,0
			34.5975990310001,-86.7886428839999,0
			34.5898818970002,-86.7891616829999,0
			34.5717086800001,-86.7890930179998,0
			34.551269532,-86.7895660399999,0
			34.5512619020001,-86.791252136,0
			34.5526008600001,-86.7990570069999,0
			34.5548400870002,-86.81022644,0
			34.5548400870002,-86.814140319,0
			34.5552711500001,-86.821395874,0
			34.5561409000001,-86.836456299,0
			34.5592994690001,-86.842620849,0
			34.564270019,-86.852676392,0
			34.5674209590002,-86.858840943,0
			34.5719108590001,-86.8761672979999,0
			34.5737113960001,-86.8828659069999,0
			34.5799903880001,-86.9069061279999,0
			34.5876503000002,-86.924812317,0
			34.6025390620002,-86.950019836,0
			34.6124496470001,-86.970726014,0
			34.6133499140001,-86.9729766839999,0
			34.625099182,-86.9897994999998,0
			34.629161835,-86.9954071049999,0
			34.6309509290001,-86.999893188,0
			34.6341094970001,-87.006607055,0
			34.6395187380001,-87.016700745,0
			34.6458396910001,-87.023452759,0
			34.651699066,-87.032989502,0
			34.6525802620001,-87.0391387939999,0
			34.6498107920001,-87.0497360229999,0
			34.6597290050001,-87.065460205,0
			34.670070649,-87.086212158,0
			34.682270051,-87.0986022959999,0
			34.6863288890002,-87.104782105,0
			34.7016716000001,-87.125022889,0
			34.7066421510001,-87.1289672859999,0
			34.7215919490001,-87.135246278,0
			34.7332992550002,-87.152687073,0
			34.7472305300001,-87.1802062999999,0
			34.7490196240001,-87.1847000129999,0
			34.750308992,-87.197578429,0
			34.7602005000001,-87.2127761839999,0
			34.764640808,-87.2296066279999,0
			34.7622489940002,-87.249732971,0
			34.7589988710001,-87.260322571,0
		</coordinates>
	</polygon>
</kml>
