<?xml version="1.0" encoding="UTF-8"?>
<kml xmlns="http://earth.google.com/kml/2.2">
	<polygon id="USA_IL_Cook" samplingProbability="1">
		<coordinates>
			41.686828614,-88.030776977,0
			41.6874008190001,-88.001258851,0
			41.68770218,-87.9883422859999,0
			41.6879005440001,-87.9674377439999,0
			41.6940307620002,-87.9482421869999,0
			41.7017021190001,-87.943756104,0
			41.7172203060001,-87.913887024,0
			41.7317619320001,-87.9141769409999,0
			41.8185310360001,-87.9177627559999,0
			41.9075508120001,-87.918830871,0
			41.9938316350001,-87.917503357,0
			41.992481232,-88.0342483519998,0
			41.9882621770001,-88.1473312379999,0
			41.987609864,-88.2634277339999,0
			42.067539214,-88.2632369999998,0
			42.0684509270001,-88.26322937,0
			42.0682106030001,-88.2378921499999,0
			42.154972076,-88.238182068,0
			42.1554908760002,-88.199172973,0
			42.156059265,-88.1218032849999,0
			42.1556587210001,-88.0042114249999,0
			42.1570205700001,-88.0041809079999,0
			42.155151367,-87.885986327,0
			42.1549606330001,-87.7659072879999,0
			42.1548385620002,-87.7572479249999,0
			42.1502418520002,-87.7530288689999,0
			42.1369590770001,-87.744697571,0
			42.1318893440001,-87.739875793,0
			42.1296119700002,-87.7393188469999,0
			42.1250114450001,-87.7350997919999,0
			42.121768953,-87.730232239,0
			42.1212997430001,-87.729011536,0
			42.1194496160001,-87.7272033689999,0
			42.1153488170002,-87.7260665889999,0
			42.108909608,-87.7200469969999,0
			42.0982894900001,-87.7079467769998,0
			42.0908813480001,-87.6976165779999,0
			42.0862617490001,-87.691558839,0
			42.083488464,-87.6885375969999,0
			42.0811805730001,-87.686126709,0
			42.0784416200001,-87.6849594119999,0
			42.0765609740001,-87.6806793219999,0
			42.0728797920002,-87.6770706179999,0
			42.0692100530002,-87.674690246,0
			42.0660209660002,-87.674156189,0
			42.0651016250001,-87.672943114,0
			42.0587387090001,-87.6731109619998,0
			42.0446205150001,-87.670387267,0
			42.0427589430001,-87.6673507689999,0
			42.0395889290002,-87.668052673,0
			42.0359420780001,-87.666908264,0
			42.0336494440002,-87.6657333369999,0
			42.0295486440001,-87.6645965579999,0
			42.0213317870002,-87.6617431639999,0
			42.0122108460002,-87.658866882,0
			42.0094604500002,-87.657707215,0
			42.0048599250001,-87.6535110479999,0
			42.0021209710001,-87.652336121,0
			41.9993705750001,-87.650566101,0
			41.9961700450002,-87.649406434,0
			41.987110138,-87.650886536,0
			41.9825515740002,-87.649780274,0
			41.9806900020002,-87.6467437739999,0
			41.9788513180001,-87.6449432369999,0
			41.9779319780001,-87.6443405159999,0
			41.9765396120001,-87.641906738,0
			41.9756317150001,-87.6419372559999,0
			41.9720001220001,-87.642028808,0
			41.9692306520001,-87.6396331779999,0
			41.9669418330001,-87.6378478999998,0
			41.9650917060001,-87.6354217529999,0
			41.9645805370002,-87.6317367559999,0
			41.9636306770001,-87.6286773679999,0
			41.9622497560001,-87.627479554,0
			41.9604492190001,-87.628761291,0
			41.9586906440002,-87.6331329339999,0
			41.9591903690001,-87.636199952,0
			41.9578399660001,-87.6368637089998,0
			41.9532699590001,-87.635116577,0
			41.9473190310001,-87.631576538,0
			41.9450187680001,-87.62979126,0
			41.943199158,-87.629219055,0
			41.9395713800001,-87.6293182369999,0
			41.9372787480001,-87.6281433099999,0
			41.9358901980002,-87.6263275149999,0
			41.932270051,-87.627037048,0
			41.9308891310002,-87.6258468619999,0
			41.9281501770002,-87.625312805,0
			41.9245185850001,-87.625396729,0
			41.9185791020001,-87.6230926509999,0
			41.914459229,-87.6207427979999,0
			41.9135398880001,-87.6195297239998,0
			41.9139595030001,-87.6176681519999,0
			41.9130401620001,-87.6164474489999,0
			41.9117012020002,-87.6183395379999,0
			41.909919738,-87.620857239,0
			41.907661438,-87.621536255,0
			41.9058303840001,-87.620971679,0
			41.903560638,-87.620407105,0
			41.9030799880001,-87.6185760489999,0
			41.901679992,-87.616142273,0
			41.9007492060001,-87.614936829,0
			41.8993606560002,-87.6131210329999,0
			41.8956909190002,-87.61075592,0
			41.8943099970002,-87.6095581059999,0
			41.8932495120001,-87.5984878549999,0
			41.8927688600001,-87.597267151,0
			41.8918609620001,-87.5972900389999,0
			41.8914299020001,-87.59854126,0
			41.8915405270001,-87.606552123,0
			41.8906593330001,-87.6084289559999,0
			41.8888816830001,-87.610321045,0
			41.887500763,-87.60974121,0
			41.8847999580001,-87.6110458359999,0
			41.882091522,-87.612358093,0
			41.8780212410001,-87.613082886,0
			41.8698387150001,-87.612686158,0
			41.8689002990001,-87.6108627319999,0
			41.8675117490001,-87.609046935,0
			41.86743927,-87.6041183469999,0
			41.8674201970002,-87.6028900139999,0
			41.8628807070001,-87.603012085,0
			41.8578987130002,-87.6037597649999,0
			41.8560791030001,-87.6038131719999,0
			41.8552093500001,-87.6063003539999,0
			41.8538818370002,-87.608802796,0
			41.8456687930001,-87.6059417719999,0
			41.838359833,-87.603057862,0
			41.8319511420001,-87.59954071,0
			41.8259811400001,-87.59538269,0
			41.8177185050001,-87.589439391,0
			41.8117408750001,-87.5840606689999,0
			41.8080596930001,-87.5810928349999,0
			41.8053092960002,-87.5793075559999,0
			41.802108764,-87.5781707759999,0
			41.7998085030001,-87.576393127,0
			41.7989006040002,-87.575790404,0
			41.7984199530001,-87.573959351,0
			41.7979507440001,-87.5733566279999,0
			41.7970390310001,-87.5727615349999,0
			41.796150207,-87.574020386,0
			41.7943687440002,-87.5765304559999,0
			41.79209137,-87.5759811409999,0
			41.7897987370001,-87.574806213,0
			41.7884292600001,-87.574226379,0
			41.787071229,-87.5742721559999,0
			41.7857093810002,-87.5743103019999,0
			41.7847900400001,-87.57372284,0
			41.7838516230001,-87.5718917839999,0
			41.7833595280002,-87.569442749,0
			41.7824287420001,-87.567626954,0
			41.781539917,-87.568878173,0
			41.7815704340001,-87.571342468,0
			41.7811508190001,-87.5731964099999,0
			41.7802619930001,-87.5744628899999,0
			41.7793502800001,-87.5744857779999,0
			41.777980805,-87.5739059459999,0
			41.777511596,-87.572692871,0
			41.777938844,-87.5714416499999,0
			41.7787895210001,-87.5677261359999,0
			41.7774200440001,-87.56652832,0
			41.7765007020001,-87.5659408569999,0
			41.7718887330001,-87.561141968,0
			41.7705192560001,-87.560562133,0
			41.769142151,-87.559989929,0
			41.7686805720002,-87.5593872079999,0
			41.7668418890001,-87.557586671,0
			41.7650184630001,-87.5576400759999,0
			41.7604103100001,-87.5528411859999,0
			41.7599105840001,-87.5503921509999,0
			41.7594299320002,-87.5479431139999,0
			41.759399415,-87.5460968029999,0
			41.7598304750002,-87.54486084,0
			41.7593193060001,-87.541175842,0
			41.7583999630001,-87.539970398,0
			41.7565689100001,-87.5394058219998,0
			41.7552299500001,-87.5406799309999,0
			41.7534103390001,-87.5407333369999,0
			41.7524909970001,-87.539520264,0
			41.7524604800001,-87.537681579,0
			41.7510719300001,-87.5358657829999,0
			41.7496719370001,-87.5334472649998,0
			41.748271943,-87.5310287469999,0
			41.7468910220001,-87.5298309329999,0
			41.7359695440001,-87.528297424,0
			41.7336921700001,-87.5277404779999,0
			41.7300491340001,-87.5272293089999,0
			41.7182197580001,-87.5257186879999,0
			41.7135009770001,-87.5240020749999,0
			41.694118501,-87.5239257809999,0
			41.551570892,-87.5254821769999,0
			41.4712409970002,-87.526512145,0
			41.4712409970002,-87.5565490719999,0
			41.4715499890002,-87.6705627449999,0
			41.4722785960001,-87.7888412479999,0
			41.4854507450001,-87.7891387939999,0
			41.499980926,-87.7893981939999,0
			41.5376892090001,-87.7921600329999,0
			41.559490205,-87.792251587,0
			41.5577812200001,-87.907051087,0
			41.64453888,-87.9106063839999,0
			41.6427803050001,-88.029861449,0
			41.686828614,-88.030776977,0
		</coordinates>
	</polygon>
</kml>
