<?xml version="1.0" encoding="UTF-8"?>
<kml xmlns="http://earth.google.com/kml/2.2">
	<polygon id="USA_NV_Lyon" samplingProbability="1">
		<coordinates>
			38.4127197270001,-119.153762817,0
			38.427070617,-119.174316405,0
			38.4575386050001,-119.217971801,0
			38.472198487,-119.238899231,0
			38.5364494320002,-119.330566407,0
			38.646862031,-119.329948425,0
			38.6465797430001,-119.348793031,0
			38.6769485480001,-119.348976135,0
			38.678760529,-119.349021912,0
			38.726341248,-119.350227356,0
			38.735408783,-119.350456239,0
			38.7352409370002,-119.361068726,0
			38.7349815380001,-119.378761291,0
			38.7348213200002,-119.388786315,0
			38.73028946,-119.388671875,0
			38.729999542,-119.407546997,0
			38.7354393020001,-119.407691956,0
			38.765800477,-119.408493041,0
			38.7654304500001,-119.402572631,0
			38.7863121030001,-119.401336671,0
			38.8098793030001,-119.401947022,0
			38.8092613210001,-119.412567139,0
			38.8165206910002,-119.412178039,0
			38.816410064,-119.419258118,0
			38.8349990850002,-119.419158936,0
			38.8531303420002,-119.419036865,0
			38.8533020020001,-119.437370299,0
			38.8823013310001,-119.43814087,0
			38.8816909800001,-119.419197083,0
			38.9098091130001,-119.418167114,0
			38.954700471,-119.417572021,0
			38.955848695,-119.402206421,0
			38.9825897210001,-119.402320862,0
			38.981590271,-119.349006653,0
			38.981769562,-119.336585999,0
			38.9894905090002,-119.335586547,0
			38.9902420040001,-119.315483093,0
			39.0840721140001,-119.316047669,0
			39.0857887270001,-119.527160644,0
			39.085929871,-119.546142579,0
			39.0904121410002,-119.549819946,0
			39.0935287470001,-119.552879334,0
			39.0989799500001,-119.552436829,0
			39.1007804870001,-119.553077698,0
			39.1034812930001,-119.554336548,0
			39.1070594780001,-119.557411194,0
			39.1152000420001,-119.558242798,0
			39.1328811660002,-119.558738709,0
			39.1417617800001,-119.569671631,0
			39.146709442,-119.572189332,0
			39.1516914370002,-119.572326661,0
			39.154819489,-119.574790954,0
			39.165390014,-119.566192626,0
			39.1745109560001,-119.563476563,0
			39.178169251,-119.561210632,0
			39.1890907300001,-119.559150696,0
			39.1949310310001,-119.562278747,0
			39.195720673,-119.649589539,0
			39.2013397210001,-119.66519928,0
			39.205219268,-119.676612855,0
			39.2069587720001,-119.68081665,0
			39.2136802670001,-119.685768127,0
			39.2445602420001,-119.708686828,0
			39.2503891000001,-119.712432861,0
			39.2596588140001,-119.674667359,0
			39.2601585400002,-119.672309876,0
			39.2635803230001,-119.65814972,0
			39.266471863,-119.648132325,0
			39.2698020940002,-119.639312744,0
			39.2740592960002,-119.628730774,0
			39.2773590090001,-119.621101379,0
			39.284461976,-119.603469848,0
			39.2886810310002,-119.59526825,0
			39.2929420460001,-119.58468628,0
			39.3027801520001,-119.565353394,0
			39.3245620730002,-119.508872985,0
			39.331642152,-119.49180603,0
			39.3372802740001,-119.478881837,0
			39.3450813290001,-119.473136903,0
			39.3460006720001,-119.472572326,0
			39.5461997990001,-119.336036683,0
			39.5778121950001,-119.314163208,0
			39.5920104980001,-119.303771974,0
			39.6075897230001,-119.292808533,0
			39.6226806650001,-119.283622742,0
			39.6237106330001,-119.275276184,0
			39.622940064,-119.265106202,0
			39.6227607740001,-119.245986939,0
			39.6221199040002,-119.226867675,0
			39.6218795780002,-119.211326599,0
			39.62240982,-119.205383301,0
			39.632579804,-119.19127655,0
			39.6371803290001,-119.186012268,0
			39.650100708,-119.16897583,0
			39.665321351,-119.149620056,0
			39.680568695,-119.127853393,0
			39.691169739,-119.114341735,0
			39.6934814450001,-119.111396789,0
			39.7086906430002,-119.091407775,0
			39.7229194650001,-119.077972413,0
			39.736751557,-119.059730531,0
			39.7308502190001,-119.060195923,0
			39.7227020270001,-119.059432984,0
			39.719810486,-119.073120118,0
			39.70885086,-119.078857422,0
			39.6943397530001,-119.07913971,0
			39.680278779,-119.079429626,0
			39.6657714840001,-119.079711914,0
			39.6512603770001,-119.07939148,0
			39.6372108460002,-119.079681396,0
			39.6370697020001,-119.090431214,0
			39.6207389840001,-119.091262818,0
			39.6062202460002,-119.091537476,0
			39.5917205820001,-119.091217041,0
			39.577220917,-119.090309144,0
			39.5636291500001,-119.089996339,0
			39.548210145,-119.090263367,0
			39.5327911380002,-119.090522766,0
			39.5192108160001,-119.089622497,0
			39.5195198060001,-119.100357055,0
			39.519748689,-119.118263244,0
			39.5052299510001,-119.118537904,0
			39.4907188410001,-119.118797301,0
			39.476211549,-119.119079589,0
			39.4608001720001,-119.119316101,0
			39.4467391980002,-119.119598389,0
			39.432231903,-119.119277954,0
			39.4082107550001,-119.119338989,0
			39.4014091490001,-119.119186402,0
			39.388259888,-119.118888855,0
			39.3880500800001,-119.10043335,0
			39.3735389710001,-119.100708008,0
			39.3733215330001,-119.082252503,0
			39.3592720040002,-119.081939697,0
			39.359050751,-119.063491822,0
			39.3445510870001,-119.063179015,0
			39.3443222040001,-119.04473114,0
			39.3298110960001,-119.045608521,0
			39.3300514230002,-119.025993347,0
			39.315559388,-119.025093078,0
			39.315761566,-119.007843017,0
			39.301250458,-119.008132935,0
			39.3015213010002,-118.98613739,0
			39.285202026,-118.985809327,0
			39.2849807730001,-118.966186523,0
			39.2704696660002,-118.966476441,0
			39.2702407850002,-118.946861267,0
			39.2557296750001,-118.947761536,0
			39.2559509280001,-118.928749085,0
			39.24143982,-118.928466797,0
			39.2412185670001,-118.90825653,0
			39.2262496960001,-118.909751893,0
			39.2264709470001,-118.890159607,0
			39.1983489990001,-118.890808105,0
			39.1986198440001,-118.867073058,0
			39.1845703130001,-118.8667984,0
			39.1843185430001,-118.847801208,0
			39.1702613830001,-118.848129273,0
			39.1704711920002,-118.82913971,0
			39.1559600820001,-118.829467773,0
			39.1557006830001,-118.811073304,0
			39.1402893080001,-118.810791016,0
			39.1404800420001,-118.792396546,0
			39.1128311160002,-118.792503356,0
			39.1132202150001,-118.753959655,0
			39.0746994020001,-118.753890992,0
			39.0752792370001,-118.910980225,0
			39.0751914980002,-118.918678284,0
			38.949371339,-119.016822815,0
			38.8514595040001,-119.016563416,0
			38.8509902960002,-118.902496338,0
			38.7639694210001,-118.902008057,0
			38.7639007580001,-118.907913209,0
			38.6773414620001,-118.906227113,0
			38.518241882,-118.90612793,0
			38.5023803710001,-118.905822754,0
			38.4148788460002,-118.907669068,0
			38.4126701350001,-119.01687622,0
			38.412891388,-119.035682679,0
			38.4127197270001,-119.153762817,0
		</coordinates>
	</polygon>
</kml>
