<?xml version="1.0" encoding="UTF-8"?>
<kml xmlns="http://earth.google.com/kml/2.2">
	<polygon id="USA_MI_Osceola" samplingProbability="1">
		<coordinates>
			44.163131715,-85.0867233279999,0
			44.0719909660001,-85.0873413099999,0
			43.9872512830001,-85.08718872,0
			43.9011802670001,-85.088966369,0
			43.8123588570002,-85.088897705,0
			43.814048767,-85.2099609379999,0
			43.8133316030002,-85.327896117,0
			43.8143005360001,-85.4445266719999,0
			43.8142890930002,-85.5643615729999,0
			43.9003601090001,-85.563819885,0
			43.9869003290002,-85.5619888309998,0
			44.1167602540001,-85.563377381,0
			44.165519714,-85.5639877319999,0
			44.1653709420002,-85.481788636,0
			44.1659698480001,-85.3332900999999,0
			44.1639785770001,-85.2160720819999,0
			44.163131715,-85.0867233279999,0
		</coordinates>
	</polygon>
</kml>
