<?xml version="1.0" encoding="UTF-8"?>
<kml xmlns="http://earth.google.com/kml/2.2">
	<polygon id="USA_IA_Jackson" samplingProbability="1">
		<coordinates>
			42.197441101,-90.3225479129999,0
			42.1967887880002,-90.321022034,0
			42.1926422120001,-90.311286927,0
			42.18909073,-90.3021469119999,0
			42.1828994750002,-90.290657043,0
			42.1787490850002,-90.280792236,0
			42.1756210340001,-90.270851135,0
			42.1743087770001,-90.263397216,0
			42.1723289500002,-90.254638673,0
			42.171649933,-90.2516174309999,0
			42.1695899960002,-90.244117737,0
			42.169368744,-90.243637085,0
			42.1646499650001,-90.2332916249999,0
			42.1606292740001,-90.2228393549999,0
			42.1586799620001,-90.216201782,0
			42.1559104930001,-90.2114105219999,0
			42.1528205880001,-90.208091737,0
			42.1482887280001,-90.2055664059999,0
			42.1443595890001,-90.203903198,0
			42.1397895820001,-90.2028808599999,0
			42.1337699900001,-90.202331542,0
			42.130130767,-90.1983871469999,0
			42.1283721920001,-90.194236755,0
			42.127578735,-90.1892318729999,0
			42.127479553,-90.1886596689999,0
			42.1260414130001,-90.180625915,0
			42.1263694760001,-90.1756668099999,0
			42.1248817440001,-90.170776368,0
			42.1225204480002,-90.1671829219999,0
			42.1185302740002,-90.163825988,0
			42.1154212950001,-90.1629562369999,0
			42.1142196660001,-90.1626281739999,0
			42.1096801760002,-90.1628417969998,0
			42.1076393130002,-90.1618728639999,0
			42.100570679,-90.162040711,0
			42.0919799800001,-90.1636886589999,0
			42.0821914680002,-90.1653442389999,0
			42.0743904130002,-90.166778564,0
			42.0726394660002,-90.1670989989999,0
			42.0652389540002,-90.16681671,0
			42.05752182,-90.1658096309999,0
			42.0567588810001,-90.165710449,0
			42.0508613580001,-90.1644210809999,0
			42.0417900080001,-90.160629273,0
			42.0354118340001,-90.155265809,0
			42.033489228,-90.1542663569999,0
			42.0339622510002,-90.1695632939999,0
			42.033882142,-90.201705933,0
			42.0336112970001,-90.3179168709999,0
			42.033260345,-90.435386658,0
			42.033260345,-90.552223205,0
			42.0331001280002,-90.6671829219998,0
			42.03289032,-90.7846069339998,0
			42.0325088500001,-90.8983459469999,0
			42.1197509760001,-90.8988113409999,0
			42.2074394220002,-90.8986282349999,0
			42.2933387750001,-90.899139404,0
			42.2941398620001,-90.783096314,0
			42.2944107050001,-90.6683197029999,0
			42.3816719070001,-90.667869567,0
			42.3817787170001,-90.550468445,0
			42.3811492920001,-90.474571229,0
			42.3796119700001,-90.472419738,0
			42.3732986450001,-90.4661178579999,0
			42.3638305660002,-90.456047058,0
			42.3566207880001,-90.447273255,0
			42.3515586860001,-90.442466737,0
			42.345340729,-90.4378128059999,0
			42.3385810850001,-90.4318618779998,0
			42.3330001830002,-90.4265213019999,0
			42.3309021000001,-90.4227218619999,0
			42.3306503310001,-90.4216461189999,0
			42.3305015560001,-90.4208374029999,0
			42.3300819390001,-90.4185791019999,0
			42.3282089240001,-90.4161758419999,0
			42.325962066,-90.4152069099999,0
			42.3231697080001,-90.4145431509999,0
			42.3200607300001,-90.4145126349998,0
			42.3141403200001,-90.415046692,0
			42.309589386,-90.4162368779999,0
			42.3054885870001,-90.418663024,0
			42.300609588,-90.421752929,0
			42.295219421,-90.4244689939999,0
			42.2895393370001,-90.426506042,0
			42.2877197270001,-90.426620484,0
			42.2843704220001,-90.4268112179999,0
			42.2825088500001,-90.4264373779999,0
			42.279090882,-90.4257507309999,0
			42.273860932,-90.4241714469999,0
			42.2669715890001,-90.4215621949999,0
			42.2638320920001,-90.4197158809999,0
			42.2568397520002,-90.415618896,0
			42.2487602240001,-90.4104766849999,0
			42.2447891230001,-90.406227111,0
			42.23828888,-90.4003219599999,0
			42.2302589420001,-90.3922729499998,0
			42.222469329,-90.384910583,0
			42.2185096740001,-90.3796463009999,0
			42.2176399230001,-90.378479004,0
			42.212581636,-90.370483399,0
			42.2091102610001,-90.3641281129999,0
			42.2068099980002,-90.357727051,0
			42.2046699530001,-90.348587036,0
			42.2033500680002,-90.3411407469999,0
			42.2015800480001,-90.333686829,0
			42.200222016,-90.3295211789999,0
			42.197441101,-90.3225479129999,0
		</coordinates>
	</polygon>
</kml>
