<?xml version="1.0" encoding="UTF-8"?>
<kml xmlns="http://earth.google.com/kml/2.2">
	<polygon id="USA_OK_Sequoyah" samplingProbability="1">
		<coordinates>
			35.6386604320002,-94.4739532469999,0
			35.619689943,-94.47077179,0
			35.5862121590001,-94.465156555,0
			35.512001039,-94.452636718,0
			35.510688782,-94.4524002069999,0
			35.4145088200002,-94.434806823,0
			35.4000396730002,-94.4307022099999,0
			35.3808517460002,-94.4331588749999,0
			35.3755111710001,-94.4419174189999,0
			35.3771209710001,-94.452140808,0
			35.3767204300001,-94.4644393909999,0
			35.3737487800001,-94.4782180789999,0
			35.3650894170001,-94.4846572879998,0
			35.3531494150002,-94.479072572,0
			35.3468818670001,-94.480819701,0
			35.3433189400001,-94.493339538,0
			35.3330421460001,-94.4992370609999,0
			35.3272209180001,-94.4954528819999,0
			35.319831849,-94.4830932629999,0
			35.312549591,-94.478790284,0
			35.3062515250001,-94.4801864619999,0
			35.3019905080001,-94.487213136,0
			35.304901124,-94.4964065539999,0
			35.305030823,-94.4999999999999,0
			35.305080413,-94.5013885499999,0
			35.3039398190002,-94.5097427369999,0
			35.3085021980001,-94.5158462529999,0
			35.3067703250001,-94.5230789189999,0
			35.3047790540001,-94.535476685,0
			35.305648804,-94.541870117,0
			35.3070487980001,-94.5482177739999,0
			35.311149597,-94.555671691,0
			35.323429108,-94.5677032469999,0
			35.327930451,-94.572540284,0
			35.3271598820002,-94.58808136,0
			35.3275604240001,-94.595802307,0
			35.3246688840001,-94.6011734009999,0
			35.320121765,-94.6053619389999,0
			35.3118820190001,-94.6098175059999,0
			35.307201385,-94.611442567,0
			35.302188873,-94.6169509879999,0
			35.2992591850001,-94.621665954,0
			35.2959404000001,-94.6290130609999,0
			35.2930107120001,-94.633728027,0
			35.2904205330001,-94.655197143,0
			35.2936210630001,-94.6659393309999,0
			35.2976493840001,-94.6720962519999,0
			35.3026313780002,-94.67627716,0
			35.3090591440002,-94.6777572619999,0
			35.3138809200001,-94.6787109369999,0
			35.3186988830001,-94.679656983,0
			35.321891786,-94.680091859,0
			35.328559876,-94.686073304,0
			35.3299407960001,-94.6924285889999,0
			35.3320617670001,-94.7026062009999,0
			35.337268829,-94.7112808229999,0
			35.344001769,-94.7185592639999,0
			35.3484497080001,-94.7227706909999,0
			35.3543205250001,-94.7339782719999,0
			35.3563308720001,-94.7525558469999,0
			35.355659485,-94.7706832889999,0
			35.3512687690002,-94.7780761729999,0
			35.3457603460001,-94.7842559819999,0
			35.3302192690001,-94.7911376949999,0
			35.3272514340001,-94.7952117909999,0
			35.3244400030001,-94.8024978649999,0
			35.3243103040001,-94.8102493279999,0
			35.325050354,-94.815910339,0
			35.3285522460001,-94.8209304809999,0
			35.3350791940001,-94.8243560789999,0
			35.3420715340001,-94.8264617929999,0
			35.3489990230001,-94.8272933969999,0
			35.3602104190002,-94.8291015619999,0
			35.365550994,-94.8300323479999,0
			35.3689994810001,-94.8356018059999,0
			35.3703193670001,-94.8406829839998,0
			35.3701400760001,-94.8477859499998,0
			35.36466217,-94.854621887,0
			35.3579902650001,-94.8589477549999,0
			35.3551788330001,-94.866226196,0
			35.3519210830001,-94.8858184819999,0
			35.3465118420002,-94.904891968,0
			35.3462715150001,-94.9107208259999,0
			35.348731996,-94.9176559459999,0
			35.3545684820001,-94.917907715,0
			35.361019134,-94.9090881349999,0
			35.3669700630001,-94.9009399399999,0
			35.374568939,-94.893966676,0
			35.3808288570002,-94.8922729489999,0
			35.385650636,-94.893226624,0
			35.3915786740001,-94.8954162589999,0
			35.3954315190001,-94.8983764649999,0
			35.3967399600001,-94.903472901,0
			35.396530151,-94.9099273689999,0
			35.3936805720001,-94.9165878289999,0
			35.3933486940002,-94.9204788209999,0
			35.3938598630001,-94.9307785029999,0
			35.3963813790002,-94.9390029909999,0
			35.3992385870001,-94.943336487,0
			35.4031600960001,-94.9475860589999,0
			35.4060401910002,-94.9525680539999,0
			35.406391145,-94.9596481309998,0
			35.4058113100002,-94.9693832399999,0
			35.4064102180001,-94.9816131579999,0
			35.407249451,-94.988006592,0
			35.4099197380001,-94.9994583119998,0
			35.4168510430001,-95.0112762449999,0
			35.4257621780001,-95.020370484,0
			35.4397010810001,-95.0239791859999,0
			35.4513397220001,-95.0238571169999,0
			35.4547615050001,-95.028800964,0
			35.4557800300001,-95.039077758,0
			35.457180023,-95.0460968019999,0
			35.4579200750002,-95.0505676269999,0
			35.4606895450002,-95.0529708869999,0
			35.464820863,-95.0608215319999,0
			35.4652099610001,-95.0644912719999,0
			35.4633903510002,-95.0679473879999,0
			35.4598884590001,-95.073379516,0
			35.458560945,-95.0762710559999,0
			35.4586296080001,-95.079826355,0
			35.4597206120002,-95.083076477,0
			35.4617309580001,-95.0857467649998,0
			35.4658012390001,-95.0877761849999,0
			35.4720191960001,-95.0890731809999,0
			35.4789886470001,-95.0924987789999,0
			35.486030579,-95.0959167489999,0
			35.4910888670001,-95.10205841,0
			35.4962120070001,-95.1094894399999,0
			35.5029106130002,-95.1168060309998,0
			35.5111999510002,-95.1240386969999,0
			35.5192909230001,-95.1274032599999,0
			35.5243301390001,-95.133911132,0
			35.5424995430001,-95.134117127,0
			35.551589967,-95.1342163089999,0
			35.5514221190002,-95.129142761,0
			35.639160157,-95.1288909919999,0
			35.639389038,-95.067138671,0
			35.6396293650001,-94.992919923,0
			35.6393814080001,-94.9855728159999,0
			35.6393699650001,-94.971977234,0
			35.6394805900002,-94.9617767329999,0
			35.6395988460002,-94.8082733149998,0
			35.6386718750001,-94.693878175,0
			35.638141632,-94.593070984,0
			35.63824463,-94.4999999999999,0
			35.6382598880001,-94.4876785279999,0
			35.6386604320002,-94.4739532469999,0
		</coordinates>
	</polygon>
</kml>
