<?xml version="1.0" encoding="UTF-8"?>
<kml xmlns="http://earth.google.com/kml/2.2">
	<polygon id="USA_NY_Erie" samplingProbability="1">
		<coordinates>
			42.5332603450001,-78.468292236,0
			42.5333623390002,-78.4820716289999,0
			42.5333703150001,-78.483149208,0
			42.533370973,-78.4832381579999,0
			42.5331304220001,-78.4840626979999,0
			42.53216811,-78.4873609869999,0
			42.5313987730001,-78.489997863,0
			42.5285606400002,-78.4948577879999,0
			42.5277910570002,-78.4960413789999,0
			42.5274789690001,-78.4965213579999,0
			42.526199342,-78.498489381,0
			42.5247192380001,-78.503410339,0
			42.525051118,-78.5090332029999,0
			42.523609163,-78.512077333,0
			42.521991386,-78.5137483239999,0
			42.5212899990001,-78.514473,0
			42.51899,-78.51561,0
			42.518040001,-78.5174329989999,0
			42.5183395010001,-78.523983016,0
			42.5186389990002,-78.5305330009999,0
			42.5184090500001,-78.5321178569999,0
			42.5181010010001,-78.5342410009999,0
			42.5171269130001,-78.535488271,0
			42.5166893010002,-78.536048889,0
			42.516384042,-78.5363409839998,0
			42.5148316050001,-78.537828485,0
			42.5145850000001,-78.538756,0
			42.5145298880001,-78.538963005,0
			42.5143394480002,-78.5396804809999,0
			42.5146713260001,-78.5446701049999,0
			42.5146112540001,-78.547267356,0
			42.5145828570002,-78.548495085,0
			42.514541626,-78.55027771,0
			42.5140190130001,-78.553367615,0
			42.5102195750001,-78.5600433349999,0
			42.508319854,-78.563690186,0
			42.5083963680001,-78.564319123,0
			42.508446113,-78.5647280279999,0
			42.5087013240001,-78.566825866,0
			42.5106391900001,-78.580596924,0
			42.5101013180001,-78.5843124399999,0
			42.509722116,-78.5852611889999,0
			42.5095268380001,-78.5857497689999,0
			42.509129,-78.5867459999999,0
			42.5085910000001,-78.5904689999999,0
			42.5089800000001,-78.592972,0
			42.5094567780001,-78.593661461,0
			42.509823983,-78.594192398,0
			42.5098609930001,-78.594245911,0
			42.5107421870002,-78.5955429089999,0
			42.511150361,-78.597427367,0
			42.5106390180001,-78.5998919149999,0
			42.5087885310002,-78.6022651279999,0
			42.5087590000001,-78.6023030009999,0
			42.5086560870002,-78.6025382,0
			42.5067760000002,-78.6068349999999,0
			42.506752996,-78.6068875739999,0
			42.5063591000001,-78.6077880849999,0
			42.5052315780001,-78.6108044009999,0
			42.5040910000001,-78.6138559999999,0
			42.502471706,-78.6181890049999,0
			42.5023564940001,-78.618978708,0
			42.5019302370001,-78.6219024659999,0
			42.5007717990001,-78.6243545459999,0
			42.5007390000002,-78.624424,0
			42.5005171810002,-78.6248936819999,0
			42.5004920010001,-78.6249470009999,0
			42.4990810000001,-78.626747,0
			42.4967500010001,-78.629143001,0
			42.496724226,-78.6303027899999,0
			42.4966812140001,-78.632247924,0
			42.496270431,-78.634641701,0
			42.4961668500001,-78.6352452949999,0
			42.4961509710001,-78.635337829,0
			42.4960932470001,-78.6354832169999,0
			42.4957703970001,-78.636296366,0
			42.4942092900001,-78.640228271,0
			42.490871429,-78.646919251,0
			42.4910089900002,-78.6473369349999,0
			42.4912185750002,-78.6479733099999,0
			42.4912910460001,-78.6481933589999,0
			42.491320816,-78.648384236,0
			42.4915540520001,-78.64987969,0
			42.4916801460001,-78.650688171,0
			42.4916714530002,-78.651042366,0
			42.4916594470001,-78.651531613,0
			42.4916496280001,-78.6519317639999,0
			42.490268708,-78.653106689,0
			42.4900651610001,-78.653615556,0
			42.4900570990002,-78.6536357109999,0
			42.489780425,-78.6543273929999,0
			42.4901512500001,-78.6548699849999,0
			42.4904304400001,-78.6552784959999,0
			42.4906616210001,-78.6556167609999,0
			42.490907615,-78.6581918349999,0
			42.4909857450001,-78.659009713,0
			42.4910202030001,-78.6593704219999,0
			42.4886093150001,-78.664855957,0
			42.4870867240002,-78.6690037749999,0
			42.4857607820001,-78.672615884,0
			42.4856910000001,-78.6728060009999,0
			42.4833110000001,-78.677063001,0
			42.48008,-78.6793979999999,0
			42.4765430000002,-78.685304,0
			42.474995011,-78.687887706,0
			42.473911286,-78.6896972659999,0
			42.4720002140002,-78.693336312,0
			42.4742010000002,-78.696548,0
			42.4768910000001,-78.697906,0
			42.4782637790001,-78.6983564989999,0
			42.4787788830001,-78.6985253,0
			42.4791488650002,-78.698646545,0
			42.4803836780001,-78.698704655,0
			42.4808674530001,-78.6987274209999,0
			42.481418611,-78.6987533579999,0
			42.4833630050002,-78.6992784259999,0
			42.4839951550001,-78.6994492089999,0
			42.484130942,-78.699485984,0
			42.4854087830001,-78.7026672359999,0
			42.4853793320001,-78.703891615,0
			42.4853551770001,-78.7048958469999,0
			42.4852294920001,-78.7101211549999,0
			42.4855072810001,-78.7149956749999,0
			42.4855414730001,-78.7155956769999,0
			42.4855499270001,-78.7157440189999,0
			42.485019684,-78.7188262939999,0
			42.4839320400001,-78.7204669349999,0
			42.4839043850002,-78.720508651,0
			42.4798202510001,-78.726669311,0
			42.4792404190001,-78.7316207879999,0
			42.4795554940002,-78.7342044249999,0
			42.479610307,-78.7346538819999,0
			42.4796218870001,-78.73474884,0
			42.4782295630002,-78.7359161049999,0
			42.478182999,-78.735924633,0
			42.4778381460002,-78.73598779,0
			42.4754790000001,-78.73642,0
			42.4743743800001,-78.7372633029999,0
			42.4731712340001,-78.738182068,0
			42.47313639,-78.739374112,0
			42.4731135570001,-78.7401552679999,0
			42.4730987560001,-78.740661621,0
			42.4729309080001,-78.7474975589999,0
			42.4721888700001,-78.7479655659999,0
			42.4720451490001,-78.7480562119999,0
			42.4720115670001,-78.7480773919999,0
			42.4701690680002,-78.7492370609999,0
			42.4700562720001,-78.7495190499999,0
			42.4696810000001,-78.750458001,0
			42.4695898680002,-78.7509879409999,0
			42.4691510000001,-78.75354,0
			42.4695590000001,-78.755417,0
			42.4704210010001,-78.7573319989999,0
			42.4704188730001,-78.757342104,0
			42.4700377820001,-78.7591513639999,0
			42.4699466530001,-78.759584226,0
			42.469902039,-78.7597961429999,0
			42.469605911,-78.7601734679999,0
			42.4694725200001,-78.760343432,0
			42.469429016,-78.760398864,0
			42.4680519100002,-78.7609558099999,0
			42.4662703170001,-78.7596282169999,0
			42.4660479890002,-78.759494139,0
			42.4640393170001,-78.7582830139999,0
			42.4621890010001,-78.7588120009999,0
			42.4621681970002,-78.759704012,0
			42.4621577700001,-78.7601572679999,0
			42.4621320000001,-78.7612989999999,0
			42.4631530000001,-78.763813,0
			42.4634210000002,-78.764473,0
			42.4635330000002,-78.7649979999999,0
			42.4637128750001,-78.7658467869999,0
			42.4638214110001,-78.766357421,0
			42.46415625,-78.767098532,0
			42.4644557730001,-78.7677614759999,0
			42.4646797190001,-78.768257142,0
			42.464621842,-78.7708808789999,0
			42.4646136710002,-78.7712512659999,0
			42.4646110530001,-78.771369933,0
			42.4646028910001,-78.771380441,0
			42.4640632230001,-78.772075237,0
			42.4636688240002,-78.772583007,0
			42.463606454,-78.7726621109999,0
			42.4634501560001,-78.7728603429999,0
			42.462730408,-78.773773193,0
			42.4613609310001,-78.773712158,0
			42.4604721070001,-78.7730484019999,0
			42.4595909130001,-78.771759034,0
			42.4594895980001,-78.7717544929999,0
			42.458376027,-78.771704585,0
			42.4582290600001,-78.7716980019999,0
			42.45812338,-78.7718328969999,0
			42.4572903030001,-78.7729000439999,0
			42.4570390000002,-78.7743589999999,0
			42.4570032480001,-78.774566466,0
			42.456760408,-78.775978089,0
			42.4562301630002,-78.7790679939998,0
			42.45645092,-78.7799024139999,0
			42.4565170000002,-78.780152,0
			42.4570483410002,-78.782159398,0
			42.4570620010001,-78.7822109989999,0
			42.4582253440001,-78.7856999269999,0
			42.4591712960001,-78.7885360719999,0
			42.459938475,-78.789412848,0
			42.4616407500001,-78.791358305,0
			42.463150247,-78.7930846209999,0
			42.4631714380001,-78.7932213249998,0
			42.463539123,-78.795593261,0
			42.4631344070002,-78.7961032709999,0
			42.4628204680002,-78.7964988859999,0
			42.462600709,-78.7967758179998,0
			42.4619160930001,-78.797055716,0
			42.4616057950001,-78.7971825779999,0
			42.4612197870002,-78.7973403929999,0
			42.459831239,-78.7985229499999,0
			42.4593620300002,-78.7991180409999,0
			42.4593580600001,-78.7992564089999,0
			42.4593503230002,-78.7995261149999,0
			42.4593086250001,-78.8009796129999,0
			42.459701538,-78.803489686,0
			42.4593147030001,-78.8060954529999,0
			42.4592304910001,-78.806662714,0
			42.4591522220001,-78.807189942,0
			42.457710267,-78.8102264409999,0
			42.4525063980001,-78.8184067179999,0
			42.4515610000001,-78.819893,0
			42.4515482760001,-78.8203791729999,0
			42.4514312750001,-78.8248596189999,0
			42.4518013000001,-78.827987671,0
			42.4517693860001,-78.8280282109999,0
			42.451687,-78.828133,0
			42.45039,-78.8297809999999,0
			42.4484961610001,-78.8328017419999,0
			42.446602001,-78.8358229999999,0
			42.4456465140001,-78.837642473,0
			42.4446910000001,-78.839462,0
			42.4446880270001,-78.8395109599999,0
			42.4440491980001,-78.8500362799999,0
			42.443901063,-78.852478026,0
			42.4421691890001,-78.8666992179999,0
			42.442829132,-78.876060486,0
			42.441903402,-78.87793255,0
			42.4417020000001,-78.8783399999999,0
			42.4404300000002,-78.8809129999999,0
			42.4406246180001,-78.8821687609999,0
			42.4408190600002,-78.8834237699999,0
			42.4410342670001,-78.886161842,0
			42.4411621090001,-78.8877868659999,0
			42.4417754620001,-78.890121564,0
			42.4419900010002,-78.8909379999999,0
			42.4419290010001,-78.8934169999999,0
			42.4441300010001,-78.896018999,0
			42.446369,-78.8973689999999,0
			42.4477030200001,-78.8986849809999,0
			42.448890441,-78.9004370629999,0
			42.4490089490001,-78.900611926,0
			42.4490149850002,-78.9006614179999,0
			42.449044256,-78.900901447,0
			42.4493904120001,-78.9037399279999,0
			42.4496961430001,-78.9076766329999,0
			42.4497228290002,-78.9080202549999,0
			42.449729921,-78.908111573,0
			42.4490844790001,-78.909094806,0
			42.448130249,-78.9105484299999,0
			42.447360992,-78.9117202749999,0
			42.44529742,-78.9139098469998,0
			42.4445500010001,-78.9147029999999,0
			42.4438030320002,-78.9170164829999,0
			42.4435620000001,-78.917762999,0
			42.4442107170001,-78.9190334239999,0
			42.4448590000001,-78.920303,0
			42.4466709760001,-78.9203869989999,0
			42.4476011690001,-78.919822784,0
			42.4490089420001,-78.9180221549999,0
			42.4508399960001,-78.9175033559999,0
			42.4531021120001,-78.9182281499999,0
			42.4566307070001,-78.92212677,0
			42.4579666670001,-78.9248459819999,0
			42.4590920190001,-78.9271365219999,0
			42.4600791930001,-78.929145814,0
			42.4657899,-78.936889864,0
			42.4704590000002,-78.949562,0
			42.4720550000001,-78.9511349999999,0
			42.4736713390001,-78.9527282729999,0
			42.4757690430001,-78.9547958379999,0
			42.4765854700001,-78.9559966439999,0
			42.478840001,-78.959312,0
			42.4789129580001,-78.959344469,0
			42.4803320000001,-78.9599759999999,0
			42.4803580540001,-78.9599875959999,0
			42.48197937,-78.960708618,0
			42.4842414860001,-78.9614410399999,0
			42.4878501900001,-78.962249755,0
			42.4891179850001,-78.962313678,0
			42.4897339660002,-78.962344737,0
			42.4901199340001,-78.962364198,0
			42.4928512430001,-78.962486266,0
			42.4930061350001,-78.962658951,0
			42.4946100010001,-78.964446999,0
			42.4963161210001,-78.9662477539999,0
			42.4977111820001,-78.9677200309999,0
			42.4982186870001,-78.9686740429999,0
			42.4996476000001,-78.9713601239999,0
			42.5024719990001,-78.9766690009999,0
			42.50341207,-78.9798743739999,0
			42.5041390010001,-78.982353,0
			42.5049331020001,-78.98314054,0
			42.505470187,-78.983673008,0
			42.5072900000001,-78.9837569999999,0
			42.5108800000001,-78.985176,0
			42.5176089990001,-78.9886319989999,0
			42.5228547010001,-78.991133589,0
			42.52345539,-78.9914230049999,0
			42.5235647670001,-78.9915260579999,0
			42.5283317570002,-78.996017455,0
			42.5313797000002,-79.0011596679999,0
			42.5325508120001,-79.0080566409999,0
			42.5341720580001,-79.0156173709998,0
			42.5367889400001,-79.0194931029999,0
			42.5388488770001,-79.0276870739999,0
			42.5391006460001,-79.035171509,0
			42.5383050460001,-79.0404322149999,0
			42.5382960640001,-79.040491609,0
			42.5379791260002,-79.04258728,0
			42.536521942,-79.0462493139999,0
			42.5359306330001,-79.0512084959999,0
			42.536231994,-79.05683136,0
			42.5379409790001,-79.060646058,0
			42.5379820680001,-79.060667415,0
			42.5382441030002,-79.060803614,0
			42.5392913830001,-79.061347961,0
			42.541110993,-79.061439513,0
			42.5419693000001,-79.0633468619999,0
			42.5419403610001,-79.0643918669999,0
			42.5419379760002,-79.0644779849999,0
			42.541900635,-79.0658264159999,0
			42.5418175800002,-79.066213606,0
			42.5417033880001,-79.0667459569999,0
			42.5413703920001,-79.068298339,0
			42.5417124230001,-79.069615562,0
			42.5421910000001,-79.0714569999999,0
			42.5434420000001,-79.0758819999999,0
			42.543448573,-79.0758946589999,0
			42.5475392790001,-79.0837729149999,0
			42.5477600100002,-79.084197997,0
			42.5490798960001,-79.085517884,0
			42.5504302800001,-79.0861968919999,0
			42.5506660760001,-79.086105716,0
			42.5518112190001,-79.085662841,0
			42.5523723360002,-79.085684908,0
			42.5526163080002,-79.085694503,0
			42.5531691520001,-79.085716244,0
			42.5535812370001,-79.0876159669999,0
			42.55354244,-79.0889350719999,0
			42.5534900000001,-79.090729,0
			42.5536597290001,-79.0912450759999,0
			42.5537747250002,-79.091594244,0
			42.5539093030001,-79.0920028679999,0
			42.5542242900001,-79.0934788049999,0
			42.554309937,-79.0938797059999,0
			42.5556793210002,-79.0939559939999,0
			42.5557090050002,-79.093957324,0
			42.5563356650001,-79.0939854109999,0
			42.5570411690001,-79.0940170289999,0
			42.55796051,-79.0934524529999,0
			42.5597991020001,-79.0929184229999,0
			42.5603613440001,-79.095244293,0
			42.5608244210001,-79.097160269,0
			42.561019898,-79.0979690549999,0
			42.562191011,-79.1048812859999,0
			42.5700416560001,-79.117126465,0
			42.567649842,-79.1213607779999,0
			42.565239016,-79.1262209669999,0
			42.565524224,-79.1274238119999,0
			42.5669514570001,-79.1334431029999,0
			42.5680809020002,-79.1382064829999,0
			42.570999757,-79.1368783569999,0
			42.5715240170001,-79.136639811,0
			42.5717697150001,-79.136528014,0
			42.5730432010001,-79.136233623,0
			42.5827600010002,-79.1339869989999,0
			42.5876308470001,-79.1320431779999,0
			42.5896607300001,-79.1312331079999,0
			42.5934295650001,-79.1264495839999,0
			42.6004104620001,-79.1205825799999,0
			42.611068726,-79.11366272,0
			42.6137788060001,-79.111319435,0
			42.6167811870001,-79.108723411,0
			42.6199188230001,-79.1060104369999,0
			42.6323013310001,-79.086082458,0
			42.6397705480002,-79.078979443,0
			42.6416587820001,-79.076576232,0
			42.6418418880002,-79.0697326659999,0
			42.643760681,-79.0660858159999,0
			42.644201814,-79.065885094,0
			42.645106497,-79.065473449,0
			42.6474494930001,-79.064407349,0
			42.6498651320002,-79.064532269,0
			42.6511180300001,-79.0645970599999,0
			42.6533508300001,-79.0647125239999,0
			42.6607023160001,-79.0650936519999,0
			42.663799,-79.0652539999999,0
			42.6682771760002,-79.0626921639999,0
			42.669303584,-79.062104899,0
			42.6697998060001,-79.061820983,0
			42.671908006,-79.059592804,0
			42.673099624,-79.0583333709999,0
			42.675430297,-79.0558700569999,0
			42.6787265200001,-79.0548593879999,0
			42.6796772130001,-79.054567892,0
			42.6841392520001,-79.0531997669999,0
			42.6892509470002,-79.0490875239999,0
			42.6945419320002,-79.038749695,0
			42.6949178480002,-79.0372699879999,0
			42.6962304350001,-79.032103287,0
			42.698612213,-79.0227279659999,0
			42.698779409,-79.022514553,0
			42.6990116690001,-79.0222180919999,0
			42.6995506300001,-79.0215301509999,0
			42.7005996710002,-79.016586304,0
			42.7008007840002,-79.016020526,0
			42.7011883230001,-79.0149302899999,0
			42.702555649,-79.01108224,0
			42.7025599990002,-79.0110699989999,0
			42.7032200000002,-79.0036159989999,0
			42.7039600000001,-78.993027,0
			42.7078399990001,-78.9838559999999,0
			42.7089102180001,-78.9821231869999,0
			42.7109465910001,-78.9788257789999,0
			42.7130699160002,-78.9753875729999,0
			42.7163505550001,-78.9718093879999,0
			42.7205886830001,-78.9664001469999,0
			42.7272987370002,-78.9536285409999,0
			42.730220795,-78.946281434,0
			42.7311057650001,-78.941358467,0
			42.7318390860001,-78.9372791069999,0
			42.7328910820001,-78.931427003,0
			42.7332139650001,-78.930649778,0
			42.7348536400001,-78.926702849,0
			42.7382316600002,-78.918571473,0
			42.738516649,-78.918158869,0
			42.7453190000001,-78.90831,0
			42.762142122,-78.8833775809999,0
			42.7779617320001,-78.859931946,0
			42.78171158,-78.855735779,0
			42.7868757480001,-78.8540326759999,0
			42.7888988070001,-78.853365487,0
			42.7899703990001,-78.8530120839999,0
			42.794509887,-78.8532333369999,0
			42.8026084890001,-78.856750489,0
			42.8035113880001,-78.85721344,0
			42.8053002160001,-78.858130639,0
			42.812042236,-78.8615875249998,0
			42.8219718940002,-78.8645706179999,0
			42.8244072120001,-78.8644293039999,0
			42.825203,-78.8643829999999,0
			42.8278880000001,-78.864227,0
			42.828830667,-78.863029422,0
			42.827060875,-78.8610689189999,0
			42.826558,-78.860743,0
			42.8264404500001,-78.8606668099999,0
			42.823928833,-78.8590393059999,0
			42.8216896060001,-78.8576812749999,0
			42.82190566,-78.856879728,0
			42.8220461600001,-78.856358486,0
			42.8221893320001,-78.8558273309998,0
			42.823570251,-78.8552703849999,0
			42.8246129150001,-78.8556085459999,0
			42.8255196980001,-78.8559026379999,0
			42.825828777,-78.856002928,0
			42.82761,-78.8573529999999,0
			42.8303110010002,-78.858734,0
			42.8339120000001,-78.860153,0
			42.8378499440001,-78.8599246849999,0
			42.8398284910002,-78.8598098749999,0
			42.842093705,-78.8609737419999,0
			42.842624321,-78.8612463729999,0
			42.8452186580002,-78.8625793449999,0
			42.8493978480001,-78.8664580999999,0
			42.8503990930001,-78.8673873669999,0
			42.852329254,-78.8691787709999,0
			42.8657302870001,-78.878585815,0
			42.8774185170001,-78.8841705309999,0
			42.8791178760002,-78.885166093,0
			42.8826906240002,-78.8872591709999,0
			42.8832397470001,-78.8875808709999,0
			42.8852568990002,-78.8895287049999,0
			42.8899149330001,-78.894026669,0
			42.8921214660002,-78.8961569689998,0
			42.8942764010002,-78.8975806519999,0
			42.899280549,-78.900886535,0
			42.9035860150001,-78.9006117199999,0
			42.9042978560001,-78.9005662019999,0
			42.9107208250001,-78.898391723,0
			42.9117551420002,-78.898686654,0
			42.913441,-78.8991669999999,0
			42.9184000000002,-78.9005809999999,0
			42.9236850000001,-78.901425,0
			42.9266247730001,-78.9018949159999,0
			42.929721833,-78.9023895269999,0
			42.9321270420002,-78.9034201979999,0
			42.934223,-78.904318,0
			42.9396209990002,-78.906630999,0
			42.9443813710001,-78.908442033,0
			42.9490890500001,-78.9102325449999,0
			42.9553985900001,-78.9124298569999,0
			42.959812863,-78.91940403,0
			42.961083863,-78.9214121739998,0
			42.9616278940002,-78.9222717269999,0
			42.9619522110001,-78.9227828979999,0
			42.9643854840001,-78.925867754,0
			42.9681210000001,-78.9306029999999,0
			42.9743310000002,-78.936546,0
			42.9771700000001,-78.93884,0
			42.9772871630001,-78.9389346729999,0
			42.9801292420001,-78.941230775,0
			42.9863507760001,-78.9407665869999,0
			42.99015,-78.9404829999999,0
			42.997151002,-78.9342361829999,0
			42.9983801610001,-78.933139349,0
			42.9994697570002,-78.9321670529999,0
			43.0061607370001,-78.919960021,0
			43.0105705260002,-78.90825653,0
			43.0125403120001,-78.90408093,0
			43.0133662950001,-78.902329993,0
			43.014900207,-78.89907837,0
			43.0227889820002,-78.8837431329999,0
			43.022593101,-78.8831543129999,0
			43.0228351070002,-78.8736825839999,0
			43.0229301460001,-78.8700027469999,0
			43.0210304270001,-78.8554763789999,0
			43.0206964310001,-78.8427569389999,0
			43.0205690010001,-78.8378980059999,0
			43.0257911670001,-78.8293762209999,0
			43.0265401230001,-78.8287063929999,0
			43.0277600000001,-78.8276159999999,0
			43.030449,-78.825211,0
			43.0350190000001,-78.824173,0
			43.037738851,-78.824935958,0
			43.0381521240002,-78.8253052069999,0
			43.039942367,-78.8269051339999,0
			43.0399590000001,-78.82692,0
			43.0436320000001,-78.828962,0
			43.0448990000001,-78.829666,0
			43.0500440000002,-78.827753,0
			43.050869,-78.827446,0
			43.0508739160001,-78.827421155,0
			43.0509441010001,-78.8270665759999,0
			43.0529594430001,-78.8168869009999,0
			43.05411911,-78.8069000249999,0
			43.0553329740001,-78.8064604529999,0
			43.0587092430001,-78.8052379979999,0
			43.0588202370001,-78.805192862,0
			43.0623558880001,-78.8037510589999,0
			43.0640048020002,-78.8030786469999,0
			43.0642320000001,-78.802986,0
			43.0663910000001,-78.7892989999999,0
			43.0664970000001,-78.7876909999999,0
			43.0671291040002,-78.7780668669999,0
			43.0671310000002,-78.778038,0
			43.0673210000001,-78.774601,0
			43.0679590000001,-78.763023,0
			43.070549,-78.7506029999999,0
			43.0703570000001,-78.7481799999999,0
			43.069853402,-78.741813372,0
			43.069851009,-78.741783116,0
			43.0735206610001,-78.740692138,0
			43.0771408080001,-78.7414932249999,0
			43.079540516,-78.739800477,0
			43.0854800000001,-78.7356109999999,0
			43.0857010000001,-78.7268299999999,0
			43.0824010000001,-78.7128679999999,0
			43.0853000000001,-78.7060999999999,0
			43.0855274150001,-78.705005795,0
			43.0868490000001,-78.6986469999998,0
			43.0888900000002,-78.689316,0
			43.0839720000001,-78.687516,0
			43.0830310000002,-78.6871719999999,0
			43.081082398,-78.683138367,0
			43.0808601380002,-78.6826782219999,0
			43.0800094600001,-78.6801300049999,0
			43.0818407600001,-78.6795881289999,0
			43.0821189510001,-78.6793091679999,0
			43.0831020000002,-78.678323,0
			43.0860400000001,-78.6753769999999,0
			43.0867000000002,-78.6672589999999,0
			43.0859140000002,-78.6612639999999,0
			43.085541,-78.658417,0
			43.0846640000001,-78.6552179999999,0
			43.08345,-78.650787,0
			43.0823550000002,-78.648626,0
			43.0808569440001,-78.6456686829999,0
			43.0808490000001,-78.6456529999999,0
			43.0845110000001,-78.644547,0
			43.0890690000001,-78.644127,0
			43.0950889300001,-78.6400220479999,0
			43.0885599550002,-78.628470076,0
			43.0885391190002,-78.62843321,0
			43.0876220250001,-78.6246937129998,0
			43.0862549920001,-78.6191193619999,0
			43.0848010000001,-78.61319,0
			43.0812930000001,-78.6135419999999,0
			43.0761413690001,-78.6140589629999,0
			43.0761778700002,-78.6124876779999,0
			43.076217,-78.61082,0
			43.0763017830002,-78.607171337,0
			43.0753904190001,-78.6044208019999,0
			43.0750312800001,-78.603340149,0
			43.072399139,-78.5988311779998,0
			43.0707893380002,-78.58996582,0
			43.0714791970001,-78.5874012309999,0
			43.0717882,-78.586252971,0
			43.0736503600001,-78.5844497689999,0
			43.0764694220001,-78.580818176,0
			43.0796688460002,-78.579504233,0
			43.0806120010001,-78.5791169999999,0
			43.0851740000001,-78.5793199999999,0
			43.0883290000001,-78.5794599999999,0
			43.086287774,-78.577446665,0
			43.0816690220001,-78.5728910189998,0
			43.0839920000001,-78.57048,0
			43.0894200000001,-78.571983,0
			43.0896300000001,-78.563202,0
			43.089773,-78.563079,0
			43.0951999990001,-78.5584259999999,0
			43.0930710000001,-78.5520629999999,0
			43.0936090010001,-78.548316999,0
			43.0973400000001,-78.5447159999999,0
			43.095928857,-78.544089819,0
			43.0910301220002,-78.5419158939999,0
			43.091087337,-78.54170363,0
			43.091209,-78.541253,0
			43.0920300000001,-78.5382079999999,0
			43.0916290000001,-78.535667,0
			43.0907520000001,-78.5343929999999,0
			43.0890010000001,-78.531166,0
			43.0889996150001,-78.5311546049999,0
			43.08879398,-78.5294626869999,0
			43.0886192320002,-78.5280227649999,0
			43.0887852030001,-78.520925909,0
			43.0888098760001,-78.5198722469999,0
			43.0884020000001,-78.5179669999999,0
			43.0910850510002,-78.513498222,0
			43.0917090240002,-78.5124589869999,0
			43.0923247210001,-78.512126944,0
			43.0981600000002,-78.50898,0
			43.0968670000001,-78.506839,0
			43.0946510920001,-78.50316781,0
			43.0923690010002,-78.5036999999999,0
			43.0905142960001,-78.500517786,0
			43.0897410000001,-78.4991909999998,0
			43.0880270000002,-78.498215,0
			43.0876460360001,-78.497998119,0
			43.0861511230001,-78.4971466059999,0
			43.0858821380002,-78.496344942,0
			43.0853200000002,-78.4946679999999,0
			43.0840214340001,-78.490798254,0
			43.086529,-78.4802319999999,0
			43.0868650000002,-78.4793769999999,0
			43.0884700000001,-78.475288,0
			43.08535,-78.472023,0
			43.0853448380001,-78.4718998179999,0
			43.085060008,-78.4651030859999,0
			43.0741460000001,-78.4646329999999,0
			43.0663322390001,-78.46429721,0
			43.0641400000001,-78.4642029999999,0
			43.0432400000001,-78.4633029999999,0
			42.975471,-78.4622729999999,0
			42.954414394,-78.462475029,0
			42.9361780000002,-78.4626499999999,0
			42.9040300000001,-78.462959,0
			42.8676490440001,-78.4626459999999,0
			42.8671490010001,-78.484519961,0
			42.862236996,-78.4845575889999,0
			42.8302990000001,-78.484801999,0
			42.7815900000001,-78.4864499999999,0
			42.7811070000001,-78.4724599999999,0
			42.7807690000001,-78.4626769999999,0
			42.7311253510001,-78.4633497089999,0
			42.7143519990001,-78.4635769989999,0
			42.6949253510002,-78.464560788,0
			42.6943092340001,-78.46459198,0
			42.6936589480001,-78.464572792,0
			42.6818890000001,-78.4642249999999,0
			42.6475814340001,-78.463213077,0
			42.6475110000001,-78.4632109989999,0
			42.6254903580001,-78.462269566,0
			42.6025310000001,-78.461288,0
			42.5333401760002,-78.4645614499999,0
			42.5332603450001,-78.468292236,0
		</coordinates>
	</polygon>
</kml>
