<?xml version="1.0" encoding="UTF-8"?>
<kml xmlns="http://earth.google.com/kml/2.2">
	<polygon id="USA_NC_Mecklenburg" samplingProbability="1">
		<coordinates>
			35.5112915030001,-80.7822799679999,0
			35.5030899040001,-80.7867126459998,0
			35.4948997500002,-80.7888870249999,0
			35.4836006160002,-80.78312683,0
			35.4749794020001,-80.7819061279999,0
			35.4668388380001,-80.777870179,0
			35.4613914500001,-80.777816773,0
			35.4577789310002,-80.774391173,0
			35.4229698170001,-80.754852295,0
			35.4148101800001,-80.75251007,0
			35.412528993,-80.755310059,0
			35.41337967,-80.7637863159999,0
			35.4019889840001,-80.7693099979999,0
			35.394371032,-80.7551269529999,0
			35.3786010750002,-80.7363662709999,0
			35.3623695370001,-80.718727112,0
			35.355190278,-80.70400238,0
			35.3506889350002,-80.6983184809999,0
			35.3131103520001,-80.682197571,0
			35.2705192560001,-80.667739868,0
			35.2498893740001,-80.6213760379999,0
			35.2368698120002,-80.59538269,0
			35.2107696540002,-80.5484695439999,0
			35.1486511230001,-80.6244964589999,0
			35.0626716610001,-80.732772828,0
			35.0374984740001,-80.7645416259999,0
			35.0347518930001,-80.7684402469998,0
			35.0328903210001,-80.774597168,0
			35.0314521790001,-80.7858123779999,0
			35.0314292900001,-80.7891769409999,0
			35.028629304,-80.8009414669999,0
			35.0203590390001,-80.8154525749999,0
			35.0189704890001,-80.819366456,0
			35.0180397030001,-80.8216018679999,0
			35.0166816710001,-80.8215866099999,0
			35.0098190320001,-80.828811646,0
			35.0061416620002,-80.834953308,0
			35.0015716560001,-80.840492248,0
			35.024589539,-80.860443115,0
			35.053459167,-80.8854217529999,0
			35.071640014,-80.9016265879999,0
			35.104930879,-80.931236268,0
			35.1017990120001,-80.937339784,0
			35.045238495,-81.0382766709999,0
			35.0432014470001,-81.0419158939999,0
			35.0468292240001,-81.0447158809999,0
			35.04819107,-81.046409607,0
			35.0507392890001,-81.0482864379999,0
			35.05273056,-81.050346374,0
			35.0556907660001,-81.0528488159999,0
			35.0581817630002,-81.0548400869999,0
			35.0611114510001,-81.0568466189999,0
			35.063629151,-81.0576629639999,0
			35.0669898990001,-81.058616639,0
			35.072238922,-81.058189392,0
			35.078800202,-81.0576629639999,0
			35.0833587660001,-81.0565872189999,0
			35.0867691030001,-81.0553894049999,0
			35.0903511060001,-81.054130554,0
			35.0927200320002,-81.0532989499999,0
			35.095649719,-81.0522689819999,0
			35.0975494380001,-81.0502624499999,0
			35.099040986,-81.0486907959999,0
			35.1002502450002,-81.0461502079999,0
			35.1014099120001,-81.043678284,0
			35.1022186270001,-81.0419540409999,0
			35.1026687630001,-81.0391387939999,0
			35.1035804760001,-81.036888123,0
			35.105400086,-81.035209655,0
			35.1071586610001,-81.034446717,0
			35.1094894400002,-81.034080505,0
			35.1135711670001,-81.0340881349999,0
			35.1185607900001,-81.0357666009999,0
			35.1212921150002,-81.036338805,0
			35.1240119930001,-81.0380172739999,0
			35.126739501,-81.040840149,0
			35.1281013500002,-81.0425262449999,0
			35.128860473,-81.0454177859999,0
			35.129459381,-81.0475769039999,0
			35.1301803600001,-81.049926757,0
			35.1312713630001,-81.0509567249999,0
			35.133541107,-81.052085876,0
			35.1365203870002,-81.0522689819999,0
			35.1392402640001,-81.051742554,0
			35.1419906610002,-81.0501174929998,0
			35.1462593080001,-81.047592163,0
			35.1494293220001,-81.044776916,0
			35.1485710140001,-81.0237503049999,0
			35.1536216730001,-81.0176315309998,0
			35.1532211300001,-81.0108795169999,0
			35.1568794260001,-81.0075531009999,0
			35.1650390630001,-81.008781434,0
			35.172790527,-81.0049362189999,0
			35.1814193730001,-81.004501343,0
			35.1864204400001,-81.0045623789999,0
			35.1923103340001,-81.0063323969999,0
			35.1972999570001,-81.006385804,0
			35.2054786680001,-81.005378722,0
			35.2109107980001,-81.0071258539999,0
			35.2231216430001,-81.0129165649999,0
			35.23085022,-81.011337281,0
			35.2349319460001,-81.0119628909999,0
			35.2508506770001,-81.008216858,0
			35.2585220340001,-81.0139465329999,0
			35.2685012810002,-81.0152130129999,0
			35.2875709530001,-81.0143432619999,0
			35.2930221550001,-81.0132827749998,0
			35.2944107060001,-81.010490417,0
			35.301731111,-81.003257752,0
			35.3044700620001,-81.002166749,0
			35.311328888,-80.996063233,0
			35.3131599440002,-80.9938278209999,0
			35.3204612740001,-80.9894180289999,0
			35.3236808770002,-80.9843826279999,0
			35.3287086500001,-80.9805068969999,0
			35.3341407770002,-80.982261659,0
			35.3372993480002,-80.983985902,0
			35.3445816040002,-80.9818267829999,0
			35.3501205440001,-80.9706268309999,0
			35.3506202700001,-80.965560914,0
			35.3488502510001,-80.959342957,0
			35.352081298,-80.9537429799998,0
			35.352149964,-80.9441528329999,0
			35.357200623,-80.9374465939998,0
			35.3613510120001,-80.9284820559999,0
			35.3627319340002,-80.9267959599999,0
			35.3636207590001,-80.9296264649999,0
			35.3657798770002,-80.943199158,0
			35.367530822,-80.950546265,0
			35.373840332,-80.956268311,0
			35.3756294260001,-80.95967102,0
			35.3756103530002,-80.9624862669999,0
			35.3737792970001,-80.9647293099999,0
			35.3687591550001,-80.966918945,0
			35.3669204710001,-80.9697189329999,0
			35.3641700740001,-80.9741897579999,0
			35.3645896910002,-80.9775772089999,0
			35.3695297250001,-80.9844131469999,0
			35.3799514770002,-80.9868011469999,0
			35.3822402960001,-80.9845733649999,0
			35.382270813,-80.980628967,0
			35.3827590950002,-80.9761199959999,0
			35.39012909,-80.9632415769999,0
			35.3924598700002,-80.955368041,0
			35.400630951,-80.954910277,0
			35.4133110050001,-80.9590072639999,0
			35.4287605290001,-80.9569473269999,0
			35.4360084530001,-80.9587402339999,0
			35.446041108,-80.9526519769999,0
			35.4524497990001,-80.9465332019999,0
			35.4570198050001,-80.9420623779999,0
			35.460189819,-80.9432296749999,0
			35.465579986,-80.950637817,0
			35.4701004030001,-80.9518280029999,0
			35.4810218820002,-80.948013306,0
			35.486030579,-80.946952819,0
			35.494159698,-80.950996399,0
			35.4986190800001,-80.961227418,0
			35.5090103160001,-80.966445923,0
			35.5131187440001,-80.963668823,0
			35.516342163,-80.9586257939999,0
			35.5177192690001,-80.9569473269999,0
			35.5112915030001,-80.7822799679999,0
		</coordinates>
	</polygon>
</kml>
