<?xml version="1.0" encoding="UTF-8"?>
<kml xmlns="http://earth.google.com/kml/2.2">
	<polygon id="USA_MO_Cape_Girardeau" samplingProbability="1">
		<coordinates>
			37.335971832,-89.480499267,0
			37.335971832,-89.4815292359999,0
			37.334678651,-89.484626771,0
			37.3319702140001,-89.488517761,0
			37.328102113,-89.4935760499999,0
			37.3247184760001,-89.497200012,0
			37.321998597,-89.500671387,0
			37.3183708190001,-89.5041427609999,0
			37.3130798340001,-89.5098114009999,0
			37.308578491,-89.5111541739999,0
			37.303409576,-89.5128173819999,0
			37.2970695490001,-89.514556886,0
			37.2914810190001,-89.5164718629999,0
			37.285728455,-89.518600463,0
			37.2812004100001,-89.518600463,0
			37.2766609200002,-89.51802063,0
			37.27212906,-89.5157089229999,0
			37.2673301700002,-89.5122299189999,0
			37.263641357,-89.5094833379999,0
			37.2576103220001,-89.503936768,0
			37.2535514840002,-89.4989318839999,0
			37.2521896360001,-89.4948883059998,0
			37.2512817380001,-89.489112854,0
			37.2512092590001,-89.4839630119999,0
			37.2519989020001,-89.479286193,0
			37.2521896360001,-89.4735031119999,0
			37.25228119,-89.47175598,0
			37.2501487730001,-89.477630615,0
			37.2477798460001,-89.4916229239998,0
			37.2471389770001,-89.502616882,0
			37.2441787730001,-89.511421204,0
			37.2438697810001,-89.517219543,0
			37.2449111940001,-89.5223770149999,0
			37.2472190850002,-89.5240173339999,0
			37.2474594110001,-89.552360535,0
			37.2401885980001,-89.5520629879999,0
			37.2400703430002,-89.5844573969999,0
			37.2323799140001,-89.585327149,0
			37.2332687390002,-89.6223068249999,0
			37.218341827,-89.6240463259999,0
			37.2189788820001,-89.6511917109999,0
			37.2067604070001,-89.652236938,0
			37.2071418770001,-89.668411255,0
			37.19898224,-89.66871643,0
			37.199871064,-89.687187195,0
			37.1844596870001,-89.68776703,0
			37.184879304,-89.7056732189999,0
			37.1549606320001,-89.7067871089999,0
			37.1558189400001,-89.7240829469999,0
			37.1408691410001,-89.7252120969999,0
			37.1416587840001,-89.75984192,0
			37.1258010860001,-89.7604217519999,0
			37.1254501340002,-89.7650527959998,0
			37.1273193370002,-89.8694992059999,0
			37.2184295660001,-89.8674468989999,0
			37.2183685310001,-89.8645629889999,0
			37.599720001,-89.8632125859999,0
			37.599601745,-89.8161468509999,0
			37.6008796700002,-89.812606812,0
			37.602130891,-89.8073425279999,0
			37.601661682,-89.8067779539999,0
			37.6016197200001,-89.8050308219999,0
			37.6020393370001,-89.8032760619999,0
			37.602481842,-89.80268097,0
			37.6029205330001,-89.8020782469999,0
			37.60472107,-89.8014373789999,0
			37.605598451,-89.8002395629999,0
			37.6060409540002,-89.799636842,0
			37.6055717470002,-89.7990798959999,0
			37.6028099060002,-89.797431946,0
			37.6014595040002,-89.7974777229999,0
			37.5987586980002,-89.7987365719999,0
			37.5956306460001,-89.8005981449999,0
			37.5933914190001,-89.801841735,0
			37.5924797060001,-89.8018722539999,0
			37.5924720760001,-89.8012924199999,0
			37.592899323,-89.800117492,0
			37.5933418270001,-89.7995071409999,0
			37.5933303840001,-89.7989273059999,0
			37.5933189400002,-89.798362732,0
			37.5932998670002,-89.797782898,0
			37.5923805240002,-89.7972259519999,0
			37.592369081,-89.7966461189999,0
			37.5927619940001,-89.79373169,0
			37.5927391060002,-89.7931365969999,0
			37.5922813420001,-89.792579651,0
			37.592269899,-89.7919998169999,0
			37.594490051,-89.790176391,0
			37.5980606080001,-89.7877197259999,0
			37.5985107420001,-89.787117005,0
			37.5984916680001,-89.786537171,0
			37.5984802250001,-89.785957336,0
			37.5980110180001,-89.7854003899999,0
			37.597549439,-89.7848358159999,0
			37.5943412780001,-89.783210755,0
			37.5934295660001,-89.7832412709998,0
			37.5929603590001,-89.7826766969999,0
			37.592060089,-89.782707214,0
			37.591590882,-89.7821502679999,0
			37.5910911560001,-89.7798461919999,0
			37.5906219490001,-89.7792816159999,0
			37.5906105040001,-89.7787017829999,0
			37.5910110470001,-89.776359559,0
			37.590930939,-89.7728805529999,0
			37.5913505560001,-89.771118163,0
			37.5912895200001,-89.7687988269999,0
			37.5912399300001,-89.7664718629999,0
			37.5912284850002,-89.7658920279999,0
			37.5912094120001,-89.765312196,0
			37.5898094180001,-89.7636184689999,0
			37.5898017880002,-89.763038635,0
			37.5888786320002,-89.7624969489999,0
			37.5879516610001,-89.761367799,0
			37.5879402160002,-89.7607879639999,0
			37.5874595640001,-89.7596359249998,0
			37.5883789070001,-89.7601928709999,0
			37.5892791760001,-89.7601470939999,0
			37.5906295770002,-89.7595214849999,0
			37.5915107730001,-89.758331299,0
			37.5919303900001,-89.7571487429999,0
			37.591880798,-89.7548294069999,0
			37.5940284740001,-89.749519348,0
			37.5943489090001,-89.743698121,0
			37.5942497260001,-89.739051818,0
			37.5951499940002,-89.7390213019999,0
			37.5960693370001,-89.739570617,0
			37.5969886780001,-89.7401123049999,0
			37.5988197330001,-89.7406158439999,0
			37.599720001,-89.740592957,0
			37.6001586910001,-89.739997865,0
			37.600978852,-89.7358932499999,0
			37.6013984690002,-89.7347183219999,0
			37.6013793960001,-89.7335586549999,0
			37.6003799440002,-89.7295303339999,0
			37.5994300840001,-89.727821349,0
			37.5985107420001,-89.727272034,0
			37.5980491650001,-89.726707459,0
			37.597110748,-89.7255783089999,0
			37.5952301030001,-89.7227478019999,0
			37.5947608960001,-89.7216033929999,0
			37.5933799740001,-89.7210693349999,0
			37.5924415590002,-89.7193679809999,0
			37.5923995970001,-89.7176208489999,0
			37.5932807920001,-89.7164306629999,0
			37.5941886910001,-89.716392516,0
			37.5950889590002,-89.7163619999999,0
			37.5968589790001,-89.714546204,0
			37.597740173,-89.7133560189999,0
			37.5986213690001,-89.7121582029998,0
			37.5990600590001,-89.71156311,0
			37.599048614,-89.7109832749999,0
			37.5990295410001,-89.7103958129999,0
			37.5985717770001,-89.7098388669999,0
			37.5976409910002,-89.7087097159999,0
			37.5971717840001,-89.70815277,0
			37.5966796880001,-89.7064208989999,0
			37.5961990360001,-89.7052764899998,0
			37.5957221980001,-89.7041320789999,0
			37.5961303720001,-89.7023773189999,0
			37.5961189270001,-89.7017974849999,0
			37.595619201,-89.7000732419999,0
			37.5932807920001,-89.6966705319999,0
			37.5932502750001,-89.695510865,0
			37.594131471,-89.6943130489999,0
			37.5950088500001,-89.6931228629999,0
			37.5958595270002,-89.6907730109999,0
			37.5962791440002,-89.6890029899999,0
			37.5958099370002,-89.6884384159999,0
			37.594841004,-89.685569764,0
			37.594360352,-89.6844329839999,0
			37.593448639,-89.6844558719999,0
			37.5925407420001,-89.684486389,0
			37.5916404720001,-89.6845321659999,0
			37.5912017820002,-89.685127259,0
			37.5907592780002,-89.6857299799999,0
			37.5903205880001,-89.6863174439999,0
			37.5891304020002,-89.6859588629999,0
			37.5885009770001,-89.686386108,0
			37.5866394050001,-89.684143067,0
			37.5861701960001,-89.6835784909998,0
			37.5856895450002,-89.682426452,0
			37.5843200690002,-89.6819076529999,0
			37.584308624,-89.6813201899998,0
			37.5842895500001,-89.6807403559999,0
			37.5842819220001,-89.680160523,0
			37.5842704770002,-89.679580689,0
			37.5842590340002,-89.679000854,0
			37.58423996,-89.6784210199999,0
			37.5842285170001,-89.6778411869998,0
			37.5869407660001,-89.677726747,0
			37.588760377,-89.677673339,0
			37.5901107800001,-89.6776199339998,0
			37.5914802550002,-89.6775665289999,0
			37.5914497380001,-89.67640686,0
			37.5909805310001,-89.6758422859999,0
			37.5909690860001,-89.675262451,0
			37.5900497450002,-89.6747131349999,0
			37.5891304020002,-89.674171448,0
			37.588218689,-89.6742019639999,0
			37.5877609250001,-89.6736373899999,0
			37.5868415840002,-89.673103333,0
			37.5863685600002,-89.6725311279999,0
			37.5854797360001,-89.6731414789999,0
			37.5836486820002,-89.67263031,0
			37.5836410520001,-89.672050476,0
			37.5840797430002,-89.6714630129999,0
			37.5849800120002,-89.671417236,0
			37.5854187010002,-89.670822143,0
			37.5853996270002,-89.6696624759999,0
			37.5867385870001,-89.6690292369998,0
			37.5889396680001,-89.6660385139999,0
			37.5889320380001,-89.665458679,0
			37.5898208620001,-89.6648483279999,0
			37.5898094180001,-89.6642684939999,0
			37.5911712650001,-89.664222717,0
			37.5925407420001,-89.6647415159999,0
			37.5957412720001,-89.665779114,0
			37.5970993050001,-89.6657333369999,0
			37.5979995730002,-89.665702821,0
			37.5979919440001,-89.6651229859999,0
			37.5982704170002,-89.657546996,0
			37.598651886,-89.6546173089999,0
			37.5986404420001,-89.6540527349999,0
			37.5981407170001,-89.6523208609999,0
			37.598129273,-89.6517410269999,0
			37.597660064,-89.6511764529999,0
			37.5976486210001,-89.6505966179999,0
			37.597141267,-89.6482925419999,0
			37.5975799550001,-89.6476974489999,0
			37.5980110180001,-89.6465072639999,0
			37.5984306330001,-89.645339967,0
			37.5997505190001,-89.643547058,0
			37.6019897470001,-89.6422958369998,0
			37.6028785710001,-89.6416778569999,0
			37.6033210770001,-89.6410827649999,0
			37.6032714840002,-89.6387557979999,0
			37.6014404310001,-89.6382522569999,0
			37.598258972,-89.637786865,0
			37.597351074,-89.6378173819999,0
			37.5960197450001,-89.6390380859999,0
			37.5951118470001,-89.639076233,0
			37.594669342,-89.6396713259999,0
			37.5946807870002,-89.6402511609999,0
			37.5942497260001,-89.6408462529999,0
			37.5933494570002,-89.6414566049999,0
			37.591999054,-89.6415176399999,0
			37.5910797130001,-89.640975952,0
			37.5906105040001,-89.640411376,0
			37.5905990610001,-89.639831543,0
			37.590129853,-89.639266967,0
			37.5891990670001,-89.638137817,0
			37.5905113220001,-89.6363372799999,0
			37.5931587230002,-89.633338929,0
			37.5935592650001,-89.6309967049999,0
			37.5916900640001,-89.6287460319999,0
			37.5911788950002,-89.6258621219999,0
			37.5920486460001,-89.6246566769999,0
			37.5929603590001,-89.6246261589999,0
			37.593399049,-89.624031066,0
			37.5933303840001,-89.6211318969999,0
			37.5933189400002,-89.620552063,0
			37.593750001,-89.619949342,0
			37.5942192080001,-89.620506286,0
			37.594661713,-89.6199188229999,0
			37.5946502680001,-89.6193389889999,0
			37.5946311950001,-89.618751526,0
			37.5937004090001,-89.6176300059999,0
			37.5932312010002,-89.6170730599999,0
			37.5914192190002,-89.6171264649999,0
			37.5923118590001,-89.6165161139999,0
			37.5936584470001,-89.615890502,0
			37.5949516300001,-89.612930298,0
			37.5953903200001,-89.6123428349999,0
			37.5967521670001,-89.6122817999999,0
			37.5976409910002,-89.611656188,0
			37.597599029,-89.609916687,0
			37.5975799550001,-89.609336852,0
			37.5975685120001,-89.6087570199999,0
			37.5975608820002,-89.608177185,0
			37.5988998420001,-89.6075363149999,0
			37.5993690490001,-89.6081085199999,0
			37.6011695860001,-89.6074600219999,0
			37.602970123,-89.606811524,0
			37.6033515930001,-89.603889465,0
			37.6028709410002,-89.602737428,0
			37.6019516000002,-89.60220337,0
			37.6001510630002,-89.6028518679999,0
			37.5978889470001,-89.6029357919999,0
			37.5969810490001,-89.602966309,0
			37.595619201,-89.6030273439999,0
			37.594718934,-89.6030731209999,0
			37.5924606330001,-89.6037292469999,0
			37.5915412900002,-89.603187561,0
			37.590129853,-89.6009063719999,0
			37.5891799940001,-89.5992126459999,0
			37.586849213,-89.5963974009999,0
			37.586830139,-89.5958175659999,0
			37.5840606690001,-89.5935974119999,0
			37.5826797490002,-89.5930709849999,0
			37.5817794800002,-89.5931091319999,0
			37.580890656,-89.593727111,0
			37.5804595950001,-89.5949020379999,0
			37.5800399780002,-89.5960769659999,0
			37.5796012880001,-89.5966796869999,0
			37.5786895750001,-89.5967178339999,0
			37.5786705020002,-89.596138001,0
			37.5781898490001,-89.594985962,0
			37.577259063,-89.593856812,0
			37.574958802,-89.592216492,0
			37.574489593,-89.5916519159999,0
			37.5744705200001,-89.5910720819999,0
			37.574459077,-89.5904922489999,0
			37.5758094800001,-89.589859009,0
			37.5776214600001,-89.5897903439999,0
			37.5789604180002,-89.5891571039999,0
			37.5802803040002,-89.5873565669999,0
			37.5806999220001,-89.5861816399999,0
			37.5815887460001,-89.584976196,0
			37.5815620420001,-89.5838165289999,0
			37.581539154,-89.5832366939999,0
			37.5806388860001,-89.5832672129999,0
			37.5792808530002,-89.583328246,0
			37.5778999330001,-89.5828018189998,0
			37.5765304560001,-89.58228302,0
			37.5756301890001,-89.5823059079999,0
			37.575191499,-89.582908631,0
			37.5747604380002,-89.5840911869998,0
			37.5743217480001,-89.584686279,0
			37.5729217520001,-89.583000183,0
			37.5715484630001,-89.5824661259999,0
			37.571079254,-89.5819091789999,0
			37.5706100460001,-89.5813369749999,0
			37.5714797970001,-89.579566955,0
			37.5723304750001,-89.577217102,0
			37.5727500920001,-89.576026916,0
			37.5731086730001,-89.5719528199999,0
			37.573020935,-89.568466187,0
			37.5734405520002,-89.5667114249999,0
			37.574249267,-89.5626068119999,0
			37.5750808710001,-89.559677125,0
			37.575939179,-89.557899474,0
			37.5759315490001,-89.5573196419999,0
			37.5763397220001,-89.555557252,0
			37.576309204,-89.554397583,0
			37.5762786870001,-89.5532379159998,0
			37.5753517160001,-89.5521163929999,0
			37.5739212040002,-89.5492629999999,0
			37.5734519970002,-89.5487060539999,0
			37.5729904180001,-89.5481414799999,0
			37.572078705,-89.548179626,0
			37.5716400150001,-89.5487670889999,0
			37.5707588210001,-89.5499725349999,0
			37.570281983,-89.5488281239999,0
			37.5693702710001,-89.548866271,0
			37.568908692,-89.5483016969999,0
			37.5674514780001,-89.5442962639999,0
			37.566978454,-89.54373169,0
			37.5669708260001,-89.5431518559998,0
			37.5673484810002,-89.5402297969999,0
			37.567790985,-89.5396270759999,0
			37.5684890750001,-89.5386123659999,0
			37.5691413880001,-89.539001464,0
			37.5695991520001,-89.53955841,0
			37.5714607240001,-89.5412292479999,0
			37.5723609930001,-89.54119873,0
			37.5732688910001,-89.5411605829999,0
			37.573699951,-89.539978027,0
			37.5741195680001,-89.5388030999998,0
			37.573650361,-89.538238526,0
			37.5731887820002,-89.5376663209999,0
			37.572269439,-89.5371322639999,0
			37.5708694460001,-89.535446167,0
			37.5699386600002,-89.534896851,0
			37.5681190500001,-89.53439331,0
			37.5671997070001,-89.5338516229999,0
			37.5662918090001,-89.5338821409999,0
			37.5662498470001,-89.5321426399998,0
			37.5639114380001,-89.529327393,0
			37.5638999940001,-89.528762817,0
			37.5638809210001,-89.528182984,0
			37.5647811880001,-89.527557373,0
			37.5659790040001,-89.5215377809999,0
			37.5654296880001,-89.521568299,0
			37.5582885740001,-89.5220108029999,0
			37.5531806950002,-89.5198364259999,0
			37.5436820990001,-89.517951965,0
			37.5331306450001,-89.513153075,0
			37.5246315000001,-89.507637024,0
			37.5193099980002,-89.5044174179999,0
			37.511951448,-89.5000686639999,0
			37.5055313120001,-89.4974288929999,0
			37.4992408750001,-89.494880676,0
			37.4933509830001,-89.49256134,0
			37.4862403880001,-89.48776245,0
			37.4809188840001,-89.4824371329999,0
			37.4746704110001,-89.478363037,0
			37.4693298330002,-89.4745788569999,0
			37.4647903450001,-89.468780518,0
			37.4593505860001,-89.4629898069999,0
			37.4534492490002,-89.4537124619999,0
			37.4489212040001,-89.4485015879999,0
			37.4443397520001,-89.4442062369999,0
			37.4393997200001,-89.4409713749999,0
			37.4296112070001,-89.4355468759999,0
			37.421379089,-89.4329757679999,0
			37.4113121040001,-89.429336548,0
			37.401721955,-89.426841736,0
			37.3940505980001,-89.424209595,0
			37.3895187380001,-89.42363739,0
			37.383178711,-89.4230575559999,0
			37.3776092530002,-89.423782349,0
			37.3718414300001,-89.4248123179999,0
			37.365501405,-89.4259719849999,0
			37.3600616450001,-89.427719117,0
			37.3514518740001,-89.430618285,0
			37.347450257,-89.4331359859999,0
			37.3443984990001,-89.4378967289999,0
			37.3422508230001,-89.442619325,0
			37.3405799870002,-89.4508895869999,0
			37.3395195000001,-89.4601058969999,0
			37.3383903500001,-89.4694061279999,0
			37.3376503000002,-89.4763870249999,0
			37.335971832,-89.480499267,0
		</coordinates>
	</polygon>
</kml>
