<?xml version="1.0" encoding="UTF-8"?>
<kml xmlns="http://earth.google.com/kml/2.2">
	<polygon id="USA_PA_Lehigh" samplingProbability="1">
		<coordinates>
			40.446430207,-75.5278472889999,0
			40.464141845,-75.5581893929999,0
			40.5022697450001,-75.620635987,0
			40.544029236,-75.684883118,0
			40.5505409240001,-75.695602417,0
			40.5653800970001,-75.7188262929999,0
			40.580200196,-75.740249634,0
			40.5862312310002,-75.7497940069999,0
			40.5973587030002,-75.7676773069999,0
			40.599208832,-75.770072937,0
			40.605232239,-75.7796020509999,0
			40.6182098400001,-75.8004913329999,0
			40.676078796,-75.890029908,0
			40.6910095210001,-75.8508758539999,0
			40.7089805610001,-75.8031692499999,0
			40.7235908500001,-75.7767257689999,0
			40.7333412170001,-75.759513855,0
			40.7350921640002,-75.7546234129999,0
			40.7381591800001,-75.746650697,0
			40.741249085,-75.7411193849999,0
			40.7488594070002,-75.7330398569999,0
			40.7524108880001,-75.728096008,0
			40.764259339,-75.6992797849999,0
			40.7673606870001,-75.6943359379999,0
			40.7726898190002,-75.6857070909999,0
			40.7735404960001,-75.6820526119999,0
			40.776939393,-75.66557312,0
			40.7840995780002,-75.627746583,0
			40.7861099250001,-75.610702514,0
			40.7765388490001,-75.6079330439998,0
			40.7665405280002,-75.6063690179999,0
			40.7537994380001,-75.6036758419999,0
			40.7460212710002,-75.599639893,0
			40.7409820550001,-75.5961303709999,0
			40.7377586370001,-75.593193054,0
			40.7345199600001,-75.5890274059999,0
			40.7340316770001,-75.5866088869999,0
			40.7344322210002,-75.582962037,0
			40.7348403930002,-75.579917907,0
			40.735240936,-75.5762557979999,0
			40.73382187,-75.572647096,0
			40.7310600280001,-75.5702972409999,0
			40.7283287050002,-75.5691680899999,0
			40.7237319950002,-75.5656509399999,0
			40.721820832,-75.5590286249999,0
			40.721302033,-75.5548019419999,0
			40.723041535,-75.54989624,0
			40.7248001100002,-75.546211242,0
			40.7283821100001,-75.5430831909999,0
			40.7320098870001,-75.5429763799999,0
			40.7369613640001,-75.5404205329999,0
			40.7382698060002,-75.537345887,0
			40.7372817990001,-75.5319061289999,0
			40.7354087840001,-75.528327942,0
			40.7262992870001,-75.5261459339999,0
			40.7098617550001,-75.5193328849999,0
			40.7002296450001,-75.5129318229999,0
			40.6855506900002,-75.5024261479999,0
			40.6791000380001,-75.495941162,0
			40.6762695310001,-75.489356995,0
			40.6730690000001,-75.487632752,0
			40.6534309400002,-75.4791030879999,0
			40.6699295060002,-75.4331665049999,0
			40.6533317580001,-75.4166870119998,0
			40.6297492980001,-75.3901062019999,0
			40.5944404610001,-75.3947982789999,0
			40.59218216,-75.3948593149999,0
			40.5810012810002,-75.4048767089999,0
			40.5586318980002,-75.3692169179999,0
			40.5371894830001,-75.3353805549999,0
			40.523921967,-75.3551406859999,0
			40.5017890940001,-75.3878631589999,0
			40.5000190740001,-75.390930176,0
			40.4938392640001,-75.4007873529999,0
			40.4925003060001,-75.4026412969999,0
			40.4880790720001,-75.409416199,0
			40.4872093210001,-75.4112625129999,0
			40.4546508780002,-75.4454498279999,0
			40.451080323,-75.449172975,0
			40.4492988590001,-75.4510421749999,0
			40.445732117,-75.4547729499999,0
			40.4345893860001,-75.4671707159999,0
			40.4292411800001,-75.473365784,0
			40.4265594490001,-75.4758529649999,0
			40.4194221500002,-75.4833068839999,0
			40.428298951,-75.4993667599999,0
			40.4324913020001,-75.5064926159999,0
			40.4441185,-75.5249023439999,0
			40.446430207,-75.5278472889999,0
		</coordinates>
	</polygon>
</kml>
