<?xml version="1.0" encoding="UTF-8"?>
<kml xmlns="http://earth.google.com/kml/2.2">
	<polygon id="USA_WA_San_Juan" samplingProbability="1">
		<coordinates>
			48.7119450000001,-122.886108,0
			48.7119450000001,-122.88472,0
			48.7122230000001,-122.884445,0
			48.7119870000001,-122.883911,0
			48.7119480000001,-122.88327,0
			48.7119290000002,-122.882614,0
			48.7118800000002,-122.881966,0
			48.711777,-122.881332,0
			48.7118760000002,-122.880692,0
			48.7121390000001,-122.880081,0
			48.7125020000001,-122.879509,0
			48.712608,-122.879318,0
			48.7128300000001,-122.878929,0
			48.7129170000002,-122.878242,0
			48.7130550000001,-122.877502,0
			48.7128330000002,-122.876556,0
			48.7124400000001,-122.876373,0
			48.7122230000001,-122.876114,0
			48.711777,-122.87561,0
			48.7115020000002,-122.875504,0
			48.7113880000002,-122.875557,0
			48.7111130000001,-122.875275,0
			48.7111130000001,-122.875,0
			48.710835,-122.874725,0
			48.710835,-122.874168,0
			48.7105560000001,-122.873886,0
			48.7105560000001,-122.873337,0
			48.7102780000001,-122.873055,0
			48.7102780000001,-122.872223,0
			48.7099990000002,-122.871948,0
			48.709946,-122.87178,0
			48.7097780000001,-122.871338,0
			48.7096670000002,-122.871223,0
			48.7097210000001,-122.871109,0
			48.7097660000001,-122.870514,0
			48.7086110000001,-122.869446,0
			48.7086520000001,-122.869125,0
			48.7080920000001,-122.86869,0
			48.7075880000002,-122.86824,0
			48.7071190000001,-122.867783,0
			48.7066650000002,-122.867226,0
			48.705833,-122.866386,0
			48.705498,-122.865829,0
			48.7055020000002,-122.863892,0
			48.7054440000001,-122.863281,0
			48.7053340000002,-122.863052,0
			48.705276,-122.862778,0
			48.705276,-122.862503,0
			48.7048910000001,-122.861732,0
			48.704884,-122.860985,0
			48.7050320000001,-122.860199,0
			48.7050820000001,-122.859406,0
			48.7048420000002,-122.85865,0
			48.7045210000001,-122.857925,0
			48.7042690000002,-122.857185,0
			48.7041970000001,-122.85643,0
			48.7042200000002,-122.85569,0
			48.7042880000001,-122.85498,0
			48.704124,-122.854301,0
			48.7038420000002,-122.853683,0
			48.7035100000001,-122.853127,0
			48.7032890000001,-122.852486,0
			48.7030560000002,-122.851845,0
			48.7028770000001,-122.851196,0
			48.7029000000001,-122.850502,0
			48.70311,-122.849808,0
			48.7031170000001,-122.849121,0
			48.7028540000001,-122.848526,0
			48.7025680000001,-122.847946,0
			48.7023050000002,-122.847366,0
			48.7019730000001,-122.84684,0
			48.7016530000001,-122.846313,0
			48.7014200000002,-122.845734,0
			48.7012100000002,-122.845139,0
			48.7008900000002,-122.844589,0
			48.7011910000001,-122.844017,0
			48.700886,-122.843384,0
			48.7004850000001,-122.842758,0
			48.700562,-122.842171,0
			48.7002910000002,-122.841576,0
			48.700287,-122.840965,0
			48.7002790000001,-122.840279,0
			48.7000010000002,-122.839996,0
			48.7001690000002,-122.8395,0
			48.6998370000001,-122.83828,0
			48.6995010000002,-122.836945,0
			48.6994440000001,-122.83667,0
			48.6994440000001,-122.836388,0
			48.6991650000001,-122.836113,0
			48.6991650000001,-122.835556,0
			48.698612,-122.834167,0
			48.6986350000001,-122.833878,0
			48.6983340000001,-122.833611,0
			48.6983760000002,-122.833321,0
			48.6980820000002,-122.832687,0
			48.6979410000001,-122.831932,0
			48.6976280000001,-122.831253,0
			48.697277,-122.830612,0
			48.6969760000002,-122.829941,0
			48.6967050000001,-122.829254,0
			48.6963810000001,-122.828606,0
			48.6960330000001,-122.827972,0
			48.6956140000001,-122.827385,0
			48.6952710000001,-122.826797,0
			48.6948550000002,-122.826256,0
			48.6944310000001,-122.825729,0
			48.694016,-122.825211,0
			48.693653,-122.824654,0
			48.6933670000001,-122.824051,0
			48.6931110000001,-122.823441,0
			48.692799,-122.822868,0
			48.692505,-122.822281,0
			48.692234,-122.821671,0
			48.6920050000001,-122.82103,0
			48.6918680000001,-122.820366,0
			48.6916660000001,-122.819778,0
			48.6913950000001,-122.819267,0
			48.691124,-122.818756,0
			48.6909100000001,-122.818207,0
			48.6908340000002,-122.817619,0
			48.6907690000002,-122.817024,0
			48.690594,-122.81646,0
			48.690319,-122.815956,0
			48.689911,-122.81559,0
			48.689445,-122.815292,0
			48.6889800000001,-122.814987,0
			48.6886290000002,-122.814514,0
			48.6883350000002,-122.813972,0
			48.6880530000001,-122.8134,0
			48.6877780000001,-122.81282,0
			48.6875,-122.812241,0
			48.6872140000002,-122.811661,0
			48.6869280000001,-122.811081,0
			48.6866570000001,-122.810501,0
			48.686386,-122.809921,0
			48.6861270000001,-122.809341,0
			48.685905,-122.808746,0
			48.6857680000001,-122.808121,0
			48.6855430000001,-122.807518,0
			48.68528,-122.806946,0
			48.6850240000002,-122.806374,0
			48.6848220000001,-122.805771,0
			48.684692,-122.805099,0
			48.6844370000001,-122.804527,0
			48.6840400000001,-122.804039,0
			48.6836320000001,-122.803558,0
			48.6832620000002,-122.803085,0
			48.6829030000002,-122.802612,0
			48.6825830000001,-122.802124,0
			48.6823120000001,-122.801582,0
			48.682045,-122.801018,0
			48.6815570000002,-122.800735,0
			48.6809960000001,-122.80056,0
			48.6804470000002,-122.8004,0
			48.6800040000001,-122.800041,0
			48.6796420000002,-122.799606,0
			48.6794700000002,-122.799065,0
			48.6794400000002,-122.79847,0
			48.679398,-122.797874,0
			48.679211,-122.797318,0
			48.6791690000001,-122.79673,0
			48.6791650000001,-122.796135,0
			48.6791380000002,-122.795547,0
			48.6789930000001,-122.794975,0
			48.6788250000001,-122.794403,0
			48.6785740000001,-122.793877,0
			48.6782380000002,-122.793396,0
			48.6778490000002,-122.792931,0
			48.6774980000001,-122.792435,0
			48.6771660000001,-122.791924,0
			48.6768680000001,-122.791382,0
			48.6765900000001,-122.790817,0
			48.6763310000001,-122.79023,0
			48.6760710000001,-122.78965,0
			48.6758800000001,-122.78904,0
			48.6757580000001,-122.788422,0
			48.6755450000001,-122.787819,0
			48.6753010000002,-122.787224,0
			48.6750720000001,-122.786613,0
			48.6748540000002,-122.785973,0
			48.6746220000001,-122.785332,0
			48.6743660000001,-122.784698,0
			48.6741560000001,-122.784058,0
			48.6740680000001,-122.783386,0
			48.6738510000001,-122.782738,0
			48.6736030000002,-122.782089,0
			48.6733320000001,-122.781448,0
			48.673073,-122.7808,0
			48.672848,-122.780128,0
			48.672695,-122.779434,0
			48.67247,-122.77877,0
			48.6722070000001,-122.77813,0
			48.6719440000001,-122.777496,0
			48.6717110000001,-122.776848,0
			48.671585,-122.776154,0
			48.671368,-122.775475,0
			48.6711240000001,-122.774803,0
			48.6709020000002,-122.774124,0
			48.6707730000002,-122.773399,0
			48.6706120000002,-122.772705,0
			48.67049,-122.772011,0
			48.6703410000001,-122.771324,0
			48.6700900000001,-122.770668,0
			48.6699410000001,-122.769981,0
			48.6698070000002,-122.769608,0
			48.6697080000001,-122.769325,0
			48.669449,-122.768677,0
			48.6692050000001,-122.768028,0
			48.6690100000001,-122.767357,0
			48.6688120000001,-122.766701,0
			48.6686020000001,-122.766052,0
			48.6684000000001,-122.765404,0
			48.6682740000002,-122.76474,0
			48.668118,-122.764107,0
			48.667942,-122.763489,0
			48.6676980000001,-122.762909,0
			48.6674270000001,-122.76236,0
			48.6672710000001,-122.761757,0
			48.6672060000001,-122.761131,0
			48.6671260000001,-122.760506,0
			48.6669880000002,-122.759888,0
			48.6668740000001,-122.759262,0
			48.6666790000002,-122.758644,0
			48.6664850000001,-122.758018,0
			48.666321,-122.757378,0
			48.6662450000001,-122.756729,0
			48.6662980000001,-122.756096,0
			48.6662600000001,-122.755508,0
			48.6660770000001,-122.755005,0
			48.6658020000001,-122.754555,0
			48.6654550000001,-122.754128,0
			48.665604,-122.7537,0
			48.6653710000001,-122.75325,0
			48.6652570000001,-122.752403,0
			48.6651500000002,-122.751823,0
			48.665016,-122.75135,0
			48.6647910000001,-122.75087,0
			48.664509,-122.750191,0
			48.6643300000001,-122.749512,0
			48.6639440000002,-122.748833,0
			48.6638300000002,-122.748161,0
			48.6636540000002,-122.747513,0
			48.6635020000001,-122.74688,0
			48.6632880000001,-122.746315,0
			48.663017,-122.745781,0
			48.6627690000001,-122.745262,0
			48.6625520000001,-122.744759,0
			48.6624980000001,-122.743889,0
			48.6622240000002,-122.743614,0
			48.6622240000002,-122.743332,0
			48.6619450000002,-122.743057,0
			48.6619450000002,-122.742775,0
			48.6616670000001,-122.7425,0
			48.6616670000001,-122.742226,0
			48.660831,-122.741386,0
			48.6605570000001,-122.741386,0
			48.6602780000001,-122.741669,0
			48.6602780000001,-122.743614,0
			48.6600000000002,-122.743889,0
			48.660088,-122.744286,0
			48.6599540000001,-122.744606,0
			48.659794,-122.744919,0
			48.6595610000001,-122.745201,0
			48.6594010000002,-122.745613,0
			48.6591680000001,-122.746109,0
			48.6588900000002,-122.746948,0
			48.6588900000002,-122.747223,0
			48.6583330000001,-122.748886,0
			48.6580540000001,-122.749168,0
			48.6580200000001,-122.749481,0
			48.6578180000001,-122.749931,0
			48.6574750000001,-122.750328,0
			48.6572300000001,-122.750839,0
			48.657066,-122.751396,0
			48.6569250000001,-122.751938,0
			48.6567460000001,-122.752419,0
			48.6566280000001,-122.752869,0
			48.656437,-122.75325,0
			48.6563910000002,-122.75367,0
			48.656387,-122.754082,0
			48.656387,-122.754448,0
			48.6561130000001,-122.754723,0
			48.6555560000002,-122.755058,0
			48.653332,-122.755005,0
			48.652222,-122.755554,0
			48.6520610000002,-122.755676,0
			48.6518290000002,-122.755531,0
			48.6516530000002,-122.755302,0
			48.6514510000002,-122.755096,0
			48.6512220000001,-122.754951,0
			48.6510240000002,-122.754768,0
			48.6507640000002,-122.754623,0
			48.6504780000001,-122.754486,0
			48.6501730000001,-122.754562,0
			48.6498300000002,-122.7547,0
			48.6495820000001,-122.755051,0
			48.6493910000001,-122.755447,0
			48.6491850000001,-122.755836,0
			48.6488420000001,-122.75618,0
			48.6486020000002,-122.756645,0
			48.6483350000001,-122.757118,0
			48.6480710000001,-122.757599,0
			48.6478500000001,-122.758118,0
			48.6477130000001,-122.758598,0
			48.647675,-122.758675,0
			48.6474040000002,-122.759178,0
			48.6472320000001,-122.75975,0
			48.6470570000001,-122.760307,0
			48.6469120000002,-122.760887,0
			48.6466670000001,-122.761414,0
			48.6464120000002,-122.761925,0
			48.6462550000001,-122.762489,0
			48.646099,-122.763054,0
			48.645882,-122.763565,0
			48.6456640000001,-122.764046,0
			48.6454050000002,-122.764412,0
			48.645058,-122.764648,0
			48.6446530000001,-122.764809,0
			48.6444440000002,-122.764999,0
			48.644165,-122.764999,0
			48.64389,-122.764725,0
			48.6436120000001,-122.764725,0
			48.642776,-122.765556,0
			48.6427570000001,-122.766121,0
			48.6426350000001,-122.76667,0
			48.6424870000001,-122.767212,0
			48.6422770000001,-122.767738,0
			48.6420820000002,-122.768234,0
			48.641758,-122.768539,0
			48.6413960000001,-122.768715,0
			48.6411400000001,-122.769203,0
			48.6409110000001,-122.769875,0
			48.6408420000001,-122.770599,0
			48.640816,-122.771332,0
			48.6407590000001,-122.772057,0
			48.6406250000001,-122.772758,0
			48.6405490000002,-122.773346,0
			48.6405330000001,-122.773445,0
			48.6404300000001,-122.774101,0
			48.640251,-122.774734,0
			48.6400410000001,-122.775383,0
			48.6399840000001,-122.776077,0
			48.6399380000001,-122.776428,0
			48.6398930000001,-122.776764,0
			48.6397210000001,-122.777496,0
			48.6397210000001,-122.778336,0
			48.6394460000002,-122.77861,0
			48.6394460000002,-122.779167,0
			48.639725,-122.779778,0
			48.6401710000002,-122.781059,0
			48.6398890000001,-122.78167,0
			48.6397780000001,-122.781944,0
			48.6398580000002,-122.782143,0
			48.6399990000002,-122.782501,0
			48.6399990000002,-122.782776,0
			48.6394960000001,-122.783386,0
			48.639412,-122.783562,0
			48.6393170000002,-122.783768,0
			48.639214,-122.783981,0
			48.639107,-122.78437,0
			48.6391300000002,-122.784843,0
			48.6389160000001,-122.785271,0
			48.6387410000002,-122.78569,0
			48.638718,-122.786171,0
			48.638134,-122.786102,0
			48.6378630000002,-122.786438,0
			48.637505,-122.786217,0
			48.6371350000001,-122.785835,0
			48.6369060000002,-122.785606,0
			48.6366690000001,-122.785408,0
			48.6364590000002,-122.785217,0
			48.6362040000002,-122.785065,0
			48.6360470000002,-122.785034,0
			48.636112,-122.784721,0
			48.6358340000002,-122.784447,0
			48.6355550000001,-122.784447,0
			48.6354450000001,-122.783836,0
			48.6347240000001,-122.785004,0
			48.6347240000001,-122.785278,0
			48.6349980000001,-122.785553,0
			48.635094,-122.786072,0
			48.6347920000001,-122.786819,0
			48.634708,-122.787437,0
			48.634594,-122.788048,0
			48.634422,-122.788551,0
			48.6344450000001,-122.788887,0
			48.6336780000001,-122.789658,0
			48.6333350000002,-122.790001,0
			48.6333350000002,-122.790558,0
			48.6333310000002,-122.791061,0
			48.6333310000002,-122.791473,0
			48.6333470000001,-122.791901,0
			48.6334420000001,-122.79232,0
			48.6336140000001,-122.792709,0
			48.633793,-122.793106,0
			48.6338500000001,-122.793564,0
			48.6340290000002,-122.793976,0
			48.6338920000001,-122.794441,0
			48.6337050000002,-122.794922,0
			48.6335560000001,-122.795448,0
			48.6333390000001,-122.795952,0
			48.6331290000002,-122.796455,0
			48.6329800000001,-122.797005,0
			48.6327360000001,-122.797462,0
			48.6324160000001,-122.797836,0
			48.6319850000002,-122.798012,0
			48.6315000000002,-122.797928,0
			48.6310730000002,-122.797569,0
			48.6306420000001,-122.79718,0
			48.630253,-122.796783,0
			48.6298220000001,-122.796539,0
			48.6292840000002,-122.796753,0
			48.6290320000001,-122.79689,0
			48.6287310000001,-122.797058,0
			48.6283990000001,-122.797523,0
			48.628052,-122.797943,0
			48.6277770000002,-122.798378,0
			48.6275140000001,-122.798759,0
			48.6272740000001,-122.79911,0
			48.6269990000001,-122.799355,0
			48.6266750000001,-122.799393,0
			48.6263580000002,-122.799194,0
			48.6260380000002,-122.799065,0
			48.6257970000001,-122.79892,0
			48.6255870000002,-122.798927,0
			48.6252780000002,-122.799164,0
			48.6252780000002,-122.799446,0
			48.6250460000002,-122.799507,0
			48.6247220000002,-122.800171,0
			48.6244010000001,-122.800819,0
			48.6240010000002,-122.801338,0
			48.62352,-122.801743,0
			48.6233100000001,-122.802345,0
			48.6230850000001,-122.80294,0
			48.6229290000001,-122.803535,0
			48.622696,-122.804047,0
			48.6223870000001,-122.804497,0
			48.6221430000001,-122.805008,0
			48.6219370000001,-122.805534,0
			48.6217350000001,-122.806061,0
			48.621571,-122.806587,0
			48.6213230000001,-122.807045,0
			48.6209300000001,-122.807388,0
			48.6204340000001,-122.807678,0
			48.6198690000001,-122.807892,0
			48.6194570000001,-122.808174,0
			48.6190680000001,-122.808456,0
			48.618576,-122.80864,0
			48.6181070000001,-122.808861,0
			48.617672,-122.809105,0
			48.6172180000001,-122.809113,0
			48.6167870000002,-122.808891,0
			48.616367,-122.808601,0
			48.615982,-122.808273,0
			48.6156810000001,-122.807899,0
			48.6153830000002,-122.807549,0
			48.6150400000002,-122.807228,0
			48.614765,-122.806892,0
			48.6145480000002,-122.806549,0
			48.614269,-122.806335,0
			48.6139910000001,-122.806084,0
			48.6137430000002,-122.805809,0
			48.6135410000002,-122.805489,0
			48.6133730000001,-122.805145,0
			48.6132890000001,-122.804764,0
			48.6131130000001,-122.804459,0
			48.6129910000001,-122.804138,0
			48.6127280000001,-122.803917,0
			48.612221,-122.803886,0
			48.611111,-122.805,0
			48.6108320000002,-122.804726,0
			48.6108320000002,-122.804443,0
			48.6103710000001,-122.803947,0
			48.610104,-122.803696,0
			48.6098900000001,-122.803413,0
			48.6096380000002,-122.803162,0
			48.6093440000002,-122.802956,0
			48.6090320000001,-122.802765,0
			48.6087230000002,-122.802582,0
			48.608406,-122.80246,0
			48.6081280000001,-122.802322,0
			48.6078530000001,-122.802193,0
			48.6076240000002,-122.802048,0
			48.6074600000001,-122.801849,0
			48.6069450000001,-122.801941,0
			48.606388,-122.802498,0
			48.6055560000001,-122.801666,0
			48.6055560000001,-122.801392,0
			48.6052780000001,-122.801109,0
			48.6052780000001,-122.800003,0
			48.6047210000002,-122.799446,0
			48.603889,-122.799446,0
			48.603889,-122.799164,0
			48.6027790000001,-122.798058,0
			48.6025010000001,-122.798332,0
			48.6022220000002,-122.798332,0
			48.6019440000001,-122.798615,0
			48.601665,-122.798615,0
			48.6014630000002,-122.798813,0
			48.6013870000002,-122.798889,0
			48.6013870000002,-122.799446,0
			48.6019440000001,-122.800003,0
			48.6019440000001,-122.803055,0
			48.6022220000002,-122.803337,0
			48.6022220000002,-122.804443,0
			48.6019440000001,-122.804726,0
			48.6022220000002,-122.805,0
			48.6025010000001,-122.805832,0
			48.6025010000001,-122.806114,0
			48.6027790000001,-122.806389,0
			48.6027790000001,-122.806664,0
			48.6030080000002,-122.807152,0
			48.6033550000001,-122.807579,0
			48.603752,-122.807907,0
			48.6041450000001,-122.808151,0
			48.6045000000001,-122.808403,0
			48.6047780000001,-122.80867,0
			48.604965,-122.808945,0
			48.6050000000001,-122.809166,0
			48.6050000000001,-122.809723,0
			48.6055560000001,-122.810837,0
			48.6055560000001,-122.811668,0
			48.6059420000001,-122.812439,0
			48.606182,-122.813095,0
			48.6063420000002,-122.813789,0
			48.6063800000001,-122.814514,0
			48.6063270000001,-122.815224,0
			48.6060710000001,-122.815819,0
			48.6056750000002,-122.816292,0
			48.6053010000002,-122.816811,0
			48.6050190000001,-122.817383,0
			48.6049460000001,-122.817558,0
			48.6047900000002,-122.81794,0
			48.6044350000001,-122.818321,0
			48.6040040000001,-122.818573,0
			48.603539,-122.81871,0
			48.6031000000001,-122.818855,0
			48.6026190000001,-122.818954,0
			48.6023220000001,-122.819138,0
			48.6019860000001,-122.819283,0
			48.6017000000001,-122.819443,0
			48.6014600000001,-122.819611,0
			48.6012840000001,-122.819817,0
			48.6011120000001,-122.82,0
			48.600834,-122.820274,0
			48.6013220000001,-122.820763,0
			48.6022220000002,-122.821663,0
			48.601665,-122.82222,0
			48.6013870000002,-122.82222,0
			48.6002770000001,-122.822777,0
			48.5999910000001,-122.823067,0
			48.5999980000001,-122.823891,0
			48.6000860000001,-122.824348,0
			48.600327,-122.824745,0
			48.600651,-122.824989,0
			48.6009940000001,-122.82518,0
			48.6011160000001,-122.825302,0
			48.6012380000001,-122.825432,0
			48.6013870000002,-122.825806,0
			48.6015090000001,-122.826218,0
			48.6016430000002,-122.82666,0
			48.601665,-122.827095,0
			48.6016270000001,-122.827522,0
			48.6014440000001,-122.827896,0
			48.6012990000002,-122.82827,0
			48.6011200000001,-122.828575,0
			48.600967,-122.828857,0
			48.6008990000001,-122.828964,0
			48.6008300000001,-122.829071,0
			48.6007690000002,-122.829277,0
			48.6009450000001,-122.829674,0
			48.6015130000001,-122.830276,0
			48.6022300000001,-122.830582,0
			48.6029170000001,-122.830727,0
			48.6035460000001,-122.830666,0
			48.6041760000002,-122.830727,0
			48.6048050000002,-122.830795,0
			48.6054340000002,-122.830811,0
			48.6060410000001,-122.830727,0
			48.6065670000001,-122.830437,0
			48.6070290000001,-122.830063,0
			48.6074910000002,-122.829697,0
			48.6076660000001,-122.829361,0
			48.6080550000001,-122.82917,0
			48.608612,-122.828613,0
			48.6086690000001,-122.829056,0
			48.6088370000002,-122.8293,0
			48.6094510000001,-122.8293,0
			48.6097300000001,-122.828972,0
			48.6100650000001,-122.829132,0
			48.6109540000002,-122.829056,0
			48.611446,-122.82872,0
			48.6121670000002,-122.828804,0
			48.6133350000002,-122.828667,0
			48.6136090000001,-122.828888,0
			48.6139720000001,-122.828888,0
			48.6143800000002,-122.828888,0
			48.6147920000001,-122.828941,0
			48.6151540000001,-122.82914,0
			48.6155200000001,-122.82933,0
			48.6158290000001,-122.829582,0
			48.6161080000001,-122.829865,0
			48.6163520000001,-122.83017,0
			48.6165160000001,-122.830406,0
			48.616543,-122.830505,0
			48.6169090000001,-122.830582,0
			48.6171380000001,-122.831032,0
			48.6174350000001,-122.831169,0
			48.617893,-122.831429,0
			48.6181110000001,-122.831665,0
			48.6184620000002,-122.831665,0
			48.6187400000001,-122.831673,0
			48.6189230000002,-122.831764,0
			48.6191670000001,-122.831665,0
			48.61972,-122.831108,0
			48.6199990000002,-122.831108,0
			48.6205560000001,-122.830559,0
			48.6208340000002,-122.830559,0
			48.6213870000001,-122.830002,0
			48.6214790000001,-122.830139,0
			48.6218340000001,-122.830666,0
			48.6219440000002,-122.83139,0
			48.6219440000002,-122.831665,0
			48.6216660000001,-122.831947,0
			48.6216660000001,-122.832222,0
			48.6213870000001,-122.832497,0
			48.6213870000001,-122.832779,0
			48.6211130000002,-122.833054,0
			48.6208340000002,-122.833054,0
			48.6202770000001,-122.833611,0
			48.61972,-122.833611,0
			48.6193920000001,-122.833946,0
			48.6192280000001,-122.834137,0
			48.6191370000001,-122.834412,0
			48.6189650000001,-122.834679,0
			48.6188960000001,-122.835022,0
			48.6188620000001,-122.835403,0
			48.6187130000002,-122.835747,0
			48.6185840000002,-122.836105,0
			48.6183360000001,-122.836388,0
			48.6180840000002,-122.83667,0
			48.617863,-122.836937,0
			48.617668,-122.837303,0
			48.6176950000001,-122.837791,0
			48.6180190000001,-122.838409,0
			48.618404,-122.83905,0
			48.6188130000001,-122.839676,0
			48.6191520000001,-122.840317,0
			48.6193310000002,-122.840996,0
			48.6191860000001,-122.841644,0
			48.6190070000002,-122.8423,0
			48.619038,-122.843033,0
			48.6193390000001,-122.843697,0
			48.6196590000001,-122.844376,0
			48.6199530000001,-122.84507,0
			48.620392,-122.845581,0
			48.6208420000001,-122.846062,0
			48.6212650000001,-122.846542,0
			48.621582,-122.84713,0
			48.621792,-122.847755,0
			48.622013,-122.848373,0
			48.6223300000001,-122.848907,0
			48.6227680000001,-122.849304,0
			48.6232530000001,-122.849648,0
			48.6238020000001,-122.849869,0
			48.6243900000001,-122.849915,0
			48.6249430000001,-122.850121,0
			48.6254620000001,-122.850395,0
			48.625935,-122.850731,0
			48.626408,-122.851036,0
			48.626854,-122.851349,0
			48.6271930000001,-122.851746,0
			48.6274680000002,-122.852188,0
			48.6277160000001,-122.852661,0
			48.6280560000001,-122.853081,0
			48.628441,-122.853462,0
			48.6289180000001,-122.853729,0
			48.6295010000002,-122.853813,0
			48.6300160000001,-122.853958,0
			48.6304660000001,-122.854195,0
			48.6308780000001,-122.854507,0
			48.6312600000001,-122.854874,0
			48.6316260000002,-122.855263,0
			48.6319690000001,-122.855698,0
			48.6323240000002,-122.856133,0
			48.632694,-122.85656,0
			48.6331670000001,-122.85688,0
			48.6337050000002,-122.857124,0
			48.6341930000001,-122.857445,0
			48.6346700000001,-122.85778,0
			48.635159,-122.858124,0
			48.6356810000001,-122.858437,0
			48.6361580000001,-122.858795,0
			48.6366350000001,-122.859138,0
			48.6370960000001,-122.859505,0
			48.637527,-122.859909,0
			48.6379510000002,-122.860313,0
			48.6383630000001,-122.860733,0
			48.6387790000001,-122.86116,0
			48.6391750000002,-122.861618,0
			48.6395760000001,-122.862068,0
			48.6399800000002,-122.862526,0
			48.6402780000001,-122.863052,0
			48.6411090000001,-122.863892,0
			48.6419450000002,-122.863892,0
			48.6425020000001,-122.864441,0
			48.642776,-122.864441,0
			48.6430550000001,-122.864723,0
			48.6433330000001,-122.864723,0
			48.64389,-122.86528,0
			48.64389,-122.865555,0
			48.6444440000002,-122.866112,0
			48.6447220000001,-122.866112,0
			48.645,-122.866386,0
			48.6452790000002,-122.866386,0
			48.6458130000001,-122.866791,0
			48.6463010000001,-122.867226,0
			48.6466220000001,-122.867798,0
			48.646812,-122.868446,0
			48.6470340000001,-122.86908,0
			48.6469610000001,-122.869698,0
			48.646801,-122.870277,0
			48.6464460000001,-122.870712,0
			48.6460460000001,-122.871101,0
			48.6456150000001,-122.871475,0
			48.6451840000001,-122.871841,0
			48.6447140000002,-122.872177,0
			48.644238,-122.872498,0
			48.643806,-122.872841,0
			48.6435240000001,-122.873276,0
			48.6435740000002,-122.873802,0
			48.6438330000001,-122.874329,0
			48.6442490000001,-122.874756,0
			48.644768,-122.875114,0
			48.6452220000001,-122.875557,0
			48.645672,-122.875999,0
			48.646172,-122.876373,0
			48.64669,-122.876709,0
			48.6471710000001,-122.877075,0
			48.6476140000001,-122.87748,0
			48.6480560000001,-122.878052,0
			48.6483350000001,-122.878052,0
			48.6497150000001,-122.879028,0
			48.649929,-122.879013,0
			48.6501430000001,-122.879173,0
			48.6503790000001,-122.879395,0
			48.6506730000001,-122.879562,0
			48.6509930000001,-122.879753,0
			48.6512910000001,-122.880005,0
			48.6515960000001,-122.880287,0
			48.651909,-122.880592,0
			48.652222,-122.880836,0
			48.6525000000001,-122.881111,0
			48.6532170000001,-122.881813,0
			48.6539340000001,-122.882172,0
			48.6544910000002,-122.882408,0
			48.6553690000002,-122.882523,0
			48.6562420000001,-122.882881,0
			48.6571200000001,-122.883354,0
			48.6578370000001,-122.883713,0
			48.659206,-122.884209,0
			48.6597210000002,-122.884163,0
			48.6600000000002,-122.884163,0
			48.6602780000001,-122.883888,0
			48.6622240000002,-122.883888,0
			48.662697,-122.88385,0
			48.6630550000002,-122.883926,0
			48.6632540000001,-122.883926,0
			48.6636120000001,-122.883888,0
			48.6644440000002,-122.883888,0
			48.6647220000001,-122.883614,0
			48.6655540000002,-122.883614,0
			48.6658330000001,-122.883331,0
			48.6661110000001,-122.883331,0
			48.6663890000002,-122.883057,0
			48.6666680000001,-122.883057,0
			48.6669430000002,-122.883331,0
			48.6672210000001,-122.883331,0
			48.6675000000001,-122.883377,0
			48.667736,-122.883446,0
			48.6684530000001,-122.88324,0
			48.6691320000001,-122.882912,0
			48.6697960000001,-122.882599,0
			48.67049,-122.882584,0
			48.6710850000001,-122.882782,0
			48.671658,-122.883034,0
			48.6722370000002,-122.883247,0
			48.6728290000001,-122.88343,0
			48.6734390000001,-122.883522,0
			48.6740570000001,-122.883423,0
			48.6746220000001,-122.883163,0
			48.6751820000001,-122.882858,0
			48.6757430000001,-122.882553,0
			48.6763530000002,-122.88237,0
			48.6770210000002,-122.882454,0
			48.677597,-122.882797,0
			48.6777760000002,-122.882774,0
			48.6777760000002,-122.883057,0
			48.6780550000001,-122.883331,0
			48.6783330000001,-122.883331,0
			48.6790540000002,-122.882553,0
			48.679443,-122.8825,0
			48.68008,-122.882301,0
			48.6803050000001,-122.882301,0
			48.6805840000001,-122.882553,0
			48.680641,-122.882889,0
			48.6808320000001,-122.883614,0
			48.681023,-122.883614,0
			48.6813740000001,-122.88372,0
			48.68177,-122.883636,0
			48.6821940000001,-122.883606,0
			48.6826020000001,-122.883553,0
			48.6829530000001,-122.883392,0
			48.6833800000002,-122.882874,0
			48.6844370000001,-122.882874,0
			48.6848830000002,-122.882957,0
			48.6859440000001,-122.882957,0
			48.6863330000001,-122.883209,0
			48.6869430000001,-122.883888,0
			48.6872220000001,-122.883888,0
			48.6875,-122.884163,0
			48.6878550000001,-122.884392,0
			48.6881330000002,-122.884598,0
			48.6884920000001,-122.884766,0
			48.6888730000001,-122.884941,0
			48.6893200000001,-122.885056,0
			48.6897510000001,-122.885262,0
			48.6901360000002,-122.885529,0
			48.690334,-122.885918,0
			48.6905560000001,-122.88633,0
			48.6907840000001,-122.886765,0
			48.691002,-122.887222,0
			48.6912310000002,-122.88768,0
			48.6915320000001,-122.888084,0
			48.691837,-122.888481,0
			48.6921730000001,-122.888863,0
			48.6924900000001,-122.889252,0
			48.6928060000001,-122.889648,0
			48.6931760000002,-122.889984,0
			48.6936420000002,-122.890312,0
			48.6940040000001,-122.890549,0
			48.6944120000001,-122.890839,0
			48.6947560000002,-122.891182,0
			48.6950110000001,-122.891617,0
			48.69521,-122.892067,0
			48.695278,-122.892502,0
			48.6955570000002,-122.892776,0
			48.6955570000002,-122.89389,0
			48.695278,-122.894165,0
			48.6955570000002,-122.894447,0
			48.6955570000002,-122.895279,0
			48.6954420000001,-122.895393,0
			48.6950000000001,-122.895836,0
			48.6950000000001,-122.896111,0
			48.6948780000001,-122.896507,0
			48.6947520000002,-122.896843,0
			48.6947250000001,-122.897217,0
			48.6947210000001,-122.897621,0
			48.6947020000001,-122.898041,0
			48.6945990000002,-122.898514,0
			48.6944120000001,-122.89888,0
			48.6941030000001,-122.899254,0
			48.6938400000002,-122.899635,0
			48.693546,-122.899956,0
			48.69323,-122.900185,0
			48.6928980000001,-122.90023,0
			48.6925770000001,-122.90007,0
			48.692249,-122.899818,0
			48.6919480000001,-122.899513,0
			48.6916660000001,-122.899208,0
			48.6913910000001,-122.898911,0
			48.6911280000002,-122.898628,0
			48.690903,-122.898361,0
			48.6901970000001,-122.898392,0
			48.6897240000002,-122.898415,0
			48.6897240000002,-122.898613,0
			48.6889840000001,-122.899643,0
			48.6889720000001,-122.900101,0
			48.6888960000001,-122.900375,0
			48.6890070000002,-122.900673,0
			48.6891400000002,-122.900993,0
			48.6891670000001,-122.901367,0
			48.6891670000001,-122.901772,0
			48.689209,-122.902176,0
			48.6894,-122.902542,0
			48.6894800000001,-122.902954,0
			48.6896740000001,-122.903297,0
			48.6898690000001,-122.903641,0
			48.6900370000001,-122.904022,0
			48.6902850000001,-122.90435,0
			48.6905520000001,-122.904663,0
			48.6908230000001,-122.904991,0
			48.691113,-122.905281,0
			48.6916660000001,-122.90583,0
			48.6922230000002,-122.905281,0
			48.6925010000001,-122.905281,0
			48.6927800000001,-122.905556,0
			48.6927800000001,-122.90583,0
			48.6933330000002,-122.906387,0
			48.6936110000001,-122.906387,0
			48.6936110000001,-122.90667,0
			48.6937480000001,-122.906807,0
			48.6938900000001,-122.906944,0
			48.6938900000001,-122.909447,0
			48.6933330000002,-122.910004,0
			48.6933330000002,-122.910278,0
			48.6927800000001,-122.910835,0
			48.6925010000001,-122.910835,0
			48.6920810000001,-122.91111,0
			48.6917340000001,-122.911476,0
			48.6914520000001,-122.911934,0
			48.6911850000001,-122.912399,0
			48.6910740000001,-122.912994,0
			48.6908380000002,-122.913551,0
			48.690624,-122.914131,0
			48.6905590000002,-122.914803,0
			48.6905560000001,-122.915504,0
			48.6905560000001,-122.916222,0
			48.6905590000002,-122.916939,0
			48.6905560000001,-122.917648,0
			48.6905100000002,-122.91832,0
			48.6902540000002,-122.918877,0
			48.6899190000001,-122.919357,0
			48.6894530000001,-122.919708,0
			48.6889500000001,-122.919998,0
			48.6884120000001,-122.920227,0
			48.6877940000002,-122.920265,0
			48.687172,-122.920189,0
			48.6870920000002,-122.920166,0
			48.6865920000002,-122.920044,0
			48.686111,-122.919998,0
			48.6858370000001,-122.920311,0
			48.685551,-122.920364,0
			48.685276,-122.920555,0
			48.685276,-122.921387,0
			48.686111,-122.922226,0
			48.686111,-122.922501,0
			48.6855550000002,-122.923058,0
			48.685001,-122.923058,0
			48.6847230000001,-122.922775,0
			48.6844440000001,-122.922775,0
			48.684166,-122.922501,0
			48.683887,-122.922501,0
			48.683887,-122.922226,0
			48.684166,-122.921944,0
			48.683887,-122.921669,0
			48.684166,-122.921387,0
			48.684166,-122.92028,0
			48.6844440000001,-122.919998,0
			48.684166,-122.919724,0
			48.684166,-122.919167,0
			48.683861,-122.918472,0
			48.6835750000001,-122.917709,0
			48.68314,-122.917114,0
			48.6826060000001,-122.916992,0
			48.6821060000001,-122.917206,0
			48.6815800000001,-122.917419,0
			48.681019,-122.917473,0
			48.680443,-122.917358,0
			48.6798780000001,-122.917175,0
			48.6793790000001,-122.916878,0
			48.6788640000001,-122.916573,0
			48.6782720000002,-122.916336,0
			48.6776390000002,-122.916115,0
			48.677006,-122.915886,0
			48.6764260000002,-122.915565,0
			48.6759640000001,-122.915115,0
			48.6755830000001,-122.914574,0
			48.6752660000001,-122.913979,0
			48.6747210000001,-122.913612,0
			48.6744460000001,-122.913612,0
			48.6737900000001,-122.912956,0
			48.6736220000001,-122.91246,0
			48.6732860000001,-122.911789,0
			48.6728400000001,-122.911377,0
			48.6721730000002,-122.910881,0
			48.671501,-122.910217,0
			48.6712800000002,-122.909966,0
			48.6708910000002,-122.909523,0
			48.6702730000002,-122.909317,0
			48.6696130000001,-122.909393,0
			48.668938,-122.909485,0
			48.6683460000001,-122.909676,0
			48.668015,-122.909851,0
			48.6678890000001,-122.90992,0
			48.6677630000001,-122.910103,0
			48.6676060000001,-122.910339,0
			48.6674690000002,-122.91082,0
			48.6672170000001,-122.91127,0
			48.666924,-122.911697,0
			48.6666530000002,-122.912155,0
			48.6663320000001,-122.912552,0
			48.665939,-122.91288,0
			48.6653820000001,-122.912918,0
			48.6647380000002,-122.912987,0
			48.6641540000002,-122.912781,0
			48.6635970000001,-122.912506,0
			48.6630440000001,-122.912224,0
			48.6624980000001,-122.911942,0
			48.6619340000001,-122.911705,0
			48.661263,-122.911667,0
			48.6605870000001,-122.911713,0
			48.659992,-122.911903,0
			48.6593740000001,-122.91188,0
			48.6588170000002,-122.911606,0
			48.6582640000001,-122.911301,0
			48.6577720000002,-122.91095,0
			48.6572230000001,-122.910553,0
			48.6569100000001,-122.910553,0
			48.6567460000001,-122.910889,0
			48.656464,-122.911057,0
			48.6560210000001,-122.911057,0
			48.6556280000001,-122.910889,0
			48.6550140000001,-122.910805,0
			48.6547360000002,-122.910805,0
			48.6544460000002,-122.910004,0
			48.6542930000001,-122.909698,0
			48.6539340000001,-122.909157,0
			48.6537740000002,-122.908516,0
			48.6535420000002,-122.907936,0
			48.653141,-122.907478,0
			48.6526950000001,-122.907082,0
			48.6521420000001,-122.90686,0
			48.6515920000001,-122.906654,0
			48.6510810000001,-122.90638,0
			48.6506350000001,-122.906036,0
			48.6502650000001,-122.905617,0
			48.649906,-122.905182,0
			48.649551,-122.904732,0
			48.6491780000001,-122.904297,0
			48.6488380000001,-122.903824,0
			48.6485520000001,-122.903275,0
			48.64827,-122.902702,0
			48.6480520000001,-122.902092,0
			48.6478690000001,-122.901466,0
			48.6477810000001,-122.90081,0
			48.6477130000001,-122.900154,0
			48.6475370000002,-122.899544,0
			48.647499,-122.898895,0
			48.6473880000001,-122.898331,0
			48.6472210000001,-122.897499,0
			48.6466670000001,-122.896751,0
			48.646389,-122.896667,0
			48.646389,-122.896385,0
			48.6455570000001,-122.895554,0
			48.6452790000002,-122.893333,0
			48.645,-122.892502,0
			48.6430550000001,-122.890831,0
			48.6425020000001,-122.890831,0
			48.6422230000001,-122.890556,0
			48.6422230000001,-122.890274,0
			48.642776,-122.889725,0
			48.642776,-122.889442,0
			48.6425020000001,-122.889168,0
			48.6425020000001,-122.888885,0
			48.642048,-122.888702,0
			48.6416740000002,-122.888351,0
			48.6412540000001,-122.888031,0
			48.6408770000001,-122.887672,0
			48.64056,-122.88723,0
			48.6402780000001,-122.886757,0
			48.6399990000002,-122.886276,0
			48.639725,-122.885796,0
			48.6394920000001,-122.885284,0
			48.6394040000001,-122.884712,0
			48.6392060000001,-122.884186,0
			48.6390610000001,-122.883644,0
			48.6388590000001,-122.883141,0
			48.6385460000002,-122.882721,0
			48.6381760000001,-122.88237,0
			48.6377560000002,-122.882118,0
			48.637321,-122.88192,0
			48.6369250000002,-122.881699,0
			48.6365010000001,-122.881523,0
			48.6361540000001,-122.881226,0
			48.635635,-122.881073,0
			48.6349980000001,-122.880836,0
			48.6347240000001,-122.880836,0
			48.6344450000001,-122.881111,0
			48.6344450000001,-122.881943,0
			48.634167,-122.882225,0
			48.6335750000001,-122.881607,0
			48.6335750000001,-122.881195,0
			48.6333350000002,-122.880554,0
			48.6333350000002,-122.88028,0
			48.6330570000001,-122.879997,0
			48.6319430000001,-122.879997,0
			48.6317020000002,-122.879967,0
			48.6312870000002,-122.879776,0
			48.63065,-122.879768,0
			48.6300350000001,-122.879822,0
			48.6294560000002,-122.879852,0
			48.6289830000001,-122.87957,0
			48.628628,-122.879128,0
			48.6283190000001,-122.878639,0
			48.6279680000002,-122.878189,0
			48.6275290000001,-122.877823,0
			48.627037,-122.877533,0
			48.6265180000001,-122.87735,0
			48.6260030000001,-122.877335,0
			48.6255460000002,-122.877129,0
			48.6244430000002,-122.87722,0
			48.6237530000001,-122.87664,0
			48.6232570000001,-122.876305,0
			48.6231650000001,-122.876114,0
			48.6227760000001,-122.876114,0
			48.6225010000001,-122.876389,0
			48.6222230000002,-122.876114,0
			48.6218870000001,-122.875557,0
			48.6199990000002,-122.873337,0
			48.6195640000001,-122.873024,0
			48.6191560000001,-122.872673,0
			48.61861,-122.872223,0
			48.6183320000001,-122.872223,0
			48.6177790000002,-122.871666,0
			48.6173860000002,-122.871307,0
			48.616833,-122.871162,0
			48.6163900000002,-122.870834,0
			48.6161120000001,-122.870552,0
			48.6161120000001,-122.870277,0
			48.6147230000001,-122.868889,0
			48.6147230000001,-122.868614,0
			48.614445,-122.868332,0
			48.614445,-122.868057,0
			48.6141660000002,-122.867775,0
			48.6141660000002,-122.867226,0
			48.6139980000002,-122.866859,0
			48.6138880000001,-122.866386,0
			48.6139830000001,-122.866196,0
			48.613724,-122.865639,0
			48.613533,-122.865005,0
			48.6133120000001,-122.864357,0
			48.6129650000001,-122.863724,0
			48.6123120000001,-122.863258,0
			48.6115990000001,-122.863007,0
			48.6114080000001,-122.863136,0
			48.6113400000002,-122.863396,0
			48.6111680000001,-122.86364,0
			48.611111,-122.863892,0
			48.6108320000002,-122.864166,0
			48.6105540000001,-122.864166,0
			48.6105540000001,-122.864441,0
			48.6102790000001,-122.864723,0
			48.6094440000001,-122.864723,0
			48.6083340000001,-122.86264,0
			48.6077770000001,-122.862503,0
			48.6072270000002,-122.862473,0
			48.6065290000001,-122.862534,0
			48.605896,-122.862747,0
			48.6053540000001,-122.863113,0
			48.6048510000001,-122.863548,0
			48.6042180000001,-122.863884,0
			48.6035420000001,-122.864174,0
			48.6028940000001,-122.864502,0
			48.6023410000002,-122.864929,0
			48.6018140000001,-122.865334,0
			48.6014140000001,-122.86586,0
			48.6011700000001,-122.866493,0
			48.60104,-122.867157,0
			48.6008380000002,-122.867752,0
			48.6006360000002,-122.868347,0
			48.6004330000001,-122.868965,0
			48.6001590000001,-122.869293,0
			48.6000820000002,-122.869385,0
			48.5999830000001,-122.869499,0
			48.5995830000001,-122.870094,0
			48.5991330000002,-122.870537,0
			48.5986100000001,-122.870796,0
			48.598011,-122.870872,0
			48.5974660000001,-122.871109,0
			48.5969470000001,-122.871399,0
			48.596478,-122.87178,0
			48.5960770000001,-122.872307,0
			48.595619,-122.87281,0
			48.595177,-122.873322,0
			48.5947490000001,-122.87384,0
			48.5944180000001,-122.87442,0
			48.5941200000001,-122.875015,0
			48.593876,-122.875633,0
			48.5936130000001,-122.876228,0
			48.5933880000002,-122.876839,0
			48.5933340000001,-122.877533,0
			48.5932730000001,-122.878189,0
			48.5930400000001,-122.8787,0
			48.592751,-122.87912,0
			48.5924420000001,-122.879494,0
			48.5922580000001,-122.8797,0
			48.592133,-122.879845,0
			48.591892,-122.880226,0
			48.5916670000001,-122.8806,0
			48.591484,-122.880959,0
			48.5914150000002,-122.881317,0
			48.5914460000001,-122.881668,0
			48.5915790000001,-122.881966,0
			48.591705,-122.882233,0
			48.5919460000001,-122.882225,0
			48.5919460000001,-122.8825,0
			48.593056,-122.883614,0
			48.5933340000001,-122.883614,0
			48.5942460000001,-122.884529,0
			48.5947230000002,-122.885002,0
			48.5947230000002,-122.885277,0
			48.595001,-122.885559,0
			48.5944440000001,-122.886108,0
			48.5936130000001,-122.886108,0
			48.5927770000001,-122.885277,0
			48.5924990000001,-122.885277,0
			48.5922240000002,-122.885002,0
			48.5916670000001,-122.885002,0
			48.5913890000002,-122.88472,0
			48.5911100000002,-122.88472,0
			48.5908320000001,-122.884445,0
			48.590469,-122.884422,0
			48.5903360000001,-122.884415,0
			48.5900270000001,-122.884453,0
			48.5897140000001,-122.884521,0
			48.589432,-122.88475,0
			48.5891840000002,-122.885086,0
			48.588985,-122.885506,0
			48.5888560000002,-122.886002,0
			48.5887030000001,-122.886513,0
			48.5886120000001,-122.887062,0
			48.5885160000001,-122.887619,0
			48.5883330000001,-122.888054,0
			48.5883330000001,-122.888336,0
			48.5886120000001,-122.888611,0
			48.5886120000001,-122.888885,0
			48.5888900000002,-122.889168,0
			48.5888900000002,-122.889725,0
			48.5891690000001,-122.889999,0
			48.5894430000001,-122.889999,0
			48.5902790000001,-122.890831,0
			48.590557,-122.890831,0
			48.590557,-122.891388,0
			48.5908320000001,-122.89167,0
			48.5908320000001,-122.89222,0
			48.5911100000002,-122.892502,0
			48.5911100000002,-122.893608,0
			48.5908320000001,-122.89389,0
			48.5908320000001,-122.894447,0
			48.590557,-122.894722,0
			48.590557,-122.895554,0
			48.5905530000001,-122.895706,0
			48.5905230000001,-122.896011,0
			48.5904430000001,-122.896339,0
			48.590355,-122.896683,0
			48.5904160000001,-122.897057,0
			48.59058,-122.897461,0
			48.5907940000001,-122.897873,0
			48.590958,-122.898338,0
			48.5911140000001,-122.898827,0
			48.591282,-122.899323,0
			48.5914920000001,-122.899811,0
			48.5917320000001,-122.900291,0
			48.591976,-122.900787,0
			48.5922320000001,-122.901276,0
			48.5925100000002,-122.901756,0
			48.592815,-122.902222,0
			48.5931850000001,-122.902626,0
			48.5935630000001,-122.903038,0
			48.5938870000001,-122.90361,0
			48.5944440000001,-122.904167,0
			48.5952760000001,-122.904167,0
			48.5955540000002,-122.904442,0
			48.595806,-122.904404,0
			48.596439,-122.903893,0
			48.5965390000001,-122.903893,0
			48.5969430000001,-122.903893,0
			48.5969430000001,-122.904442,0
			48.597221,-122.904724,0
			48.597221,-122.905281,0
			48.5969430000001,-122.905556,0
			48.5969430000001,-122.90583,0
			48.5966680000001,-122.906113,0
			48.5966680000001,-122.906387,0
			48.59639,-122.90667,0
			48.5958330000001,-122.90667,0
			48.5955540000002,-122.906387,0
			48.5952760000001,-122.906387,0
			48.5947230000002,-122.90583,0
			48.5947230000002,-122.905556,0
			48.5944440000001,-122.905556,0
			48.5941660000001,-122.905281,0
			48.5938870000001,-122.905281,0
			48.5932540000001,-122.905594,0
			48.592899,-122.905975,0
			48.5925670000001,-122.906471,0
			48.592339,-122.907051,0
			48.5924990000001,-122.908607,0
			48.5924990000001,-122.909943,0
			48.5924990000001,-122.91111,0
			48.5922360000001,-122.911461,0
			48.592117,-122.911766,0
			48.5919460000001,-122.912079,0
			48.591778,-122.912415,0
			48.59166,-122.912735,0
			48.5916330000001,-122.912804,0
			48.5914760000001,-122.913216,0
			48.591396,-122.913673,0
			48.5913390000001,-122.914169,0
			48.5912400000001,-122.914673,0
			48.5913050000001,-122.915184,0
			48.5913850000002,-122.91571,0
			48.591671,-122.916191,0
			48.5919080000001,-122.916687,0
			48.5920910000002,-122.917229,0
			48.592255,-122.917793,0
			48.5924260000002,-122.918343,0
			48.5924260000002,-122.918571,0
			48.5924300000001,-122.9189,0
			48.5922510000001,-122.919434,0
			48.5922240000002,-122.92028,0
			48.5919460000001,-122.920555,0
			48.5919460000001,-122.92083,0
			48.5922240000002,-122.921112,0
			48.5922240000002,-122.921944,0
			48.5919460000001,-122.922226,0
			48.5919460000001,-122.922501,0
			48.5916670000001,-122.922775,0
			48.5919460000001,-122.923058,0
			48.5919460000001,-122.923615,0
			48.5922430000001,-122.92379,0
			48.592167,-122.924057,0
			48.59227,-122.924362,0
			48.592384,-122.924614,0
			48.5924680000001,-122.924843,0
			48.5924640000001,-122.925079,0
			48.5924990000001,-122.925278,0
			48.5927770000001,-122.925552,0
			48.5927770000001,-122.925835,0
			48.5933340000001,-122.926392,0
			48.5933340000001,-122.926666,0
			48.593056,-122.926941,0
			48.5924910000001,-122.927521,0
			48.5916670000001,-122.926666,0
			48.5916670000001,-122.926392,0
			48.5915300000001,-122.926254,0
			48.5913890000002,-122.926109,0
			48.5911100000002,-122.926109,0
			48.5911100000002,-122.926308,0
			48.5908320000001,-122.926666,0
			48.591057,-122.928055,0
			48.5913890000002,-122.928612,0
			48.5913890000002,-122.928886,0
			48.5921360000002,-122.929306,0
			48.5925030000001,-122.929054,0
			48.592667,-122.929749,0
			48.5927770000001,-122.931946,0
			48.5927770000001,-122.934448,0
			48.5927770000001,-122.934647,0
			48.592796,-122.934982,0
			48.5928760000001,-122.93531,0
			48.5930750000001,-122.935585,0
			48.5933340000001,-122.935829,0
			48.5936510000001,-122.93605,0
			48.5941660000001,-122.936111,0
			48.5945550000001,-122.936005,0
			48.5949970000001,-122.936089,0
			48.5952760000001,-122.936111,0
			48.5954440000001,-122.936447,0
			48.5955540000002,-122.937225,0
			48.5958330000001,-122.9375,0
			48.5961110000001,-122.937225,0
			48.59639,-122.937225,0
			48.5966680000001,-122.936943,0
			48.5966680000001,-122.936668,0
			48.5980570000002,-122.93528,0
			48.598511,-122.935738,0
			48.5986100000001,-122.935837,0
			48.5986100000001,-122.9375,0
			48.5982970000001,-122.937729,0
			48.5983310000001,-122.938332,0
			48.5980910000001,-122.938583,0
			48.5979770000001,-122.938705,0
			48.5980610000001,-122.939186,0
			48.5978620000001,-122.939651,0
			48.5978010000001,-122.94014,0
			48.5977750000001,-122.940636,0
			48.597721,-122.941132,0
			48.5977440000001,-122.941612,0
			48.5976790000001,-122.942108,0
			48.5969430000001,-122.943886,0
			48.5969430000001,-122.945274,0
			48.597221,-122.945557,0
			48.597221,-122.946114,0
			48.597229,-122.946884,0
			48.5972980000002,-122.947594,0
			48.5975040000002,-122.948227,0
			48.597794,-122.948807,0
			48.5982670000001,-122.949219,0
			48.598824,-122.949387,0
			48.5993920000001,-122.949715,0
			48.599915,-122.950142,0
			48.6003840000001,-122.950623,0
			48.6008910000002,-122.951073,0
			48.6014250000001,-122.951477,0
			48.6018870000001,-122.951958,0
			48.6022300000001,-122.952515,0
			48.602562,-122.953072,0
			48.6029970000001,-122.953537,0
			48.6035420000001,-122.953873,0
			48.6041560000001,-122.95417,0
			48.6048510000001,-122.954483,0
			48.6052780000001,-122.95472,0
			48.6055560000001,-122.95472,0
			48.6061100000001,-122.95417,0
			48.606388,-122.95417,0
			48.6066670000002,-122.953888,0
			48.6066670000002,-122.953613,0
			48.607262,-122.952545,0
			48.607601,-122.95224,0
			48.6080550000001,-122.952225,0
			48.6083340000001,-122.952499,0
			48.608612,-122.952499,0
			48.608891,-122.952774,0
			48.6094440000001,-122.952774,0
			48.609722,-122.953056,0
			48.6100010000002,-122.953056,0
			48.6102790000001,-122.953331,0
			48.611111,-122.953331,0
			48.6113890000001,-122.953613,0
			48.6116680000001,-122.953888,0
			48.6127780000001,-122.953888,0
			48.613056,-122.95417,0
			48.6136090000001,-122.95417,0
			48.6137580000002,-122.954483,0
			48.6140290000001,-122.954475,0
			48.6142540000002,-122.954567,0
			48.614452,-122.954727,0
			48.6146810000002,-122.954903,0
			48.6149900000001,-122.955032,0
			48.6153260000001,-122.955223,0
			48.6157040000001,-122.955444,0
			48.6161080000001,-122.955727,0
			48.616562,-122.956062,0
			48.6170960000002,-122.956398,0
			48.6177790000002,-122.956665,0
			48.6180570000001,-122.95639,0
			48.6183320000001,-122.956108,0
			48.61861,-122.956108,0
			48.6191670000001,-122.955559,0
			48.6199990000002,-122.955559,0
			48.6202770000001,-122.955276,0
			48.620506,-122.955055,0
			48.6207920000001,-122.954742,0
			48.621159,-122.954483,0
			48.621582,-122.954277,0
			48.622082,-122.95414,0
			48.6225620000001,-122.953911,0
			48.6230390000002,-122.953659,0
			48.6234780000001,-122.953346,0
			48.6239010000001,-122.953011,0
			48.6242410000002,-122.952606,0
			48.6246570000001,-122.952286,0
			48.625118,-122.952103,0
			48.6256680000001,-122.952339,0
			48.6261100000001,-122.952774,0
			48.6261100000001,-122.953331,0
			48.627125,-122.954346,0
			48.6274030000001,-122.954262,0
			48.62796,-122.954262,0
			48.6283530000001,-122.95443,0
			48.6286850000001,-122.954926,0
			48.6289100000001,-122.955597,0
			48.6290820000002,-122.956581,0
			48.6294440000001,-122.956947,0
			48.6300010000002,-122.956947,0
			48.6305540000001,-122.957497,0
			48.6308330000001,-122.957497,0
			48.6311110000001,-122.957222,0
			48.6313900000001,-122.957222,0
			48.6319430000001,-122.957779,0
			48.631668,-122.958054,0
			48.631668,-122.958336,0
			48.6313900000001,-122.958611,0
			48.6314350000001,-122.960297,0
			48.6311110000001,-122.960556,0
			48.6311110000001,-122.961624,0
			48.6311110000001,-122.962776,0
			48.6307370000001,-122.96315,0
			48.6305540000001,-122.963333,0
			48.6306460000001,-122.963524,0
			48.6305200000001,-122.964043,0
			48.6305160000001,-122.964569,0
			48.6302800000001,-122.965027,0
			48.630257,-122.965538,0
			48.6301310000001,-122.965981,0
			48.6299820000002,-122.966377,0
			48.6297490000001,-122.966675,0
			48.6295010000002,-122.966934,0
			48.6292380000001,-122.96714,0
			48.6289560000002,-122.967285,0
			48.6287160000001,-122.967461,0
			48.628475,-122.967567,0
			48.6283530000001,-122.967766,0
			48.6283950000001,-122.968071,0
			48.6288410000001,-122.96875,0
			48.6293180000001,-122.969406,0
			48.6297950000002,-122.969955,0
			48.6302910000002,-122.970413,0
			48.6308250000001,-122.970802,0
			48.6314200000002,-122.971115,0
			48.632011,-122.971428,0
			48.6325260000002,-122.97184,0
			48.6330380000001,-122.972267,0
			48.6334650000001,-122.972778,0
			48.6338540000001,-122.97332,0
			48.634167,-122.97393,0
			48.6344450000001,-122.974442,0
			48.6351660000001,-122.97522,0
			48.635292,-122.975288,0
			48.6368520000001,-122.975456,0
			48.6372410000002,-122.976036,0
			48.6375770000001,-122.976784,0
			48.6376570000002,-122.977188,0
			48.6383860000001,-122.978592,0
			48.638935,-122.978897,0
			48.6394840000002,-122.979218,0
			48.6399800000002,-122.979576,0
			48.6404340000001,-122.97998,0
			48.6408960000001,-122.980362,0
			48.6412660000001,-122.980835,0
			48.6416050000001,-122.981331,0
			48.6419220000001,-122.981857,0
			48.642147,-122.982445,0
			48.6422810000001,-122.983086,0
			48.6425090000001,-122.983673,0
			48.6426960000002,-122.984245,0
			48.6425020000001,-122.984726,0
			48.6425020000001,-122.985275,0
			48.6422230000001,-122.985558,0
			48.6422230000001,-122.985832,0
			48.6419450000002,-122.986115,0
			48.6430550000001,-122.987221,0
			48.6430550000001,-122.987778,0
			48.642776,-122.988052,0
			48.6425020000001,-122.988052,0
			48.6419450000002,-122.987503,0
			48.6419450000002,-122.987221,0
			48.6413880000001,-122.986664,0
			48.6411090000001,-122.986664,0
			48.640835,-122.986946,0
			48.6405560000001,-122.986946,0
			48.6402780000001,-122.987221,0
			48.6402780000001,-122.987503,0
			48.6397210000001,-122.988052,0
			48.6397210000001,-122.988335,0
			48.6394460000002,-122.988609,0
			48.6394460000002,-122.989166,0
			48.6405560000001,-122.99028,0
			48.6402780000001,-122.990555,0
			48.6394460000002,-122.990555,0
			48.6388890000001,-122.989998,0
			48.637501,-122.989998,0
			48.637299,-122.990204,0
			48.6372220000001,-122.99028,0
			48.6369440000001,-122.990555,0
			48.6366650000002,-122.990837,0
			48.6355550000001,-122.991669,0
			48.6355550000001,-122.9925,0
			48.635277,-122.992775,0
			48.6344450000001,-122.992775,0
			48.634167,-122.993057,0
			48.6333350000002,-122.993057,0
			48.6330570000001,-122.992775,0
			48.632778,-122.992775,0
			48.6319430000001,-122.991943,0
			48.6316830000001,-122.991554,0
			48.6314320000001,-122.990967,0
			48.6313900000001,-122.990273,0
			48.6313860000002,-122.989571,0
			48.6313440000001,-122.988892,0
			48.6311230000001,-122.988281,0
			48.6309170000001,-122.987679,0
			48.630798,-122.987038,0
			48.6305500000001,-122.986473,0
			48.6302300000001,-122.98597,0
			48.6297990000001,-122.985573,0
			48.6292990000002,-122.985275,0
			48.6287800000002,-122.985039,0
			48.628185,-122.985023,0
			48.6276020000001,-122.985191,0
			48.6270940000001,-122.985512,0
			48.6268080000001,-122.985725,0
			48.6266670000002,-122.985832,0
			48.6263890000001,-122.985832,0
			48.6261100000001,-122.986115,0
			48.6261100000001,-122.986389,0
			48.6269450000001,-122.987221,0
			48.6268880000001,-122.987503,0
			48.6266670000002,-122.987778,0
			48.6263890000001,-122.988052,0
			48.6261100000001,-122.988052,0
			48.6258320000002,-122.988365,0
			48.6255570000001,-122.988335,0
			48.6252780000002,-122.988609,0
			48.6250000000001,-122.988609,0
			48.6247220000002,-122.988335,0
			48.6233330000002,-122.988335,0
			48.6230550000001,-122.988052,0
			48.6222230000002,-122.988052,0
			48.6219440000002,-122.988113,0
			48.6211130000002,-122.988609,0
			48.6208340000002,-122.988609,0
			48.6208340000002,-122.987503,0
			48.621109,-122.986694,0
			48.620998,-122.986,0
			48.6213870000001,-122.985558,0
			48.621498,-122.985115,0
			48.6216660000001,-122.984726,0
			48.6216660000001,-122.984192,0
			48.621693,-122.983917,0
			48.6213870000001,-122.98333,0
			48.6206700000001,-122.983032,0
			48.6203380000002,-122.982704,0
			48.620113,-122.981956,0
			48.6194570000001,-122.98085,0
			48.6191670000001,-122.980553,0
			48.619072,-122.980225,0
			48.6186560000001,-122.979744,0
			48.6181910000001,-122.97934,0
			48.617672,-122.979118,0
			48.6172030000001,-122.979111,0
			48.6168710000002,-122.979477,0
			48.616489,-122.979759,0
			48.6160200000001,-122.979675,0
			48.6156080000001,-122.979202,0
			48.6152500000002,-122.978592,0
			48.6148830000002,-122.978012,0
			48.6143760000002,-122.977585,0
			48.61375,-122.97731,0
			48.613297,-122.977158,0
			48.6130870000001,-122.977081,0
			48.6128350000002,-122.977165,0
			48.6127740000001,-122.977402,0
			48.6127090000001,-122.977646,0
			48.6124800000001,-122.977837,0
			48.612305,-122.978111,0
			48.612133,-122.978409,0
			48.6118930000001,-122.978661,0
			48.611637,-122.97892,0
			48.6113780000001,-122.97921,0
			48.6110760000001,-122.979477,0
			48.6107370000001,-122.979729,0
			48.6103630000001,-122.97995,0
			48.6098900000001,-122.979996,0
			48.6094060000001,-122.97995,0
			48.6090090000002,-122.979698,0
			48.608711,-122.979332,0
			48.6086200000001,-122.978889,0
			48.608612,-122.978409,0
			48.608612,-122.978058,0
			48.608612,-122.977501,0
			48.6084440000001,-122.977058,0
			48.6080550000001,-122.976524,0
			48.607498,-122.976669,0
			48.6069450000001,-122.97683,0
			48.606388,-122.977219,0
			48.6060680000001,-122.977463,0
			48.6057360000001,-122.97747,0
			48.6053890000002,-122.977325,0
			48.6050380000001,-122.977081,0
			48.6047250000001,-122.976746,0
			48.6043930000002,-122.976379,0
			48.6039120000002,-122.976074,0
			48.6034470000001,-122.975792,0
			48.6030040000002,-122.975876,0
			48.6026040000001,-122.976189,0
			48.6022150000001,-122.976471,0
			48.6019250000001,-122.976959,0
			48.6015630000001,-122.97744,0
			48.6009750000002,-122.977676,0
			48.6003300000001,-122.977654,0
			48.5996670000001,-122.977753,0
			48.599724,-122.978058,0
			48.599724,-122.978615,0
			48.5999980000001,-122.978889,0
			48.5999980000001,-122.979164,0
			48.599724,-122.979446,0
			48.5999980000001,-122.979721,0
			48.6002730000002,-122.980278,0
			48.6006360000002,-122.980789,0
			48.6009560000002,-122.9813,0
			48.6010820000001,-122.981895,0
			48.6011090000001,-122.982521,0
			48.6011120000001,-122.983139,0
			48.6011200000001,-122.983749,0
			48.601147,-122.984337,0
			48.6011120000001,-122.984726,0
			48.6011120000001,-122.985001,0
			48.6013870000002,-122.985275,0
			48.6016310000001,-122.987717,0
			48.601665,-122.988052,0
			48.601665,-122.989998,0
			48.6013870000002,-122.99028,0
			48.601665,-122.990555,0
			48.6019060000001,-122.990761,0
			48.6023140000001,-122.990974,0
			48.6025240000001,-122.991089,0
			48.6031150000001,-122.99128,0
			48.603687,-122.991295,0
			48.6042370000001,-122.991318,0
			48.6047330000001,-122.991577,0
			48.6052280000002,-122.99189,0
			48.6057400000001,-122.99221,0
			48.6062700000001,-122.992493,0
			48.606819,-122.992752,0
			48.6073650000001,-122.993004,0
			48.607807,-122.993401,0
			48.6082800000001,-122.993973,0
			48.6086650000001,-122.994278,0
			48.609497,-122.994026,0
			48.6100540000002,-122.993752,0
			48.6105540000001,-122.993614,0
			48.611225,-122.994057,0
			48.6113890000001,-122.995552,0
			48.611427,-122.995621,0
			48.6117550000002,-122.996193,0
			48.6121900000001,-122.996666,0
			48.6126370000002,-122.997108,0
			48.613052,-122.997566,0
			48.6134680000002,-122.998024,0
			48.6139030000001,-122.998451,0
			48.614368,-122.998833,0
			48.615276,-122.999443,0
			48.6183320000001,-123,0
			48.6178280000001,-123.000282,0
			48.617992,-123.000542,0
			48.6182140000001,-123.000732,0
			48.6184310000001,-123.001038,0
			48.6185530000001,-123.001518,0
			48.6186070000001,-123.002136,0
			48.61866,-123.002861,0
			48.6187550000001,-123.003639,0
			48.6190260000001,-123.003944,0
			48.6193200000001,-123.003937,0
			48.6196100000001,-123.004051,0
			48.6199230000001,-123.004219,0
			48.6202240000001,-123.004463,0
			48.6205100000002,-123.004761,0
			48.6207500000002,-123.005104,0
			48.6208720000001,-123.005508,0
			48.6210330000001,-123.00589,0
			48.620903,-123.006325,0
			48.6207850000002,-123.006569,0
			48.6206780000001,-123.00679,0
			48.620319,-123.007172,0
			48.6198650000001,-123.007477,0
			48.6193280000001,-123.007706,0
			48.6186710000001,-123.007812,0
			48.6180110000002,-123.008011,0
			48.6173400000001,-123.008057,0
			48.6167070000001,-123.008118,0
			48.6165010000001,-123.008263,0
			48.6162800000001,-123.008423,0
			48.6157990000002,-123.008705,0
			48.6152530000001,-123.008942,0
			48.6147420000001,-123.009323,0
			48.6142770000001,-123.009804,0
			48.6139530000002,-123.010384,0
			48.613838,-123.011032,0
			48.6136090000001,-123.011658,0
			48.6133380000001,-123.012299,0
			48.613056,-123.012962,0
			48.6127400000001,-123.013634,0
			48.6123280000002,-123.014214,0
			48.6117780000001,-123.014633,0
			48.6118050000001,-123.014854,0
			48.612015,-123.015076,0
			48.6121830000001,-123.015327,0
			48.612148,-123.01561,0
			48.6119730000001,-123.01593,0
			48.6118660000001,-123.016312,0
			48.611652,-123.01667,0
			48.6113700000001,-123.017006,0
			48.6111450000002,-123.017426,0
			48.6108320000002,-123.017807,0
			48.6105840000001,-123.01825,0
			48.610409,-123.018692,0
			48.610126,-123.01889,0
			48.6098560000001,-123.019135,0
			48.609737,-123.019737,0
			48.6096650000001,-123.020454,0
			48.6095390000002,-123.021179,0
			48.6094360000002,-123.021927,0
			48.6093710000001,-123.022667,0
			48.6094820000001,-123.023407,0
			48.6096990000001,-123.024109,0
			48.6099850000001,-123.024765,0
			48.6102710000001,-123.025414,0
			48.6105580000001,-123.026062,0
			48.6108550000001,-123.026695,0
			48.6112170000001,-123.027283,0
			48.6117020000001,-123.02774,0
			48.6122780000001,-123.028107,0
			48.6128920000001,-123.028412,0
			48.6135410000002,-123.028664,0
			48.6141930000001,-123.028908,0
			48.6148720000002,-123.029083,0
			48.6155970000001,-123.029121,0
			48.6163180000001,-123.02906,0
			48.6170230000001,-123.028961,0
			48.617741,-123.028954,0
			48.6184270000002,-123.029045,0
			48.6190300000001,-123.029266,0
			48.6195760000002,-123.029579,0
			48.6201060000001,-123.02993,0
			48.6206700000001,-123.030243,0
			48.6212770000001,-123.030518,0
			48.6222230000002,-123.030807,0
			48.6226650000002,-123.030777,0
			48.6230550000001,-123.030556,0
			48.6238900000001,-123.030556,0
			48.6246680000002,-123.031059,0
			48.6251680000001,-123.030998,0
			48.6263890000001,-123.029999,0
			48.6269450000001,-123.029999,0
			48.6272240000001,-123.030281,0
			48.628613,-123.030281,0
			48.6299320000001,-123.030319,0
			48.63068,-123.030212,0
			48.6308400000001,-123.030006,0
			48.6309050000002,-123.029785,0
			48.6310350000001,-123.029526,0
			48.6312980000002,-123.02935,0
			48.6315230000001,-123.029099,0
			48.6316800000001,-123.02877,0
			48.63187,-123.028442,0
			48.631947,-123.02803,0
			48.6320420000001,-123.027596,0
			48.6322590000001,-123.027184,0
			48.6325150000001,-123.026772,0
			48.632797,-123.02636,0
			48.633091,-123.025948,0
			48.6334420000001,-123.025574,0
			48.6338200000001,-123.025215,0
			48.6341510000001,-123.024803,0
			48.6344450000001,-123.024345,0
			48.6347310000002,-123.023872,0
			48.6350170000001,-123.023399,0
			48.635365,-123.022972,0
			48.6357570000002,-123.022583,0
			48.6361540000001,-123.022209,0
			48.6365360000001,-123.021797,0
			48.6368900000001,-123.02137,0
			48.6372180000001,-123.020851,0
			48.6375850000001,-123.0205,0
			48.6377980000001,-123.019981,0
			48.6381030000001,-123.019547,0
			48.638557,-123.019257,0
			48.6390760000002,-123.019081,0
			48.6395680000002,-123.018822,0
			48.640026,-123.018486,0
			48.6404950000002,-123.01815,0
			48.6409950000001,-123.01783,0
			48.6414150000001,-123.017433,0
			48.6417660000001,-123.016968,0
			48.6421360000001,-123.016525,0
			48.6425970000001,-123.016167,0
			48.643158,-123.0159,0
			48.643761,-123.015739,0
			48.644356,-123.015549,0
			48.6449390000001,-123.015335,0
			48.6455350000001,-123.01516,0
			48.6462060000002,-123.015106,0
			48.6468200000002,-123.014954,0
			48.6474040000002,-123.01474,0
			48.6479720000001,-123.014526,0
			48.64851,-123.014229,0
			48.6490400000002,-123.013939,0
			48.6494790000001,-123.01358,0
			48.6499370000001,-123.013245,0
			48.6505280000002,-123.013016,0
			48.651127,-123.012764,0
			48.651707,-123.012497,0
			48.6522750000001,-123.012222,0
			48.6528280000001,-123.011932,0
			48.653347,-123.011627,0
			48.653809,-123.011269,0
			48.6542020000001,-123.010849,0
			48.6545750000002,-123.010437,0
			48.6549260000001,-123.010033,0
			48.6551900000001,-123.00959,0
			48.6553650000002,-123.009117,0
			48.6555750000002,-123.00869,0
			48.655827,-123.008324,0
			48.6560440000001,-123.00795,0
			48.6563150000001,-123.007675,0
			48.656525,-123.007339,0
			48.6567340000001,-123.007027,0
			48.6569670000001,-123.006744,0
			48.6571690000001,-123.00647,0
			48.657158,-123.006165,0
			48.657562,-123.006142,0
			48.6575010000002,-123.005836,0
			48.6580540000001,-123.00528,0
			48.6580540000001,-123.005058,0
			48.6580540000001,-123.004723,0
			48.6583330000001,-123.004448,0
			48.6583330000001,-123.003891,0
			48.658665,-123.003632,0
			48.6586110000002,-123.003334,0
			48.658916,-123.003067,0
			48.6586110000002,-123.003052,0
			48.6586110000002,-123.002777,0
			48.6588900000002,-123.002502,0
			48.6588900000002,-123.00222,0
			48.659481,-123.001709,0
			48.6597210000002,-123.001663,0
			48.6600000000002,-123.001389,0
			48.6602780000001,-123.001389,0
			48.6605570000001,-123.001114,0
			48.6605570000001,-123.000832,0
			48.660831,-123.000557,0
			48.660831,-123.000275,0
			48.6605570000001,-123,0
			48.6605570000001,-122.999725,0
			48.660831,-122.999443,0
			48.660831,-122.999168,0
			48.6611100000002,-122.998886,0
			48.6611100000002,-122.998337,0
			48.6624980000001,-122.996948,0
			48.6627770000001,-122.996948,0
			48.6630550000002,-122.996666,0
			48.6633340000001,-122.996666,0
			48.6636120000001,-122.996948,0
			48.664165,-122.996948,0
			48.6648450000001,-122.996368,0
			48.664951,-122.996094,0
			48.6649930000001,-122.995728,0
			48.6650240000002,-122.995308,0
			48.6651460000002,-122.994865,0
			48.6653480000002,-122.994431,0
			48.6655460000001,-122.993958,0
			48.6657180000001,-122.993439,0
			48.6658780000001,-122.992905,0
			48.666115,-122.992401,0
			48.6663740000001,-122.991905,0
			48.6666030000001,-122.991386,0
			48.666866,-122.990227,0
			48.6672860000001,-122.98983,0
			48.6677780000002,-122.989502,0
			48.668056,-122.989388,0
			48.6684460000002,-122.989281,0
			48.668667,-122.988945,0
			48.6692200000001,-122.988892,0
			48.6694450000001,-122.988335,0
			48.6699980000001,-122.987778,0
			48.6699980000001,-122.987503,0
			48.6711120000002,-122.986389,0
			48.6713910000001,-122.986389,0
			48.6716650000001,-122.986115,0
			48.6719440000001,-122.986115,0
			48.672779,-122.985275,0
			48.6736110000002,-122.985779,0
			48.6741680000001,-122.985832,0
			48.6741940000001,-122.985588,0
			48.6743700000001,-122.985184,0
			48.6747280000002,-122.985062,0
			48.6750180000002,-122.984596,0
			48.6750680000001,-122.984131,0
			48.6752510000001,-122.983681,0
			48.6755750000001,-122.983253,0
			48.6757850000001,-122.983147,0
			48.676113,-122.98304,0
			48.67625,-122.982277,0
			48.6766050000001,-122.981979,0
			48.6768530000002,-122.981346,0
			48.6772270000002,-122.980881,0
			48.6774330000002,-122.980331,0
			48.6776850000001,-122.979286,0
			48.6778720000001,-122.978821,0
			48.6778980000001,-122.978317,0
			48.6779980000001,-122.977791,0
			48.6781120000001,-122.977249,0
			48.6783140000001,-122.976738,0
			48.678524,-122.976234,0
			48.6788020000001,-122.975777,0
			48.6790850000001,-122.975319,0
			48.679428,-122.974899,0
			48.6797680000001,-122.97448,0
			48.6800920000001,-122.974037,0
			48.6802980000001,-122.973541,0
			48.6805110000001,-122.97303,0
			48.6805990000001,-122.97245,0
			48.6807900000001,-122.971878,0
			48.6808320000001,-122.971252,0
			48.6808780000001,-122.970619,0
			48.6811070000001,-122.970047,0
			48.6813280000001,-122.969467,0
			48.6814420000001,-122.968811,0
			48.681667,-122.968208,0
			48.6818960000002,-122.967613,0
			48.6819880000001,-122.966949,0
			48.6822240000001,-122.966354,0
			48.6824720000002,-122.965775,0
			48.6826210000001,-122.965172,0
			48.6828040000001,-122.964645,0
			48.683041,-122.964188,0
			48.683228,-122.963692,0
			48.683365,-122.963165,0
			48.6836130000001,-122.962776,0
			48.6847190000001,-122.960609,0
			48.686111,-122.959503,0
			48.6880570000001,-122.958054,0
			48.68861,-122.958611,0
			48.68861,-122.959167,0
			48.6891670000001,-122.961388,0
			48.6895790000001,-122.961494,0
			48.6900670000001,-122.96154,0
			48.6904410000002,-122.961349,0
			48.6907390000001,-122.961037,0
			48.6909220000002,-122.960625,0
			48.6908680000001,-122.96003,0
			48.6907650000002,-122.959389,0
			48.6906810000002,-122.958725,0
			48.6907580000001,-122.958046,0
			48.6907650000002,-122.957359,0
			48.6907840000001,-122.957069,0
			48.6908110000001,-122.956673,0
			48.6908340000002,-122.955994,0
			48.6908910000001,-122.955315,0
			48.6910970000001,-122.954643,0
			48.6913190000002,-122.953987,0
			48.6915970000001,-122.953369,0
			48.6919330000002,-122.952797,0
			48.6922420000001,-122.952225,0
			48.692532,-122.95166,0
			48.6927830000001,-122.951103,0
			48.6930430000002,-122.950569,0
			48.6933330000002,-122.949997,0
			48.6933330000002,-122.949722,0
			48.6936110000001,-122.949448,0
			48.694443,-122.948059,0
			48.6947020000001,-122.948006,0
			48.6958350000001,-122.947777,0
			48.6961100000001,-122.948059,0
			48.6963880000002,-122.947777,0
			48.6969030000001,-122.947517,0
			48.6974370000001,-122.947197,0
			48.6979330000001,-122.946831,0
			48.698338,-122.946373,0
			48.6987190000002,-122.9459,0
			48.6991230000002,-122.94545,0
			48.699497,-122.944984,0
			48.6998520000001,-122.944504,0
			48.7002220000002,-122.944054,0
			48.7005690000001,-122.943588,0
			48.7009390000001,-122.943146,0
			48.7013630000001,-122.942749,0
			48.7018130000002,-122.942398,0
			48.7022630000001,-122.942055,0
			48.7027740000001,-122.941895,0
			48.7032620000002,-122.941971,0
			48.7037660000001,-122.942184,0
			48.7042850000001,-122.942322,0
			48.7048,-122.942268,0
			48.705296,-122.942268,0
			48.7057270000002,-122.94236,0
			48.706062,-122.942551,0
			48.7063600000001,-122.94278,0
			48.706642,-122.943016,0
			48.706936,-122.943222,0
			48.7072220000001,-122.94342,0
			48.7074930000001,-122.943626,0
			48.7077180000001,-122.943855,0
			48.7078900000001,-122.944115,0
			48.7080920000001,-122.944305,0
			48.7083630000001,-122.944359,0
			48.708332,-122.944725,0
			48.7086110000001,-122.945,0
			48.7086110000001,-122.945274,0
			48.7088890000002,-122.945557,0
			48.7088890000002,-122.946114,0
			48.709167,-122.946388,0
			48.709167,-122.946663,0
			48.7094460000001,-122.946945,0
			48.7094460000001,-122.94722,0
			48.7099990000002,-122.947777,0
			48.7099990000002,-122.948059,0
			48.7102780000001,-122.948334,0
			48.7102780000001,-122.948891,0
			48.710835,-122.949448,0
			48.7113880000002,-122.948891,0
			48.711666,-122.948891,0
			48.7122230000001,-122.948334,0
			48.7122230000001,-122.947502,0
			48.7119450000001,-122.94722,0
			48.7119450000001,-122.946388,0
			48.711666,-122.946114,0
			48.7117,-122.94577,0
			48.711056,-122.945,0
			48.710835,-122.943336,0
			48.7103460000001,-122.942902,0
			48.7102970000001,-122.942688,0
			48.7102130000001,-122.942467,0
			48.7100720000001,-122.942245,0
			48.7099840000001,-122.941978,0
			48.7098810000002,-122.941704,0
			48.7097590000002,-122.941406,0
			48.7096790000002,-122.941063,0
			48.709637,-122.940681,0
			48.7096670000002,-122.940269,0
			48.7096250000001,-122.939842,0
			48.709549,-122.939415,0
			48.709637,-122.938965,0
			48.7097660000001,-122.938499,0
			48.7099270000001,-122.938019,0
			48.7099950000002,-122.9375,0
			48.710064,-122.936966,0
			48.710247,-122.93644,0
			48.710487,-122.935921,0
			48.7107390000001,-122.935425,0
			48.710899,-122.934875,0
			48.710953,-122.934303,0
			48.7109260000001,-122.933723,0
			48.711056,-122.933174,0
			48.7111430000001,-122.93261,0
			48.7112660000002,-122.932076,0
			48.7113840000002,-122.931526,0
			48.7114300000001,-122.931297,0
			48.7114910000001,-122.930992,0
			48.711346,-122.930443,0
			48.711166,-122.929932,0
			48.71106,-122.929405,0
			48.7109150000001,-122.928902,0
			48.7108960000001,-122.928391,0
			48.7109910000001,-122.927879,0
			48.7110750000002,-122.927368,0
			48.711105,-122.926849,0
			48.7111090000001,-122.926338,0
			48.7111210000001,-122.925819,0
			48.711159,-122.925308,0
			48.7112850000001,-122.924797,0
			48.711395,-122.924286,0
			48.7115290000001,-122.923782,0
			48.7117270000001,-122.923325,0
			48.7119370000001,-122.922867,0
			48.7121160000002,-122.922386,0
			48.7122190000002,-122.921875,0
			48.7123150000001,-122.921356,0
			48.7125090000002,-122.920883,0
			48.7127080000001,-122.92041,0
			48.7127990000002,-122.919884,0
			48.7129100000001,-122.919342,0
			48.7130930000002,-122.918839,0
			48.7133220000001,-122.91835,0
			48.713467,-122.917809,0
			48.7136080000001,-122.917236,0
			48.7136120000001,-122.916611,0
			48.7136120000001,-122.915962,0
			48.7136120000001,-122.915306,0
			48.7136310000001,-122.914642,0
			48.7137030000002,-122.913986,0
			48.7139020000001,-122.913391,0
			48.7141300000002,-122.912811,0
			48.7143520000001,-122.912224,0
			48.7142300000001,-122.911606,0
			48.7141490000001,-122.910988,0
			48.7140810000002,-122.910362,0
			48.714165,-122.909752,0
			48.7143100000001,-122.909149,0
			48.7144320000001,-122.908539,0
			48.7144320000001,-122.907913,0
			48.714298,-122.907303,0
			48.7142720000001,-122.906654,0
			48.714371,-122.905991,0
			48.7143630000001,-122.905319,0
			48.7142110000001,-122.904663,0
			48.7140880000001,-122.903992,0
			48.713959,-122.903336,0
			48.713963,-122.902679,0
			48.714111,-122.902031,0
			48.714233,-122.901382,0
			48.7144470000001,-122.90078,0
			48.7146570000001,-122.900169,0
			48.7147670000001,-122.899498,0
			48.7148780000001,-122.898811,0
			48.7147870000002,-122.898071,0
			48.7147100000002,-122.897293,0
			48.7146260000002,-122.8965,0
			48.714577,-122.895706,0
			48.7145500000001,-122.894958,0
			48.7147220000001,-122.894165,0
			48.715,-122.89389,0
			48.714439,-122.891487,0
			48.714169,-122.890831,0
			48.71389,-122.890556,0
			48.7133330000001,-122.888336,0
			48.7125020000001,-122.886665,0
			48.7119450000001,-122.886108,0
		</coordinates>
	</polygon>
</kml>
