<?xml version="1.0" encoding="UTF-8"?>
<kml xmlns="http://earth.google.com/kml/2.2">
	<polygon id="USA_SC_Chester" samplingProbability="1">
		<coordinates>
			34.5435791020001,-80.8776168829999,0
			34.5468215940001,-80.9830627439999,0
			34.5531692510002,-81.0606307989999,0
			34.563831329,-81.242568969,0
			34.5698318470002,-81.377639771,0
			34.5715408320001,-81.4094619749999,0
			34.5723991400001,-81.422859192,0
			34.5787506100002,-81.427360536,0
			34.6042099010002,-81.4180068969999,0
			34.635559082,-81.4164962769999,0
			34.64868927,-81.429977416,0
			34.6540908810001,-81.4423065189999,0
			34.6749420170001,-81.4541625969999,0
			34.6940193190002,-81.453712463,0
			34.6967391970001,-81.45540619,0
			34.711719513,-81.4554901119999,0
			34.7212600710001,-81.454429627,0
			34.7266922000002,-81.4617309569999,0
			34.723442078,-81.478492737,0
			34.7306709290002,-81.4863662709998,0
			34.7352104190001,-81.4886322019999,0
			34.7415809630001,-81.4853057859999,0
			34.7538986200001,-81.4691696169999,0
			34.7580184930002,-81.4613571159999,0
			34.759868622,-81.4535369869999,0
			34.7734909060001,-81.4552993769999,0
			34.7921104430001,-81.455970764,0
			34.7980003360001,-81.4593582149998,0
			34.7998008730001,-81.462165832,0
			34.8092994690002,-81.472312927,0
			34.8083496090001,-81.4812469479999,0
			34.81332016,-81.487449646,0
			34.8165016180002,-81.488029481,0
			34.8215293890001,-81.478538514,0
			34.8225021370001,-81.332962037,0
			34.8225097650002,-81.330162049,0
			34.8206596380002,-81.1056213369999,0
			34.8206596380002,-81.103942871,0
			34.821609498,-80.9824371339999,0
			34.8206596380002,-80.8978958129999,0
			34.8124885560001,-80.8950958239999,0
			34.8052215570001,-80.8900833119999,0
			34.7947692880001,-80.883926391,0
			34.785678864,-80.8761062619999,0
			34.7593307500001,-80.8784027099999,0
			34.74343872,-80.8778457639999,0
			34.731620789,-80.874519348,0
			34.7234497080001,-80.8683929449999,0
			34.7152709970001,-80.868400573,0
			34.706180574,-80.8661727909999,0
			34.703449249,-80.8617095949999,0
			34.700271607,-80.860038757,0
			34.6957321170001,-80.860603333,0
			34.6830291740001,-80.8774032599999,0
			34.6630592360001,-80.8886108399999,0
			34.6358108520001,-80.897026062,0
			34.629451751,-80.8959197999999,0
			34.6240005500001,-80.8908996579999,0
			34.6185493470002,-80.889228822,0
			34.5976486210001,-80.8920516969999,0
			34.5885620120001,-80.8831329339999,0
			34.5812797540001,-80.8781204219999,0
			34.5690193170001,-80.876457214,0
			34.5463104250002,-80.8787307749999,0
			34.5435791020001,-80.8776168829999,0
		</coordinates>
	</polygon>
</kml>
