<?xml version="1.0" encoding="UTF-8"?>
<kml xmlns="http://earth.google.com/kml/2.2">
	<polygon id="USA_IL_Pike" samplingProbability="1">
		<coordinates>
			39.7589797970002,-91.3653869619999,0
			39.7585906990001,-91.2639923099998,0
			39.757900239,-91.1478805549999,0
			39.7571411130001,-91.0293884269999,0
			39.7566490180001,-90.916893006,0
			39.8441696160002,-90.915611268,0
			39.8411712660001,-90.8993759149999,0
			39.8399887080001,-90.798721313,0
			39.8391609190001,-90.7459869369999,0
			39.8393211370002,-90.6830978399999,0
			39.8389511120002,-90.5722808849999,0
			39.8335418710002,-90.5685958869999,0
			39.8294715880001,-90.5673370359999,0
			39.8258285520001,-90.569091798,0
			39.8226203920001,-90.5738296499999,0
			39.8198814400001,-90.5755767819999,0
			39.814418792,-90.5784988409999,0
			39.8048210150001,-90.5867385869998,0
			39.7984085090001,-90.5938262939999,0
			39.793392182,-90.5979385369999,0
			39.788379669,-90.6002578729999,0
			39.784740449,-90.6019973749999,0
			39.7797203060001,-90.6055068969999,0
			39.765670776,-90.605895995,0
			39.757461548,-90.611152649,0
			39.7506294250001,-90.614639282,0
			39.7378692630002,-90.6222228999999,0
			39.7278213490001,-90.629837037,0
			39.7232589730002,-90.633346557,0
			39.7168388370001,-90.641021729,0
			39.7113609310001,-90.6451187129999,0
			39.7040901200001,-90.647399902,0
			39.6986503600002,-90.646713258,0
			39.6945686340001,-90.6466522219999,0
			39.687801361,-90.6435470569999,0
			39.6810302740001,-90.639862062,0
			39.6688690190001,-90.6313018809998,0
			39.6630287180001,-90.6258316039999,0
			39.653560639,-90.6197128299999,0
			39.6490516660001,-90.6172485349999,0
			39.6449890130001,-90.6153869629999,0
			39.6418304450001,-90.6129531859999,0
			39.6359710700001,-90.609878539,0
			39.6291809090001,-90.6079788199999,0
			39.6246490470001,-90.6079101569999,0
			39.6147117620001,-90.604179382,0
			39.607479095,-90.601081847,0
			39.5953102120001,-90.593727112,0
			39.5740890500002,-90.583862305,0
			39.5655097960001,-90.580146789,0
			39.5510406500001,-90.575157165,0
			39.544239044,-90.5756530759999,0
			39.5337791440002,-90.5790710459999,0
			39.527870177,-90.5819702139999,0
			39.5215301520001,-90.5812759389999,0
			39.5165405290002,-90.5811996459998,0
			39.511089326,-90.582305907,0
			39.4969787600002,-90.5886611949999,0
			39.4915199290001,-90.590957642,0
			39.4878692630001,-90.593292237,0
			39.483779908,-90.59501648,0
			39.4755706790002,-90.6002578729999,0
			39.4646301270001,-90.60723877,0
			39.4614486700001,-90.6089782719998,0
			39.457359313,-90.6101074219999,0
			39.4505500790001,-90.610603333,0
			39.441009522,-90.612236022,0
			39.4323806770001,-90.6150817879999,0
			39.425109864,-90.6161727909999,0
			39.416511536,-90.6148376469999,0
			39.409240723,-90.616516113,0
			39.4047203070001,-90.6152572639999,0
			39.398830413,-90.614570617,0
			39.3952102660001,-90.614509582,0
			39.3963584900001,-90.6859664919999,0
			39.3992919920001,-90.8015289299998,0
			39.4002990720001,-90.9164504999999,0
			39.4004898080001,-90.939102174,0
			39.4029617320002,-90.940246582,0
			39.4057006850001,-90.941986084,0
			39.4076805120002,-90.9451828009999,0
			39.4098701480002,-90.9496383669999,0
			39.4108505260001,-90.954971313,0
			39.4129295360001,-90.96195984,0
			39.4141502380001,-90.9656295769999,0
			39.4160194410001,-90.9697570799999,0
			39.417900086,-90.9750823969999,0
			39.419521332,-90.979370118,0
			39.4208488470002,-90.982376099,0
			39.4216995250001,-90.9865570069999,0
			39.4230804440002,-90.991645813,0
			39.4247589110001,-90.996147155,0
			39.4277496330001,-91.002265931,0
			39.4313201900002,-91.0076827999999,0
			39.4337806710001,-91.014060974,0
			39.4397811890001,-91.022872924,0
			39.4474105840001,-91.034751891,0
			39.4536094670001,-91.0422515869998,0
			39.4595718390001,-91.048683166,0
			39.4643898,-91.054779052,0
			39.4679794310002,-91.05783844,0
			39.471580505,-91.0603027339998,0
			39.4756393440001,-91.062171936,0
			39.4792404180001,-91.063186646,0
			39.4842300420001,-91.063690185,0
			39.488769532,-91.0647888189999,0
			39.492351533,-91.0667114259999,0
			39.4970016480001,-91.070587158,0
			39.5022201550001,-91.075271607,0
			39.5089111340001,-91.0810928349999,0
			39.5171318060002,-91.0868911739998,0
			39.5287513740002,-91.092552185,0
			39.5323486320002,-91.0944213869998,0
			39.5367698670001,-91.0996170049999,0
			39.540470123,-91.105522155,0
			39.5432586680001,-91.1126327509999,0
			39.54335022,-91.120910644,0
			39.5444488520001,-91.135871887,0
			39.5444908140001,-91.1364517219999,0
			39.5457305920002,-91.1466217029999,0
			39.5482406620002,-91.1530990589999,0
			39.5528411870001,-91.158981323,0
			39.557289123,-91.1635894779999,0
			39.56427002,-91.1683197019999,0
			39.5706405640001,-91.1705932619999,0
			39.573059082,-91.1717071539999,0
			39.5751914970002,-91.1722869879999,0
			39.5798492430001,-91.1724700919999,0
			39.5834617620001,-91.1731491089999,0
			39.587989807,-91.173858642,0
			39.5924491880002,-91.175567627,0
			39.5961112980001,-91.1778869629999,0
			39.5992393490002,-91.180091859,0
			39.6001091000001,-91.181472779,0
			39.6012420650002,-91.1832504269999,0
			39.6034622190002,-91.1873016369999,0
			39.6057701120001,-91.1914367679999,0
			39.6085586560001,-91.1979598989999,0
			39.6106987010001,-91.2042388909999,0
			39.6124420170001,-91.209663392,0
			39.6141700740002,-91.21457672,0
			39.6163787850001,-91.219902039,0
			39.6200714100002,-91.226249695,0
			39.6229591380002,-91.231742859,0
			39.6266403200001,-91.2370529179999,0
			39.6310310360001,-91.242362977,0
			39.6348915100002,-91.245857238,0
			39.6386489880002,-91.249107361,0
			39.6426620490001,-91.2522964479999,0
			39.6462707530001,-91.2552566539999,0
			39.6502914440002,-91.2595367439999,0
			39.6534118650002,-91.2632064809999,0
			39.6580886840001,-91.2672729489999,0
			39.6623687750002,-91.2711868279999,0
			39.6664619440002,-91.27519226,0
			39.6716995240001,-91.2845764149999,0
			39.6756706230001,-91.2918472279999,0
			39.6779708860001,-91.2974929809999,0
			39.6803207410001,-91.301856995,0
			39.6831893930001,-91.305183411,0
			39.6863288880001,-91.3076629639999,0
			39.6872406000001,-91.308868408,0
			39.6899414070002,-91.3124465939999,0
			39.6947593700001,-91.3204193119999,0
			39.6996192930001,-91.3289108279999,0
			39.7042121880001,-91.335533143,0
			39.7067298890001,-91.3392562869999,0
			39.7101898200002,-91.3450088499999,0
			39.7147789010002,-91.350318908,0
			39.7191696160001,-91.3563232419999,0
			39.724979401,-91.361846924,0
			39.7285194400001,-91.366241455,0
			39.7327919000001,-91.3675079339999,0
			39.7371597290001,-91.36908722,0
			39.7412490840001,-91.3696289059999,0
			39.7452621460002,-91.370162963,0
			39.7498092650001,-91.36907959,0
			39.7534599310002,-91.3673782349999,0
			39.7566299440002,-91.3657989509999,0
			39.7589797970002,-91.3653869619999,0
		</coordinates>
	</polygon>
</kml>
