<?xml version="1.0" encoding="UTF-8"?>
<kml xmlns="http://earth.google.com/kml/2.2">
	<polygon id="USA_CO_Pueblo" samplingProbability="1">
		<coordinates>
			38.5230216980001,-104.054046631,0
			38.4351005560002,-104.0552063,0
			38.3507804870001,-104.05568695,0
			38.2623901380001,-104.05568695,0
			38.2624397280001,-104.058616637,0
			38.170410157,-104.058700561,0
			38.1482009890001,-104.058700561,0
			38.0842819220001,-104.058631898,0
			37.993171692,-104.059280396,0
			37.907489777,-104.059196472,0
			37.820449829,-104.059158325,0
			37.7461090100001,-104.059936524,0
			37.7315902720002,-104.05973816,0
			37.8147697450001,-104.351806641,0
			37.824790955,-104.388877868,0
			37.8556404130001,-104.497810365,0
			37.8859519960001,-104.607406616,0
			37.898239136,-104.652679444,0
			37.894859313,-104.717475891,0
			37.8833694470001,-104.937530517,0
			37.8821601880001,-104.954460143,0
			37.880958557,-104.973716736,0
			37.8793792730002,-105.001739501,0
			37.8794021610001,-105.004066468,0
			37.8789901740002,-105.009323119,0
			37.8799209600001,-105.01222992,0
			37.8858795170001,-105.020896911,0
			37.8918609620002,-105.031311035,0
			37.8963699340001,-105.029502869,0
			37.9000091550001,-105.030036927,0
			37.9054794310002,-105.03463745,0
			37.9114685060002,-105.046806336,0
			37.9966888420001,-105.047447205,0
			38.0855293280001,-105.048057557,0
			38.1730117800001,-105.048088073,0
			38.202018739,-105.048301696,0
			38.2582321180002,-105.048736573,0
			38.2586898800002,-104.93914032,0
			38.3448219300001,-104.940238952,0
			38.4177818290001,-104.939186095,0
			38.4300193780001,-104.939002991,0
			38.5002784730001,-104.939743041,0
			38.5003089910001,-104.942687989,0
			38.5175285340001,-104.943016052,0
			38.5183219910002,-104.829490662,0
			38.5182991020001,-104.735969543,0
			38.5185585020001,-104.717140198,0
			38.5187301640001,-104.607131958,0
			38.519248962,-104.49711609,0
			38.5199699400002,-104.375923156,0
			38.5200805660001,-104.283561706,0
			38.5204811090001,-104.279426574,0
			38.5204315190001,-104.275909424,0
			38.5215187080001,-104.16293335,0
			38.5230216980001,-104.054046631,0
		</coordinates>
	</polygon>
</kml>
