<?xml version="1.0" encoding="UTF-8"?>
<kml xmlns="http://earth.google.com/kml/2.2">
	<polygon id="USA_MI_Manistee" samplingProbability="1">
		<coordinates>
			44.5186386110001,-86.234268189,0
			44.516700745,-86.1817474359999,0
			44.5140686040001,-86.0594329839999,0
			44.5127105710001,-85.9396667489999,0
			44.511699676,-85.820541382,0
			44.4227905270001,-85.820793151,0
			44.3949699410001,-85.8204269409999,0
			44.3785591120002,-85.820587159,0
			44.3370819090002,-85.8203659059999,0
			44.2513885500001,-85.821220399,0
			44.1634292610001,-85.8201904299999,0
			44.1634407040001,-85.917678834,0
			44.1635513320001,-85.945075988,0
			44.1661987310001,-86.0412826529999,0
			44.1667289730001,-86.062942506,0
			44.1716194150001,-86.184638976,0
			44.1745185860001,-86.2611007689999,0
			44.1754608150002,-86.2795791619999,0
			44.1796989440001,-86.389190674,0
			44.181518554,-86.387908936,0
			44.1897201530001,-86.380882264,0
			44.194728852,-86.37513733,0
			44.2111091630001,-86.3578872689999,0
			44.2375297560001,-86.3457183839999,0
			44.2480087290002,-86.3405914309999,0
			44.2507400520001,-86.3393096929999,0
			44.2580299390001,-86.330986023,0
			44.2625808720002,-86.325881957,0
			44.2671318060001,-86.3207626339999,0
			44.2917213450001,-86.308570861,0
			44.3058395390001,-86.3002166739999,0
			44.326782226,-86.2816467289999,0
			44.3463592530001,-86.2668914799999,0
			44.3504486090002,-86.2656021119999,0
			44.3595695500002,-86.263648986,0
			44.3604812620001,-86.263648986,0
			44.3714218150002,-86.261047364,0
			44.3905601490001,-86.255867004,0
			44.418811798,-86.2487258909999,0
			44.431571961,-86.2480468749999,0
			44.4416008010001,-86.2480087279999,0
			44.4612197880001,-86.251777649,0
			44.4790000910001,-86.2485122689999,0
			44.4831008910001,-86.2472229009999,0
			44.480350494,-86.2408218379999,0
			44.4808006280001,-86.239540101,0
			44.4821510310001,-86.2305831909999,0
			44.4894294750001,-86.224136352,0
			44.4903488150001,-86.2260589589999,0
			44.4858016970001,-86.2331161499999,0
			44.4867286680002,-86.2369461069999,0
			44.4871788020001,-86.236312867,0
			44.4912910470001,-86.238220214,0
			44.4908409110001,-86.240776062,0
			44.4853706370001,-86.242721558,0
			44.4858207710001,-86.2433624269999,0
			44.4872016900001,-86.2459182749999,0
			44.4940299980001,-86.2433319089999,0
			44.5072517400001,-86.2394409189999,0
			44.5186386110001,-86.234268189,0
		</coordinates>
	</polygon>
</kml>
