<?xml version="1.0" encoding="UTF-8"?>
<kml xmlns="http://earth.google.com/kml/2.2">
	<polygon id="USA_GA_Glynn" samplingProbability="1">
		<coordinates>
			31.1660866000001,-81.78118721,0
			31.1693100000002,-81.782501,0
			31.1723880000001,-81.7820509999999,0
			31.1732012850002,-81.7806847259999,0
			31.1760025020001,-81.775978089,0
			31.1850253430001,-81.7728319129999,0
			31.2013397220002,-81.7671432499999,0
			31.2090892800001,-81.765953064,0
			31.2173118600001,-81.7652893059999,0
			31.2204601050001,-81.764980507,0
			31.2236900320001,-81.7646636969999,0
			31.2240406690001,-81.764228012,0
			31.2241382110001,-81.76410681,0
			31.2259502410001,-81.7624816889999,0
			31.2278071710001,-81.7617965329999,0
			31.230499268,-81.7608032229999,0
			31.233842603,-81.7596304039999,0
			31.2368717200001,-81.758567811,0
			31.2423400880001,-81.7579498289999,0
			31.2446212780002,-81.7573776249999,0
			31.250080109,-81.7556915289999,0
			31.2518997190001,-81.755126952,0
			31.2570903270001,-81.754060043,0
			31.2687510000001,-81.751663,0
			31.2691386390001,-81.7511956519999,0
			31.2692127230002,-81.7511062609999,0
			31.272103099,-81.7502066279999,0
			31.2728405,-81.7499771109999,0
			31.2802061750001,-81.7474589909999,0
			31.2810306690001,-81.747177113,0
			31.2837505340001,-81.745002748,0
			31.2859916690001,-81.7417526249999,0
			31.2891407010002,-81.7374191279999,0
			31.2894497640001,-81.7372775079999,0
			31.292770386,-81.73575592,0
			31.2933490000001,-81.735491619,0
			31.2964115150002,-81.7340927119999,0
			31.2995346870001,-81.7333070079999,0
			31.30096054,-81.7329483029999,0
			31.3027896880002,-81.7329330449999,0
			31.324249267,-81.733116151,0
			31.3250376670001,-81.7331073779999,0
			31.3256206510002,-81.7331008899999,0
			31.3260707870001,-81.7325592049999,0
			31.3267911630001,-81.732547123,0
			31.327890397,-81.732528686,0
			31.328862036,-81.7321816069999,0
			31.3299407960001,-81.7317962639999,0
			31.3271198280001,-81.724876404,0
			31.3358221510001,-81.71787053,0
			31.3488407140002,-81.707389833,0
			31.3530641750002,-81.704738904,0
			31.3619804390001,-81.6991424559999,0
			31.3627781400002,-81.6986567519999,0
			31.3628826140001,-81.6985931399999,0
			31.3643337170002,-81.69839885,0
			31.3674411780001,-81.6979827869999,0
			31.3688201900001,-81.6990280159999,0
			31.3700712640002,-81.700236936,0
			31.3748210000001,-81.704826,0
			31.3825510000001,-81.702026,0
			31.3884600000001,-81.6992489999999,0
			31.3895837460001,-81.6985673019999,0
			31.390270233,-81.698150635,0
			31.4002399450001,-81.692092896,0
			31.399459839,-81.6647567749998,0
			31.401720047,-81.6631088249999,0
			31.4308152620001,-81.641987693,0
			31.4523980000001,-81.62632,0
			31.4528500000001,-81.625778,0
			31.4531857240001,-81.6245470109999,0
			31.4532908510002,-81.6241610909999,0
			31.4514810000001,-81.625267,0
			31.4500900000001,-81.6242069999999,0
			31.4486810000001,-81.6210169999999,0
			31.445881,-81.6156999999999,0
			31.4467600000001,-81.613014,0
			31.4462800000002,-81.611397,0
			31.4440000000002,-81.6109089999999,0
			31.44169,-81.6088029999999,0
			31.4402980000001,-81.6072239999999,0
			31.4389210000001,-81.6066969999999,0
			31.4375710000001,-81.6078029999999,0
			31.4366800000001,-81.609947,0
			31.4357910000001,-81.6115799999999,0
			31.4339410000001,-81.6100079999999,0
			31.4311430000001,-81.6052169999999,0
			31.4293100000001,-81.6047209999999,0
			31.4274900000001,-81.6052929999999,0
			31.4252,-81.6042629999999,0
			31.4223900000001,-81.598938,0
			31.4200800000001,-81.596298,0
			31.41778,-81.5947269999999,0
			31.4159410000001,-81.5942229999999,0
			31.4154610000002,-81.5920869999999,0
			31.4113100000001,-81.5889359999999,0
			31.4103980000001,-81.588959,0
			31.409931,-81.5878979999999,0
			31.409418,-81.583611,0
			31.4075600000002,-81.581497,0
			31.404341,-81.5794069999999,0
			31.400221,-81.578407,0
			31.3969610000001,-81.5730969999999,0
			31.393711,-81.568878,0
			31.39183,-81.5646209999999,0
			31.3881210000001,-81.5598599999999,0
			31.3867090000001,-81.5566559999999,0
			31.387081,-81.550217,0
			31.3861310000001,-81.547546,0
			31.384731,-81.545441,0
			31.3819900000001,-81.5449519999999,0
			31.38019,-81.5471269999999,0
			31.3793110000001,-81.5492859999999,0
			31.3779600000001,-81.5514529999999,0
			31.3761430000002,-81.5514909999999,0
			31.3756200000001,-81.546669,0
			31.3764110000002,-81.5375369999999,0
			31.3718400000001,-81.536552,0
			31.3685890000001,-81.53286,0
			31.365301,-81.5259629999999,0
			31.3593010000001,-81.5207059999999,0
			31.3574410000002,-81.518593,0
			31.3560430000002,-81.5159379999999,0
			31.3559890000001,-81.512192,0
			31.3559400000001,-81.508438,0
			31.3554310000001,-81.5047,0
			31.3545,-81.503113,0
			31.3503300000002,-81.4983599999999,0
			31.34848,-81.496788,0
			31.347542,-81.494659,0
			31.3475210000001,-81.4930499999999,0
			31.3470380000001,-81.491989,0
			31.3465810000001,-81.4914629999999,0
			31.3433610000001,-81.489906,0
			31.3424510000002,-81.4899289999999,0
			31.3419900000002,-81.489403,0
			31.3419630000001,-81.4872669999999,0
			31.3419420000001,-81.486191,0
			31.3382510000001,-81.4830469999999,0
			31.3373390000002,-81.4830629999999,0
			31.3364110000001,-81.4820099999999,0
			31.335951,-81.4814759999999,0
			31.3363990000001,-81.4809269999999,0
			31.3381810000002,-81.4782329999999,0
			31.3372380000001,-81.476097,0
			31.3353900000002,-81.474533,0
			31.3358210000001,-81.472366,0
			31.3367310000001,-81.4718169999999,0
			31.33901,-81.4717789999999,0
			31.3394510000001,-81.470703,0
			31.3384900000001,-81.467499,0
			31.3366510000001,-81.466461,0
			31.3357300000001,-81.4654079999999,0
			31.3347800000001,-81.462753,0
			31.3334100000001,-81.4627759999999,0
			31.3324700000002,-81.461189,0
			31.3305910000001,-81.457466,0
			31.32737,-81.455391,0
			31.3264410000001,-81.454338,0
			31.32641,-81.452187,0
			31.3277400000001,-81.4494859999999,0
			31.3281710000001,-81.4473419999999,0
			31.3321990000001,-81.4413679999999,0
			31.3326230000002,-81.439217,0
			31.3316710000001,-81.436546,0
			31.3293720000001,-81.4349899999999,0
			31.3248120000001,-81.4356229999999,0
			31.320721,-81.437302,0
			31.3161720000001,-81.4379269999999,0
			31.315701,-81.437401,0
			31.3129410000001,-81.43531,0
			31.3124280000001,-81.432106,0
			31.3114510000001,-81.426773,0
			31.3090900000001,-81.4219969999999,0
			31.3076710000001,-81.418266,0
			31.3071590000001,-81.4145429999999,0
			31.3125900000002,-81.410667,0
			31.3130110000002,-81.408516,0
			31.310171,-81.405357,0
			31.301182,-81.410904,0
			31.2962000000001,-81.4142229999999,0
			31.2934490000001,-81.413193,0
			31.292959,-81.411064,0
			31.2928920000002,-81.410828,0
			31.2927130000001,-81.4110489999999,0
			31.2922630000002,-81.4110029999999,0
			31.2918470000002,-81.4107209999999,0
			31.2914680000001,-81.4103089999999,0
			31.2910670000002,-81.409935,0
			31.2907560000002,-81.409485,0
			31.2904510000002,-81.4090499999999,0
			31.2901900000001,-81.4085919999999,0
			31.2899800000001,-81.4081339999999,0
			31.289726,-81.407745,0
			31.2894920000001,-81.4073789999999,0
			31.2893330000001,-81.4069749999999,0
			31.2891670000001,-81.4066699999999,0
			31.288891,-81.4063869999999,0
			31.288891,-81.40583,0
			31.2877770000001,-81.40583,0
			31.2877770000001,-81.404999,0
			31.2883340000001,-81.404442,0
			31.2880550000002,-81.404167,0
			31.2880550000002,-81.4030529999999,0
			31.2883340000001,-81.402779,0
			31.2883340000001,-81.402496,0
			31.2886120000001,-81.4022219999999,0
			31.2886120000001,-81.401947,0
			31.2886070000002,-81.4016569999999,0
			31.2885510000002,-81.4013669999999,0
			31.2883740000001,-81.4010469999999,0
			31.2883780000001,-81.4006809999999,0
			31.2885570000001,-81.400291,0
			31.2885670000001,-81.399864,0
			31.2883780000001,-81.3994219999999,0
			31.288296,-81.3989259999999,0
			31.2881160000001,-81.3984679999999,0
			31.288004,-81.397957,0
			31.2877750000001,-81.397484,0
			31.28756,-81.3969729999999,0
			31.287403,-81.3964309999999,0
			31.2872520000001,-81.395866,0
			31.28718,-81.3952639999999,0
			31.2869850000001,-81.3946839999999,0
			31.2868840000001,-81.394035,0
			31.2866670000001,-81.3934169999998,0
			31.286411,-81.3928069999999,0
			31.2861100000002,-81.3922269999999,0
			31.2857530000001,-81.391693,0
			31.2853600000001,-81.3911899999999,0
			31.284973,-81.3906399999999,0
			31.2845610000001,-81.390114,0
			31.284142,-81.3895949999999,0
			31.283667,-81.389122,0
			31.2831820000002,-81.3886639999999,0
			31.2825980000002,-81.388336,0
			31.2819750000002,-81.3880539999999,0
			31.2813380000001,-81.387794,0
			31.280672,-81.3875889999999,0
			31.2800730000002,-81.3873139999999,0
			31.279425,-81.3870999999999,0
			31.2787460000002,-81.386948,0
			31.2780610000002,-81.386803,0
			31.2773880000001,-81.3866419999999,0
			31.2767470000001,-81.3864359999999,0
			31.2760830000001,-81.3864359999999,0
			31.2754650000001,-81.3866809999999,0
			31.2749180000001,-81.3870539999999,0
			31.2745,-81.3875659999999,0
			31.2741720000001,-81.388168,0
			31.2739350000002,-81.3888019999999,0
			31.2739410000001,-81.3894579999998,0
			31.274118,-81.390076,0
			31.274206,-81.3907619999999,0
			31.274427,-81.3914259999999,0
			31.274599,-81.392105,0
			31.274702,-81.392754,0
			31.2746750000001,-81.3933939999999,0
			31.2745880000001,-81.3937529999999,0
			31.2745230000002,-81.39402,0
			31.2745860000001,-81.3946459999999,0
			31.2744410000001,-81.395248,0
			31.2742040000001,-81.3958279999999,0
			31.2739120000001,-81.39637,0
			31.2735290000002,-81.3968349999998,0
			31.2730330000002,-81.3971329999999,0
			31.2724740000001,-81.3973459999999,0
			31.2718620000001,-81.3974759999999,0
			31.271217,-81.3975369999999,0
			31.2706010000002,-81.397774,0
			31.2699970000001,-81.3980479999999,0
			31.2694150000001,-81.398361,0
			31.2689380000001,-81.398781,0
			31.2685890000001,-81.3993069999999,0
			31.2682250000001,-81.399826,0
			31.2678430000001,-81.4003299999998,0
			31.2675170000001,-81.4008709999998,0
			31.2672230000001,-81.4014209999999,0
			31.2669450000002,-81.4019619999999,0
			31.2666630000002,-81.402481,0
			31.2663820000001,-81.402977,0
			31.2661090000001,-81.403442,0
			31.2658790000001,-81.4039079999999,0
			31.265833,-81.4044649999999,0
			31.265835,-81.405022,0
			31.2658670000002,-81.4055559999999,0
			31.2661110000001,-81.4061129999999,0
			31.2661110000001,-81.4063869999999,0
			31.266666,-81.406944,0
			31.2669450000002,-81.4071269999999,0
			31.2675000000001,-81.4075009999999,0
			31.2677780000002,-81.407684,0
			31.268057,-81.407776,0
			31.2686120000001,-81.407776,0
			31.2689210000001,-81.4077219999999,0
			31.27,-81.4075009999999,0
			31.2702790000002,-81.4072189999999,0
			31.2711110000001,-81.4072189999999,0
			31.271387,-81.406944,0
			31.272497,-81.406944,0
			31.2727780000002,-81.4072189999999,0
			31.2736090000002,-81.4072189999999,0
			31.2738910000001,-81.4075009999999,0
			31.274071,-81.4075779999998,0
			31.2755550000001,-81.4088899999999,0
			31.275831,-81.4091109999999,0
			31.2761140000002,-81.409164,0
			31.2763880000001,-81.409393,0
			31.2769450000002,-81.4097209999999,0
			31.2772240000002,-81.4098359999999,0
			31.2775000000001,-81.4100039999999,0
			31.2780550000002,-81.410149,0
			31.278334,-81.4102779999999,0
			31.2786100000001,-81.4104999999999,0
			31.2788890000001,-81.4105529999999,0
			31.279167,-81.410667,0
			31.2794460000002,-81.4108349999999,0
			31.2797220000001,-81.4109119999999,0
			31.2811110000001,-81.4122239999999,0
			31.2813890000002,-81.412407,0
			31.281666,-81.4124979999999,0
			31.2819440000001,-81.4124979999999,0
			31.2827780000002,-81.41333,0
			31.2827780000002,-81.4138869999999,0
			31.2822230000001,-81.4144439999999,0
			31.2821250000001,-81.4144439999999,0
			31.2819440000001,-81.4144439999999,0
			31.2816980000002,-81.4141239999999,0
			31.2797220000001,-81.4124979999999,0
			31.2794460000002,-81.412277,0
			31.278334,-81.4113919999999,0
			31.2780550000002,-81.411163,0
			31.2777790000001,-81.4109649999999,0
			31.2775000000001,-81.4109949999998,0
			31.2772240000002,-81.4108349999999,0
			31.2766670000001,-81.4107209999999,0
			31.2763880000001,-81.4105529999999,0
			31.2761140000002,-81.410446,0
			31.275831,-81.4102779999999,0
			31.2755550000001,-81.4101259999999,0
			31.2752780000001,-81.4100039999999,0
			31.2750320000002,-81.4098889999999,0
			31.274721,-81.4097209999999,0
			31.2741660000001,-81.409164,0
			31.2738910000001,-81.4090189999999,0
			31.2733330000001,-81.4084629999999,0
			31.2730560000001,-81.4084629999999,0
			31.2727780000002,-81.4083329999999,0
			31.271387,-81.4083329999999,0
			31.2711110000001,-81.408607,0
			31.270653,-81.4087979999999,0
			31.2702790000002,-81.4088899999999,0
			31.2677780000002,-81.4088899999999,0
			31.2675000000001,-81.408607,0
			31.2672210000001,-81.4084629999999,0
			31.2669450000002,-81.4083329999999,0
			31.266666,-81.4081879999999,0
			31.2663880000001,-81.4080579999999,0
			31.2661110000001,-81.407791,0
			31.2652780000001,-81.4072189999999,0
			31.2651710000001,-81.4072189999999,0
			31.2649990000001,-81.4072189999999,0
			31.2644600000001,-81.4072189999999,0
			31.2637500000002,-81.4071659999998,0
			31.263115,-81.406982,0
			31.2624570000001,-81.4068759999999,0
			31.2618690000002,-81.406662,0
			31.2613300000002,-81.4063869999999,0
			31.2608130000002,-81.40612,0
			31.260311,-81.4058529999999,0
			31.2598740000001,-81.4055479999999,0
			31.2595010000002,-81.4051899999999,0
			31.2592110000001,-81.4047699999999,0
			31.2589360000001,-81.4043579999999,0
			31.2586920000002,-81.403946,0
			31.2583140000002,-81.4036029999999,0
			31.257954,-81.4032139999999,0
			31.2576850000002,-81.4026489999999,0
			31.2574630000001,-81.401955,0
			31.25728,-81.4012299999999,0
			31.2572290000001,-81.4004439999999,0
			31.2572210000001,-81.399658,0
			31.2572230000001,-81.3988799999999,0
			31.2572160000001,-81.3981249999999,0
			31.2571370000001,-81.397408,0
			31.2568530000001,-81.396812,0
			31.2563720000001,-81.396408,0
			31.2558000000002,-81.3961179999999,0
			31.2552010000002,-81.395912,0
			31.2545780000002,-81.3958889999999,0
			31.2539630000001,-81.3960109999999,0
			31.253338,-81.396156,0
			31.252754,-81.3963849999999,0
			31.2521860000001,-81.3966139999999,0
			31.2516210000001,-81.3968199999999,0
			31.2510510000002,-81.396988,0
			31.2505340000002,-81.3972169999999,0
			31.2500380000002,-81.397453,0
			31.2495540000001,-81.3976669999998,0
			31.249083,-81.397881,0
			31.2486500000001,-81.3981319999999,0
			31.2482590000001,-81.398422,0
			31.247936,-81.398781,0
			31.2477190000002,-81.3992229999999,0
			31.2475450000002,-81.3996959999999,0
			31.2474650000001,-81.4002,0
			31.2473910000001,-81.4007109999999,0
			31.2474630000001,-81.401154,0
			31.2474940000002,-81.4016569999999,0
			31.247513,-81.4021839999999,0
			31.2475890000001,-81.402702,0
			31.2477440000001,-81.4032139999999,0
			31.247782,-81.403755,0
			31.24778,-81.4042969999999,0
			31.2477320000002,-81.4048389999999,0
			31.2475430000002,-81.4053729999999,0
			31.2474990000001,-81.4059369999999,0
			31.2474990000001,-81.406494,0
			31.2474960000002,-81.4070589999999,0
			31.2474400000002,-81.407608,0
			31.2472630000001,-81.4081269999999,0
			31.2472250000001,-81.408691,0
			31.247219,-81.409279,0
			31.2471790000001,-81.409859,0
			31.2469840000001,-81.4104229999999,0
			31.2469440000002,-81.410988,0
			31.246983,-81.4115519999999,0
			31.2471850000001,-81.4120859999999,0
			31.2473600000001,-81.4126209999999,0
			31.2476020000001,-81.413078,0
			31.247816,-81.4135509999999,0
			31.2480580000001,-81.4139939999999,0
			31.2483200000001,-81.4144209999999,0
			31.2485940000001,-81.4148249999998,0
			31.2488500000001,-81.4152369999998,0
			31.249081,-81.4156719999999,0
			31.2492030000002,-81.416191,0
			31.2494070000002,-81.416687,0
			31.249489,-81.4172359999999,0
			31.2496470000002,-81.4177319999999,0
			31.2495610000001,-81.4182279999999,0
			31.249418,-81.418732,0
			31.2491910000001,-81.4192049999999,0
			31.2490370000002,-81.419701,0
			31.2488520000001,-81.420181,0
			31.248606,-81.420601,0
			31.2483270000002,-81.4209979999999,0
			31.2480280000001,-81.4213709999999,0
			31.247711,-81.4217219999999,0
			31.2473810000001,-81.422066,0
			31.2470460000001,-81.4224089999998,0
			31.2467080000002,-81.4227599999999,0
			31.2463070000001,-81.423058,0
			31.2458780000001,-81.4233319999999,0
			31.2454130000002,-81.423553,0
			31.2448900000001,-81.4236679999999,0
			31.2444270000001,-81.4238819999999,0
			31.2439350000001,-81.4240879999999,0
			31.2433430000001,-81.424202,0
			31.2427520000001,-81.4244229999999,0
			31.242123,-81.4245529999999,0
			31.2415070000001,-81.424698,0
			31.2408700000001,-81.424767,0
			31.2402920000001,-81.4249569999999,0
			31.2396600000002,-81.4250029999999,0
			31.2390080000001,-81.4250029999999,0
			31.238344,-81.4250029999999,0
			31.2376770000001,-81.4250029999999,0
			31.237,-81.4249949999999,0
			31.2363280000002,-81.4250029999999,0
			31.2356620000002,-81.425034,0
			31.2350440000002,-81.4252009999999,0
			31.2344470000002,-81.4253309999999,0
			31.2339590000001,-81.4257049999999,0
			31.233578,-81.42627,0
			31.2332270000001,-81.4268719999999,0
			31.2330740000001,-81.427521,0
			31.2330420000001,-81.428192,0
			31.23296,-81.4288409999999,0
			31.2327670000001,-81.429436,0
			31.2325040000002,-81.429985,0
			31.2322390000001,-81.4305339999999,0
			31.2319770000001,-81.4310909999999,0
			31.2317620000001,-81.431656,0
			31.2314950000002,-81.432182,0
			31.2311150000002,-81.4326249999999,0
			31.2307070000002,-81.433052,0
			31.2302860000001,-81.433464,0
			31.2298700000002,-81.433884,0
			31.229445,-81.4343029999999,0
			31.2290100000001,-81.4347079999999,0
			31.2285390000002,-81.435074,0
			31.2280310000001,-81.4354019999998,0
			31.2274670000002,-81.4356609999999,0
			31.2268300000002,-81.4358289999999,0
			31.2261540000001,-81.4359439999999,0
			31.2254750000002,-81.4360809999999,0
			31.224791,-81.436066,0
			31.2241060000001,-81.4359049999999,0
			31.2234120000002,-81.4360119999999,0
			31.2227480000001,-81.43605,0
			31.2221470000001,-81.4358369999999,0
			31.2215580000001,-81.435555,0
			31.2209680000001,-81.4352949999999,0
			31.2203660000001,-81.4351349999999,0
			31.2197230000002,-81.43528,0
			31.219786,-81.4359969999999,0
			31.2202780000001,-81.4366679999999,0
			31.22031,-81.4369579999999,0
			31.2204590000001,-81.437279,0
			31.2205560000002,-81.4374999999999,0
			31.2205560000002,-81.437775,0
			31.220737,-81.4385759999999,0
			31.2208330000001,-81.4400019999999,0
			31.2209510000001,-81.442551,0
			31.220694,-81.4447399999999,0
			31.221321,-81.4456709999999,0
			31.2225090000001,-81.4448389999999,0
			31.223333,-81.4441679999999,0
			31.2238880000002,-81.4436109999999,0
			31.2244450000001,-81.4436109999999,0
			31.2247870000001,-81.443634,0
			31.2252770000001,-81.443596,0
			31.225555,-81.4436109999999,0
			31.2263890000001,-81.4436109999999,0
			31.2267630000002,-81.4437029999999,0
			31.2271580000001,-81.444,0
			31.2275010000001,-81.4441679999999,0
			31.2277770000001,-81.4442749999999,0
			31.228054,-81.444443,0
			31.2283330000002,-81.444443,0
			31.2287710000001,-81.445061,0
			31.229275,-81.444984,0
			31.229488,-81.4441449999999,0
			31.2291680000002,-81.4433359999999,0
			31.2291430000001,-81.442757,0
			31.228889,-81.442223,0
			31.2289640000002,-81.441795,0
			31.2286110000001,-81.440552,0
			31.2285900000002,-81.4401319999999,0
			31.2284950000001,-81.4396819999999,0
			31.2286110000001,-81.439445,0
			31.2286110000001,-81.4391629999999,0
			31.2291680000002,-81.4387589999999,0
			31.229445,-81.4386139999999,0
			31.2298180000001,-81.438591,0
			31.2302570000001,-81.438522,0
			31.2307910000002,-81.4383539999999,0
			31.2324980000002,-81.438316,0
			31.232906,-81.4380419999999,0
			31.23361,-81.437775,0
			31.234018,-81.4379499999999,0
			31.2350030000002,-81.4374999999999,0
			31.2352770000001,-81.437225,0
			31.2361130000002,-81.4373319999999,0
			31.2363590000001,-81.437393,0
			31.2366870000001,-81.437279,0
			31.237125,-81.4371869999998,0
			31.2372440000001,-81.4371869999998,0
			31.2375530000001,-81.437355,0
			31.2377780000001,-81.437225,0
			31.2380890000001,-81.437485,0
			31.2383350000002,-81.4374999999999,0
			31.238546,-81.437759,0
			31.238825,-81.4379269999999,0
			31.238825,-81.4382019999999,0
			31.2383350000002,-81.4385379999999,0
			31.238119,-81.438347,0
			31.2377660000002,-81.438255,0
			31.2373620000001,-81.4384229999999,0
			31.2363590000001,-81.4384229999999,0
			31.2352770000001,-81.4383319999999,0
			31.2349030000001,-81.438385,0
			31.233889,-81.4386139999999,0
			31.23361,-81.438889,0
			31.2327800000001,-81.438889,0
			31.2324980000002,-81.4391629999999,0
			31.2316670000002,-81.4391629999999,0
			31.2313250000001,-81.4392929999999,0
			31.2308330000001,-81.439445,0
			31.2305560000001,-81.4394609999999,0
			31.2300300000001,-81.439423,0
			31.229336,-81.43985,0
			31.2297230000001,-81.4419479999999,0
			31.2299560000002,-81.442352,0
			31.2300000000001,-81.4427799999999,0
			31.2300000000001,-81.4436109999999,0
			31.2302760000001,-81.443886,0
			31.2302760000001,-81.4449999999999,0
			31.2300970000002,-81.445274,0
			31.2300000000001,-81.445557,0
			31.229445,-81.4459229999999,0
			31.22875,-81.4457399999999,0
			31.228344,-81.4455339999999,0
			31.228054,-81.445557,0
			31.227745,-81.4454039999999,0
			31.2275310000001,-81.4450909999999,0
			31.2272220000001,-81.444939,0
			31.226946,-81.4449999999999,0
			31.226143,-81.444847,0
			31.2258360000002,-81.4447249999999,0
			31.224722,-81.4444809999999,0
			31.2238880000002,-81.4449999999999,0
			31.2227780000001,-81.4461139999999,0
			31.2224880000001,-81.4461669999999,0
			31.2222190000001,-81.446388,0
			31.2219450000001,-81.4466629999999,0
			31.2211090000001,-81.4466629999999,0
			31.2202780000001,-81.4458309999999,0
			31.2202780000001,-81.445557,0
			31.2200430000001,-81.444443,0
			31.220108,-81.443596,0
			31.2203220000001,-81.44175,0
			31.219999,-81.440277,0
			31.2198510000001,-81.4397049999999,0
			31.2197230000002,-81.4386139999999,0
			31.2197020000002,-81.4380339999999,0
			31.2195420000001,-81.4376679999999,0
			31.2194880000001,-81.437347,0
			31.219166,-81.436943,0
			31.219114,-81.4365539999999,0
			31.2188870000001,-81.4358369999999,0
			31.2186110000001,-81.435555,0
			31.218393,-81.4355469999999,0
			31.2180420000001,-81.4352869999999,0
			31.2176840000002,-81.43502,0
			31.2173060000002,-81.434807,0
			31.2168960000002,-81.434547,0
			31.216551,-81.4344179999999,0
			31.2162190000001,-81.4341739999999,0
			31.2158830000002,-81.4339599999999,0
			31.2155060000001,-81.4338529999999,0
			31.2152040000001,-81.4336619999999,0
			31.2148110000002,-81.433395,0
			31.2147790000001,-81.4334949999999,0
			31.2142490000002,-81.433464,0
			31.2136710000001,-81.433319,0
			31.2131860000002,-81.4336239999999,0
			31.2130550000002,-81.4341659999999,0
			31.2130550000002,-81.4344479999999,0
			31.2127780000001,-81.434723,0
			31.2127780000001,-81.436111,0
			31.2125000000001,-81.436386,0
			31.2125000000001,-81.4376979999999,0
			31.2125000000001,-81.438889,0
			31.2122230000001,-81.4391629999999,0
			31.2122230000001,-81.440277,0
			31.2119450000001,-81.440552,0
			31.2119450000001,-81.441109,0
			31.2116660000002,-81.4416659999999,0
			31.2105560000002,-81.4427799999999,0
			31.2099990000001,-81.443054,0
			31.2091670000001,-81.4436109999999,0
			31.2083340000001,-81.4441679999999,0
			31.2061120000002,-81.4461139999999,0
			31.2058330000002,-81.4461139999999,0
			31.2052780000001,-81.4466629999999,0
			31.2050000000002,-81.4466629999999,0
			31.2047210000002,-81.4469449999999,0
			31.2044450000001,-81.4469449999999,0
			31.2041660000001,-81.44722,0
			31.2032740000002,-81.4471819999999,0
			31.2030560000001,-81.4475019999999,0
			31.2008340000001,-81.4475019999999,0
			31.2005560000002,-81.447594,0
			31.200277,-81.4477769999999,0
			31.199446,-81.448608,0
			31.1993140000001,-81.448853,0
			31.199167,-81.4491649999999,0
			31.1990050000001,-81.449966,0
			31.1988890000001,-81.4502789999999,0
			31.1987930000001,-81.4504469999999,0
			31.1986100000001,-81.450836,0
			31.198418,-81.4510349999999,0
			31.198334,-81.451385,0
			31.1983830000001,-81.4528199999999,0
			31.1981180000001,-81.4531099999999,0
			31.1980550000002,-81.4533309999999,0
			31.1977790000001,-81.4536129999999,0
			31.1977790000001,-81.4538879999999,0
			31.1975000000001,-81.45417,0
			31.1975000000001,-81.4544449999999,0
			31.1958310000001,-81.4561079999999,0
			31.1955660000002,-81.4561079999999,0
			31.195002,-81.4566649999999,0
			31.1947230000002,-81.4566649999999,0
			31.1944450000001,-81.4569469999999,0
			31.1941660000001,-81.4569469999999,0
			31.1938920000002,-81.4572219999998,0
			31.1933330000001,-81.4572219999998,0
			31.1930560000001,-81.4574969999999,0
			31.191387,-81.4577789999999,0
			31.190277,-81.4580539999999,0
			31.1888890000001,-81.459167,0
			31.1886120000001,-81.459167,0
			31.1883340000001,-81.4594419999999,0
			31.1880570000002,-81.4594419999999,0
			31.1875000000001,-81.459999,0
			31.187222,-81.459999,0
			31.186943,-81.4602809999999,0
			31.1866660000001,-81.4602809999999,0
			31.1864360000002,-81.460594,0
			31.1861110000002,-81.4605559999999,0
			31.1858500000002,-81.4608149999999,0
			31.1855810000001,-81.4609069999999,0
			31.1852780000002,-81.4611129999999,0
			31.1849770000001,-81.4611129999999,0
			31.1847250000002,-81.4611129999999,0
			31.1845890000001,-81.4612429999999,0
			31.184444,-81.4613879999998,0
			31.1841660000001,-81.4613879999998,0
			31.1838890000001,-81.4613879999998,0
			31.18375,-81.4615329999999,0
			31.183613,-81.46167,0
			31.1833310000001,-81.46167,0
			31.1830560000001,-81.46167,0
			31.182915,-81.461807,0
			31.182711,-81.461876,0
			31.1822200000001,-81.4619449999999,0
			31.1819440000002,-81.4622189999999,0
			31.181391,-81.4622189999999,0
			31.1811080000001,-81.462502,0
			31.1791670000001,-81.4627759999999,0
			31.1783330000001,-81.4627759999999,0
			31.1780550000001,-81.463058,0
			31.1772210000001,-81.463058,0
			31.1761110000002,-81.4619449999999,0
			31.1758770000001,-81.46122,0
			31.1758210000002,-81.4610519999998,0
			31.1747230000001,-81.459999,0
			31.1747230000001,-81.4597239999999,0
			31.1744440000001,-81.4594419999999,0
			31.1744440000001,-81.459167,0
			31.1741660000002,-81.458885,0
			31.1741660000002,-81.4586109999999,0
			31.1736110000001,-81.4580539999999,0
			31.1736110000001,-81.4577789999999,0
			31.1722220000001,-81.4563899999998,0
			31.1722220000001,-81.4561079999999,0
			31.1716670000002,-81.4555589999999,0
			31.1716670000002,-81.4552759999999,0
			31.1713890000001,-81.455002,0
			31.1713890000001,-81.45472,0
			31.1705550000001,-81.4538879999999,0
			31.1705550000001,-81.4536129999999,0
			31.1700000000001,-81.4530559999999,0
			31.1700000000001,-81.4527739999999,0
			31.1677800000001,-81.450554,0
			31.1677800000001,-81.4502789999999,0
			31.1675010000001,-81.4499969999999,0
			31.1675010000001,-81.449722,0
			31.1663910000001,-81.448608,0
			31.1661090000002,-81.448608,0
			31.1650010000002,-81.4475019999999,0
			31.1644440000001,-81.447311,0
			31.1641670000001,-81.44722,0
			31.163889,-81.4469989999999,0
			31.1630550000001,-81.446388,0
			31.1625000000002,-81.4462739999998,0
			31.1622220000001,-81.4461139999999,0
			31.1602780000002,-81.446388,0
			31.1584610000001,-81.4474869999999,0
			31.1577780000001,-81.4477769999999,0
			31.1575320000002,-81.4480739999999,0
			31.1569440000002,-81.4483339999999,0
			31.1567330000001,-81.448631,0
			31.1563890000001,-81.448608,0
			31.152498,-81.448608,0
			31.1522220000001,-81.4483339999999,0
			31.1519450000001,-81.4483339999999,0
			31.1500000000001,-81.446388,0
			31.1500000000001,-81.4461139999999,0
			31.1498050000001,-81.445915,0
			31.1497140000001,-81.446152,0
			31.149166,-81.4466629999999,0
			31.148333,-81.4475019999999,0
			31.147249,-81.4475399999999,0
			31.146946,-81.4477769999999,0
			31.145836,-81.4477769999999,0
			31.1455550000001,-81.4475019999999,0
			31.1437610000001,-81.4472049999999,0
			31.14332,-81.4472349999999,0
			31.1427000000001,-81.4475019999999,0
			31.1423910000001,-81.4474409999999,0
			31.1419790000001,-81.447098,0
			31.141645,-81.4467769999999,0
			31.1415460000002,-81.4464419999999,0
			31.1422200000002,-81.4458309999999,0
			31.1422200000002,-81.445557,0
			31.1422650000001,-81.445168,0
			31.1423970000001,-81.444649,0
			31.1424790000001,-81.444557,0
			31.1425440000002,-81.4434509999999,0
			31.1424810000001,-81.443146,0
			31.1424470000001,-81.4421839999999,0
			31.1422350000001,-81.4418719999999,0
			31.1419750000001,-81.4415509999999,0
			31.1419450000001,-81.441391,0
			31.1417660000001,-81.4414059999999,0
			31.1413880000001,-81.441109,0
			31.1411090000001,-81.4408339999999,0
			31.139999,-81.4408339999999,0
			31.1394440000001,-81.440277,0
			31.139166,-81.440277,0
			31.1388870000001,-81.4400019999999,0
			31.1386110000001,-81.4400019999999,0
			31.1377770000001,-81.4391629999999,0
			31.1375010000002,-81.4391629999999,0
			31.1369440000001,-81.4386139999999,0
			31.1369340000001,-81.4383319999999,0
			31.1367700000001,-81.4382779999999,0
			31.136667,-81.438057,0
			31.1361100000001,-81.4374999999999,0
			31.1361100000001,-81.437225,0
			31.135859,-81.436806,0
			31.1347220000001,-81.4358369999999,0
			31.1344450000001,-81.4358369999999,0
			31.1338880000002,-81.43528,0
			31.1336120000001,-81.435555,0
			31.1333330000001,-81.435555,0
			31.1330550000002,-81.4358369999999,0
			31.1327780000001,-81.4358369999999,0
			31.1325000000001,-81.436111,0
			31.1313900000001,-81.436111,0
			31.1311110000001,-81.436386,0
			31.1308350000002,-81.436386,0
			31.1305560000002,-81.4366679999999,0
			31.1302780000001,-81.4366679999999,0
			31.1286130000001,-81.4383319999999,0
			31.1286130000001,-81.4386139999999,0
			31.1283340000002,-81.438889,0
			31.1277770000001,-81.438889,0
			31.126669,-81.4400019999999,0
			31.1263890000002,-81.4400019999999,0
			31.1263890000002,-81.440277,0
			31.12611,-81.440277,0
			31.1247220000001,-81.4416659999999,0
			31.1244450000001,-81.4416659999999,0
			31.1241660000001,-81.4419479999999,0
			31.123886,-81.4419479999999,0
			31.123611,-81.442223,0
			31.1230560000001,-81.442223,0
			31.122778,-81.4424969999999,0
			31.1222230000001,-81.4424969999999,0
			31.1219440000001,-81.4427799999999,0
			31.121664,-81.4427799999999,0
			31.1213890000002,-81.443054,0
			31.1205560000002,-81.443054,0
			31.120277,-81.4433359999999,0
			31.1197220000001,-81.4433359999999,0
			31.1188890000001,-81.4441679999999,0
			31.1188890000001,-81.444443,0
			31.1186100000001,-81.4447249999999,0
			31.1172240000002,-81.4447249999999,0
			31.116945,-81.444443,0
			31.1166670000001,-81.444443,0
			31.1163880000001,-81.4447249999999,0
			31.116114,-81.4447249999999,0
			31.1130560000001,-81.4477769999999,0
			31.1130560000001,-81.4480589999998,0
			31.112778,-81.4483339999999,0
			31.112778,-81.448608,0
			31.1122230000001,-81.4491649999999,0
			31.1122230000001,-81.4494479999999,0
			31.111387,-81.4502789999999,0
			31.111387,-81.450554,0
			31.1111110000001,-81.450836,0
			31.1111110000001,-81.4511109999999,0
			31.1108340000001,-81.451385,0
			31.1108340000001,-81.4516679999999,0
			31.110556,-81.4519419999999,0
			31.110556,-81.4522249999998,0
			31.1102770000001,-81.4524989999999,0
			31.1102770000001,-81.4527739999999,0
			31.1100010000001,-81.4530559999999,0
			31.1100010000001,-81.4536129999999,0
			31.1097220000001,-81.4538879999999,0
			31.1097220000001,-81.4552759999999,0
			31.1094440000001,-81.4555589999999,0
			31.1094440000001,-81.4558329999999,0
			31.1091650000001,-81.4561079999999,0
			31.1091650000001,-81.4563899999998,0
			31.1094440000001,-81.4566649999999,0
			31.1094440000001,-81.4569469999999,0
			31.1100010000001,-81.4574969999999,0
			31.1100010000001,-81.4577789999999,0
			31.1102770000001,-81.4580539999999,0
			31.1102770000001,-81.458336,0
			31.110556,-81.4586109999999,0
			31.110556,-81.4602809999999,0
			31.1111110000001,-81.4608309999999,0
			31.1111110000001,-81.4611129999999,0
			31.111387,-81.4613879999998,0
			31.111387,-81.4619449999999,0
			31.111666,-81.4622189999999,0
			31.111666,-81.463333,0
			31.1119440000001,-81.4636079999999,0
			31.1119440000001,-81.464165,0
			31.1122230000001,-81.464447,0
			31.1122230000001,-81.4649959999999,0
			31.1124970000001,-81.4652789999999,0
			31.1124970000001,-81.465836,0
			31.112778,-81.4661099999999,0
			31.112778,-81.466393,0
			31.1130560000001,-81.466667,0
			31.1130560000001,-81.468056,0
			31.1133330000001,-81.46833,0
			31.1138920000002,-81.4694439999999,0
			31.1138920000002,-81.47139,0
			31.1141660000001,-81.471664,0
			31.1141660000001,-81.4719469999999,0
			31.1144450000001,-81.4722209999999,0
			31.116114,-81.4744419999999,0
			31.1163880000001,-81.4744419999999,0
			31.1166670000001,-81.4747239999999,0
			31.1172240000002,-81.4752809999999,0
			31.1175000000001,-81.4752809999999,0
			31.1204910000001,-81.4781879999999,0
			31.1206340000001,-81.4782489999999,0
			31.1208320000001,-81.478333,0
			31.1224590000001,-81.479073,0
			31.1225220000001,-81.479797,0
			31.1224780000001,-81.480003,0
			31.1224780000001,-81.480202,0
			31.1224990000002,-81.480553,0
			31.122538,-81.481033,0
			31.1225640000001,-81.4813839999999,0
			31.1223720000002,-81.4814829999999,0
			31.12219,-81.481995,0
			31.122248,-81.4827799999999,0
			31.1226330000001,-81.4830169999999,0
			31.1230750000001,-81.483574,0
			31.1233690000001,-81.4844279999999,0
			31.1238460000001,-81.485672,0
			31.124084,-81.4866029999999,0
			31.1243590000001,-81.4869459999999,0
			31.1247220000001,-81.4875029999998,0
			31.1247220000001,-81.4886089999999,0
			31.119446,-81.4938889999999,0
			31.1186100000001,-81.4938889999999,0
			31.1183340000002,-81.494164,0
			31.1183340000002,-81.4950029999999,0
			31.1166670000001,-81.4966659999998,0
			31.1158790000001,-81.4966659999998,0
			31.1155550000001,-81.4963909999999,0
			31.1150020000002,-81.496948,0
			31.114719,-81.496948,0
			31.1139340000001,-81.495689,0
			31.1136760000001,-81.495461,0
			31.1130560000001,-81.494446,0
			31.1130560000001,-81.494164,0
			31.112778,-81.4938889999999,0
			31.112778,-81.493614,0
			31.1124970000001,-81.493332,0
			31.1124970000001,-81.4930569999999,0
			31.1119440000001,-81.4924999999998,0
			31.1114310000002,-81.4925919999999,0
			31.11141,-81.492317,0
			31.1129680000001,-81.490578,0
			31.1136650000001,-81.4897989999999,0
			31.113291,-81.489243,0
			31.1133400000002,-81.488823,0
			31.1133730000001,-81.4885939999999,0
			31.1133610000001,-81.488297,0
			31.1133630000001,-81.4876789999999,0
			31.1123070000002,-81.4860529999999,0
			31.1108970000002,-81.484612,0
			31.1104300000001,-81.484612,0
			31.1094440000001,-81.4830549999999,0
			31.1094440000001,-81.4827799999999,0
			31.1091650000001,-81.482498,0
			31.1091650000001,-81.4822239999999,0
			31.1088890000001,-81.4819409999999,0
			31.1086290000001,-81.4818879999999,0
			31.106857,-81.4809269999999,0
			31.1058330000001,-81.479164,0
			31.1044450000001,-81.478333,0
			31.1041660000001,-81.4780579999999,0
			31.1038890000002,-81.4780579999999,0
			31.1030560000002,-81.4772189999999,0
			31.1016670000001,-81.4761119999999,0
			31.1008340000001,-81.4752809999999,0
			31.1008340000001,-81.474998,0
			31.1005550000002,-81.4747239999999,0
			31.1005550000002,-81.4744419999999,0
			31.1002770000001,-81.474167,0
			31.1002770000001,-81.4738919999999,0
			31.0999980000001,-81.47361,0
			31.0999980000001,-81.473335,0
			31.0997220000002,-81.4730529999999,0
			31.0997220000002,-81.4727779999999,0
			31.0994450000002,-81.472504,0
			31.0994450000002,-81.4722209999999,0
			31.0986120000002,-81.47139,0
			31.0986120000002,-81.4711069999999,0
			31.0975000000001,-81.470001,0
			31.0972210000002,-81.470001,0
			31.0966660000001,-81.4694439999999,0
			31.0963900000002,-81.4694439999999,0
			31.0961110000002,-81.46917,0
			31.0958330000001,-81.46917,0
			31.0952780000002,-81.4686129999999,0
			31.094999,-81.4686129999999,0
			31.0936110000001,-81.467224,0
			31.093445,-81.467224,0
			31.0933340000001,-81.467224,0
			31.0930560000002,-81.4669419999999,0
			31.0922220000001,-81.4669419999999,0
			31.0897240000002,-81.464447,0
			31.0897240000002,-81.464165,0
			31.0894450000002,-81.4638899999999,0
			31.0894450000002,-81.4636079999999,0
			31.088331,-81.462502,0
			31.088331,-81.4622189999999,0
			31.0877780000001,-81.46167,0
			31.0877780000001,-81.4613879999998,0
			31.087502,-81.4611129999999,0
			31.087502,-81.4608309999999,0
			31.0872230000002,-81.4605559999999,0
			31.0872230000002,-81.459999,0
			31.0869450000001,-81.4597239999999,0
			31.0869450000001,-81.4594419999999,0
			31.0866660000001,-81.459167,0
			31.0866660000001,-81.458885,0
			31.0863910000001,-81.4586109999999,0
			31.0863910000001,-81.4580539999999,0
			31.0861090000002,-81.4577789999999,0
			31.0861090000002,-81.4572219999998,0
			31.0858330000001,-81.4569469999999,0
			31.0858330000001,-81.4561079999999,0
			31.0855560000001,-81.4558329999999,0
			31.0855560000001,-81.4551999999999,0
			31.0855560000001,-81.45472,0
			31.0852780000002,-81.4544449999999,0
			31.0852780000002,-81.4536129999999,0
			31.084997,-81.4533309999999,0
			31.084997,-81.4522249999998,0
			31.0847230000001,-81.4519419999999,0
			31.0847230000001,-81.4502789999999,0
			31.0844440000001,-81.4499969999999,0
			31.0844440000001,-81.4494479999999,0
			31.0841670000001,-81.4491649999999,0
			31.0841670000001,-81.4477769999999,0
			31.0844440000001,-81.4475019999999,0
			31.0844440000001,-81.4469449999999,0
			31.0847230000001,-81.4466629999999,0
			31.0847230000001,-81.446388,0
			31.0872230000002,-81.443886,0
			31.0872230000002,-81.4436109999999,0
			31.087502,-81.4433359999999,0
			31.087502,-81.443054,0
			31.0880550000001,-81.4424969999999,0
			31.088331,-81.4424969999999,0
			31.0887580000002,-81.4422989999999,0
			31.0895900000001,-81.4421229999999,0
			31.0902790000001,-81.4421689999999,0
			31.0902790000001,-81.4419479999999,0
			31.088331,-81.4400019999999,0
			31.088331,-81.43972,0
			31.0880550000001,-81.439445,0
			31.0880550000001,-81.4391629999999,0
			31.0877780000001,-81.438889,0
			31.0877780000001,-81.4383319999999,0
			31.085594,-81.4361499999999,0
			31.0841670000001,-81.434723,0
			31.083887,-81.434723,0
			31.0836110000001,-81.4344479999999,0
			31.0833340000001,-81.4344479999999,0
			31.0830550000001,-81.4341659999999,0
			31.082775,-81.4341659999999,0
			31.0822220000001,-81.433609,0
			31.0819440000002,-81.433609,0
			31.081667,-81.4333339999999,0
			31.081388,-81.4333339999999,0
			31.0811120000001,-81.433052,0
			31.0808330000001,-81.433052,0
			31.0805570000002,-81.432777,0
			31.0794450000002,-81.432777,0
			31.079166,-81.4325029999999,0
			31.078056,-81.4325029999999,0
			31.0777780000001,-81.43222,0
			31.0774060000001,-81.4321979999999,0
			31.0771140000001,-81.432228,0
			31.076759,-81.43222,0
			31.0763610000001,-81.432182,0
			31.0759560000002,-81.4320299999999,0
			31.0752770000001,-81.431946,0
			31.075003,-81.4316639999999,0
			31.0747200000001,-81.4316639999999,0
			31.0741670000001,-81.431114,0
			31.073608,-81.431114,0
			31.0733340000001,-81.4308319999999,0
			31.0730270000001,-81.4308169999999,0
			31.0725540000001,-81.4306339999999,0
			31.0720330000001,-81.430557,0
			31.0714860000002,-81.4305189999999,0
			31.070999,-81.430367,0
			31.0704750000002,-81.4302979999999,0
			31.069939,-81.430313,0
			31.069445,-81.430557,0
			31.0691660000001,-81.430557,0
			31.0688900000001,-81.4308319999999,0
			31.0686110000001,-81.4308319999999,0
			31.0680540000001,-81.431389,0
			31.0677780000001,-81.4316639999999,0
			31.0677780000001,-81.431946,0
			31.0680540000001,-81.43222,0
			31.0680540000001,-81.4325029999999,0
			31.0683330000001,-81.432777,0
			31.0683330000001,-81.433609,0
			31.0686110000001,-81.433891,0
			31.0686110000001,-81.4344479999999,0
			31.0691660000001,-81.4349979999999,0
			31.0691660000001,-81.43528,0
			31.0688900000001,-81.435555,0
			31.0680540000001,-81.435555,0
			31.0674990000002,-81.434723,0
			31.0663890000001,-81.433609,0
			31.0663890000001,-81.4333339999999,0
			31.066111,-81.433052,0
			31.066111,-81.43222,0
			31.0652770000002,-81.431389,0
			31.0650010000001,-81.431389,0
			31.064713,-81.431099,0
			31.0644650000001,-81.430878,0
			31.0642110000001,-81.4307099999999,0
			31.064022,-81.430527,0
			31.063936,-81.43026,0
			31.063614,-81.4302749999998,0
			31.0633340000002,-81.4299999999999,0
			31.0630550000001,-81.4299999999999,0
			31.0627780000002,-81.429726,0
			31.0619450000002,-81.429726,0
			31.0616660000002,-81.4294429999999,0
			31.0613900000001,-81.4294429999999,0
			31.0611100000002,-81.4291689999999,0
			31.0608310000002,-81.4291689999999,0
			31.0605560000001,-81.428886,0
			31.06028,-81.428886,0
			31.0588870000001,-81.4274979999999,0
			31.0586110000002,-81.4274979999999,0
			31.0575010000002,-81.427223,0
			31.0555550000001,-81.427223,0
			31.0552770000002,-81.4269409999999,0
			31.0550000000002,-81.4269409999999,0
			31.0547220000001,-81.4266659999999,0
			31.053888,-81.4266659999999,0
			31.0536120000001,-81.4269409999999,0
			31.053055,-81.4269409999999,0
			31.0527780000002,-81.4266659999999,0
			31.0519450000002,-81.4266659999999,0
			31.0508350000002,-81.426392,0
			31.0502780000001,-81.426392,0
			31.0499990000001,-81.4261089999998,0
			31.049723,-81.4261089999998,0
			31.0494440000002,-81.4258349999999,0
			31.0491660000001,-81.4258349999999,0
			31.0486130000002,-81.4255519999999,0
			31.0477770000001,-81.4258349999999,0
			31.0469440000001,-81.42598,0
			31.0466670000001,-81.4261089999998,0
			31.045685,-81.4270099999999,0
			31.0452800000001,-81.427284,0
			31.0447220000001,-81.4269869999999,0
			31.0443780000001,-81.4269639999999,0
			31.043886,-81.4266659999999,0
			31.0436900000001,-81.4264679999999,0
			31.0436120000001,-81.426392,0
			31.0430560000001,-81.426392,0
			31.0425000000001,-81.4269409999999,0
			31.0422230000001,-81.4269409999999,0
			31.041954,-81.427269,0
			31.0416680000002,-81.427223,0
			31.041531,-81.427361,0
			31.0411110000001,-81.42778,0
			31.0408330000002,-81.42778,0
			31.040554,-81.428055,0
			31.0400010000001,-81.428055,0
			31.038055,-81.4299999999999,0
			31.038055,-81.4302749999998,0
			31.0377770000001,-81.430557,0
			31.0377770000001,-81.4308319999999,0
			31.0375000000001,-81.431114,0
			31.0375000000001,-81.431946,0
			31.037224,-81.43222,0
			31.037224,-81.4325029999999,0
			31.036945,-81.432777,0
			31.036945,-81.433609,0
			31.0366670000001,-81.433891,0
			31.0366670000001,-81.4344479999999,0
			31.0363880000001,-81.434723,0
			31.0363880000001,-81.436111,0
			31.036114,-81.436386,0
			31.036114,-81.437225,0
			31.0380520000002,-81.4391629999999,0
			31.038055,-81.439445,0
			31.0383340000002,-81.43972,0
			31.039253,-81.440681,0
			31.0408330000002,-81.4433359999999,0
			31.0408330000002,-81.443886,0
			31.0422230000001,-81.445274,0
			31.0422230000001,-81.445557,0
			31.0425000000001,-81.4458309999999,0
			31.0425000000001,-81.446388,0
			31.042776,-81.4466629999999,0
			31.042776,-81.44722,0
			31.0430560000001,-81.4475019999999,0
			31.0430560000001,-81.4477769999999,0
			31.0433330000001,-81.4480589999998,0
			31.0433330000001,-81.4483339999999,0
			31.043886,-81.4488909999999,0
			31.043886,-81.4491649999999,0
			31.0441670000002,-81.4494479999999,0
			31.0441670000002,-81.449722,0
			31.0444450000001,-81.4499969999999,0
			31.0444450000001,-81.4502789999999,0
			31.0449980000002,-81.450836,0
			31.0449980000002,-81.4511109999999,0
			31.0455550000001,-81.4516679999999,0
			31.0455550000001,-81.4519419999999,0
			31.04611,-81.4524989999999,0
			31.04611,-81.4530559999999,0
			31.046391,-81.4533309999999,0
			31.046391,-81.4538879999999,0
			31.0466670000001,-81.45417,0
			31.0466670000001,-81.4544449999999,0
			31.0469440000001,-81.45472,0
			31.0469440000001,-81.4552759999999,0
			31.04722,-81.4555589999999,0
			31.04722,-81.4563899999998,0
			31.0474990000002,-81.4566649999999,0
			31.0474990000002,-81.4572219999998,0
			31.0477770000001,-81.4574969999999,0
			31.0477770000001,-81.4586109999999,0
			31.0466190000002,-81.4586109999999,0
			31.046391,-81.4586109999999,0
			31.046391,-81.4594419999999,0
			31.0458340000001,-81.459999,0
			31.0458340000001,-81.4602809999999,0
			31.0455550000001,-81.4605559999999,0
			31.0458340000001,-81.4608309999999,0
			31.0455550000001,-81.4611129999999,0
			31.0452800000001,-81.4608309999999,0
			31.0444450000001,-81.46167,0
			31.0444450000001,-81.462502,0
			31.0441670000002,-81.4627759999999,0
			31.0441670000002,-81.463058,0
			31.0436120000001,-81.4636079999999,0
			31.0436120000001,-81.4638899999999,0
			31.0433330000001,-81.4636079999999,0
			31.0430560000001,-81.4636079999999,0
			31.0422230000001,-81.464447,0
			31.0422230000001,-81.4647219999999,0
			31.0408330000002,-81.466393,0
			31.0400010000001,-81.467499,0
			31.0397220000001,-81.4686129999999,0
			31.039446,-81.4688869999999,0
			31.039446,-81.46917,0
			31.0391670000002,-81.4694439999999,0
			31.0391670000002,-81.4697189999999,0
			31.0383340000002,-81.47361,0
			31.0383340000002,-81.4738919999999,0
			31.038055,-81.474167,0
			31.038055,-81.474998,0
			31.0377770000001,-81.4752809999999,0
			31.0377770000001,-81.476669,0
			31.038055,-81.479721,0
			31.0377770000001,-81.4813919999999,0
			31.0377770000001,-81.48333,0
			31.037821,-81.4837419999999,0
			31.0376700000002,-81.4840929999999,0
			31.0375000000001,-81.484169,0
			31.037224,-81.4838869999999,0
			31.033892,-81.4838869999999,0
			31.0336090000001,-81.484169,0
			31.031666,-81.484169,0
			31.0313870000001,-81.4844439999999,0
			31.0294440000001,-81.4844439999999,0
			31.0292210000001,-81.484673,0
			31.0336820000001,-81.486588,0
			31.036509,-81.492943,0
			31.0384010000001,-81.4977189999999,0
			31.0412010000001,-81.5024569999999,0
			31.0481320000002,-81.5076829999999,0
			31.0522730000001,-81.510277,0
			31.0546300000001,-81.515572,0
			31.0569590000001,-81.519264,0
			31.0583800000001,-81.52298,0
			31.0593510000001,-81.527229,0
			31.0603200000002,-81.531487,0
			31.0626320000001,-81.5335769999999,0
			31.0658610000002,-81.536186,0
			31.0704400000001,-81.537178,0
			31.0745410000002,-81.5360259999999,0
			31.0772710000001,-81.535446,0
			31.0819210000001,-81.534592,0
			31.0836110000001,-81.5390009999999,0
			31.0832330000001,-81.5438689999999,0
			31.0820600000002,-81.547897,0
			31.0810130000001,-81.5526579999999,0
			31.0808510000002,-81.5552059999999,0
			31.0813690000001,-81.5568469999998,0
			31.0871510000001,-81.5601199999999,0
			31.0920600000002,-81.5668259999999,0
			31.0933090000001,-81.5723499999999,0
			31.0964300000001,-81.5729219999999,0
			31.1010490000002,-81.5711519999999,0
			31.1048010000001,-81.5647959999999,0
			31.1101110000002,-81.5621189999999,0
			31.1173210000001,-81.5592729999999,0
			31.1220700000001,-81.558228,0
			31.1277600000001,-81.5587389999999,0
			31.1298100000001,-81.5628199999999,0
			31.129919,-81.5668259999999,0
			31.1286510000001,-81.5703659999999,0
			31.122602,-81.5759809999999,0
			31.116718,-81.579033,0
			31.1148490000002,-81.581711,0
			31.1166800000001,-81.5868529999999,0
			31.1171700000002,-81.5895079999999,0
			31.115419,-81.593918,0
			31.11594,-81.597832,0
			31.113461,-81.604156,0
			31.1129400000001,-81.610573,0
			31.1157890000001,-81.617737,0
			31.1139600000001,-81.625191,0
			31.110481,-81.628471,0
			31.1074830000002,-81.6331479999998,0
			31.1177100000001,-81.6429899999999,0
			31.1148700000001,-81.6466519999999,0
			31.1250610000001,-81.6635669999999,0
			31.121681,-81.6861499999999,0
			31.1320020000001,-81.6999969999999,0
			31.137663,-81.713112,0
			31.1483730000002,-81.722099,0
			31.1517200000001,-81.7389829999998,0
			31.1502090000002,-81.7528989999999,0
			31.152931,-81.7628779999999,0
			31.1560900000001,-81.763702,0
			31.1576000000001,-81.764877,0
			31.1618,-81.763206,0
			31.1682000000002,-81.7640759999999,0
			31.169201,-81.7671429999999,0
			31.168991089,-81.7683181759999,0
			31.165348053,-81.7746810909999,0
			31.165403521,-81.7758754529999,0
			31.1656419980001,-81.781005947,0
			31.1660866000001,-81.78118721,0
		</coordinates>
	</polygon>
</kml>
