<?xml version="1.0" encoding="UTF-8"?>
<kml xmlns="http://earth.google.com/kml/2.2">
	<polygon id="USA_GA_Fulton" samplingProbability="1">
		<coordinates>
			33.5110397330001,-84.8510208129999,0
			33.511959076,-84.850486756,0
			33.5124320980001,-84.84940338,0
			33.5133514410001,-84.848869323,0
			33.513820648,-84.847778321,0
			33.5142822270001,-84.847236634,0
			33.5148010260002,-84.843399049,0
			33.5148201000002,-84.8417358409999,0
			33.5144004830001,-84.8400802609999,0
			33.513961792,-84.838973999,0
			33.5139999390001,-84.8367691029999,0
			33.5131187430002,-84.834548949,0
			33.513141632,-84.8334426869999,0
			33.512722017,-84.831230164,0
			33.5132102970001,-84.8290405279999,0
			33.5132293710001,-84.8273925789999,0
			33.5136985780001,-84.8268508909998,0
			33.5141601570002,-84.8263092029999,0
			33.5146408090001,-84.8246688839999,0
			33.5151100160002,-84.8235778799999,0
			33.515579223,-84.8230361939999,0
			33.5160408020001,-84.822502137,0
			33.5165100090001,-84.821411133,0
			33.5169792190002,-84.820869446,0
			33.5174522410001,-84.819778442,0
			33.5179100050001,-84.8192367559999,0
			33.5183792120001,-84.8187026969999,0
			33.518840791,-84.818161011,0
			33.5192985530001,-84.8176193229999,0
			33.5197601320002,-84.8170776379999,0
			33.520229339,-84.8165359499999,0
			33.5206909180001,-84.8160018919999,0
			33.521610261,-84.8154678349999,0
			33.5220718380001,-84.8149261469999,0
			33.5229797370002,-84.814949036,0
			33.524791717,-84.815536498,0
			33.5256919870001,-84.816116333,0
			33.5261421210002,-84.816673279,0
			33.5270385750001,-84.8172531129999,0
			33.5274887090001,-84.8178100599999,0
			33.5279312140001,-84.818367004,0
			33.5292892460001,-84.818946838,0
			33.529731751,-84.819511414,0
			33.5301818850001,-84.820075989,0
			33.5306205750002,-84.8206329349999,0
			33.5310592660002,-84.8217468269999,0
			33.5315094000001,-84.8223114009999,0
			33.532421112,-84.8223266609999,0
			33.5333213800001,-84.8228988659999,0
			33.5351295470001,-84.8234863279999,0
			33.53829956,-84.8246688839999,0
			33.539649964,-84.825248718,0
			33.540538788,-84.8263778689999,0
			33.541439057,-84.8269500729999,0
			33.541881561,-84.828056335,0
			33.5423202510001,-84.829170227,0
			33.5427589420001,-84.8297271729999,0
			33.543209076,-84.8302917469999,0
			33.5436515810001,-84.8314132699999,0
			33.5445518490002,-84.8319778439999,0
			33.5454521180001,-84.8325500479999,0
			33.5463600160001,-84.832572937,0
			33.5477218620002,-84.8325958249999,0
			33.5490989690002,-84.8320770259999,0
			33.5495605480001,-84.8315429679999,0
			33.5500221250002,-84.8310012829999,0
			33.5504913340002,-84.830459595,0
			33.550949098,-84.8299331659999,0
			33.5514106750001,-84.829376222,0
			33.5518798840001,-84.828842164,0
			33.5523414610001,-84.8283004759999,0
			33.5527992250001,-84.827758789,0
			33.553718568,-84.8272323609999,0
			33.5550804140001,-84.8272628779999,0
			33.5559997570001,-84.8267364499999,0
			33.5573692320001,-84.826766967,0
			33.55873108,-84.8267974859999,0
			33.5592002870002,-84.826255798,0
			33.561019898,-84.825752259,0
			33.5624008170001,-84.8246765139999,0
			33.5633201600001,-84.824699402,0
			33.5637893670001,-84.8236083989999,0
			33.5642509460002,-84.823066711,0
			33.5647201540001,-84.822517395,0
			33.5651893630001,-84.8214416499999,0
			33.56565094,-84.8208999639999,0
			33.5665893560001,-84.8192672729999,0
			33.5670509350002,-84.818733215,0
			33.5675086970002,-84.8181762689999,0
			33.5684509280001,-84.8165512079999,0
			33.5689201350001,-84.815460205,0
			33.569381714,-84.8149261469999,0
			33.5698699950001,-84.8127288819999,0
			33.5703506470001,-84.8116378779999,0
			33.570812226,-84.8110961919999,0
			33.5712699900001,-84.8105468749999,0
			33.5717391970001,-84.8100204469999,0
			33.572200776,-84.8094787589999,0
			33.57403183,-84.80896759,0
			33.5749397270001,-84.8084411629999,0
			33.5772209170001,-84.8084869379999,0
			33.5790405270001,-84.8085327149998,0
			33.5804100040002,-84.8080062879999,0
			33.5849800100001,-84.8064727779999,0
			33.585899353,-84.805938721,0
			33.5868186960001,-84.8053970329999,0
			33.5877418520001,-84.8048782339999,0
			33.588199616,-84.8043441759999,0
			33.5886802680002,-84.8026885989999,0
			33.589611055,-84.8016128529999,0
			33.5900688160002,-84.8010711679999,0
			33.590530395,-84.80052948,0
			33.5914497380002,-84.8000030529998,0
			33.5932998650001,-84.7983932499999,0
			33.5946807870001,-84.797317505,0
			33.5965309140001,-84.7951583859999,0
			33.5970001230002,-84.7946166999999,0
			33.597949983,-84.7918777469999,0
			33.59841919,-84.790786743,0
			33.598899842,-84.789146424,0
			33.5993690490002,-84.7880630489998,0
			33.600299836,-84.786972045,0
			33.6007614150001,-84.786430359,0
			33.6030807510002,-84.7837295529999,0
			33.6040000920001,-84.7832031249999,0
			33.6053886420001,-84.781578064,0
			33.605850221,-84.781036377,0
			33.6072502140001,-84.7788619999999,0
			33.6091117860001,-84.7761459349999,0
			33.6100387570002,-84.775062562,0
			33.6105194100001,-84.7734222419999,0
			33.6109886170001,-84.7723312379999,0
			33.6114692690001,-84.770683289,0
			33.6119499210002,-84.7690429689999,0
			33.6128997810001,-84.7662963859999,0
			33.6133804330001,-84.7646636969999,0
			33.6147689810001,-84.7630386359999,0
			33.6152420060002,-84.761947632,0
			33.6161613460001,-84.7614212029999,0
			33.6175384530001,-84.7603530879999,0
			33.619380952,-84.7592773439999,0
			33.620761872,-84.7582092289999,0
			33.622131348,-84.75769043,0
			33.6225891120001,-84.7571487419999,0
			33.6258201590001,-84.754463196,0
			33.626281738,-84.7539215089999,0
			33.627658845,-84.7528533929999,0
			33.628570558,-84.752876282,0
			33.6304016110001,-84.752372741,0
			33.6308593750002,-84.7518157949999,0
			33.631809235,-84.7496261599999,0
			33.6318206780001,-84.7485427859999,0
			33.630931854,-84.7474060059999,0
			33.6286888130002,-84.745162963,0
			33.6277999870002,-84.7440261849999,0
			33.626880646,-84.744003296,0
			33.6259803770001,-84.7434310919999,0
			33.6246299750001,-84.742851257,0
			33.62417984,-84.7422866829999,0
			33.6237411490001,-84.741729737,0
			33.6232986460001,-84.740615845,0
			33.6233215340001,-84.7389602649999,0
			33.623340608,-84.737861633,0
			33.6238098150001,-84.73677063,0
			33.6242790220001,-84.736228942,0
			33.6247406010002,-84.7351303099999,0
			33.6252098080002,-84.7345962529999,0
			33.62659073,-84.733520508,0
			33.6288795470001,-84.732467651,0
			33.6297988900001,-84.731925965,0
			33.6311721800002,-84.7314071659999,0
			33.6320915230002,-84.7308807369999,0
			33.6339111330001,-84.7309341439999,0
			33.6348190310001,-84.7309417719999,0
			33.6357307430002,-84.730422975,0
			33.6361999510001,-84.7298660289999,0
			33.63666153,-84.729331971,0
			33.6375808720001,-84.728248596,0
			33.6394500730001,-84.724983215,0
			33.6399307250001,-84.723342896,0
			33.640430451,-84.7205886839999,0
			33.6413803110001,-84.7178497309999,0
			33.6418609630001,-84.7162094109999,0
			33.6423301700001,-84.715118408,0
			33.6432609560002,-84.714027404,0
			33.6437301630002,-84.7129364009999,0
			33.6446495060001,-84.712409973,0
			33.646018983,-84.7113342279999,0
			33.6464996330002,-84.710243224,0
			33.646968842,-84.7091522209999,0
			33.6474494930001,-84.707496643,0
			33.647930145,-84.705863952,0
			33.6479492190001,-84.704208374,0
			33.647960664,-84.7031021119999,0
			33.6484603880002,-84.7003631589999,0
			33.6484794610002,-84.699249267,0
			33.6489410400001,-84.6987228389999,0
			33.648960113,-84.6976089469999,0
			33.649009705,-84.6937484739998,0
			33.6495094290001,-84.691001893,0
			33.6504592890001,-84.6882629389999,0
			33.650951386,-84.6860733039999,0
			33.6514205940001,-84.6849670399999,0
			33.652820587,-84.6822433469999,0
			33.6537704460002,-84.6795120239999,0
			33.655170442,-84.6767807009999,0
			33.6561012280001,-84.6756973259999,0
			33.656120301,-84.674041748,0
			33.656608582,-84.6718368519999,0
			33.6566314700001,-84.670753479,0
			33.6566619870001,-84.668540955,0
			33.656669617,-84.6674270629999,0
			33.6567001340001,-84.665779113,0
			33.656719207,-84.6646804819999,0
			33.6567420960001,-84.663017274,0
			33.6567611690001,-84.661369324,0
			33.6572418210001,-84.659721374,0
			33.658180238,-84.657539367,0
			33.6591110240001,-84.656463624,0
			33.6595687880002,-84.6559066779999,0
			33.6604919440002,-84.655380249,0
			33.6618690480001,-84.6542968749999,0
			33.663700104,-84.6537933339998,0
			33.6659889220001,-84.6527328489999,0
			33.6673507700001,-84.65220642,0
			33.6682701110001,-84.651679993,0
			33.6691818240001,-84.6517028809999,0
			33.6700897210002,-84.651718139,0
			33.6709899910001,-84.6522903439999,0
			33.674160004,-84.6534576409999,0
			33.6750717170001,-84.653480529,0
			33.6759719840001,-84.6540527339999,0
			33.6773414610001,-84.6535263059999,0
			33.6782493590001,-84.653549195,0
			33.680992127,-84.653053284,0
			33.6823616030002,-84.6525268549998,0
			33.6837196350001,-84.652557374,0
			33.6841888440001,-84.6520233159999,0
			33.6851120000001,-84.6509323119999,0
			33.6855812070001,-84.649841309,0
			33.6860504160001,-84.6487426749998,0
			33.6856193540002,-84.6476287849999,0
			33.6856307990001,-84.646530151,0
			33.6851921090001,-84.6454162589999,0
			33.6843109130002,-84.643737793,0
			33.6838798520001,-84.6420669549999,0
			33.6834297180002,-84.6415176389999,0
			33.6838989260001,-84.6404190069999,0
			33.6839103710001,-84.6393203729999,0
			33.6848487850001,-84.6376800539999,0
			33.6853294380002,-84.636039734,0
			33.68624878,-84.6349487309999,0
			33.6867218030002,-84.633857727,0
			33.687648774,-84.6327743539999,0
			33.6881103530001,-84.6322326659999,0
			33.6890296940001,-84.631149293,0
			33.6894989010001,-84.630607605,0
			33.69039917,-84.630622863,0
			33.6908721920001,-84.630081178,0
			33.6917800900001,-84.630096436,0
			33.6931419380002,-84.6301269529998,0
			33.6940498360001,-84.6301498409999,0
			33.695411682,-84.6307296759999,0
			33.6963119500001,-84.63130188,0
			33.6972122190001,-84.631866454,0
			33.698108674,-84.632438661,0
			33.699020386,-84.6324615469998,0
			33.699920654,-84.632476807,0
			33.7003898630001,-84.63194275,0
			33.7008590700001,-84.6308364859999,0
			33.7013206490001,-84.6303024279999,0
			33.7017898560002,-84.629196167,0
			33.7041702280001,-84.622077943,0
			33.7046394350001,-84.620429993,0
			33.705101014,-84.6198883049999,0
			33.7055702210001,-84.6193466199999,0
			33.7069511410001,-84.6182708739998,0
			33.7083320630001,-84.617202759,0
			33.7092514040001,-84.6161117559999,0
			33.7097091680001,-84.615570068,0
			33.7106590270001,-84.613380433,0
			33.7111206060002,-84.612838745,0
			33.711589813,-84.611190795,0
			33.71205902,-84.6100997919999,0
			33.7130088800001,-84.60735321,0
			33.7143898020001,-84.6068267829999,0
			33.716220855,-84.605766296,0
			33.716678619,-84.60521698,0
			33.7171401980002,-84.604682923,0
			33.7180595390001,-84.604148865,0
			33.7185211180002,-84.6036071769999,0
			33.7194404610001,-84.6030731199999,0
			33.7208213810002,-84.6019973749999,0
			33.7230911250001,-84.6020431519999,0
			33.7240104680002,-84.6015090939999,0
			33.725391388,-84.600433349,0
			33.7263221740001,-84.5987930289999,0
			33.7267799380002,-84.5982513439999,0
			33.7272491470002,-84.5977096559999,0
			33.72864151,-84.5955276489998,0
			33.7290992740001,-84.594985961,0
			33.7291297920001,-84.593330383,0
			33.7295989990001,-84.5916824339999,0
			33.7291717520002,-84.590019226,0
			33.7287597650001,-84.5872497559999,0
			33.7292289740001,-84.5861511219999,0
			33.7301406870001,-84.5856170649999,0
			33.7310600280001,-84.585090637,0
			33.7333488470001,-84.584030152,0
			33.7347106940002,-84.5840606689999,0
			33.7356300350002,-84.5835342419999,0
			33.7374610900002,-84.582458496,0
			33.7383804330001,-84.5819168089999,0
			33.7397613530002,-84.5808486939999,0
			33.7415885940001,-84.5797805779999,0
			33.7425117500001,-84.5792465209998,0
			33.7434196470002,-84.578712463,0
			33.7434387210002,-84.5776062009999,0
			33.7439117430001,-84.5765228279999,0
			33.7443885800001,-84.574867248,0
			33.745319366,-84.5732269289999,0
			33.747619629,-84.5710601799999,0
			33.7490119940001,-84.5694427489998,0
			33.749931335,-84.568351745,0
			33.751308442,-84.5672683719999,0
			33.7517814640001,-84.566177368,0
			33.7540893550001,-84.56401062,0
			33.7568702700001,-84.5601959229999,0
			33.7578010560001,-84.5585632319999,0
			33.758720399,-84.5574798579999,0
			33.7610206600002,-84.5553131099999,0
			33.7614898690002,-84.554206848,0
			33.7624206550001,-84.5525817869999,0
			33.762901307,-84.550926209,0
			33.7642898550002,-84.549301148,0
			33.7661399840001,-84.5471267709999,0
			33.7670707700001,-84.5454864509999,0
			33.767528534,-84.544937133,0
			33.7680091870001,-84.5432968139999,0
			33.768939973,-84.5411071779999,0
			33.769420623,-84.5394592289999,0
			33.7703399660001,-84.5389327989999,0
			33.7717208860001,-84.537849426,0
			33.7726287840001,-84.5373229989999,0
			33.7749214180001,-84.5362472529999,0
			33.7762985230001,-84.5351715079999,0
			33.777671815,-84.534652711,0
			33.781810761,-84.5314178469999,0
			33.782279968,-84.530319213,0
			33.785060883,-84.5264968869999,0
			33.7855300900002,-84.525405883,0
			33.786460877,-84.523216248,0
			33.7873992930002,-84.5210266099999,0
			33.7878608700001,-84.5204772949999,0
			33.7883300790001,-84.519386291,0
			33.7892799380001,-84.5166397099999,0
			33.7911300650002,-84.5139160149999,0
			33.792530061,-84.5111770639999,0
			33.7934608470001,-84.5100860599999,0
			33.7952995310002,-84.508468627,0
			33.7966804500001,-84.5068359379999,0
			33.797149658,-84.505737304,0
			33.7980804440002,-84.5046462999999,0
			33.7985496530002,-84.503562927,0
			33.7999191290002,-84.502479554,0
			33.8003807060001,-84.5019378659999,0
			33.8013000490002,-84.50139618,0
			33.8031311030002,-84.500877381,0
			33.803588867,-84.500343323,0
			33.8040504460001,-84.4997863769999,0
			33.804969789,-84.498710632,0
			33.8068199160001,-84.4970932009999,0
			33.8091201780002,-84.4943618779999,0
			33.8118820200001,-84.492210388,0
			33.8123512270001,-84.4911117559998,0
			33.8128204340001,-84.4894638059999,0
			33.8128395080001,-84.4883575439999,0
			33.81332016,-84.4867095949999,0
			33.8137893670001,-84.4856109629999,0
			33.8142509460001,-84.4845123289999,0
			33.815181732,-84.4828720099999,0
			33.8170318610001,-84.480697633,0
			33.8179512020001,-84.480155945,0
			33.818870545,-84.4790725719999,0
			33.8197898860001,-84.4785385139999,0
			33.8207092290001,-84.47744751,0
			33.8216209420001,-84.4769058229999,0
			33.8234786990001,-84.47418213,0
			33.8244018570001,-84.473098754,0
			33.826702117,-84.4709320079999,0
			33.8271789550002,-84.4692764279999,0
			33.8276519770001,-84.468193054,0
			33.8276596070002,-84.4670791619999,0
			33.8276786800001,-84.4659728999999,0
			33.8272399900002,-84.4643020619999,0
			33.8268013000001,-84.4631881719999,0
			33.8263587960001,-84.4626312259999,0
			33.8263702390001,-84.4615173339999,0
			33.8254814150001,-84.459846496,0
			33.8250312810001,-84.4592895499999,0
			33.824588776,-84.458717346,0
			33.8246002190002,-84.457618714,0
			33.8250694280002,-84.4565277099999,0
			33.825981141,-84.4565429689999,0
			33.8273696910002,-84.4537963869998,0
			33.8296508800001,-84.4532928459999,0
			33.8327903750001,-84.4566574089999,0
			33.8345909120002,-84.4583587639999,0
			33.8359489450002,-84.458938598,0
			33.8381996160002,-84.460090637,0
			33.8404808050001,-84.4601287839999,0
			33.8423004160002,-84.459609985,0
			33.8441390990001,-84.45854187,0
			33.8464088430002,-84.458580017,0
			33.8482284560002,-84.458618163,0
			33.850040436,-84.4586486819999,0
			33.851398469,-84.4592285149999,0
			33.8523101800001,-84.459236145,0
			33.8536796570001,-84.458717346,0
			33.8550720220001,-84.4570770259999,0
			33.856449128,-84.455451965,0
			33.858280182,-84.4543762199999,0
			33.8596611020001,-84.453849792,0
			33.861019135,-84.4538803109999,0
			33.8619194030001,-84.4544372549999,0
			33.8637313850001,-84.4555892939999,0
			33.8650894160001,-84.455612182,0
			33.8669319150001,-84.4539871209999,0
			33.8692321780001,-84.451820374,0
			33.8738212580001,-84.4485931389999,0
			33.876579285,-84.445869446,0
			33.8802413940001,-84.4442672729999,0
			33.8857193000002,-84.4421615599999,0
			33.8911895760002,-84.440612792,0
			33.8930091870001,-84.4406433109999,0
			33.89756012,-84.4407196049999,0
			33.9016304010001,-84.4424591059999,0
			33.9034309400001,-84.443595887,0
			33.9093208310001,-84.4459228509999,0
			33.9115905770001,-84.445960998,0
			33.9148292540002,-84.441040039,0
			33.9176101690001,-84.4366683969999,0
			33.9207992560001,-84.4367218019999,0
			33.9249305730001,-84.432929992,0
			33.9282112120002,-84.4257888799999,0
			33.931900024,-84.421417237,0
			33.9333305360001,-84.4159164419999,0
			33.9393196120002,-84.4093933109999,0
			33.9466896050001,-84.4017562859999,0
			33.954071046,-84.3924789439999,0
			33.9573020940001,-84.388656617,0
			33.962371827,-84.383209229,0
			33.9664802550001,-84.381622315,0
			33.9701004040001,-84.3822402949999,0
			33.9719390880002,-84.380607605,0
			33.9738006600002,-84.3773193359999,0
			33.976558685,-84.3746032709999,0
			33.9815711970002,-84.3741302489998,0
			33.9860992440001,-84.3747711189999,0
			33.9888114930001,-84.376480102,0
			33.9923820510001,-84.382080079,0
			33.9937095650001,-84.384872437,0
			33.9954910290001,-84.38822937,0
			33.997299194,-84.389366151,0
			33.9990921030002,-84.391616821,0
			34.003139495,-84.3950195309999,0
			34.0076484690001,-84.397872924,0
			34.013080598,-84.3996429449999,0
			34.017181398,-84.399147034,0
			34.0199089060001,-84.3992004389999,0
			34.0212707520002,-84.3992233279999,0
			34.0217285160001,-84.3986816399999,0
			34.0221900950001,-84.3981170659999,0
			34.0231094360001,-84.398139954,0
			34.0235519410002,-84.3987121589999,0
			34.0240020750001,-84.3992767329999,0
			34.024898529,-84.3998489369999,0
			34.024429322,-84.400947571,0
			34.0257987970001,-84.4009704589999,0
			34.0267105100001,-84.400436402,0
			34.027622222,-84.40045166,0
			34.0289802560002,-84.4004669179999,0
			34.0298919680001,-84.4010467529999,0
			34.03125,-84.4016265879999,0
			34.0316886900001,-84.4021759029999,0
			34.0321388240002,-84.403297424,0
			34.03258133,-84.4038619999999,0
			34.033950806,-84.4033432009999,0
			34.03440857,-84.402786255,0
			34.035331726,-84.4022521969999,0
			34.0357704160001,-84.402816773,0
			34.0362205500001,-84.403366089,0
			34.0371093740001,-84.4050521859999,0
			34.0371017460001,-84.406166076,0
			34.036640167,-84.406707763,0
			34.037090301,-84.40727234,0
			34.0379905700001,-84.407836914,0
			34.0384407040001,-84.40840149,0
			34.038879395,-84.408966064,0
			34.0397911070002,-84.408981323,0
			34.0406990050001,-84.408996583,0
			34.0411491390001,-84.409561157,0
			34.0415992740001,-84.410133361,0
			34.0420494080001,-84.410690307,0
			34.0429496780001,-84.4112472529999,0
			34.0438613900001,-84.41127777,0
			34.0443191520001,-84.4107284539999,0
			34.0452308650001,-84.4107437129999,0
			34.0456886290002,-84.410202027,0
			34.0470390320001,-84.4107818589999,0
			34.047500611,-84.4102325439999,0
			34.0479507450001,-84.4107971199999,0
			34.0493202210001,-84.410820008,0
			34.0497703550002,-84.411376952,0
			34.050189972,-84.4135971059999,0
			34.0506286630002,-84.4147262569999,0
			34.0510787960002,-84.4158401489999,0
			34.051521302,-84.416397095,0
			34.0519714360001,-84.4169692989999,0
			34.052421569,-84.417526245,0
			34.0528602600002,-84.418090819,0
			34.0542297360001,-84.4181060799999,0
			34.0551300060002,-84.4186859119999,0
			34.0733108530002,-84.4184570309999,0
			34.0901298530002,-84.4187698359999,0
			34.0987701410001,-84.418373108,0
			34.1087799080001,-84.4179916369999,0
			34.1087989810002,-84.416328429,0
			34.110179901,-84.415237428,0
			34.1101913460002,-84.4141311639999,0
			34.1101989740001,-84.413017274,0
			34.1097488410001,-84.412460328,0
			34.1084213260001,-84.410217285,0
			34.1084289560002,-84.4091110229999,0
			34.1089019780001,-84.4079971309999,0
			34.1093788160001,-84.406349182,0
			34.1093902590001,-84.40524292,0
			34.1094093320002,-84.403579712,0
			34.1094398510001,-84.401359558,0
			34.1099014280002,-84.400260926,0
			34.1108207710001,-84.399162292,0
			34.1117401120001,-84.398628235,0
			34.1122093210001,-84.3975219729999,0
			34.113128662,-84.3964309689999,0
			34.11405182,-84.3953399659999,0
			34.114521027,-84.3942260739999,0
			34.1149902340001,-84.393127442,0
			34.1154518130001,-84.3925933839999,0
			34.1168289200001,-84.391502381,0
			34.1177406320001,-84.3909683229999,0
			34.1186714180001,-84.3893203739999,0
			34.1196022050001,-84.387672424,0
			34.1200790400001,-84.3860092159999,0
			34.1196403510001,-84.38433838,0
			34.119209289,-84.3826675419999,0
			34.1187820440001,-84.3798828119999,0
			34.1192588810002,-84.3782272339999,0
			34.1197319030001,-84.376571656,0
			34.1202011100001,-84.3754730219999,0
			34.1206703200002,-84.37436676,0
			34.1211318970001,-84.3738174439999,0
			34.121139527,-84.3727111829999,0
			34.1216011060001,-84.372169495,0
			34.1220703130001,-84.3710632329999,0
			34.122531892,-84.370506287,0
			34.1225395200001,-84.3694076529999,0
			34.1225585930002,-84.3677368169999,0
			34.122581482,-84.366630555,0
			34.122138976,-84.3655166629999,0
			34.1226005550001,-84.364418029,0
			34.123069763,-84.3633117669999,0
			34.123531341,-84.36277008,0
			34.1239891050001,-84.362220764,0
			34.1244506840001,-84.361671448,0
			34.124908448,-84.3611221319999,0
			34.1262817380001,-84.361152649,0
			34.1271896360001,-84.361167907,0
			34.1285591120001,-84.3606262209998,0
			34.1294708250001,-84.360092164,0
			34.1308403010001,-84.3601226799999,0
			34.1326599120001,-84.3595962529999,0
			34.134479522,-84.3596267699999,0
			34.1353797920001,-84.360198974,0
			34.1358299250001,-84.3607559199999,0
			34.136280061,-84.3613281239998,0
			34.137180328,-84.361343383,0
			34.1376419070001,-84.360786439,0
			34.1380996710001,-84.3602371209999,0
			34.1390190120001,-84.3597106939999,0
			34.1394805910002,-84.359161378,0
			34.1403884890001,-84.359176636,0
			34.141300202,-84.3586273199999,0
			34.141750335,-84.3591995239999,0
			34.1431198120001,-84.3592224129999,0
			34.1440200810001,-84.3597869869999,0
			34.1449203490001,-84.359809876,0
			34.1458396920001,-84.3598327639999,0
			34.1476593020002,-84.359306335,0
			34.1490287790001,-84.3587722769998,0
			34.1494789120001,-84.3593368529999,0
			34.151760102,-84.3582687379999,0
			34.1531410220001,-84.3571777349999,0
			34.1549606320002,-84.3572082509999,0
			34.1558609010002,-84.3572158819999,0
			34.1567687990001,-84.3578033439999,0
			34.157211304,-84.3589172359999,0
			34.1581115720001,-84.3594894409999,0
			34.1590194700001,-84.359497071,0
			34.159919739,-84.3600692749999,0
			34.1608314520001,-84.360092164,0
			34.1617393490001,-84.3601074219999,0
			34.163108826,-84.359573365,0
			34.1635704050001,-84.3590164189999,0
			34.164939882,-84.3584976189999,0
			34.1658592220001,-84.3573989879999,0
			34.1667709350001,-84.3568572999999,0
			34.1681404120002,-84.3563308719999,0
			34.1690597550001,-84.3563537589999,0
			34.1699714650001,-84.355796815,0
			34.170890808,-84.355270386,0
			34.1726989750001,-84.3553009039999,0
			34.1736106880002,-84.355873109,0
			34.1745185860001,-84.355331421,0
			34.1754493720001,-84.353675843,0
			34.1759109510002,-84.3531265249999,0
			34.1763801580001,-84.352027893,0
			34.1768417370001,-84.3514862059999,0
			34.1763916010001,-84.3509216319999,0
			34.1763992310001,-84.3498077389999,0
			34.1759605410002,-84.3486862189999,0
			34.175979614,-84.3470230089999,0
			34.1764488210001,-84.3459167469999,0
			34.1764793400002,-84.3436965929998,0
			34.1769599920001,-84.3414916999999,0
			34.1778793330001,-84.3403930659999,0
			34.1778907780001,-84.339286804,0
			34.178359986,-84.3376159659999,0
			34.1797409050001,-84.3365402229999,0
			34.1806602480001,-84.335441589,0
			34.1815795890002,-84.334350585,0
			34.182048798,-84.3338012689999,0
			34.1834297180001,-84.3321609499999,0
			34.1838912970002,-84.3316116339999,0
			34.184349061,-84.3310623159999,0
			34.1848106380001,-84.330520631,0
			34.185272217,-84.329971313,0
			34.1857299810001,-84.3288574229999,0
			34.1861991880001,-84.3277664189999,0
			34.186210633,-84.3266525269999,0
			34.1860618590002,-84.3005371079999,0
			34.1856117250001,-84.258888244,0
			34.1606101990002,-84.2590408329999,0
			34.1347007750001,-84.2586212159999,0
			34.1206092840001,-84.25894928,0
			34.1096992500001,-84.25932312,0
			34.1092605600001,-84.2582092279999,0
			34.1088104240001,-84.2576370229999,0
			34.10882187,-84.2565383909999,0
			34.1083717360001,-84.255966187,0
			34.1079292300001,-84.2554092409999,0
			34.1074790960001,-84.2548522949999,0
			34.1061096200002,-84.2548294059999,0
			34.1052093500001,-84.254257202,0
			34.1043090830001,-84.253692628,0
			34.104782105,-84.2520294199999,0
			34.1048011790002,-84.2498168939999,0
			34.104808807,-84.248703002,0
			34.1043701180001,-84.2481384279999,0
			34.103931428,-84.2464675899999,0
			34.103488922,-84.2453460689999,0
			34.1030387890002,-84.244239808,0
			34.102600098,-84.2436828619999,0
			34.101699829,-84.2425460809999,0
			34.101711274,-84.2414398189999,0
			34.1012611400001,-84.240882873,0
			34.1012687680002,-84.239768983,0
			34.101291657,-84.2386627189999,0
			34.1012992870001,-84.2375488289999,0
			34.1008605960001,-84.236427307,0
			34.10087204,-84.2353286749999,0
			34.1004219060001,-84.2347564709999,0
			34.0999717720002,-84.234199525,0
			34.0986213690001,-84.233070374,0
			34.0981712350001,-84.232505798,0
			34.0977211000001,-84.231948852,0
			34.096820832,-84.231376648,0
			34.0968284600002,-84.2302703859999,0
			34.0968399060002,-84.2291564939999,0
			34.0968589790001,-84.228050232,0
			34.097309113,-84.2275009159999,0
			34.0973320010002,-84.225837708,0
			34.0977897650002,-84.2252883919999,0
			34.0982513420001,-84.2247467039999,0
			34.099170685,-84.2236480699999,0
			34.099639892,-84.2225418089999,0
			34.1001014710001,-84.221992493,0
			34.100120544,-84.2203292849999,0
			34.1001319900001,-84.219223023,0
			34.1001510630002,-84.2175521849999,0
			34.0992698670001,-84.2142105099999,0
			34.0988311770002,-84.213096618,0
			34.0983810430001,-84.2125320439999,0
			34.0961303720001,-84.210838318,0
			34.0952186590001,-84.210266113,0
			34.0943222050001,-84.209686279,0
			34.0938720710002,-84.2091369629999,0
			34.093421936,-84.208572389,0
			34.0929718020001,-84.2080230709998,0
			34.0925292960001,-84.207450866,0
			34.092079163,-84.2068862919999,0
			34.091171265,-84.2068786619999,0
			34.0907287590002,-84.2057571419999,0
			34.0898094190002,-84.2057418809999,0
			34.0893707280002,-84.2046279909999,0
			34.0893821710001,-84.203521729,0
			34.089839935,-84.2029724119998,0
			34.0898590090002,-84.201858521,0
			34.0903205880001,-84.2013168339999,0
			34.0903320310001,-84.2002029419999,0
			34.0898818970001,-84.199645996,0
			34.089439392,-84.198516845,0
			34.0889892580001,-84.197410583,0
			34.0885505670001,-84.1957397449999,0
			34.0881118770002,-84.1951828009999,0
			34.0876617430001,-84.1946182249999,0
			34.0872116090001,-84.194046021,0
			34.086780549,-84.1918258669999,0
			34.086330413,-84.191268921,0
			34.08588028,-84.1901473999999,0
			34.0854301460001,-84.189590454,0
			34.0849914550001,-84.1890335079999,0
			34.0845413220001,-84.1884689339999,0
			34.0840911860001,-84.1878967279998,0
			34.083641052,-84.187347412,0
			34.0831909180001,-84.1867828379999,0
			34.0827407850001,-84.1862258919999,0
			34.0822906490001,-84.1856613149999,0
			34.0818405150002,-84.185104369,0
			34.080940246,-84.185089111,0
			34.0800285350002,-84.1850662229999,0
			34.0795822140001,-84.1845092759999,0
			34.0786705020002,-84.1844863899999,0
			34.0782203680001,-84.1839370719999,0
			34.0777702340001,-84.1833724979999,0
			34.076419831,-84.1822433469999,0
			34.0755195620001,-84.181678771,0
			34.0746116640001,-84.181106567,0
			34.073261261,-84.179977417,0
			34.0723609930001,-84.179412842,0
			34.0700798040001,-84.1793670649999,0
			34.069641114,-84.1788177489998,0
			34.0696487440001,-84.177696227,0
			34.0696601870001,-84.1765975949999,0
			34.0692100530002,-84.176033019,0
			34.0692214970001,-84.174926757,0
			34.068778991,-84.1732559209999,0
			34.068790436,-84.1721496569999,0
			34.0688095100002,-84.171035767,0
			34.068359376,-84.1704788209999,0
			34.0679092400001,-84.1693572989998,0
			34.067470552,-84.1682357789999,0
			34.067039489,-84.1660232549999,0
			34.0665893560001,-84.1649093629999,0
			34.0666007990001,-84.163803101,0
			34.0657119750001,-84.1626663199999,0
			34.0652618410002,-84.1621093739998,0
			34.064811707,-84.1615524279999,0
			34.064361572,-84.1609878539999,0
			34.0634613040002,-84.1604232779999,0
			34.06301117,-84.1598587039999,0
			34.0625610350002,-84.159301758,0
			34.062110901,-84.158737183,0
			34.0612106330001,-84.1576232909999,0
			34.0607719430001,-84.1565017689999,0
			34.0603294370001,-84.155387879,0
			34.059890747,-84.1537170409999,0
			34.0581092830001,-84.1498107899999,0
			34.0572090160001,-84.1486816399999,0
			34.0567703250001,-84.14756775,0
			34.0563201900001,-84.1464462279999,0
			34.0558700560002,-84.1458969119999,0
			34.0554313650002,-84.1453323359999,0
			34.0549812320002,-84.1447830199999,0
			34.0545387260001,-84.143096923,0
			34.0545501710001,-84.1419906609999,0
			34.055019379,-84.1403427119999,0
			34.055030824,-84.139228822,0
			34.0555000310002,-84.138122558,0
			34.0559616100001,-84.1370162959999,0
			34.0564193720001,-84.13646698,0
			34.0568885810001,-84.1348190299998,0
			34.0569000240001,-84.133712768,0
			34.0569190980001,-84.132598876,0
			34.0564689640001,-84.1320419299999,0
			34.05601883,-84.1314773559999,0
			34.0555686940001,-84.1303558359999,0
			34.0546798700001,-84.1292419439999,0
			34.0542297360001,-84.1281280519999,0
			34.053798676,-84.126457214,0
			34.0533599860001,-84.1242370599999,0
			34.052471161,-84.122558593,0
			34.0520286560001,-84.1208877569999,0
			34.0515899650001,-84.1197662349999,0
			34.0511512750001,-84.1175460809999,0
			34.0511589050002,-84.1164398189999,0
			34.0498085020001,-84.1153106689999,0
			34.0493698110001,-84.1141967769999,0
			34.0499000560002,-84.1058883669999,0
			34.049041748,-84.100875855,0
			34.0471992500002,-84.1036300659999,0
			34.0453414920001,-84.10749054,0
			34.0425720220001,-84.1118774409999,0
			34.0379905700001,-84.1156997669999,0
			34.0361518870001,-84.117889404,0
			34.0333786020001,-84.1217269889999,0
			34.0324516310001,-84.1244888309999,0
			34.0315093990001,-84.127243043,0
			34.0300903330001,-84.1333160399999,0
			34.0286521910001,-84.1410598749998,0
			34.0286102310002,-84.1449432369999,0
			34.0290298460002,-84.148826599,0
			34.0307998660001,-84.1532821649999,0
			34.0312118530002,-84.1577224729999,0
			34.0298194880002,-84.1604766849999,0
			34.0297889710002,-84.1632461549999,0
			34.0283889780001,-84.166549682,0
			34.0256195060001,-84.1715011589999,0
			34.0237884520001,-84.172576905,0
			34.0210494990001,-84.173637389,0
			34.019668579,-84.1752929689999,0
			34.016010285,-84.178001404,0
			34.010082245,-84.1795730599999,0
			34.0032501230001,-84.1800308239999,0
			33.9964218150002,-84.1815872189999,0
			33.9922904970002,-84.185401916,0
			33.989959717,-84.1909027109999,0
			33.989898682,-84.1969985959999,0
			33.9912109380001,-84.2019958499999,0
			33.9934921280002,-84.201477051,0
			33.9966697690001,-84.202087402,0
			33.9984588630002,-84.2048873909998,0
			34.0011405940001,-84.2088089,0
			34.0038185120002,-84.2132797239999,0
			34.0051193250001,-84.2194061289999,0
			34.0050621030001,-84.2249374379999,0
			34.0045509340002,-84.229919434,0
			34.0026893610001,-84.233772277,0
			34.000839234,-84.237617492,0
			33.9998893750001,-84.2409286499999,0
			33.9980392460002,-84.2436676029999,0
			33.9952888490001,-84.2463989259999,0
			33.9934501660001,-84.2480316159999,0
			33.9902496340001,-84.249641418,0
			33.9879493710001,-84.2518157949999,0
			33.9874801640001,-84.254028321,0
			33.9874496470002,-84.2567977909999,0
			33.9874191280001,-84.259010315,0
			33.9864997870001,-84.260658264,0
			33.984668732,-84.26172638,0
			33.9823989880002,-84.261146545,0
			33.9792289740001,-84.2599868779999,0
			33.9765014640002,-84.259941101,0
			33.973770141,-84.26045227,0
			33.9709892280001,-84.2653961189999,0
			33.9691810610001,-84.2642593379999,0
			33.9673805240001,-84.262573242,0
			33.9655685420001,-84.261978149,0
			33.9632797250002,-84.2636032099999,0
			33.9623413080001,-84.265808106,0
			33.9604988090001,-84.2679901129999,0
			33.9582290650001,-84.2679519659999,0
			33.9559707650001,-84.266807555,0
			33.955020905,-84.270668029,0
			33.9545021060002,-84.2761993399999,0
			33.958129883,-84.2768096919999,0
			33.9576492310001,-84.2790222169999,0
			33.9562721260001,-84.2806472789998,0
			33.9566802980001,-84.2845382689999,0
			33.9571189880002,-84.2856521609999,0
			33.9575614940002,-84.287322999,0
			33.958000182,-84.2889862069999,0
			33.9584312450001,-84.2906570429999,0
			33.9597587590002,-84.2940063469998,0
			33.9597511290001,-84.2951126089999,0
			33.96018982,-84.2962265009999,0
			33.9601707460001,-84.297332763,0
			33.9597091670001,-84.2984390249999,0
			33.959701539,-84.2995529169999,0
			33.9592399600002,-84.3000869749999,0
			33.9596786510001,-84.3006515509999,0
			33.9605712900002,-84.302879333,0
			33.9609985350001,-84.304550171,0
			33.961448669,-84.305656433,0
			33.9623413080001,-84.306793214,0
			33.9632301330001,-84.3084564219999,0
			33.966320037,-84.3168182359999,0
			33.9663085940001,-84.3179321279999,0
			33.9672012330001,-84.3196029669999,0
			33.967651367,-84.320167541,0
			33.9676284790001,-84.3212661749999,0
			33.9676208500001,-84.3223800669999,0
			33.9676094050001,-84.323486329,0
			33.9671516410001,-84.324043275,0
			33.9671401980001,-84.3251419059998,0
			33.9706420900001,-84.336830139,0
			33.9710807800002,-84.3373870849999,0
			33.9706192010001,-84.337936401,0
			33.9682388320001,-84.347869874,0
			33.950969695,-84.347572327,0
			33.9314193720001,-84.3477859499999,0
			33.9018592840001,-84.3483810429999,0
			33.8964004510001,-84.3482894909999,0
			33.8609390260001,-84.348228455,0
			33.8291015620002,-84.34879303,0
			33.8009109510001,-84.3488464349999,0
			33.7754402150001,-84.3489685049998,0
			33.749980927,-84.3490829459999,0
			33.7376899710001,-84.3494186409999,0
			33.6999511730002,-84.3493194589998,0
			33.6885795600001,-84.3496780389999,0
			33.67993927,-84.3495330819999,0
			33.6480903630002,-84.3500823969999,0
			33.6483497620001,-84.366630555,0
			33.6483802790002,-84.4019317619999,0
			33.648738861,-84.410217285,0
			33.6487998960002,-84.4422073369999,0
			33.6487503060001,-84.446083068,0
			33.6486091620002,-84.457107545,0
			33.639961242,-84.4580459589999,0
			33.6217613220001,-84.458259582,0
			33.5990104680001,-84.458389282,0
			33.5944709780001,-84.458312989,0
			33.5771789550001,-84.458526611,0
			33.571720124,-84.4589767449999,0
			33.5507888800001,-84.4591369629999,0
			33.5420799250001,-84.49974823,0
			33.5420684820002,-84.5008468619999,0
			33.5401496890001,-84.5085220339998,0
			33.539661407,-84.5112686159999,0
			33.5387001040002,-84.514549254,0
			33.5314903260001,-84.54360199,0
			33.5194702150001,-84.591278077,0
			33.5189819330001,-84.5940170279998,0
			33.5185203560001,-84.5945587159999,0
			33.5180587770001,-84.5951004039999,0
			33.5162200930001,-84.5961685189999,0
			33.5152893070002,-84.597251892,0
			33.5139198300001,-84.5977706909999,0
			33.5134620670001,-84.598312377,0
			33.5125389110001,-84.5988464369999,0
			33.5120811470001,-84.5993881219999,0
			33.512069701,-84.6004867559999,0
			33.5124893190001,-84.6026992799999,0
			33.5124702450001,-84.603797914,0
			33.5120086680001,-84.604339599,0
			33.5106201180001,-84.6059570319999,0
			33.510158539,-84.606506348,0
			33.5087890630001,-84.6070327749999,0
			33.5078811650001,-84.6070098869999,0
			33.5069694520002,-84.6075439449999,0
			33.505611421,-84.606956482,0
			33.5046997080001,-84.6069488519999,0
			33.5037918090001,-84.606925965,0
			33.5033302320002,-84.6074676509999,0
			33.5028495790001,-84.608558654,0
			33.5023918150001,-84.6091003419999,0
			33.502231598,-84.6206588739999,0
			33.5104103090001,-84.6208267219999,0
			33.511779785,-84.652786254,0
			33.5115394590001,-84.6698608399999,0
			33.5110588070001,-84.670951843,0
			33.5101509090001,-84.6709289549999,0
			33.5101394660001,-84.6720275879999,0
			33.5110397330001,-84.672599793,0
			33.510940551,-84.679756165,0
			33.5111007690002,-84.6995773319999,0
			33.510940551,-84.7105865479999,0
			33.5106811530001,-84.7276458749998,0
			33.510650635,-84.729309083,0
			33.5105209360001,-84.738105775,0
			33.5107994090001,-84.7496871949999,0
			33.51066208,-84.759040833,0
			33.5104599010001,-84.772262573,0
			33.510940551,-84.7997970579999,0
			33.5109901430001,-84.825675964,0
			33.5110397330001,-84.8510208129999,0
		</coordinates>
	</polygon>
</kml>
