<?xml version="1.0" encoding="UTF-8"?>
<kml xmlns="http://earth.google.com/kml/2.2">
	<polygon id="USA_MI_Washtenaw" samplingProbability="1">
		<coordinates>
			42.0729904170001,-84.135330199,0
			42.1611404430002,-84.1360473629999,0
			42.2483100900002,-84.131858826,0
			42.3355598460001,-84.131996155,0
			42.4144783020001,-84.133201599,0
			42.4237594610001,-84.133346559,0
			42.4230003360001,-84.019638061,0
			42.424880982,-83.9064559939999,0
			42.4287910470002,-83.786354064,0
			42.431240082,-83.666908264,0
			42.4350700390002,-83.5529861459999,0
			42.4245059080001,-83.552524282,0
			42.4177289290001,-83.552227993,0
			42.4144783020001,-83.5520858759999,0
			42.3486213680001,-83.5492019659999,0
			42.1743812560002,-83.5417098999999,0
			42.08527,-83.539916991,0
			42.0833396920002,-83.6562805169999,0
			42.0826970840001,-83.7290153409999,0
			42.0822792050001,-83.7763137809999,0
			42.0796890260001,-83.8926773059999,0
			42.0789413460002,-84.0164031989999,0
			42.0748519900001,-84.0165405279999,0
			42.0729904170001,-84.135330199,0
		</coordinates>
	</polygon>
</kml>
