<?xml version="1.0" encoding="UTF-8"?>
<kml xmlns="http://earth.google.com/kml/2.2">
	<polygon id="USA_FL_Indian_River" samplingProbability="1">
		<coordinates>
			27.8240600000001,-80.7668609999999,0
			27.8234210000002,-80.7535779999999,0
			27.8228020000001,-80.7407069999999,0
			27.8230900000001,-80.6908489999999,0
			27.8230540000002,-80.6829859999999,0
			27.8230090000002,-80.673378,0
			27.82275,-80.6071009999999,0
			27.8223400000001,-80.5094829999999,0
			27.8251000000001,-80.5083159999999,0
			27.8252540000001,-80.5085659999999,0
			27.8260380000002,-80.5098419999999,0
			27.8262570000002,-80.5098019999999,0
			27.8297000000001,-80.5091779999999,0
			27.8302290000001,-80.5088559999999,0
			27.8306010000001,-80.508629,0
			27.8322850000001,-80.507412,0
			27.8328610000002,-80.506996,0
			27.8340620000001,-80.506087,0
			27.8364510000002,-80.5042799999999,0
			27.8375090000001,-80.5034769999999,0
			27.8400400000002,-80.5015559999999,0
			27.843641,-80.49884,0
			27.8455020000002,-80.497467,0
			27.8461440000002,-80.496994,0
			27.8458350000002,-80.4969479999999,0
			27.845554,-80.4972229999999,0
			27.8452780000001,-80.4972229999999,0
			27.8449990000001,-80.497498,0
			27.8441660000001,-80.497498,0
			27.8438890000001,-80.4977799999999,0
			27.8422200000001,-80.4977799999999,0
			27.8419440000001,-80.4980549999999,0
			27.8397220000001,-80.4980549999999,0
			27.8386120000001,-80.4991679999999,0
			27.8386120000001,-80.5005569999999,0
			27.8383330000001,-80.5008319999999,0
			27.8383330000001,-80.501114,0
			27.8380550000001,-80.5013889999999,0
			27.8380550000001,-80.5019449999999,0
			27.8375000000001,-80.5025019999998,0
			27.8372230000001,-80.5025019999998,0
			27.8369450000002,-80.5027769999999,0
			27.8361110000001,-80.5027769999999,0
			27.835833,-80.5030519999999,0
			27.8352780000001,-80.5030519999999,0
			27.8347230000001,-80.5036089999999,0
			27.8347230000001,-80.5038909999999,0
			27.833611,-80.5049969999999,0
			27.8330540000001,-80.504448,0
			27.8330540000001,-80.5041659999999,0
			27.833611,-80.5036089999999,0
			27.833611,-80.5033339999999,0
			27.8344460000002,-80.5025019999998,0
			27.8344460000002,-80.5022199999999,0
			27.8338890000001,-80.501663,0
			27.833611,-80.5019449999999,0
			27.8325000000002,-80.5019449999999,0
			27.8319440000001,-80.5025019999998,0
			27.8319440000001,-80.5027769999999,0
			27.8316670000002,-80.5030519999999,0
			27.8316670000002,-80.5036089999999,0
			27.8313880000001,-80.5038909999999,0
			27.831125,-80.504631,0
			27.8302780000001,-80.5049969999999,0
			27.83,-80.50528,0
			27.8297210000001,-80.50528,0
			27.8294450000001,-80.5049969999999,0
			27.8291170000002,-80.504944,0
			27.8291660000002,-80.504448,0
			27.8302780000001,-80.5033339999999,0
			27.8302780000001,-80.5030519999999,0
			27.8313880000001,-80.5019449999999,0
			27.8313880000001,-80.501663,0
			27.8316670000002,-80.5013889999999,0
			27.8319440000001,-80.5013889999999,0
			27.8325000000002,-80.5008319999999,0
			27.8327750000001,-80.5008319999999,0
			27.833336,-80.5002749999999,0
			27.833336,-80.4997249999999,0
			27.8347230000001,-80.4983369999998,0
			27.8347230000001,-80.4980549999999,0
			27.8349990000002,-80.4977799999999,0
			27.8349990000002,-80.497498,0
			27.835833,-80.4966659999999,0
			27.8361110000001,-80.4966659999999,0
			27.8363900000001,-80.4963909999999,0
			27.8375000000001,-80.4963909999999,0
			27.8383330000001,-80.495552,0
			27.8383330000001,-80.4952769999999,0
			27.8394450000001,-80.494164,0
			27.841389,-80.494164,0
			27.8416670000001,-80.4938889999999,0
			27.842501,-80.4938889999999,0
			27.8427770000001,-80.4936139999999,0
			27.8430560000001,-80.4936139999999,0
			27.843332,-80.493332,0
			27.8436110000002,-80.493332,0
			27.8438890000001,-80.4930569999999,0
			27.8444420000002,-80.4930569999999,0
			27.8447250000002,-80.4927749999999,0
			27.8449990000001,-80.4927749999999,0
			27.8452780000001,-80.4924999999999,0
			27.8458350000002,-80.4924999999999,0
			27.8463900000001,-80.4919429999999,0
			27.8472210000001,-80.4919429999999,0
			27.8478950000001,-80.4917829999999,0
			27.8498190000001,-80.4918589999999,0
			27.8503610000002,-80.491798,0
			27.8504390000001,-80.491722,0
			27.8506530000002,-80.491592,0
			27.8507980000001,-80.491302,0
			27.8508800000001,-80.4906539999999,0
			27.8514190000002,-80.490509,0
			27.8520260000001,-80.490891,0
			27.8525010000002,-80.4911119999999,0
			27.8532030000002,-80.490425,0
			27.8530560000001,-80.489998,0
			27.8528920000002,-80.4897539999999,0
			27.8526650000001,-80.4896089999999,0
			27.8524210000001,-80.489426,0
			27.852184,-80.4891969999999,0
			27.8519330000001,-80.4889529999999,0
			27.8510680000001,-80.488708,0
			27.850355,-80.4877849999999,0
			27.84973,-80.487061,0
			27.8490700000002,-80.4862289999999,0
			27.8481040000001,-80.4852979999999,0
			27.8477880000001,-80.4849929999999,0
			27.8474080000001,-80.484619,0
			27.8463590000002,-80.483345,0
			27.8458600000001,-80.483055,0
			27.8454440000002,-80.4826659999999,0
			27.845039,-80.482254,0
			27.8446880000001,-80.481796,0
			27.8442840000001,-80.481415,0
			27.8438170000002,-80.4811169999999,0
			27.8433380000002,-80.4808269999999,0
			27.8428760000001,-80.480515,0
			27.8424380000001,-80.4801639999999,0
			27.8418670000001,-80.479927,0
			27.8412550000001,-80.4797129999999,0
			27.8406470000001,-80.4794539999999,0
			27.8400500000001,-80.4791949999999,0
			27.8395420000002,-80.478844,0
			27.8391020000001,-80.478424,0
			27.8386150000002,-80.4780649999999,0
			27.8380910000002,-80.4777829999999,0
			27.83754,-80.4775539999999,0
			27.836954,-80.477386,0
			27.8363840000001,-80.4772029999999,0
			27.835859,-80.476959,0
			27.8353400000001,-80.4767069999999,0
			27.8348810000001,-80.4764019999999,0
			27.8344230000001,-80.476097,0
			27.833946,-80.4758299999999,0
			27.8334520000002,-80.475601,0
			27.8328780000002,-80.475517,0
			27.832338,-80.4753189999999,0
			27.8317790000002,-80.4752349999999,0
			27.831284,-80.475014,0
			27.8308140000001,-80.47477,0
			27.8303720000001,-80.474518,0
			27.8300130000001,-80.4742199999999,0
			27.829714,-80.4738849999999,0
			27.829418,-80.473587,0
			27.8291660000002,-80.473335,0
			27.8288880000001,-80.4730529999999,0
			27.8272230000001,-80.4730529999999,0
			27.8261110000001,-80.4719469999999,0
			27.8255560000001,-80.4719469999999,0
			27.8252770000001,-80.4716639999999,0
			27.8244440000001,-80.4716639999999,0
			27.8238890000001,-80.4711069999998,0
			27.823334,-80.4711069999998,0
			27.8227790000001,-80.470558,0
			27.8211120000001,-80.4697189999999,0
			27.8207050000001,-80.46946,0
			27.8200870000002,-80.4692459999999,0
			27.819536,-80.468964,0
			27.819061,-80.468605,0
			27.8186190000002,-80.468216,0
			27.8181840000001,-80.467812,0
			27.817707,-80.467476,0
			27.8172930000001,-80.467049,0
			27.816917,-80.4666139999999,0
			27.8164620000001,-80.466248,0
			27.8158360000002,-80.4661249999999,0
			27.8154530000001,-80.4661179999999,0
			27.8151700000001,-80.4661099999999,0
			27.81451,-80.4660719999999,0
			27.8139270000001,-80.465858,0
			27.8133960000001,-80.465561,0
			27.8128850000001,-80.4652179999999,0
			27.8124240000001,-80.4648129999999,0
			27.811972,-80.464348,0
			27.8115040000002,-80.463936,0
			27.8109530000001,-80.4636539999999,0
			27.8103370000001,-80.4635699999999,0
			27.8097720000001,-80.4633789999999,0
			27.8092540000002,-80.4631269999999,0
			27.8088110000001,-80.462814,0
			27.8083570000001,-80.462524,0
			27.8079130000001,-80.462227,0
			27.8074550000002,-80.4619519999999,0
			27.8069710000001,-80.461716,0
			27.8064350000002,-80.4615709999999,0
			27.8059430000001,-80.4613719999999,0
			27.8055110000001,-80.4610749999999,0
			27.8050900000001,-80.4607769999999,0
			27.8047260000002,-80.4604109999999,0
			27.804359,-80.4600449999999,0
			27.803947,-80.4597239999999,0
			27.803505,-80.459442,0
			27.8030530000001,-80.459175,0
			27.8025720000001,-80.4589609999999,0
			27.8020950000001,-80.458763,0
			27.801592,-80.458588,0
			27.8011280000002,-80.4583359999999,0
			27.8006590000001,-80.4580839999999,0
			27.8001480000001,-80.4579009999999,0
			27.7996810000002,-80.457611,0
			27.7991890000002,-80.4573589999999,0
			27.7987370000001,-80.457054,0
			27.7983320000001,-80.456688,0
			27.7978710000002,-80.4563899999999,0
			27.7973940000002,-80.456108,0
			27.7969090000001,-80.455841,0
			27.7964270000001,-80.4555819999999,0
			27.7960150000001,-80.4552459999999,0
			27.795671,-80.4548419999999,0
			27.7952880000001,-80.454468,0
			27.7948230000001,-80.4541699999999,0
			27.794331,-80.4538879999999,0
			27.7938250000001,-80.4536129999998,0
			27.7933160000001,-80.4533389999999,0
			27.7927930000001,-80.4530719999998,0
			27.7922650000002,-80.4528119999999,0
			27.7917730000001,-80.4525069999999,0
			27.7912850000001,-80.4522019999999,0
			27.7908460000002,-80.4518199999999,0
			27.790424,-80.4514159999999,0
			27.789951,-80.451065,0
			27.7894520000001,-80.4507059999999,0
			27.7889540000001,-80.450348,0
			27.7884540000001,-80.4499969999999,0
			27.78797,-80.449631,0
			27.7875160000002,-80.449226,0
			27.7871060000002,-80.448784,0
			27.7866340000002,-80.448402,0
			27.786121,-80.4480739999998,0
			27.78558,-80.447777,0
			27.7850230000001,-80.4475019999999,0
			27.7844560000001,-80.447235,0
			27.7839050000001,-80.4469529999999,0
			27.7833980000001,-80.4466319999999,0
			27.7829320000001,-80.4462589999999,0
			27.7824990000001,-80.445847,0
			27.7820340000001,-80.445488,0
			27.7816220000001,-80.4450839999999,0
			27.7811740000001,-80.4447169999999,0
			27.780745,-80.4443439999999,0
			27.7803860000001,-80.443901,0
			27.7800100000001,-80.4434889999998,0
			27.7796190000001,-80.4431,0
			27.77914,-80.442825,0
			27.7785000000001,-80.4427489999999,0
			27.7778570000002,-80.442574,0
			27.777246,-80.4423449999999,0
			27.7766950000001,-80.4420389999999,0
			27.7762220000002,-80.4416429999999,0
			27.7757870000001,-80.4412159999999,0
			27.7752970000001,-80.440849,0
			27.7747520000001,-80.4405519999999,0
			27.7741970000002,-80.440277,0
			27.7736430000002,-80.4399949999999,0
			27.7730900000001,-80.4397199999999,0
			27.7725160000002,-80.4395139999999,0
			27.7718560000001,-80.4395139999999,0
			27.771179,-80.4394529999998,0
			27.7704910000001,-80.4394379999999,0
			27.7699450000001,-80.439156,0
			27.7694230000001,-80.438866,0
			27.768948,-80.438522,0
			27.7685390000001,-80.4381329999999,0
			27.7680760000002,-80.4378129999999,0
			27.7675630000002,-80.437561,0
			27.7670520000001,-80.437309,0
			27.7665960000001,-80.437019,0
			27.7660870000001,-80.4367979999999,0
			27.765539,-80.4366299999999,0
			27.76503,-80.4363859999999,0
			27.7645420000001,-80.436111,0
			27.7640720000002,-80.4358139999999,0
			27.763519,-80.4357529999999,0
			27.763203,-80.4354319999999,0
			27.762705,-80.435326,0
			27.7620810000001,-80.43502,0
			27.7616560000001,-80.434402,0
			27.7613090000002,-80.4341659999999,0
			27.7608380000001,-80.4339219999999,0
			27.7603020000001,-80.4337619999999,0
			27.7597680000002,-80.433601,0
			27.7594990000001,-80.4334259999999,0
			27.7593270000001,-80.433319,0
			27.7589090000002,-80.433014,0
			27.7585110000001,-80.432693,0
			27.7580800000002,-80.432404,0
			27.7576560000001,-80.4321209999999,0
			27.7572040000002,-80.4319149999999,0
			27.7568040000001,-80.4316639999998,0
			27.7564330000001,-80.4313809999999,0
			27.7561020000001,-80.4310909999999,0
			27.7558270000001,-80.4307479999999,0
			27.7555540000001,-80.4304199999999,0
			27.7552780000001,-80.430122,0
			27.7549990000001,-80.4298479999999,0
			27.754723,-80.4295879999999,0
			27.754461,-80.4293439999999,0
			27.7542550000001,-80.4290919999999,0
			27.7541770000001,-80.428825,0
			27.7541980000001,-80.428558,0
			27.754444,-80.4283369999999,0
			27.754444,-80.4280549999999,0
			27.7549990000001,-80.4274979999998,0
			27.7551310000001,-80.4272229999999,0
			27.7550810000002,-80.4268719999998,0
			27.7550450000001,-80.426575,0
			27.754723,-80.4263919999999,0
			27.754444,-80.4263919999999,0
			27.7540070000001,-80.42662,0
			27.753611,-80.4272229999999,0
			27.753319,-80.4273829999999,0
			27.7530540000001,-80.4275889999999,0
			27.7530190000001,-80.427856,0
			27.7528480000001,-80.4280849999999,0
			27.7525040000001,-80.4282299999999,0
			27.7521820000001,-80.4280399999998,0
			27.751831,-80.42794,0
			27.7514190000001,-80.427788,0
			27.7509750000001,-80.4276429999999,0
			27.750528,-80.427475,0
			27.7501280000002,-80.4272229999999,0
			27.749718,-80.426949,0
			27.7492960000001,-80.4266659999998,0
			27.7488650000001,-80.426369,0
			27.748413,-80.426079,0
			27.7479670000001,-80.425766,0
			27.7477250000001,-80.425667,0
			27.7474310000001,-80.4255519999999,0
			27.7468680000001,-80.425354,0
			27.746275,-80.4252319999999,0
			27.7457280000001,-80.4250029999999,0
			27.7451860000002,-80.424774,0
			27.7446230000002,-80.4245909999999,0
			27.7441600000002,-80.4243009999999,0
			27.7437250000001,-80.423988,0
			27.7433450000001,-80.423615,0
			27.742956,-80.4232559999999,0
			27.742462,-80.4230119999999,0
			27.741953,-80.4227749999999,0
			27.741449,-80.4225009999998,0
			27.7409440000002,-80.4222259999999,0
			27.7404370000002,-80.4219439999999,0
			27.7399230000001,-80.4216689999999,0
			27.7394080000001,-80.4213869999999,0
			27.7388920000001,-80.4211119999999,0
			27.738707,-80.421005,0
			27.7383840000001,-80.4208149999999,0
			27.7379380000002,-80.4204329999999,0
			27.7375280000002,-80.4200129999999,0
			27.7371520000002,-80.4195329999999,0
			27.7367120000002,-80.4190979999999,0
			27.7362590000002,-80.4186779999999,0
			27.735716,-80.4184109999999,0
			27.7350940000001,-80.4182969999999,0
			27.734518,-80.4180679999999,0
			27.7339420000001,-80.4178239999999,0
			27.733393,-80.4175489999999,0
			27.7329100000002,-80.417198,0
			27.7324750000001,-80.4168089999999,0
			27.7320100000001,-80.416458,0
			27.7315350000001,-80.4161299999999,0
			27.7310310000001,-80.415833,0
			27.7305390000001,-80.4155199999999,0
			27.7301290000001,-80.415131,0
			27.729733,-80.4147259999999,0
			27.7293220000001,-80.4143299999999,0
			27.7288840000001,-80.413963,0
			27.7284240000001,-80.413628,0
			27.7279220000001,-80.41333,0
			27.727406,-80.4130549999999,0
			27.7268890000001,-80.4127809999999,0
			27.7263680000002,-80.412498,0
			27.725847,-80.4122239999999,0
			27.72533,-80.411942,0
			27.7248130000001,-80.411667,0
			27.7243040000001,-80.411377,0
			27.723827,-80.4110569999999,0
			27.7233490000001,-80.4107359999999,0
			27.7228930000001,-80.4103929999999,0
			27.7224540000001,-80.4100649999999,0
			27.7219920000001,-80.4097669999999,0
			27.7215600000001,-80.4094389999999,0
			27.7211510000001,-80.4090879999999,0
			27.7207740000001,-80.408699,0
			27.7203220000001,-80.408379,0
			27.7198560000001,-80.4080659999999,0
			27.7193760000002,-80.407791,0
			27.7188850000001,-80.407539,0
			27.718399,-80.40728,0
			27.7179490000001,-80.4069669999999,0
			27.717476,-80.4066999999999,0
			27.7169990000002,-80.4064329999999,0
			27.716553,-80.406128,0
			27.7161030000001,-80.40583,0
			27.7156720000002,-80.405525,0
			27.7152880000002,-80.405159,0
			27.714928,-80.404778,0
			27.7144970000001,-80.404457,0
			27.7140180000001,-80.4041899999999,0
			27.7134860000001,-80.404007,0
			27.7130110000001,-80.4037249999999,0
			27.7124900000001,-80.403511,0
			27.7119460000001,-80.40332,0
			27.7114510000001,-80.4030529999999,0
			27.7109680000002,-80.402779,0
			27.710497,-80.402496,0
			27.7100490000001,-80.4021839999999,0
			27.709623,-80.4018549999999,0
			27.7091560000001,-80.401581,0
			27.7086560000001,-80.4013519999999,0
			27.708174,-80.4010999999999,0
			27.707708,-80.400833,0
			27.7072470000001,-80.400558,0
			27.7067850000001,-80.4002839999999,0
			27.706312,-80.4000239999999,0
			27.705812,-80.3998109999999,0
			27.7052960000001,-80.39962,0
			27.7048020000001,-80.3993909999999,0
			27.7043550000001,-80.3990939999999,0
			27.7038880000002,-80.398872,0
			27.703457,-80.3986049999999,0
			27.7030330000001,-80.398331,0
			27.7026040000002,-80.3980639999999,0
			27.702139,-80.3978499999999,0
			27.7016180000001,-80.397713,0
			27.7011390000001,-80.3974909999999,0
			27.7006890000002,-80.3972319999999,0
			27.7002330000001,-80.396965,0
			27.6997740000001,-80.3967059999999,0
			27.6993410000002,-80.396408,0
			27.6988930000001,-80.3961109999999,0
			27.6984540000001,-80.3958049999999,0
			27.6980500000001,-80.39547,0
			27.6976340000002,-80.395134,0
			27.6971820000001,-80.394844,0
			27.6966630000001,-80.3946299999999,0
			27.696123,-80.3944319999999,0
			27.695595,-80.3941959999999,0
			27.6950170000002,-80.3940509999999,0
			27.6944410000001,-80.3938899999999,0
			27.6938630000001,-80.393745,0
			27.6933420000001,-80.393593,0
			27.692877,-80.3933639999999,0
			27.692366,-80.3931879999999,0
			27.6918680000001,-80.392975,0
			27.691372,-80.392754,0
			27.6908990000002,-80.3924939999999,0
			27.6904240000001,-80.3922199999998,0
			27.6899450000001,-80.3919529999999,0
			27.6894470000001,-80.391701,0
			27.688946,-80.3914489999999,0
			27.6884380000001,-80.39122,0
			27.6879270000001,-80.3909839999999,0
			27.6874280000002,-80.390755,0
			27.686941,-80.3904879999999,0
			27.6864720000002,-80.390205,0
			27.6860730000002,-80.3898389999999,0
			27.6856350000002,-80.3895189999999,0
			27.6851840000002,-80.3892059999999,0
			27.6846900000002,-80.388954,0
			27.6841680000001,-80.3887559999999,0
			27.6836470000002,-80.3885569999999,0
			27.6831490000002,-80.3883289999999,0
			27.6826530000002,-80.3880999999999,0
			27.6820580000002,-80.388054,0
			27.6814500000001,-80.3880159999999,0
			27.6808640000001,-80.387794,0
			27.6802640000002,-80.387627,0
			27.679646,-80.3874969999999,0
			27.6790330000001,-80.3873669999999,0
			27.6784290000001,-80.3872069999999,0
			27.6778260000001,-80.3870319999999,0
			27.6772460000001,-80.386833,0
			27.6766620000001,-80.3866499999999,0
			27.6761300000001,-80.3863909999999,0
			27.6756080000001,-80.3861079999999,0
			27.675077,-80.3858489999998,0
			27.6745090000001,-80.3856279999999,0
			27.6738970000001,-80.3854519999999,0
			27.6732690000002,-80.3853069999998,0
			27.6726380000002,-80.3852389999999,0
			27.6721150000001,-80.385002,0
			27.6716190000001,-80.3847269999999,0
			27.67112,-80.38446,0
			27.6706100000001,-80.3842089999999,0
			27.6701430000002,-80.383911,0
			27.6696640000001,-80.3836209999999,0
			27.6690830000001,-80.3835139999999,0
			27.6685280000002,-80.3833159999999,0
			27.6680180000002,-80.3830259999999,0
			27.6674770000002,-80.382828,0
			27.66688,-80.3826899999999,0
			27.666502,-80.382553,0
			27.6663280000002,-80.3824839999999,0
			27.6658400000001,-80.3822019999999,0
			27.6653980000002,-80.381882,0
			27.6650540000001,-80.3814619999999,0
			27.664639,-80.381165,0
			27.6641450000002,-80.380959,0
			27.6636180000001,-80.380806,0
			27.663149,-80.380554,0
			27.6626890000002,-80.380295,0
			27.6622220000001,-80.380051,0
			27.661764,-80.379807,0
			27.66135,-80.379509,0
			27.6609170000001,-80.3792569999999,0
			27.6604560000002,-80.379059,0
			27.6600570000002,-80.3788219999999,0
			27.6597350000002,-80.378517,0
			27.6594470000002,-80.378181,0
			27.6591680000002,-80.3778529999998,0
			27.6588760000002,-80.3775329999999,0
			27.6584910000001,-80.3772809999999,0
			27.657906,-80.3771509999999,0
			27.6573030000001,-80.3769609999999,0
			27.656704,-80.3768159999999,0
			27.656139,-80.3766169999999,0
			27.6556130000002,-80.376381,0
			27.6551190000002,-80.3761439999998,0
			27.6546060000002,-80.3759919999999,0
			27.6541290000001,-80.3758319999999,0
			27.653711,-80.3756329999999,0
			27.6534600000001,-80.3756179999999,0
			27.6533340000001,-80.375557,0
			27.65299,-80.3754269999999,0
			27.6522220000001,-80.375275,0
			27.651682,-80.3750759999999,0
			27.650555,-80.3749999999999,0
			27.6499980000001,-80.3749999999999,0
			27.6493950000001,-80.375053,0
			27.6488690000002,-80.375275,0
			27.6483460000001,-80.375504,0
			27.6477780000001,-80.375557,0
			27.6472210000001,-80.3756029999998,0
			27.6467740000002,-80.3758239999999,0
			27.646324,-80.376022,0
			27.6458450000001,-80.3761059999999,0
			27.6453550000002,-80.376091,0
			27.6448670000001,-80.375977,0
			27.644327,-80.3758539999999,0
			27.6437510000002,-80.3758319999999,0
			27.6431660000001,-80.3758319999999,0
			27.6425820000001,-80.3758319999999,0
			27.6420000000001,-80.3758319999999,0
			27.641424,-80.3758319999999,0
			27.6408560000001,-80.375816,0
			27.640299,-80.375717,0
			27.6397550000001,-80.375549,0
			27.6392330000001,-80.3753659999999,0
			27.6386830000001,-80.3752439999999,0
			27.638178,-80.375061,0
			27.637663,-80.3750459999999,0
			27.63715,-80.3752369999999,0
			27.6366290000001,-80.375275,0
			27.636126,-80.3752439999999,0
			27.635658,-80.3750379999999,0
			27.6347310000001,-80.374962,0
			27.6338690000002,-80.374847,0
			27.6332890000002,-80.3747709999998,0
			27.6329520000002,-80.374466,0
			27.632912,-80.3740839999999,0
			27.632727,-80.373756,0
			27.6327780000001,-80.3733369999999,0
			27.632856,-80.3726199999999,0
			27.6329270000001,-80.370758,0
			27.6328980000001,-80.3699489999999,0
			27.633612,-80.370056,0
			27.6338880000001,-80.370056,0
			27.6346570000002,-80.3697889999999,0
			27.6348690000002,-80.3691639999999,0
			27.634739,-80.3687439999999,0
			27.634378,-80.368553,0
			27.633268,-80.368553,0
			27.6327670000001,-80.3683169999999,0
			27.6327780000001,-80.3677749999999,0
			27.6326450000001,-80.3674999999999,0
			27.6325000000001,-80.367149,0
			27.6325000000001,-80.3669429999999,0
			27.6322230000001,-80.3666689999999,0
			27.6319470000001,-80.3666689999999,0
			27.6315860000001,-80.367226,0
			27.6315190000001,-80.3679119999999,0
			27.6316640000002,-80.368332,0
			27.6316640000002,-80.3700029999999,0
			27.6315190000001,-80.3704989999999,0
			27.6316530000001,-80.371597,0
			27.6315190000001,-80.373466,0
			27.6317210000001,-80.3740839999999,0
			27.6315780000002,-80.374443,0
			27.6311020000001,-80.3747019999999,0
			27.6305540000002,-80.374443,0
			27.6302780000001,-80.374443,0
			27.6298410000002,-80.374443,0
			27.629423,-80.374443,0
			27.6289770000001,-80.3744579999999,0
			27.628515,-80.3745499999999,0
			27.628193,-80.374649,0
			27.6280860000001,-80.37468,0
			27.6275290000002,-80.3747329999999,0
			27.62701,-80.374809,0
			27.62652,-80.374969,0
			27.6259570000001,-80.3750379999999,0
			27.625404,-80.3752369999999,0
			27.6248440000001,-80.3752369999999,0
			27.6242870000002,-80.3750459999999,0
			27.6236880000001,-80.3749849999999,0
			27.6231000000002,-80.3749009999999,0
			27.622536,-80.3747559999999,0
			27.6219370000001,-80.3746869999999,0
			27.6213800000002,-80.3744509999999,0
			27.620825,-80.374222,0
			27.620258,-80.3740079999999,0
			27.6196670000002,-80.3738249999999,0
			27.6190970000001,-80.3736039999999,0
			27.6185280000001,-80.3733669999999,0
			27.6179290000001,-80.3732679999998,0
			27.617422,-80.373047,0
			27.6169400000001,-80.372803,0
			27.6164090000001,-80.3726579999999,0
			27.6159020000001,-80.3724819999999,0
			27.6154330000001,-80.3722529999999,0
			27.614908,-80.3721159999999,0
			27.6144160000002,-80.3719099999999,0
			27.6139510000001,-80.3716659999999,0
			27.6134870000001,-80.3714069999999,0
			27.6129890000001,-80.3711929999999,0
			27.6124500000001,-80.3710399999999,0
			27.6119610000001,-80.3708109999998,0
			27.6114940000002,-80.3705369999999,0
			27.611046,-80.370224,0
			27.6105790000001,-80.3699189999999,0
			27.6101400000001,-80.3695759999999,0
			27.6098960000001,-80.36927,0
			27.6097980000002,-80.3691479999999,0
			27.6094800000002,-80.3686289999999,0
			27.609221,-80.368141,0
			27.6088240000001,-80.3678279999999,0
			27.608261,-80.3677749999999,0
			27.607653,-80.3677749999999,0
			27.6070120000001,-80.3678209999999,0
			27.6064070000001,-80.3677749999999,0
			27.6058060000001,-80.367714,0
			27.6052650000001,-80.3674999999999,0
			27.6047310000002,-80.36731,0
			27.6041430000002,-80.3674619999999,0
			27.6035560000001,-80.3674619999999,0
			27.6030040000001,-80.3672559999999,0
			27.602449,-80.3670499999999,0
			27.6018640000001,-80.3669049999999,0
			27.6013280000001,-80.366676,0
			27.6007840000001,-80.3664699999999,0
			27.6002220000001,-80.366318,0
			27.5997220000002,-80.366096,0
			27.599272,-80.3658219999999,0
			27.5988390000001,-80.365517,0
			27.598351,-80.3652729999998,0
			27.5978660000001,-80.3649979999999,0
			27.597374,-80.3647309999998,0
			27.5968550000001,-80.3644939999999,0
			27.596281,-80.3643339999999,0
			27.5957200000001,-80.364143,0
			27.5951730000002,-80.36393,0
			27.5945910000002,-80.3638689999999,0
			27.5940070000001,-80.363884,0
			27.5934120000001,-80.3639219999999,0
			27.5928190000001,-80.36409,0
			27.5921990000001,-80.3641739999999,0
			27.5915810000001,-80.364273,0
			27.5909840000001,-80.3644099999999,0
			27.5903590000001,-80.364479,0
			27.5897620000001,-80.3647159999999,0
			27.5891690000001,-80.3649059999999,0
			27.588587,-80.3651119999999,0
			27.5880110000002,-80.365181,0
			27.5874670000001,-80.3649899999999,0
			27.5869480000001,-80.364723,0
			27.5864030000002,-80.3644939999999,0
			27.5857410000001,-80.3644409999999,0
			27.5850560000001,-80.3644409999999,0
			27.5843730000001,-80.3644489999999,0
			27.5837020000001,-80.3644489999999,0
			27.5830570000001,-80.364403,0
			27.5824760000002,-80.3641739999999,0
			27.5818960000001,-80.3639529999999,0
			27.5812930000001,-80.3637849999999,0
			27.5807090000001,-80.363594,0
			27.5801540000001,-80.3633729999999,0
			27.5795540000001,-80.363258,0
			27.5790000000001,-80.363052,0
			27.5784650000001,-80.3628229999999,0
			27.5778540000002,-80.3627399999999,0
			27.5772880000001,-80.3625489999999,0
			27.576689,-80.3624799999999,0
			27.576124,-80.3623499999999,0
			27.5755900000001,-80.3621669999999,0
			27.575087,-80.361938,0
			27.5746100000002,-80.3616709999999,0
			27.5741200000001,-80.3614429999998,0
			27.5736050000002,-80.361259,0
			27.573086,-80.3610919999999,0
			27.5726090000002,-80.3608399999999,0
			27.572124,-80.3606109999999,0
			27.571581,-80.3604579999999,0
			27.5710330000002,-80.360268,0
			27.5704920000002,-80.3600389999999,0
			27.5698950000001,-80.3599399999998,0
			27.5693590000002,-80.3597179999999,0
			27.5688360000001,-80.359474,0
			27.568249,-80.359344,0
			27.5676920000001,-80.359154,0
			27.5671580000002,-80.3589169999999,0
			27.5665680000002,-80.3587799999999,0
			27.5659920000002,-80.3586199999999,0
			27.5654180000001,-80.3584589999999,0
			27.564898,-80.358223,0
			27.564421,-80.357941,0
			27.563902,-80.3577039999999,0
			27.5633870000001,-80.357475,0
			27.5628640000002,-80.3572619999999,0
			27.5622690000001,-80.357224,0
			27.5616660000001,-80.357185,0
			27.5610900000001,-80.3569869999999,0
			27.5604760000001,-80.3569109999999,0
			27.5599080000002,-80.3567119999999,0
			27.5593410000001,-80.3565439999999,0
			27.5588280000002,-80.3563309999999,0
			27.5583250000001,-80.3561099999998,0
			27.5578170000002,-80.3559039999998,0
			27.557268,-80.355804,0
			27.5573520000001,-80.367441,0
			27.5576310000001,-80.406036,0
			27.557442,-80.413742,0
			27.5582150000001,-80.6144439999999,0
			27.558361,-80.6524429999998,0
			27.5584410000001,-80.6549989999999,0
			27.558092,-80.669855,0
			27.5578500000001,-80.6801219999999,0
			27.5578873210001,-80.6852561279998,0
			27.5580073820001,-80.7017200179999,0
			27.5585594190001,-80.777420009,0
			27.6433790500001,-80.7783203099999,0
			27.6431809050002,-80.8006804029999,0
			27.64253883,-80.8731368959999,0
			27.642538308,-80.8731958499999,0
			27.6425380740002,-80.8732222199999,0
			27.7310030000002,-80.8735729999999,0
			27.7314315570002,-80.873635732,0
			27.73165227,-80.8736678689999,0
			27.7324058830001,-80.8737775979999,0
			27.7337799450002,-80.8739779919999,0
			27.7339709990001,-80.8806529989999,0
			27.7340270350002,-80.8806535409999,0
			27.7471490060001,-80.880780522,0
			27.7564288090001,-80.8808703229999,0
			27.7665487820001,-80.8809680789999,0
			27.76862792,-80.880988163,0
			27.778200149,-80.8810806279999,0
			27.8224506380001,-80.8820266719999,0
			27.8225100110002,-80.8686676029999,0
			27.82296,-80.8527069999999,0
			27.822954,-80.8493229999999,0
			27.8229290000001,-80.8362729999999,0
			27.8240600000001,-80.7668609999999,0
		</coordinates>
	</polygon>
</kml>
