<?xml version="1.0" encoding="UTF-8"?>
<kml xmlns="http://earth.google.com/kml/2.2">
	<polygon id="USA_WA_Whatcom" samplingProbability="1">
		<coordinates>
			49.0024410000001,-122.459145,0
			49.0023420000001,-122.459149,0
			49.0022850000001,-122.459152,0
			49.0022800000001,-122.458846,0
			49.0022689520001,-122.458205244,0
			49.0022621150001,-122.457801819,0
			49.0022621150001,-122.457626343,0
			49.0022964470001,-122.448989869,0
			49.0022964470001,-122.444259643,0
			49.0022964470001,-122.44154358,0
			49.0023002620002,-122.436523437,0
			49.0023002620002,-122.426879883,0
			49.0023384090001,-122.391159057,0
			49.0023384090001,-122.389060973,0
			49.0023422240001,-122.388664245,0
			49.0023460390001,-122.382217407,0
			49.002346204,-122.381917345,0
			49.0023470000001,-122.380746,0
			49.00235,-122.375259,0
			49.002354,-122.372047,0
			49.002354,-122.370941,0
			49.0023552210002,-122.368581133,0
			49.0023569210002,-122.365291621,0
			49.0023570000001,-122.365157,0
			49.0023570000001,-122.365143,0
			49.0023570000001,-122.360176,0
			49.0023570000001,-122.360147,0
			49.002324694,-122.355787207,0
			49.002268378,-122.348136449,0
			49.0022280390002,-122.342656254,0
			49.0022010000001,-122.341278,0
			49.0021900000001,-122.340752,0
			49.0021900000001,-122.340682999,0
			49.0021900000001,-122.340248,0
			49.0021900000001,-122.339859,0
			49.002191338,-122.338110971,0
			49.002193452,-122.335937499,0
			49.002193452,-122.335678102,0
			49.0022354140002,-122.327049255,0
			49.0023360320001,-122.323815369,0
			49.002394001,-122.321959999,0
			49.002394367,-122.321948208,0
			49.0024530000002,-122.320066,0
			49.0024422160002,-122.319594358,0
			49.0024383750001,-122.319428163,0
			49.002438,-122.319411,0
			49.0024365510002,-122.319340183,0
			49.0024291140002,-122.318971408,0
			49.0024261480001,-122.318817139,0
			49.002422333,-122.318687438,0
			49.002422333,-122.318588256,0
			49.002421402,-122.318133677,0
			49.0024210010001,-122.317828999,0
			49.0024190090001,-122.316731707,0
			49.0024190010001,-122.316619999,0
			49.0024190010001,-122.316077999,0
			49.0024190010001,-122.315849,0
			49.0024190010001,-122.315742,0
			49.0024243600001,-122.310660393,0
			49.0024261480001,-122.309104919,0
			49.0024354600002,-122.30462602,0
			49.0024570000002,-122.294426043,0
			49.0024570000002,-122.293548999,0
			49.0024190010001,-122.288231,0
			49.002394349,-122.285047915,0
			49.002394001,-122.285003,0
			49.0023874020001,-122.284192854,0
			49.002384186,-122.28377533,0
			49.0023460390001,-122.278930665,0
			49.002346,-122.278858,0
			49.0023410000002,-122.278184,0
			49.0022930000001,-122.271576,0
			49.0022930000001,-122.271510851,0
			49.0022930010002,-122.271445693,0
			49.0022943490001,-122.271123739,0
			49.0022964470001,-122.270729066,0
			49.002298856,-122.270314952,0
			49.0023020000002,-122.269859,0
			49.0023060000001,-122.269149,0
			49.0023120000001,-122.268105,0
			49.0023120000001,-122.267967,0
			49.0023120000001,-122.267754,0
			49.0023120000001,-122.267357,0
			49.0023350000002,-122.266716,0
			49.0023305,-122.266638993,0
			49.0023260000002,-122.266562,0
			49.002319029,-122.266441512,0
			49.0023190000001,-122.266373,0
			49.0023180000001,-122.266353,0
			49.0023170000001,-122.26634,0
			49.0023160000001,-122.266327,0
			49.0023130000001,-122.266259,0
			49.0023120020001,-122.266243035,0
			49.0023037110002,-122.266136162,0
			49.0022940000002,-122.266011,0
			49.0022850000001,-122.265899,0
			49.0022826820002,-122.265872923,0
			49.0022811890001,-122.265853882,0
			49.002304077,-122.265014648,0
			49.0023054270001,-122.26497416,0
			49.0023120000001,-122.264786001,0
			49.0023130690001,-122.264341492,0
			49.0023160000001,-122.263123042,0
			49.0023190000001,-122.261921,0
			49.0023308150001,-122.257057292,0
			49.0023310010001,-122.256981001,0
			49.0023334430002,-122.255777038,0
			49.0023384090001,-122.25353241,0
			49.0023421870002,-122.252351225,0
			49.0023450000002,-122.251558,0
			49.0023470000001,-122.250890004,0
			49.00235,-122.249954,0
			49.00235,-122.249023,0
			49.0023470000001,-122.248578,0
			49.002346,-122.248459,0
			49.002335078,-122.246915437,0
			49.0023240680002,-122.245359406,0
			49.0022470000002,-122.234467,0
			49.0022480000001,-122.234408,0
			49.0022829980002,-122.231526129,0
			49.0022850000001,-122.231361,0
			49.0022850000001,-122.231323,0
			49.0022870290001,-122.231167173,0
			49.002300001,-122.230171001,0
			49.0023130690001,-122.228996441,0
			49.0023230050002,-122.228103634,0
			49.0023261980002,-122.227878219,0
			49.0023310010001,-122.227538999,0
			49.0023350010001,-122.227333001,0
			49.0023353890002,-122.227309773,0
			49.0023690000002,-122.225305,0
			49.002415,-122.222549,0
			49.002415,-122.222137,0
			49.0023672970001,-122.221459617,0
			49.0023350010001,-122.221001001,0
			49.0023350010001,-122.220848001,0
			49.0023320640001,-122.22046455,0
			49.0023270730002,-122.219812671,0
			49.0022890000001,-122.213867,0
			49.0023850000001,-122.206705,0
			49.0023880000002,-122.206451,0
			49.002387867,-122.206388191,0
			49.002384186,-122.204643249,0
			49.0023732220002,-122.197695281,0
			49.0023540600002,-122.185342218,0
			49.002354,-122.185303643,0
			49.002347017,-122.182307494,0
			49.002345027,-122.181495374,0
			49.0023422240001,-122.180259704,0
			49.0023422240001,-122.179710388,0
			49.002304077,-122.156227113,0
			49.0023034450002,-122.155886761,0
			49.002300001,-122.153779001,0
			49.0022890210002,-122.148037,0
			49.0022890000001,-122.148026,0
			49.0022890000001,-122.147925999,0
			49.0022890000001,-122.147915,0
			49.0022882050001,-122.147467449,0
			49.0022850780002,-122.145664129,0
			49.0022810000002,-122.143310999,0
			49.002279,-122.142111,0
			49.0022740280001,-122.139335494,0
			49.002274001,-122.13932,0
			49.002274001,-122.139191,0
			49.002264494,-122.133842288,0
			49.0022580040001,-122.130190528,0
			49.0022540000001,-122.124359,0
			49.0022490000002,-122.123149,0
			49.002247002,-122.122786904,0
			49.0022490000002,-122.122072,0
			49.0022513110001,-122.120939396,0
			49.0022544870002,-122.119621277,0
			49.0022544870002,-122.116775512,0
			49.0022544870002,-122.116386413,0
			49.0022544870002,-122.116203307,0
			49.0020904550001,-122.10494995,0
			49.0016700620001,-122.075755717,0
			49.001225,-122.044815,0
			49.0008510010001,-122.018799001,0
			49.0007123600001,-122.009226461,0
			49.000591279,-122.000846862,0
			49.0002873250002,-121.975518773,0
			49.0000460000002,-121.955391,0
			49.0000484870001,-121.945359005,0
			49.0000529800002,-121.92723249,0
			49.000053,-121.927159,0
			49.0000514810002,-121.927058266,0
			49.0000500000002,-121.926964,0
			49.0000651030001,-121.883451296,0
			49.0000762950001,-121.85205841,0
			49.0000002080001,-121.750279585,0
			49.0000000000001,-121.750001729,0
			49.0000230000001,-121.731438,0
			49.0000230430001,-121.731349698,0
			49.0000520820001,-121.67068068,0
			49.0000800000001,-121.612358,0
			49.0000800000001,-121.612332,0
			49.0000010000002,-121.500837,0
			49.0000000000001,-121.5,0
			49.000004,-121.495651,0
			49.0000340000001,-121.469689,0
			49.0000460000002,-121.459076,0
			49.0000460000002,-121.457016001,0
			49.0000500000002,-121.455368,0
			49.0000520000002,-121.450471,0
			49.000053,-121.445602,0
			49.0000520000002,-121.432700999,0
			49.0000500000002,-121.419726,0
			49.0000460000002,-121.393515,0
			49.000027,-121.276596,0
			49.000027,-121.272926114,0
			49.000004,-121.252823,0
			49.0000000000001,-121.250008,0
			49.000004,-121.242813,0
			49.0000090000001,-121.231686,0
			49.0000150000001,-121.216133,0
			49.0000190000001,-121.20752,0
			49.0000210000001,-121.204746,0
			49.000027,-121.193359,0
			49.0000520000002,-121.141694,0
			49.0000760000001,-121.090385,0
			49.0000730000001,-121.083227,0
			49.0000690000001,-121.075081,0
			49.0000650000001,-121.071098,0
			49.0000650000001,-121.069717,0
			49.0000620000001,-121.064622,0
			49.0000610000002,-121.063461,0
			49.000057,-121.059853,0
			49.0000280000001,-121.028589,0
			49.000004,-121.002434,0
			49.0000000000001,-121,0
			49.0000000000001,-120.998505,0
			49.000008,-120.986778,0
			49.000036,-120.92993,0
			49.00007216,-120.856300095,0
			48.9931410000001,-120.850196999,0
			48.9880490000002,-120.850853,0
			48.98341,-120.856308,0
			48.9820100010001,-120.861786001,0
			48.9780080650001,-120.871919875,0
			48.9774819500001,-120.873252179,0
			48.9768790450001,-120.874778885,0
			48.976520502,-120.875424588,0
			48.9735596690001,-120.880756792,0
			48.9729766700001,-120.881806722,0
			48.972702027,-120.88230133,0
			48.9691210560001,-120.881389452,0
			48.9682942860001,-120.881178919,0
			48.9677239920001,-120.881033696,0
			48.967159271,-120.880889892,0
			48.9653091440002,-120.877456665,0
			48.9645662520002,-120.874944174,0
			48.9644189870002,-120.874446119,0
			48.9638178690001,-120.872413112,0
			48.9634819030001,-120.871276856,0
			48.95980072,-120.86302948,0
			48.9584388740001,-120.854797364,0
			48.953380585,-120.845863343,0
			48.9509807350001,-120.843476722,0
			48.9494340000001,-120.841939,0
			48.9472450000002,-120.839762,0
			48.9464610000001,-120.838982,0
			48.9442910000002,-120.8372355,0
			48.942121,-120.835489001,0
			48.9407645380001,-120.834397133,0
			48.9404601980001,-120.834152165,0
			48.939936417,-120.830205706,0
			48.939281409,-120.825270481,0
			48.939271025,-120.825192243,0
			48.938640594,-120.820442199,0
			48.9432884370001,-120.817790545,0
			48.9469719100001,-120.815689051,0
			48.9502296450001,-120.808853149,0
			48.9548606870001,-120.802017213,0
			48.9550415210002,-120.80154012,0
			48.9551682230002,-120.801205841,0
			48.9556669350001,-120.79988909,0
			48.9564304570002,-120.797874614,0
			48.9571910000001,-120.795868,0
			48.9574567870002,-120.792381176,0
			48.9574770000002,-120.792115999,0
			48.9574993970002,-120.791822282,0
			48.9575937630001,-120.79058248,0
			48.9576606750002,-120.789703369,0
			48.958610535,-120.779426575,0
			48.9600105280002,-120.770523072,0
			48.9557193830001,-120.767131919,0
			48.9554357550001,-120.766907777,0
			48.9550257700002,-120.766583779,0
			48.9521713260001,-120.764328002,0
			48.949259006,-120.761619847,0
			48.9491193890001,-120.761490017,0
			48.9487366340001,-120.761134094,0
			48.94847107,-120.760887146,0
			48.945519044,-120.758683291,0
			48.9435579610002,-120.757219231,0
			48.9430835020001,-120.756865022,0
			48.94293213,-120.756752014,0
			48.9428634030001,-120.756681059,0
			48.9423755940002,-120.756177435,0
			48.94139952,-120.755169715,0
			48.9369317590001,-120.750557097,0
			48.9318389900002,-120.752601623,0
			48.9309005740001,-120.758071899,0
			48.9285888680002,-120.762176514,0
			48.92533881,-120.770377952,0
			48.9230308530001,-120.768997193,0
			48.9179498340001,-120.766243066,0
			48.9169014720001,-120.766660068,0
			48.9128494260002,-120.768272399,0
			48.9082298290001,-120.768257141,0
			48.9060566090001,-120.767790168,0
			48.905765172,-120.767727545,0
			48.9052716970002,-120.767621509,0
			48.9049989320001,-120.767562898,0
			48.9013099670001,-120.762062073,0
			48.8943710320002,-120.762039185,0
			48.8919296100001,-120.762477131,0
			48.8918402230001,-120.762493165,0
			48.8912582070001,-120.762597567,0
			48.8869705200001,-120.763366699,0
			48.8843559910001,-120.763360533,0
			48.8823740120001,-120.763355859,0
			48.881920541,-120.763354789,0
			48.8805007940001,-120.763351441,0
			48.8754310620002,-120.758537293,0
			48.8745699570001,-120.757511931,0
			48.8731582590001,-120.755830949,0
			48.8717072630002,-120.754103173,0
			48.8708114630001,-120.753036498,0
			48.8689804070002,-120.747566224,0
			48.8685618670002,-120.746554282,0
			48.8684700120001,-120.746332196,0
			48.8677035530002,-120.744479063,0
			48.8652915970001,-120.738647461,0
			48.8592987060001,-120.731781007,0
			48.8575077090002,-120.731162403,0
			48.855479539,-120.730461878,0
			48.8548280050001,-120.73023684,0
			48.8537738700001,-120.729872771,0
			48.8532967650001,-120.729707992,0
			48.8532834000001,-120.729710709,0
			48.8490754680001,-120.732318286,0
			48.8445014950001,-120.735153198,0
			48.840801239,-120.734451294,0
			48.8361816400002,-120.736488342,0
			48.834789277,-120.735786437,0
			48.8278503420001,-120.739883424,0
			48.823230743,-120.741226197,0
			48.8162918080001,-120.741882325,0
			48.8107490540002,-120.738441467,0
			48.7965867370002,-120.732989484,0
			48.7964401020002,-120.73293304,0
			48.7958019900001,-120.732809364,0
			48.7927399990002,-120.732216,0
			48.7908899390001,-120.736320082,0
			48.7895011900002,-120.736320495,0
			48.7884644350001,-120.736820411,0
			48.7882492050001,-120.736924192,0
			48.7881961830001,-120.736949758,0
			48.7881088330001,-120.736991877,0
			48.7816505430001,-120.732192994,0
			48.7804755200002,-120.731240272,0
			48.7795559780001,-120.730494697,0
			48.7782288190002,-120.729418622,0
			48.7765693670001,-120.72807312,0
			48.77599731,-120.727101166,0
			48.775105555,-120.725586029,0
			48.7744201530002,-120.724421496,0
			48.7733497610001,-120.722602844,0
			48.7705917370001,-120.713020325,0
			48.7610947660001,-120.699536129,0
			48.7599790000002,-120.697952,0
			48.756946166,-120.693446347,0
			48.75584,-120.691803,0
			48.7537698460001,-120.690919128,0
			48.749370575,-120.689041137,0
			48.7396385780001,-120.675808034,0
			48.7384870210001,-120.674242203,0
			48.738367947,-120.674080291,0
			48.738300324,-120.673988341,0
			48.7323381910001,-120.664840169,0
			48.7294131540001,-120.660352049,0
			48.7271924500001,-120.656944647,0
			48.7249298450002,-120.653472953,0
			48.7238272700001,-120.653141417,0
			48.7226220000001,-120.652779,0
			48.721679845,-120.663697589,0
			48.721603732,-120.664472314,0
			48.7215033000001,-120.665494573,0
			48.7212104800002,-120.66847992,0
			48.7184410100002,-120.672569275,0
			48.7176564010002,-120.673914625,0
			48.7172234110001,-120.674657064,0
			48.7167599960002,-120.675451672,0
			48.715660095,-120.677337646,0
			48.7036514280001,-120.679351807,0
			48.6985701680001,-120.671150271,0
			48.6948814390001,-120.673866273,0
			48.6945831460001,-120.676052124,0
			48.6945119760001,-120.676573645,0
			48.6943475780001,-120.677778336,0
			48.6939510020002,-120.680686993,0
			48.69540947,-120.685018462,0
			48.6971702590001,-120.690246583,0
			48.6979854570001,-120.69390703,0
			48.6982328490001,-120.695017882,0
			48.6983477380002,-120.695533763,0
			48.6985397330001,-120.696395874,0
			48.6961866650001,-120.69985875,0
			48.693676366,-120.703553015,0
			48.693639253,-120.703607632,0
			48.6906700140001,-120.707977294,0
			48.6857824150001,-120.711850134,0
			48.6848104230002,-120.712620322,0
			48.6846763290001,-120.712726576,0
			48.684661906,-120.712738004,0
			48.6846112040001,-120.712737809,0
			48.6841281040001,-120.712735831,0
			48.6814969100002,-120.712725145,0
			48.6809766360001,-120.712723032,0
			48.680878169,-120.712837341,0
			48.6806991610002,-120.713062523,0
			48.680629197,-120.713150535,0
			48.6777305600001,-120.716796875,0
			48.6767948920001,-120.716657799,0
			48.6759529860001,-120.71653266,0
			48.6751761570001,-120.716417194,0
			48.6731109620002,-120.71611023,0
			48.6689605720001,-120.71472931,0
			48.6685815850001,-120.714728417,0
			48.6683100000001,-120.714728,0
			48.6673640000002,-120.714726,0
			48.66572218,-120.714722,0
			48.6651393490001,-120.722310066,0
			48.6647810110001,-120.726976821,0
			48.6647799980001,-120.726990027,0
			48.6647793810001,-120.727001401,0
			48.664344381,-120.73501137,0
			48.6642990110001,-120.735847473,0
			48.6632685310001,-120.737996132,0
			48.663189,-120.738162,0
			48.661482,-120.741722,0
			48.6587410000001,-120.747438,0
			48.6587430000001,-120.747832,0
			48.6590500000001,-120.820412,0
			48.65976,-120.906357,0
			48.6394310000001,-120.907593,0
			48.6394310000001,-120.907608,0
			48.6393810000002,-120.92396,0
			48.6391080000001,-120.931404,0
			48.6388820000001,-120.937592,0
			48.6393820000001,-120.972112,0
			48.6399990000002,-121.014648,0
			48.6399930000002,-121.016346,0
			48.639953,-121.027268,0
			48.639916,-121.037357,0
			48.639912,-121.038513,0
			48.6402260000001,-121.052819,0
			48.6406900000001,-121.073967,0
			48.6403240000002,-121.08407,0
			48.6401710000002,-121.088287,0
			48.6408640000001,-121.146858,0
			48.6421390000001,-121.254692,0
			48.6421580000001,-121.257831,0
			48.6428030000001,-121.363105,0
			48.6428490000001,-121.370621,0
			48.6432190000001,-121.386307,0
			48.6436390000001,-121.4627,0
			48.6436200000001,-121.530876,0
			48.6433220000001,-121.570427,0
			48.643242,-121.581352,0
			48.6439290000001,-121.667961,0
			48.64415,-121.695923,0
			48.6443410000001,-121.727982,0
			48.6443100000001,-121.757106,0
			48.644279,-121.785942,0
			48.6444880000001,-121.803469,0
			48.6445390000001,-121.80777,0
			48.6447720000002,-121.832336,0
			48.6447020000001,-121.86303,0
			48.6446300000001,-121.894386,0
			48.644459,-121.91141,0
			48.6442600000001,-121.93122,0
			48.6442260000001,-121.934049,0
			48.6442110000001,-121.935287,0
			48.6440110000001,-121.955352,0
			48.6439590000001,-121.960533,0
			48.6439980000001,-121.973585,0
			48.6441660000001,-122.029206,0
			48.6443600000002,-122.093521,0
			48.6443860000001,-122.228951,0
			48.6443940000001,-122.274079,0
			48.6444090000002,-122.352692,0
			48.6444080000001,-122.352788,0
			48.6441340000001,-122.392272,0
			48.6434750000001,-122.487038,0
			48.6437910000002,-122.487312,0
			48.6442070000002,-122.487823,0
			48.6446040000001,-122.488342,0
			48.6450080000001,-122.488838,0
			48.6454850000002,-122.48925,0
			48.645966,-122.489655,0
			48.6464920000002,-122.48999,0
			48.6470410000002,-122.490303,0
			48.647572,-122.490646,0
			48.648064,-122.491043,0
			48.6485440000002,-122.491447,0
			48.6490140000001,-122.491867,0
			48.6498530000001,-122.492165,0
			48.650219,-122.492661,0
			48.6505010000001,-122.493034,0
			48.650925,-122.493462,0
			48.6515010000001,-122.493637,0
			48.651844,-122.493622,0
			48.6521380000001,-122.493607,0
			48.652748,-122.493332,0
			48.653538,-122.493401,0
			48.653759,-122.493568,0
			48.653755,-122.494087,0
			48.653214,-122.494568,0
			48.6532170000001,-122.495262,0
			48.6534730000001,-122.495911,0
			48.6535490000001,-122.496193,0
			48.6537630000001,-122.496956,0
			48.654472,-122.496918,0
			48.6550140000001,-122.497322,0
			48.6553540000002,-122.497856,0
			48.6555250000001,-122.498474,0
			48.6556240000001,-122.499115,0
			48.6557730000002,-122.499779,0
			48.6558070000002,-122.500275,0
			48.6557270000001,-122.500877,0
			48.6556780000001,-122.501495,0
			48.65567,-122.502121,0
			48.655945,-122.502716,0
			48.6563380000001,-122.503273,0
			48.6567840000002,-122.503799,0
			48.657291,-122.504257,0
			48.6577990000001,-122.504745,0
			48.6583250000002,-122.505203,0
			48.65897,-122.505547,0
			48.6596450000001,-122.505844,0
			48.6602970000001,-122.50618,0
			48.6608620000001,-122.50663,0
			48.6614230000001,-122.507088,0
			48.6620220000001,-122.507507,0
			48.6626630000001,-122.507797,0
			48.6632540000001,-122.508133,0
			48.6636620000001,-122.508644,0
			48.6640740000001,-122.509163,0
			48.6645160000001,-122.509666,0
			48.665043,-122.510078,0
			48.6655690000002,-122.510513,0
			48.666168,-122.51091,0
			48.6667790000001,-122.511299,0
			48.6674230000001,-122.511597,0
			48.668079,-122.511818,0
			48.6686290000001,-122.511749,0
			48.668934,-122.511406,0
			48.6691780000002,-122.510986,0
			48.6694030000002,-122.510536,0
			48.6694450000001,-122.509987,0
			48.669449,-122.509407,0
			48.6694450000001,-122.50882,0
			48.6693880000001,-122.508247,0
			48.669155,-122.507751,0
			48.6688230000001,-122.507309,0
			48.6683960000001,-122.506958,0
			48.6679310000002,-122.50663,0
			48.667534,-122.506218,0
			48.6672210000001,-122.505714,0
			48.6669160000001,-122.505196,0
			48.666527,-122.504723,0
			48.6661420000001,-122.504234,0
			48.6658360000001,-122.503654,0
			48.665535,-122.503059,0
			48.6651650000001,-122.502495,0
			48.6647910000001,-122.50193,0
			48.6641010000002,-122.501595,0
			48.663925,-122.50116,0
			48.6643680000001,-122.500648,0
			48.6645510000001,-122.499985,0
			48.6647340000002,-122.499603,0
			48.664837,-122.499382,0
			48.665344,-122.498764,0
			48.666027,-122.498749,0
			48.6665610000002,-122.499413,0
			48.6668820000001,-122.499817,0
			48.667446,-122.499863,0
			48.6677780000002,-122.499443,0
			48.667946,-122.497498,0
			48.6679990000001,-122.496948,0
			48.6677780000002,-122.496666,0
			48.6675000000001,-122.496498,0
			48.66724,-122.494919,0
			48.667053,-122.493774,0
			48.6677780000002,-122.493301,0
			48.668056,-122.493332,0
			48.6686020000001,-122.493393,0
			48.6686780000002,-122.493401,0
			48.6688880000002,-122.493614,0
			48.6694450000001,-122.493614,0
			48.6698880000001,-122.493301,0
			48.6702770000002,-122.493057,0
			48.6702770000002,-122.492775,0
			48.6704440000001,-122.492287,0
			48.6705060000001,-122.491608,0
			48.6706730000001,-122.491112,0
			48.671413,-122.490189,0
			48.6719510000001,-122.490211,0
			48.6724620000001,-122.490318,0
			48.6730420000001,-122.490486,0
			48.6736150000001,-122.490753,0
			48.6741910000002,-122.491035,0
			48.6747820000001,-122.491264,0
			48.6753770000001,-122.49131,0
			48.675915,-122.491089,0
			48.676411,-122.490807,0
			48.6769940000001,-122.490509,0
			48.677597,-122.490311,0
			48.678249,-122.490273,0
			48.6789130000001,-122.490273,0
			48.6795770000001,-122.490311,0
			48.6802060000001,-122.490486,0
			48.680836,-122.490692,0
			48.6814690000002,-122.490906,0
			48.6821290000001,-122.491127,0
			48.6827740000002,-122.491386,0
			48.683434,-122.491623,0
			48.6841810000002,-122.491676,0
			48.6849290000001,-122.49176,0
			48.6856540000001,-122.491959,0
			48.6863440000001,-122.492218,0
			48.6870190000002,-122.4925,0
			48.687691,-122.49279,0
			48.6883470000001,-122.493088,0
			48.6890260000002,-122.493347,0
			48.6896820000001,-122.493629,0
			48.690319,-122.49395,0
			48.6908910000001,-122.494362,0
			48.6913910000001,-122.494698,0
			48.6915250000002,-122.494682,0
			48.6920240000001,-122.495224,0
			48.6925960000002,-122.495651,0
			48.6932410000001,-122.496315,0
			48.6937680000001,-122.496468,0
			48.6944620000002,-122.496712,0
			48.6950150000001,-122.497147,0
			48.695545,-122.49762,0
			48.6960220000001,-122.498146,0
			48.6963650000001,-122.498787,0
			48.6966060000001,-122.499496,0
			48.6968150000002,-122.500191,0
			48.697159,-122.500664,0
			48.6973150000001,-122.500511,0
			48.6975590000001,-122.500099,0
			48.6977920000002,-122.499611,0
			48.698048,-122.499084,0
			48.698563,-122.499008,0
			48.698879,-122.498199,0
			48.699203,-122.497696,0
			48.6997340000001,-122.497681,0
			48.7001040000002,-122.497269,0
			48.7002260000001,-122.496918,0
			48.7012330000001,-122.497421,0
			48.7016790000001,-122.497787,0
			48.7019770000001,-122.498039,0
			48.7023470000001,-122.498436,0
			48.7023390000002,-122.499008,0
			48.7024610000001,-122.499451,0
			48.7023810000001,-122.499901,0
			48.7022510000002,-122.50032,0
			48.7020910000001,-122.500725,0
			48.7018430000002,-122.501213,0
			48.7016640000001,-122.501785,0
			48.7015080000002,-122.502289,0
			48.7013470000002,-122.502602,0
			48.701118,-122.502785,0
			48.7009240000002,-122.502975,0
			48.7007980000002,-122.503288,0
			48.7005580000001,-122.503593,0
			48.7002680000001,-122.503899,0
			48.7000390000001,-122.504265,0
			48.6999240000002,-122.504745,0
			48.6997410000001,-122.505264,0
			48.6997220000002,-122.505554,0
			48.6991650000001,-122.506142,0
			48.699055,-122.506386,0
			48.6989480000001,-122.50708,0
			48.6983340000001,-122.507774,0
			48.6980550000001,-122.508057,0
			48.6974980000002,-122.507835,0
			48.6969450000001,-122.5075,0
			48.6966670000002,-122.507225,0
			48.6963880000002,-122.507225,0
			48.6961100000001,-122.506943,0
			48.6955570000002,-122.506943,0
			48.695278,-122.506668,0
			48.6950000000001,-122.506584,0
			48.6946980000001,-122.506271,0
			48.6942710000002,-122.50618,0
			48.6938710000001,-122.505829,0
			48.6934360000002,-122.505539,0
			48.6930310000001,-122.505241,0
			48.6926770000001,-122.504898,0
			48.692333,-122.50457,0
			48.6919290000002,-122.504333,0
			48.6914830000001,-122.504189,0
			48.6910100000002,-122.504112,0
			48.6905590000002,-122.504089,0
			48.6901320000002,-122.504097,0
			48.6897960000001,-122.504028,0
			48.689514,-122.50386,0
			48.6892240000002,-122.504074,0
			48.6890680000001,-122.50473,0
			48.6893350000001,-122.505402,0
			48.6899490000001,-122.505539,0
			48.6905480000001,-122.505783,0
			48.6905520000001,-122.506111,0
			48.6904530000001,-122.506516,0
			48.690025,-122.506546,0
			48.6897660000001,-122.506561,0
			48.6897770000001,-122.507172,0
			48.6904220000002,-122.508057,0
			48.6910710000001,-122.508392,0
			48.6914220000002,-122.508804,0
			48.6919360000001,-122.509369,0
			48.69241,-122.509727,0
			48.692932,-122.510193,0
			48.6931690000001,-122.510666,0
			48.6934430000001,-122.510948,0
			48.6936110000001,-122.511108,0
			48.6938900000001,-122.511139,0
			48.6941680000002,-122.511391,0
			48.694443,-122.511581,0
			48.6950000000001,-122.512085,0
			48.6954990000002,-122.512634,0
			48.6958350000001,-122.512779,0
			48.6963880000002,-122.513336,0
			48.6969340000001,-122.513344,0
			48.697277,-122.513496,0
			48.6976320000001,-122.513657,0
			48.6979870000001,-122.51387,0
			48.6983760000002,-122.514076,0
			48.6987950000002,-122.51429,0
			48.699192,-122.514626,0
			48.6996230000001,-122.514999,0
			48.7001190000001,-122.515373,0
			48.7006950000001,-122.515717,0
			48.7012710000001,-122.516083,0
			48.7017440000001,-122.516243,0
			48.702095,-122.51609,0
			48.702408,-122.515839,0
			48.7027400000001,-122.515587,0
			48.7030560000002,-122.515556,0
			48.7043340000002,-122.514671,0
			48.7055020000002,-122.514915,0
			48.705723,-122.515198,0
			48.7061120000001,-122.515274,0
			48.7072220000001,-122.516388,0
			48.7077790000001,-122.516388,0
			48.7080570000001,-122.51667,0
			48.708332,-122.51667,0
			48.709167,-122.517502,0
			48.7094460000001,-122.517502,0
			48.7102780000001,-122.518333,0
			48.7105560000001,-122.518333,0
			48.7110250000001,-122.518715,0
			48.711376,-122.519104,0
			48.7118300000001,-122.519318,0
			48.7123300000001,-122.519485,0
			48.7128180000001,-122.519722,0
			48.7133260000001,-122.519951,0
			48.7138520000001,-122.519646,0
			48.7144320000001,-122.519516,0
			48.7150080000002,-122.519272,0
			48.7155530000002,-122.519318,0
			48.7159580000001,-122.519455,0
			48.716404,-122.519287,0
			48.716827,-122.519142,0
			48.7171820000001,-122.518921,0
			48.7174910000001,-122.518669,0
			48.7177770000001,-122.518333,0
			48.7187230000001,-122.51722,0
			48.719444,-122.516502,0
			48.7197760000001,-122.516335,0
			48.7201120000001,-122.516136,0
			48.7208820000002,-122.515671,0
			48.7209930000001,-122.514999,0
			48.7214930000001,-122.514305,0
			48.72216,-122.513641,0
			48.7223820000001,-122.513115,0
			48.722832,-122.512749,0
			48.722778,-122.512192,0
			48.722778,-122.512085,0
			48.7227210000001,-122.511803,0
			48.721943,-122.511444,0
			48.7219050000001,-122.510696,0
			48.7218860000001,-122.509819,0
			48.7222400000001,-122.508743,0
			48.7223890000002,-122.508415,0
			48.7223890000002,-122.508057,0
			48.722385,-122.507774,0
			48.723057,-122.506477,0
			48.723888,-122.506142,0
			48.7241670000002,-122.506226,0
			48.724777,-122.506363,0
			48.724998,-122.506668,0
			48.725277,-122.506668,0
			48.7258340000001,-122.507225,0
			48.7261120000002,-122.507225,0
			48.726387,-122.507332,0
			48.7266650000001,-122.507248,0
			48.727222,-122.506775,0
			48.7274440000001,-122.506531,0
			48.7291680000001,-122.50528,0
			48.7296680000001,-122.50486,0
			48.7311100000002,-122.503609,0
			48.7313880000001,-122.503365,0
			48.7324980000001,-122.502502,0
			48.7324980000001,-122.50222,0
			48.7327770000001,-122.501945,0
			48.7327770000001,-122.501663,0
			48.7336080000001,-122.500786,0
			48.7336270000001,-122.500359,0
			48.733822,-122.49984,0
			48.7341420000001,-122.499596,0
			48.7343710000002,-122.499306,0
			48.734936,-122.498741,0
			48.7352260000001,-122.498337,0
			48.73555,-122.497986,0
			48.7358630000002,-122.497658,0
			48.7362060000002,-122.497391,0
			48.7365000000001,-122.497108,0
			48.7368010000001,-122.496841,0
			48.737244,-122.496742,0
			48.737869,-122.496323,0
			48.73859,-122.495964,0
			48.7389110000001,-122.495979,0
			48.739189,-122.495987,0
			48.7397160000001,-122.495056,0
			48.740166,-122.494667,0
			48.7408290000002,-122.493721,0
			48.740887,-122.493553,0
			48.740997,-122.493225,0
			48.741276,-122.492867,0
			48.7414400000001,-122.492302,0
			48.7416080000002,-122.491447,0
			48.7425000000001,-122.49028,0
			48.7430570000001,-122.490837,0
			48.7433360000001,-122.491943,0
			48.7433320000002,-122.492226,0
			48.7433320000002,-122.493057,0
			48.74361,-122.493332,0
			48.74361,-122.493614,0
			48.7440570000001,-122.493774,0
			48.7446670000001,-122.493782,0
			48.7448880000001,-122.494225,0
			48.7453350000002,-122.494164,0
			48.746334,-122.493385,0
			48.7463870000001,-122.493057,0
			48.7466660000002,-122.492775,0
			48.747169,-122.491997,0
			48.7472230000001,-122.491837,0
			48.7473910000001,-122.491386,0
			48.7475010000001,-122.491386,0
			48.747723,-122.491165,0
			48.7480550000001,-122.490555,0
			48.7486110000002,-122.489998,0
			48.7490010000001,-122.489304,0
			48.749443,-122.488914,0
			48.7497790000002,-122.487839,0
			48.7503360000001,-122.488174,0
			48.750282,-122.489258,0
			48.7488900000001,-122.491386,0
			48.7486650000002,-122.491669,0
			48.7480550000001,-122.4925,0
			48.7480550000001,-122.492775,0
			48.7477760000002,-122.493057,0
			48.7477760000002,-122.493614,0
			48.7475010000001,-122.493889,0
			48.7475010000001,-122.494164,0
			48.7491680000001,-122.495834,0
			48.749443,-122.495834,0
			48.7500000000001,-122.496391,0
			48.750278,-122.496391,0
			48.7511100000002,-122.495552,0
			48.753002,-122.493561,0
			48.7537800000001,-122.494331,0
			48.7535590000001,-122.49511,0
			48.7536130000001,-122.496056,0
			48.7536130000001,-122.496498,0
			48.7541660000001,-122.497498,0
			48.7547230000001,-122.497498,0
			48.755001,-122.49778,0
			48.75528,-122.497498,0
			48.75528,-122.496666,0
			48.7557220000002,-122.495941,0
			48.7558250000002,-122.495285,0
			48.75639,-122.495277,0
			48.7566680000001,-122.495392,0
			48.7566680000001,-122.495834,0
			48.7566680000001,-122.496666,0
			48.756577,-122.496758,0
			48.756111,-122.497223,0
			48.756111,-122.498055,0
			48.7566680000001,-122.498611,0
			48.7566680000001,-122.498886,0
			48.7569920000001,-122.499214,0
			48.7577780000001,-122.5,0
			48.7575000000001,-122.500275,0
			48.756989,-122.50016,0
			48.75639,-122.500031,0
			48.756111,-122.5,0
			48.7558330000001,-122.5,0
			48.75528,-122.499443,0
			48.7553330000001,-122.499001,0
			48.7544440000001,-122.499001,0
			48.7539440000002,-122.498917,0
			48.7537230000002,-122.499115,0
			48.7534900000001,-122.499107,0
			48.7535440000001,-122.499809,0
			48.7537650000001,-122.500473,0
			48.7541620000001,-122.501129,0
			48.7546010000002,-122.501457,0
			48.7547230000001,-122.501389,0
			48.755001,-122.501389,0
			48.7558330000001,-122.501976,0
			48.756111,-122.501945,0
			48.756607,-122.503052,0
			48.7565540000001,-122.503334,0
			48.756111,-122.504448,0
			48.7558330000001,-122.504448,0
			48.7558330000001,-122.504166,0
			48.7547230000001,-122.503555,0
			48.753906,-122.503777,0
			48.7535820000001,-122.504143,0
			48.7533720000001,-122.5047,0
			48.753292,-122.505287,0
			48.7530940000001,-122.505829,0
			48.753056,-122.506378,0
			48.7530520000001,-122.506912,0
			48.7531130000002,-122.507248,0
			48.753391,-122.507423,0
			48.7539480000002,-122.507782,0
			48.7544480000001,-122.508392,0
			48.75478,-122.509361,0
			48.7550580000001,-122.509666,0
			48.7554470000002,-122.510223,0
			48.7557260000002,-122.51075,0
			48.7558330000001,-122.511665,0
			48.7560200000001,-122.511864,0
			48.7565270000002,-122.511795,0
			48.7567210000001,-122.511368,0
			48.7570570000001,-122.511505,0
			48.7572780000002,-122.511887,0
			48.7575000000001,-122.51181,0
			48.7578320000001,-122.511749,0
			48.75811,-122.511665,0
			48.7587320000002,-122.510788,0
			48.7593350000001,-122.509941,0
			48.759445,-122.508888,0
			48.7599980000001,-122.508636,0
			48.7603340000001,-122.508583,0
			48.760609,-122.508583,0
			48.7605510000001,-122.509056,0
			48.7607770000001,-122.509445,0
			48.760834,-122.50972,0
			48.7611120000001,-122.510002,0
			48.7611660000001,-122.510445,0
			48.7602770000001,-122.511108,0
			48.7602770000001,-122.511391,0
			48.760029,-122.511803,0
			48.7599450000002,-122.511948,0
			48.7598880000001,-122.512222,0
			48.7599490000002,-122.512947,0
			48.7600560000001,-122.513557,0
			48.7608680000002,-122.513901,0
			48.761646,-122.51358,0
			48.7625390000001,-122.51326,0
			48.763153,-122.514214,0
			48.7635190000001,-122.515213,0
			48.7636180000002,-122.515984,0
			48.763786,-122.516724,0
			48.764084,-122.517357,0
			48.7640270000001,-122.518181,0
			48.764774,-122.518715,0
			48.765003,-122.519295,0
			48.7651140000001,-122.520081,0
			48.765209,-122.520782,0
			48.7652780000002,-122.5215,0
			48.765388,-122.522156,0
			48.7657850000001,-122.522713,0
			48.7659300000001,-122.52346,0
			48.7660140000002,-122.523903,0
			48.7661210000001,-122.524475,0
			48.766403,-122.524971,0
			48.7666700000001,-122.52549,0
			48.7669450000001,-122.526001,0
			48.7671930000002,-122.526527,0
			48.7673680000001,-122.527092,0
			48.7675360000001,-122.527657,0
			48.7677800000001,-122.528175,0
			48.7680400000001,-122.528679,0
			48.768406,-122.529129,0
			48.7687340000002,-122.529587,0
			48.7690430000001,-122.52993,0
			48.7695470000001,-122.530258,0
			48.7698440000001,-122.530487,0
			48.7703290000001,-122.530693,0
			48.770699,-122.531319,0
			48.7710300000001,-122.531731,0
			48.7715950000001,-122.532051,0
			48.7718540000002,-122.532501,0
			48.7722970000001,-122.532837,0
			48.772541,-122.532959,0
			48.7728080000001,-122.533089,0
			48.773533,-122.533173,0
			48.7739910000001,-122.533646,0
			48.774139,-122.534019,0
			48.7744450000002,-122.534439,0
			48.774727,-122.534866,0
			48.7750090000001,-122.535286,0
			48.775448,-122.535622,0
			48.775517,-122.53614,0
			48.7756080000001,-122.536682,0
			48.7756650000001,-122.536827,0
			48.7758030000001,-122.537178,0
			48.7759170000001,-122.537697,0
			48.776081,-122.538177,0
			48.7761610000001,-122.538681,0
			48.776348,-122.539116,0
			48.7763900000002,-122.539444,0
			48.776279,-122.539886,0
			48.7763330000001,-122.541031,0
			48.7763900000002,-122.541389,0
			48.7763900000002,-122.541946,0
			48.7763900000002,-122.542221,0
			48.7766690000001,-122.542503,0
			48.7766690000001,-122.542778,0
			48.7764430000001,-122.543388,0
			48.7765580000002,-122.544998,0
			48.7766690000001,-122.54528,0
			48.7766690000001,-122.546501,0
			48.7766690000001,-122.546661,0
			48.7766690000001,-122.547501,0
			48.7767220000001,-122.548027,0
			48.7768940000001,-122.548332,0
			48.7768360000001,-122.548889,0
			48.777,-122.549278,0
			48.7771220000001,-122.549774,0
			48.7772220000001,-122.550003,0
			48.7772790000002,-122.551392,0
			48.7772220000001,-122.551666,0
			48.7773900000001,-122.552971,0
			48.7775000000001,-122.553337,0
			48.7775000000001,-122.556664,0
			48.7772220000001,-122.556946,0
			48.7772220000001,-122.55722,0
			48.7777790000002,-122.557777,0
			48.7777790000002,-122.559998,0
			48.778057,-122.56028,0
			48.778057,-122.561386,0
			48.7775000000001,-122.561943,0
			48.7772220000001,-122.561943,0
			48.7772220000001,-122.561501,0
			48.7769430000001,-122.561111,0
			48.7770580000002,-122.560837,0
			48.7767220000001,-122.559807,0
			48.7761120000001,-122.559998,0
			48.7754400000001,-122.55986,0
			48.775444,-122.559525,0
			48.7750020000001,-122.559166,0
			48.7739980000001,-122.559502,0
			48.7733350000001,-122.559837,0
			48.7730560000002,-122.559723,0
			48.7727780000001,-122.559998,0
			48.7727780000001,-122.560837,0
			48.7738880000001,-122.561333,0
			48.7744450000002,-122.56105,0
			48.7747230000001,-122.56105,0
			48.7752760000002,-122.561111,0
			48.775723,-122.561226,0
			48.7757800000001,-122.561668,0
			48.7761120000001,-122.562004,0
			48.7765010000001,-122.562889,0
			48.7758330000001,-122.563332,0
			48.7752760000002,-122.563332,0
			48.7750020000001,-122.563614,0
			48.774776,-122.563919,0
			48.7742770000001,-122.563889,0
			48.7736130000001,-122.564308,0
			48.7733350000001,-122.565002,0
			48.7733350000001,-122.566948,0
			48.7730560000002,-122.567223,0
			48.7730560000002,-122.567497,0
			48.7727780000001,-122.56778,0
			48.7727780000001,-122.568611,0
			48.7724990000001,-122.568886,0
			48.7724990000001,-122.569443,0
			48.7722210000002,-122.569725,0
			48.7722210000002,-122.571663,0
			48.770832,-122.573059,0
			48.7705570000002,-122.573059,0
			48.7702790000001,-122.573334,0
			48.7700000000001,-122.573334,0
			48.7697220000002,-122.573608,0
			48.7694440000001,-122.573608,0
			48.7691120000002,-122.574165,0
			48.7690010000001,-122.574448,0
			48.7692220000002,-122.574638,0
			48.7692220000002,-122.574837,0
			48.769501,-122.57486,0
			48.7697790000001,-122.57489,0
			48.7702220000002,-122.575638,0
			48.7706640000001,-122.575859,0
			48.7711110000002,-122.576385,0
			48.7719460000002,-122.576309,0
			48.7722210000002,-122.576279,0
			48.7724990000001,-122.576385,0
			48.77261,-122.576584,0
			48.7727780000001,-122.576668,0
			48.7730560000002,-122.576942,0
			48.7733350000001,-122.578331,0
			48.7730560000002,-122.578613,0
			48.7727780000001,-122.578613,0
			48.7724990000001,-122.578331,0
			48.7721100000001,-122.578392,0
			48.7717780000001,-122.578171,0
			48.7715030000001,-122.578003,0
			48.7711680000001,-122.577477,0
			48.7696110000001,-122.577141,0
			48.7691650000001,-122.578331,0
			48.7691650000001,-122.57972,0
			48.7692220000002,-122.580246,0
			48.770229,-122.581032,0
			48.769836,-122.58197,0
			48.7691690000001,-122.582695,0
			48.76878,-122.583054,0
			48.7685550000001,-122.583084,0
			48.7683910000002,-122.583275,0
			48.7682230000001,-122.583305,0
			48.7679440000002,-122.583496,0
			48.7680550000001,-122.583885,0
			48.7680550000001,-122.584999,0
			48.768333,-122.585281,0
			48.768333,-122.58667,0
			48.7680550000001,-122.586945,0
			48.7680550000001,-122.587502,0
			48.7677800000001,-122.588531,0
			48.767502,-122.589165,0
			48.767502,-122.589447,0
			48.7676090000002,-122.589806,0
			48.7676090000002,-122.590363,0
			48.7676660000001,-122.590637,0
			48.7676090000002,-122.591942,0
			48.7678300000001,-122.592636,0
			48.767887,-122.593422,0
			48.7686690000001,-122.595383,0
			48.7669450000001,-122.595276,0
			48.7666660000001,-122.595276,0
			48.7664990000001,-122.594894,0
			48.7660560000001,-122.594894,0
			48.7655560000001,-122.594894,0
			48.7654460000001,-122.594948,0
			48.7652780000002,-122.595001,0
			48.764664,-122.594948,0
			48.7644460000001,-122.595444,0
			48.7633320000001,-122.596107,0
			48.763054,-122.59639,0
			48.763054,-122.597504,0
			48.7636110000001,-122.597504,0
			48.7638890000002,-122.597778,0
			48.7640530000001,-122.59803,0
			48.7637750000002,-122.598557,0
			48.763943,-122.598862,0
			48.7642750000002,-122.599442,0
			48.7649960000001,-122.599861,0
			48.7654840000002,-122.600113,0
			48.7657780000002,-122.599945,0
			48.7661130000002,-122.59967,0
			48.766556,-122.599693,0
			48.767002,-122.600113,0
			48.7677760000001,-122.600113,0
			48.7680550000001,-122.599998,0
			48.768333,-122.599998,0
			48.7686120000002,-122.599724,0
			48.7692220000002,-122.599144,0
			48.7705570000002,-122.59861,0
			48.7710000000001,-122.599274,0
			48.7713850000001,-122.599419,0
			48.7711110000002,-122.599998,0
			48.7711110000002,-122.600555,0
			48.770832,-122.60083,0
			48.7697220000002,-122.60083,0
			48.7694440000001,-122.601112,0
			48.7686120000002,-122.601112,0
			48.768333,-122.601387,0
			48.7680550000001,-122.601387,0
			48.7675550000001,-122.601692,0
			48.7669450000001,-122.601555,0
			48.7666660000001,-122.601501,0
			48.766109,-122.601166,0
			48.7655560000001,-122.601944,0
			48.7652210000001,-122.602417,0
			48.7651100000002,-122.602692,0
			48.7648890000002,-122.602837,0
			48.7647210000001,-122.602859,0
			48.7644420000001,-122.602859,0
			48.764168,-122.603058,0
			48.7640230000001,-122.603058,0
			48.7633320000001,-122.603058,0
			48.7631150000001,-122.604057,0
			48.7627790000002,-122.604637,0
			48.7622220000001,-122.60611,0
			48.7625010000001,-122.606392,0
			48.7624860000001,-122.606651,0
			48.7627790000002,-122.606941,0
			48.763054,-122.606667,0
			48.764168,-122.604919,0
			48.7648350000001,-122.605003,0
			48.7638890000002,-122.607109,0
			48.7635000000001,-122.607635,0
			48.7633320000001,-122.60775,0
			48.7628330000001,-122.608498,0
			48.7626110000002,-122.608612,0
			48.7625010000001,-122.608582,0
			48.7620010000001,-122.60894,0
			48.7613910000001,-122.609169,0
			48.7597240000002,-122.609169,0
			48.759342,-122.609169,0
			48.7590600000001,-122.609169,0
			48.7587510000001,-122.609169,0
			48.758423,-122.609245,0
			48.7580720000001,-122.609253,0
			48.7577290000002,-122.609245,0
			48.7574390000001,-122.609451,0
			48.7571600000002,-122.609718,0
			48.7568740000001,-122.610008,0
			48.756607,-122.610344,0
			48.7563710000001,-122.610718,0
			48.756111,-122.611099,0
			48.7558480000001,-122.611488,0
			48.755589,-122.611893,0
			48.7552600000001,-122.612267,0
			48.7549930000001,-122.612709,0
			48.7547230000001,-122.613152,0
			48.7544440000001,-122.613594,0
			48.7541660000001,-122.614037,0
			48.7538870000001,-122.614479,0
			48.7536320000001,-122.614944,0
			48.7534480000002,-122.615456,0
			48.753307,-122.616028,0
			48.753056,-122.61657,0
			48.752781,-122.617104,0
			48.752483,-122.61763,0
			48.7521100000001,-122.618111,0
			48.7517170000001,-122.618568,0
			48.7513310000001,-122.619026,0
			48.7508470000001,-122.619362,0
			48.7503810000001,-122.61972,0
			48.7499240000001,-122.620087,0
			48.7495080000001,-122.620483,0
			48.749065,-122.620857,0
			48.7486920000001,-122.621315,0
			48.7483440000001,-122.621796,0
			48.7480320000002,-122.622314,0
			48.7476770000001,-122.622795,0
			48.747356,-122.623322,0
			48.7470090000001,-122.623825,0
			48.7466700000001,-122.624367,0
			48.7463230000002,-122.624901,0
			48.7459030000001,-122.625374,0
			48.7455710000002,-122.625916,0
			48.7452660000001,-122.626472,0
			48.744934,-122.626999,0
			48.7445680000001,-122.627487,0
			48.7441750000001,-122.627945,0
			48.7437930000001,-122.628418,0
			48.7433780000001,-122.628868,0
			48.7430340000002,-122.629395,0
			48.7426340000001,-122.629868,0
			48.7422600000001,-122.630356,0
			48.741905,-122.630844,0
			48.7414320000001,-122.631226,0
			48.741001,-122.631653,0
			48.7405820000002,-122.632088,0
			48.7402080000002,-122.632561,0
			48.739788,-122.63298,0
			48.7393110000002,-122.633339,0
			48.7388310000001,-122.63369,0
			48.7383730000002,-122.634064,0
			48.7380180000001,-122.634514,0
			48.737598,-122.634918,0
			48.7372280000001,-122.635345,0
			48.736862,-122.635765,0
			48.7364200000001,-122.636108,0
			48.7359470000002,-122.636406,0
			48.7354850000002,-122.636734,0
			48.7350200000001,-122.637054,0
			48.7345500000001,-122.637352,0
			48.7339780000001,-122.637482,0
			48.7333720000001,-122.637543,0
			48.7328000000001,-122.637749,0
			48.7322620000001,-122.638,0
			48.7318500000001,-122.638367,0
			48.731544,-122.638824,0
			48.7311740000002,-122.639214,0
			48.7308240000002,-122.63961,0
			48.7304530000002,-122.639961,0
			48.7300340000002,-122.640244,0
			48.729721,-122.640556,0
			48.7288890000001,-122.641113,0
			48.7283330000001,-122.64167,0
			48.7266650000001,-122.642502,0
			48.7266120000002,-122.642609,0
			48.726387,-122.642776,0
			48.725277,-122.643608,0
			48.7244450000001,-122.644447,0
			48.7241670000002,-122.644447,0
			48.723888,-122.644722,0
			48.722778,-122.645134,0
			48.7216680000002,-122.645836,0
			48.7213900000001,-122.645836,0
			48.7211110000001,-122.646111,0
			48.720833,-122.646111,0
			48.7202760000001,-122.646667,0
			48.7191660000001,-122.646667,0
			48.7188870000001,-122.646942,0
			48.718334,-122.646942,0
			48.7180560000001,-122.647224,0
			48.7177770000001,-122.647224,0
			48.7169460000001,-122.648056,0
			48.7166820000001,-122.648521,0
			48.7164310000001,-122.648956,0
			48.7162250000001,-122.649391,0
			48.7159120000002,-122.649712,0
			48.7156260000002,-122.650169,0
			48.715584,-122.650299,0
			48.7156640000001,-122.650772,0
			48.7155490000002,-122.651146,0
			48.7156680000001,-122.651337,0
			48.7158470000001,-122.651627,0
			48.716164,-122.652039,0
			48.7167890000001,-122.652466,0
			48.7173310000002,-122.653381,0
			48.7174840000001,-122.65387,0
			48.7179030000001,-122.654434,0
			48.718304,-122.654991,0
			48.7186160000001,-122.655586,0
			48.718937,-122.656151,0
			48.7192920000001,-122.65667,0
			48.7196660000001,-122.657143,0
			48.7201420000001,-122.657494,0
			48.720657,-122.657768,0
			48.7211910000001,-122.65799,0
			48.721737,-122.658142,0
			48.7223320000001,-122.658005,0
			48.7225000000001,-122.658058,0
			48.7258340000001,-122.659721,0
			48.7266650000001,-122.660553,0
			48.7266650000001,-122.66111,0
			48.7269440000001,-122.661392,0
			48.727222,-122.661942,0
			48.7276230000002,-122.662453,0
			48.728214,-122.662743,0
			48.728886,-122.66291,0
			48.7295570000001,-122.663071,0
			48.730305,-122.663162,0
			48.7308540000001,-122.663544,0
			48.731312,-122.664024,0
			48.7316510000002,-122.664574,0
			48.7317310000001,-122.664818,0
			48.7318570000002,-122.665207,0
			48.7319370000001,-122.665894,0
			48.7319450000002,-122.666595,0
			48.7321890000001,-122.667389,0
			48.732197,-122.668159,0
			48.7318800000001,-122.6689,0
			48.731956,-122.669151,0
			48.7319110000002,-122.669395,0
			48.7318800000001,-122.66954,0
			48.7318730000001,-122.669624,0
			48.7318150000001,-122.670265,0
			48.7316280000001,-122.670868,0
			48.7316820000001,-122.671532,0
			48.731632,-122.672241,0
			48.7317770000001,-122.672836,0
			48.7322270000001,-122.673073,0
			48.7326660000002,-122.673363,0
			48.7333340000002,-122.673447,0
			48.7338910000001,-122.673447,0
			48.7341650000002,-122.673332,0
			48.7344440000002,-122.673332,0
			48.7347220000001,-122.673058,0
			48.7350010000001,-122.673058,0
			48.735554,-122.67308,0
			48.7358320000001,-122.673058,0
			48.736946,-122.672501,0
			48.7372210000001,-122.672501,0
			48.7377780000002,-122.672112,0
			48.7381100000001,-122.672195,0
			48.7386090000002,-122.672226,0
			48.738888,-122.672058,0
			48.7397230000001,-122.671761,0
			48.7402570000001,-122.671562,0
			48.7407720000001,-122.671028,0
			48.7413370000001,-122.670715,0
			48.741695,-122.670624,0
			48.7425380000002,-122.670509,0
			48.7430840000001,-122.670273,0
			48.743603,-122.670006,0
			48.7441060000001,-122.669724,0
			48.7446100000002,-122.669449,0
			48.7451170000001,-122.669167,0
			48.745617,-122.668877,0
			48.7460860000001,-122.668549,0
			48.746544,-122.668182,0
			48.747036,-122.667824,0
			48.7475740000002,-122.667503,0
			48.7481230000001,-122.667191,0
			48.7486110000002,-122.666809,0
			48.749084,-122.666397,0
			48.7495460000001,-122.665993,0
			48.7497980000001,-122.665352,0
			48.7502480000001,-122.664864,0
			48.7506070000001,-122.664314,0
			48.7508770000001,-122.664101,0
			48.7515300000001,-122.663597,0
			48.7517970000001,-122.663353,0
			48.7522350000002,-122.662697,0
			48.7528110000002,-122.662086,0
			48.753178,-122.661743,0
			48.7535820000001,-122.661423,0
			48.7539560000001,-122.661209,0
			48.7544140000001,-122.660843,0
			48.7549210000001,-122.66053,0
			48.755428,-122.66021,0
			48.7558630000001,-122.659721,0
			48.7563740000001,-122.659264,0
			48.7569690000001,-122.658936,0
			48.7574650000001,-122.658722,0
			48.7579800000001,-122.658615,0
			48.7584610000001,-122.658287,0
			48.758945,-122.658127,0
			48.759441,-122.657722,0
			48.7597690000002,-122.657639,0
			48.7604480000001,-122.657372,0
			48.7609750000001,-122.657295,0
			48.7615390000001,-122.657066,0
			48.7621730000001,-122.656975,0
			48.762642,-122.656769,0
			48.7631490000001,-122.65667,0
			48.763653,-122.656395,0
			48.7641560000001,-122.65612,0
			48.7646520000001,-122.655838,0
			48.7651440000001,-122.655388,0
			48.7655720000002,-122.655182,0
			48.7659570000001,-122.654747,0
			48.7662580000001,-122.654366,0
			48.766781,-122.653893,0
			48.7672230000002,-122.653336,0
			48.7672200000001,-122.653137,0
			48.767502,-122.652779,0
			48.7676660000001,-122.652496,0
			48.7680550000001,-122.652084,0
			48.7685550000001,-122.651779,0
			48.7687230000001,-122.651581,0
			48.7687190000001,-122.651474,0
			48.7688870000002,-122.650696,0
			48.7705570000002,-122.649719,0
			48.770832,-122.649719,0
			48.7711110000002,-122.649445,0
			48.7713890000001,-122.649445,0
			48.7722210000002,-122.648613,0
			48.7725560000002,-122.648476,0
			48.7733350000001,-122.648056,0
			48.7736130000001,-122.648056,0
			48.7738880000001,-122.647781,0
			48.774261,-122.647583,0
			48.7747960000001,-122.647545,0
			48.7752760000002,-122.647446,0
			48.7755550000002,-122.647499,0
			48.7758330000001,-122.647499,0
			48.776279,-122.647636,0
			48.7766690000001,-122.648056,0
			48.778168,-122.64875,0
			48.778557,-122.649277,0
			48.7784460000001,-122.650055,0
			48.7777480000001,-122.650742,0
			48.7769430000001,-122.651108,0
			48.7766690000001,-122.65139,0
			48.7766690000001,-122.651665,0
			48.7763900000002,-122.651947,0
			48.7763900000002,-122.652496,0
			48.7761120000001,-122.652779,0
			48.7761120000001,-122.653053,0
			48.7750020000001,-122.654167,0
			48.774166,-122.654167,0
			48.7738880000001,-122.654442,0
			48.7733350000001,-122.654442,0
			48.7727780000001,-122.654999,0
			48.7727780000001,-122.655281,0
			48.7730560000002,-122.655914,0
			48.7733350000001,-122.65667,0
			48.7736090000001,-122.656471,0
			48.774166,-122.656395,0
			48.774166,-122.656281,0
			48.7746660000001,-122.656059,0
			48.7747230000001,-122.655861,0
			48.7751120000001,-122.655556,0
			48.7753330000001,-122.655144,0
			48.7755010000001,-122.654778,0
			48.7769430000001,-122.653893,0
			48.7777790000002,-122.653305,0
			48.778057,-122.653442,0
			48.7782780000001,-122.653358,0
			48.7783320000001,-122.653252,0
			48.7784420000001,-122.652809,0
			48.7786100000002,-122.651947,0
			48.7786100000002,-122.651497,0
			48.7788890000002,-122.651108,0
			48.7794460000001,-122.650558,0
			48.7794460000001,-122.650276,0
			48.779499,-122.649803,0
			48.779499,-122.649529,0
			48.7796630000001,-122.64917,0
			48.7796100000001,-122.648888,0
			48.7796630000001,-122.648613,0
			48.7795520000001,-122.64814,0
			48.7794950000001,-122.64753,0
			48.7807770000001,-122.6465,0
			48.7819440000002,-122.646057,0
			48.7822760000001,-122.645973,0
			48.7828600000001,-122.646187,0
			48.7833440000002,-122.646378,0
			48.783821,-122.646614,0
			48.7842520000002,-122.646904,0
			48.7846680000001,-122.647194,0
			48.785015,-122.647575,0
			48.7851410000002,-122.648064,0
			48.7852820000001,-122.648628,0
			48.7852780000001,-122.64917,0
			48.7855570000002,-122.649445,0
			48.7855570000002,-122.650002,0
			48.7857780000001,-122.65036,0
			48.7856670000002,-122.650833,0
			48.7855570000002,-122.651108,0
			48.7855570000002,-122.65139,0
			48.7853890000001,-122.652496,0
			48.7853320000002,-122.65377,0
			48.7852780000001,-122.654999,0
			48.7850800000001,-122.655304,0
			48.7849390000002,-122.655655,0
			48.7850000000001,-122.656113,0
			48.7850000000001,-122.656387,0
			48.7852780000001,-122.65667,0
			48.7855190000002,-122.656982,0
			48.7857020000001,-122.657181,0
			48.7862850000001,-122.657242,0
			48.786732,-122.657059,0
			48.7869680000002,-122.657349,0
			48.7868040000001,-122.65789,0
			48.786507,-122.658249,0
			48.786438,-122.658669,0
			48.7866750000001,-122.659126,0
			48.7869450000001,-122.659576,0
			48.7872120000001,-122.660034,0
			48.787449,-122.660484,0
			48.787716,-122.660843,0
			48.788055,-122.66111,0
			48.7883910000002,-122.661392,0
			48.788555,-122.661942,0
			48.7881660000002,-122.662224,0
			48.788055,-122.662498,0
			48.7891650000001,-122.663612,0
			48.7887190000001,-122.664444,0
			48.7886120000001,-122.665001,0
			48.7886120000001,-122.665833,0
			48.788334,-122.666115,0
			48.7884980000001,-122.666946,0
			48.788334,-122.667419,0
			48.7882770000001,-122.668053,0
			48.78772,-122.66925,0
			48.7882650000002,-122.670433,0
			48.788334,-122.671669,0
			48.7886120000001,-122.671944,0
			48.7891650000001,-122.671944,0
			48.7894440000001,-122.671669,0
			48.7897220000002,-122.671669,0
			48.791389,-122.669998,0
			48.7919430000001,-122.669998,0
			48.7927780000001,-122.67083,0
			48.7927780000001,-122.671387,0
			48.7930560000001,-122.671669,0
			48.7930560000001,-122.672775,0
			48.7927780000001,-122.673058,0
			48.7927780000001,-122.673332,0
			48.7922210000002,-122.673889,0
			48.7922210000002,-122.674164,0
			48.7919430000001,-122.674446,0
			48.7925000000001,-122.675003,0
			48.7925000000001,-122.675278,0
			48.7927780000001,-122.675552,0
			48.7927780000001,-122.675835,0
			48.7930560000001,-122.676109,0
			48.7930560000001,-122.676666,0
			48.7933350000001,-122.676941,0
			48.7933350000001,-122.677223,0
			48.7936100000001,-122.677498,0
			48.7936100000001,-122.67778,0
			48.794167,-122.678337,0
			48.794167,-122.678612,0
			48.794998,-122.679443,0
			48.7950550000002,-122.679642,0
			48.7953340000001,-122.679726,0
			48.795498,-122.679306,0
			48.7954410000001,-122.678864,0
			48.795444,-122.678055,0
			48.7956660000001,-122.677361,0
			48.796391,-122.677223,0
			48.7966650000001,-122.677223,0
			48.797222,-122.67778,0
			48.7975010000002,-122.67778,0
			48.7980540000001,-122.678337,0
			48.798332,-122.678337,0
			48.7991680000001,-122.679169,0
			48.7991680000001,-122.679726,0
			48.7999990000001,-122.680557,0
			48.8002780000001,-122.680557,0
			48.8016660000002,-122.681946,0
			48.8016660000002,-122.68222,0
			48.8018650000001,-122.682419,0
			48.8022230000001,-122.682777,0
			48.8022230000001,-122.683334,0
			48.8018420000002,-122.683716,0
			48.8011090000001,-122.684448,0
			48.8011090000001,-122.686386,0
			48.8013880000001,-122.686668,0
			48.8013880000001,-122.686943,0
			48.8013840000002,-122.687645,0
			48.8013080000001,-122.688255,0
			48.8011050000001,-122.688866,0
			48.8008730000001,-122.689476,0
			48.8007660000002,-122.690147,0
			48.8005680000001,-122.690765,0
			48.8004490000001,-122.691422,0
			48.800556,-122.691978,0
			48.800503,-122.692833,0
			48.8005830000001,-122.693848,0
			48.8006630000002,-122.694275,0
			48.8010290000001,-122.694771,0
			48.8013800000002,-122.695267,0
			48.8017430000002,-122.69574,0
			48.802128,-122.696167,0
			48.8024790000001,-122.696617,0
			48.8027760000001,-122.69709,0
			48.8030400000002,-122.697578,0
			48.803253,-122.698074,0
			48.8033330000001,-122.698608,0
			48.8036610000001,-122.698906,0
			48.8036120000001,-122.699165,0
			48.803055,-122.699722,0
			48.803055,-122.699997,0
			48.8025020000001,-122.700554,0
			48.8025020000001,-122.701385,0
			48.8022230000001,-122.701668,0
			48.802246,-122.702522,0
			48.8019600000002,-122.702789,0
			48.801945,-122.703331,0
			48.8016660000002,-122.703613,0
			48.8016660000002,-122.70417,0
			48.8011090000001,-122.70472,0
			48.8008350000002,-122.70472,0
			48.800556,-122.705002,0
			48.800556,-122.705276,0
			48.8002780000001,-122.705559,0
			48.7999990000001,-122.705559,0
			48.799446,-122.705559,0
			48.7990610000001,-122.705299,0
			48.7987400000001,-122.705132,0
			48.79845,-122.704948,0
			48.798214,-122.70472,0
			48.7979850000001,-122.704468,0
			48.7977410000001,-122.704231,0
			48.7974590000001,-122.704002,0
			48.7971310000001,-122.703796,0
			48.7967610000001,-122.703598,0
			48.7963640000001,-122.7034,0
			48.7958870000001,-122.703384,0
			48.7953680000001,-122.703484,0
			48.794811,-122.703529,0
			48.7942200000002,-122.703392,0
			48.793594,-122.703339,0
			48.792969,-122.703262,0
			48.7924310000001,-122.703018,0
			48.7919650000001,-122.702652,0
			48.7915380000001,-122.702225,0
			48.7911190000001,-122.701759,0
			48.7907330000001,-122.701256,0
			48.7904280000001,-122.700684,0
			48.79015,-122.700081,0
			48.7897760000002,-122.699631,0
			48.789276,-122.699532,0
			48.7887920000001,-122.699722,0
			48.7883260000001,-122.700012,0
			48.7878680000001,-122.700348,0
			48.7875250000001,-122.70079,0
			48.787224,-122.701294,0
			48.7869420000002,-122.70182,0
			48.7866780000002,-122.702354,0
			48.7864760000002,-122.702911,0
			48.7863770000001,-122.703522,0
			48.7862740000001,-122.704132,0
			48.786148,-122.704742,0
			48.7860790000001,-122.705368,0
			48.7859690000001,-122.705978,0
			48.7858730000002,-122.706604,0
			48.7858960000001,-122.707237,0
			48.7860530000002,-122.707832,0
			48.786144,-122.708466,0
			48.7862820000001,-122.709068,0
			48.7864570000002,-122.709648,0
			48.7868040000001,-122.710136,0
			48.7874340000002,-122.710045,0
			48.7883870000002,-122.709869,0
			48.78878,-122.710503,0
			48.7891460000001,-122.711029,0
			48.7898060000002,-122.711189,0
			48.7904930000001,-122.711044,0
			48.7912180000001,-122.711052,0
			48.7919430000001,-122.711388,0
			48.7925000000001,-122.711388,0
			48.7947240000001,-122.711502,0
			48.794998,-122.711388,0
			48.7952770000001,-122.711388,0
			48.7957230000002,-122.711334,0
			48.7962610000001,-122.711189,0
			48.7968940000001,-122.711266,0
			48.7987370000001,-122.711105,0
			48.7989850000001,-122.711151,0
			48.7992860000001,-122.711151,0
			48.7996410000002,-122.711113,0
			48.8000260000001,-122.710953,0
			48.8004230000002,-122.710999,0
			48.8009030000001,-122.710876,0
			48.801361,-122.710609,0
			48.8017960000001,-122.710533,0
			48.8022960000001,-122.710449,0
			48.8027270000001,-122.71035,0
			48.803276,-122.710258,0
			48.8037990000001,-122.71032,0
			48.804367,-122.710281,0
			48.8049550000002,-122.710274,0
			48.8055570000001,-122.710129,0
			48.806198,-122.710129,0
			48.8068960000001,-122.71006,0
			48.807598,-122.709824,0
			48.8082350000001,-122.709946,0
			48.8088720000001,-122.7099,0
			48.809444,-122.709747,0
			48.8097230000002,-122.709724,0
			48.8108330000002,-122.709724,0
			48.8111110000001,-122.709442,0
			48.8136100000001,-122.709442,0
			48.8149990000001,-122.709389,0
			48.8152770000002,-122.709305,0
			48.8158190000001,-122.709366,0
			48.8164370000001,-122.709198,0
			48.8170890000002,-122.709282,0
			48.8177640000001,-122.70948,0
			48.818562,-122.709541,0
			48.8191220000002,-122.709808,0
			48.8197860000002,-122.709831,0
			48.820477,-122.710052,0
			48.8212590000001,-122.710236,0
			48.822006,-122.710388,0
			48.8227620000001,-122.710556,0
			48.8235360000002,-122.710579,0
			48.824413,-122.710686,0
			48.825336,-122.710922,0
			48.825722,-122.711807,0
			48.8260000000001,-122.712532,0
			48.8263930000001,-122.713554,0
			48.8263890000001,-122.714165,0
			48.8264470000001,-122.715225,0
			48.8264580000002,-122.715782,0
			48.8262210000001,-122.717613,0
			48.826336,-122.718719,0
			48.825832,-122.71917,0
			48.8252750000001,-122.71936,0
			48.825001,-122.719719,0
			48.82478,-122.720169,0
			48.825226,-122.721001,0
			48.8271140000001,-122.720528,0
			48.8274990000002,-122.71917,0
			48.8271640000002,-122.716232,0
			48.8276100000001,-122.712357,0
			48.8286090000001,-122.711838,0
			48.8292240000001,-122.711975,0
			48.8296470000001,-122.712135,0
			48.8301660000002,-122.712265,0
			48.830677,-122.712502,0
			48.8312190000001,-122.712494,0
			48.8318330000001,-122.712608,0
			48.8324280000001,-122.712769,0
			48.8330650000001,-122.712723,0
			48.8337140000001,-122.713058,0
			48.83437,-122.713058,0
			48.8350140000001,-122.713066,0
			48.8356400000001,-122.713158,0
			48.8362310000002,-122.713326,0
			48.8368150000002,-122.713478,0
			48.8373870000001,-122.713593,0
			48.8379480000002,-122.713654,0
			48.838425,-122.713882,0
			48.8388630000002,-122.714157,0
			48.8392220000001,-122.714195,0
			48.8395000000001,-122.71431,0
			48.8400000000001,-122.714722,0
			48.8402790000001,-122.714996,0
			48.8410070000001,-122.716301,0
			48.8410610000001,-122.716751,0
			48.8408050000001,-122.718864,0
			48.839722,-122.721115,0
			48.8399470000002,-122.721672,0
			48.8405000000001,-122.722313,0
			48.8410070000001,-122.722397,0
			48.8419460000002,-122.722778,0
			48.8419460000002,-122.722504,0
			48.8417240000001,-122.720909,0
			48.8411100000001,-122.720001,0
			48.8415570000001,-122.718697,0
			48.8416100000001,-122.718307,0
			48.841667,-122.717781,0
			48.841667,-122.717499,0
			48.8419420000002,-122.716141,0
			48.8422240000001,-122.716003,0
			48.8427770000002,-122.715858,0
			48.844166,-122.71611,0
			48.8444940000002,-122.716362,0
			48.844791,-122.716476,0
			48.8450390000001,-122.716644,0
			48.8453370000001,-122.716751,0
			48.8455660000002,-122.716957,0
			48.845802,-122.71701,0
			48.8462070000001,-122.717033,0
			48.8464970000002,-122.717178,0
			48.8467900000001,-122.71759,0
			48.8471220000002,-122.717651,0
			48.8476750000001,-122.718063,0
			48.848106,-122.718369,0
			48.8484800000001,-122.718636,0
			48.8489420000001,-122.718826,0
			48.8494150000002,-122.719185,0
			48.8495790000001,-122.719444,0
			48.8500060000001,-122.719917,0
			48.8502660000001,-122.72023,0
			48.850639,-122.720512,0
			48.8510360000002,-122.721001,0
			48.8514600000001,-122.721352,0
			48.8518450000001,-122.721764,0
			48.8520360000002,-122.722282,0
			48.8524130000001,-122.722656,0
			48.852726,-122.723175,0
			48.8530540000002,-122.723694,0
			48.8531950000001,-122.72422,0
			48.8536,-122.724609,0
			48.8538860000001,-122.725098,0
			48.854156,-122.725876,0
			48.8544080000001,-122.726349,0
			48.8545490000001,-122.726738,0
			48.854725,-122.727303,0
			48.8550000000001,-122.727798,0
			48.855236,-122.728317,0
			48.8553200000001,-122.728905,0
			48.855515,-122.729469,0
			48.85556,-122.730087,0
			48.8556250000001,-122.730705,0
			48.8558080000001,-122.731293,0
			48.8559340000001,-122.731903,0
			48.8561250000001,-122.73246,0
			48.8563770000001,-122.732986,0
			48.8565750000002,-122.733536,0
			48.8566820000001,-122.734138,0
			48.8568380000001,-122.734734,0
			48.856998,-122.735321,0
			48.8571890000002,-122.735893,0
			48.8572650000001,-122.736519,0
			48.8574600000001,-122.737106,0
			48.8575360000001,-122.737717,0
			48.8577000000002,-122.738281,0
			48.8578910000002,-122.738808,0
			48.85817,-122.739471,0
			48.8582230000001,-122.739914,0
			48.8583910000002,-122.740196,0
			48.858555,-122.740555,0
			48.8586690000001,-122.741081,0
			48.8588910000001,-122.741386,0
			48.8588910000001,-122.741669,0
			48.8591650000001,-122.741943,0
			48.8591650000001,-122.7425,0
			48.8594440000001,-122.742775,0
			48.8594440000001,-122.743889,0
			48.8597220000001,-122.744164,0
			48.8597220000001,-122.74472,0
			48.8600010000001,-122.745003,0
			48.8600010000001,-122.745552,0
			48.860279,-122.745834,0
			48.8605540000001,-122.747223,0
			48.8608320000001,-122.74778,0
			48.8610530000001,-122.747948,0
			48.8612210000002,-122.74839,0
			48.8622210000001,-122.749443,0
			48.8631670000001,-122.750168,0
			48.8633350000001,-122.750275,0
			48.8636090000001,-122.750557,0
			48.8636090000001,-122.750832,0
			48.864723,-122.751945,0
			48.8650020000001,-122.751945,0
			48.8652760000002,-122.75222,0
			48.8652760000002,-122.752502,0
			48.8640560000001,-122.754448,0
			48.8637770000001,-122.754997,0
			48.8633350000001,-122.756111,0
			48.862778,-122.756943,0
			48.8622210000001,-122.7575,0
			48.8616680000001,-122.757668,0
			48.8601680000001,-122.7565,0
			48.860058,-122.756943,0
			48.8598900000002,-122.757225,0
			48.8598370000001,-122.757919,0
			48.860058,-122.758278,0
			48.8603360000001,-122.758636,0
			48.860779,-122.758949,0
			48.8629530000001,-122.758804,0
			48.8636630000001,-122.757057,0
			48.864609,-122.755859,0
			48.8648870000001,-122.755554,0
			48.864944,-122.75528,0
			48.865219,-122.754585,0
			48.8659970000001,-122.753395,0
			48.868336,-122.755753,0
			48.8688890000001,-122.756416,0
			48.869446,-122.7575,0
			48.8697240000001,-122.758057,0
			48.870277,-122.758888,0
			48.8705560000002,-122.759529,0
			48.8711130000001,-122.760834,0
			48.871387,-122.761108,0
			48.8716660000001,-122.762222,0
			48.8726120000002,-122.763695,0
			48.8731650000001,-122.764252,0
			48.8733330000001,-122.764725,0
			48.8734440000001,-122.764885,0
			48.873611,-122.764999,0
			48.8737220000002,-122.765442,0
			48.8738900000002,-122.765556,0
			48.8740010000001,-122.765915,0
			48.8741680000001,-122.766113,0
			48.8742220000001,-122.766472,0
			48.874779,-122.76722,0
			48.8752780000001,-122.768059,0
			48.8754460000002,-122.768333,0
			48.8755570000001,-122.768608,0
			48.8757780000001,-122.768806,0
			48.8763890000002,-122.769722,0
			48.8765560000002,-122.769806,0
			48.8766670000001,-122.769997,0
			48.8772240000002,-122.771667,0
			48.877499,-122.771942,0
			48.877834,-122.772308,0
			48.878334,-122.773056,0
			48.8785550000002,-122.773331,0
			48.8788870000001,-122.773888,0
			48.8788870000001,-122.77417,0
			48.8791660000001,-122.774445,0
			48.8794170000001,-122.774826,0
			48.879665,-122.775276,0
			48.8798870000001,-122.775742,0
			48.880043,-122.776253,0
			48.8802830000001,-122.776711,0
			48.8805540000002,-122.777138,0
			48.880833,-122.777557,0
			48.8811070000001,-122.777985,0
			48.881359,-122.778419,0
			48.8815540000002,-122.7789,0
			48.8817290000001,-122.779404,0
			48.8819540000001,-122.779877,0
			48.8822170000001,-122.780334,0
			48.8824690000002,-122.780807,0
			48.8826870000001,-122.781296,0
			48.8828960000002,-122.781784,0
			48.8831020000002,-122.782272,0
			48.8833240000001,-122.782753,0
			48.8835530000002,-122.783241,0
			48.8838350000001,-122.783699,0
			48.8841020000002,-122.784172,0
			48.8843610000001,-122.784653,0
			48.8846050000002,-122.785156,0
			48.8848570000001,-122.78566,0
			48.88517,-122.786148,0
			48.8854870000001,-122.786644,0
			48.885838,-122.787117,0
			48.886196,-122.787582,0
			48.8865660000001,-122.78804,0
			48.8869590000001,-122.78846,0
			48.8873790000002,-122.788857,0
			48.887821,-122.78923,0
			48.8882480000001,-122.789627,0
			48.8888210000001,-122.789932,0
			48.8895570000001,-122.790268,0
			48.8898810000001,-122.79071,0
			48.8901860000001,-122.791374,0
			48.8905490000001,-122.791656,0
			48.8910260000001,-122.792198,0
			48.8912580000002,-122.792694,0
			48.8917730000001,-122.793083,0
			48.8922650000002,-122.793503,0
			48.8927840000001,-122.793869,0
			48.893356,-122.794144,0
			48.893944,-122.794273,0
			48.8944630000001,-122.794075,0
			48.8946190000001,-122.793777,0
			48.8948940000001,-122.793526,0
			48.8951720000002,-122.792641,0
			48.895241,-122.792,0
			48.8952600000002,-122.791779,0
			48.8952980000001,-122.791344,0
			48.8952060000001,-122.790764,0
			48.8952940000001,-122.790184,0
			48.8952480000001,-122.789375,0
			48.895069,-122.787163,0
			48.8948550000001,-122.786575,0
			48.8947410000001,-122.785995,0
			48.8947180000001,-122.785416,0
			48.89473,-122.784843,0
			48.8948020000001,-122.784286,0
			48.8950040000001,-122.783768,0
			48.8952450000002,-122.783272,0
			48.895447,-122.78273,0
			48.8955880000001,-122.78215,0
			48.8958320000001,-122.781631,0
			48.8961110000001,-122.781128,0
			48.8964,-122.78064,0
			48.896744,-122.780312,0
			48.896667,-122.779999,0
			48.897072,-122.779396,0
			48.897835,-122.778252,0
			48.899887,-122.775749,0
			48.9002530000001,-122.775124,0
			48.9007380000001,-122.774612,0
			48.9012600000001,-122.774185,0
			48.9017750000001,-122.773941,0
			48.9022180000002,-122.773323,0
			48.9026530000001,-122.773041,0
			48.9030650000001,-122.77256,0
			48.9034690000001,-122.772079,0
			48.9038510000001,-122.771599,0
			48.9041860000001,-122.771095,0
			48.9045370000002,-122.770607,0
			48.9049380000001,-122.770172,0
			48.9051480000001,-122.769676,0
			48.90554,-122.769157,0
			48.905804,-122.768639,0
			48.906055,-122.768127,0
			48.9063680000002,-122.767693,0
			48.9066580000002,-122.767258,0
			48.9068980000001,-122.766808,0
			48.9070400000002,-122.766304,0
			48.9070850000002,-122.766037,0
			48.9071690000002,-122.765556,0
			48.907223,-122.765274,0
			48.907223,-122.762779,0
			48.9071120000001,-122.762497,0
			48.907223,-122.762222,0
			48.9075010000001,-122.761391,0
			48.9075010000001,-122.761108,0
			48.9077760000001,-122.760834,0
			48.9078900000002,-122.759163,0
			48.9079480000001,-122.758804,0
			48.907833,-122.758614,0
			48.9078900000002,-122.758331,0
			48.908054,-122.758057,0
			48.9088900000001,-122.755363,0
			48.9091680000002,-122.754753,0
			48.9100000000001,-122.753334,0
			48.910553,-122.752251,0
			48.911057,-122.75145,0
			48.9113270000001,-122.751381,0
			48.9117660000001,-122.750938,0
			48.9120980000002,-122.750511,0
			48.912453,-122.75013,0
			48.9132800000001,-122.749298,0
			48.9154430000002,-122.747993,0
			48.9158400000002,-122.747627,0
			48.9162790000001,-122.747398,0
			48.9168470000002,-122.747223,0
			48.9173890000001,-122.747055,0
			48.917919,-122.746948,0
			48.9184490000002,-122.746666,0
			48.9189950000001,-122.746399,0
			48.919563,-122.746185,0
			48.9201930000001,-122.746094,0
			48.9208180000001,-122.745979,0
			48.9214400000001,-122.745857,0
			48.9220730000002,-122.745834,0
			48.9227100000002,-122.745667,0
			48.9233470000001,-122.745667,0
			48.9239850000001,-122.74575,0
			48.9246220000001,-122.745834,0
			48.925255,-122.745583,0
			48.9258350000001,-122.74575,0
			48.926502,-122.745529,0
			48.9294430000002,-122.745941,0
			48.929722,-122.746391,0
			48.9300000000001,-122.746391,0
			48.930279,-122.746666,0
			48.9305570000001,-122.746666,0
			48.9311100000001,-122.747223,0
			48.9313890000001,-122.747223,0
			48.9327770000002,-122.748611,0
			48.9330560000001,-122.748611,0
			48.933887,-122.749443,0
			48.9341660000002,-122.749443,0
			48.9355550000001,-122.750832,0
			48.9355550000001,-122.751114,0
			48.9363900000001,-122.751945,0
			48.9363900000001,-122.75222,0
			48.9366680000001,-122.752502,0
			48.9366680000001,-122.752777,0
			48.936943,-122.753052,0
			48.936943,-122.753334,0
			48.9375000000002,-122.753891,0
			48.9375000000002,-122.754166,0
			48.937778,-122.754448,0
			48.937778,-122.754723,0
			48.9379430000002,-122.754997,0
			48.9380570000001,-122.75528,0
			48.9381680000002,-122.755638,0
			48.9383320000001,-122.755836,0
			48.9383890000001,-122.756195,0
			48.9386100000002,-122.756386,0
			48.9386100000002,-122.757195,0
			48.9391670000001,-122.758057,0
			48.9394450000001,-122.75972,0
			48.9394450000001,-122.760002,0
			48.9396970000002,-122.760597,0
			48.9398650000001,-122.761253,0
			48.9400330000001,-122.761902,0
			48.9403190000002,-122.762489,0
			48.9406320000001,-122.763069,0
			48.9408990000002,-122.763687,0
			48.9411200000002,-122.76432,0
			48.9413260000002,-122.764954,0
			48.94138,-122.765602,0
			48.9412230000002,-122.766304,0
			48.9413870000001,-122.76667,0
			48.9413870000001,-122.766945,0
			48.9416660000001,-122.76889,0
			48.9416660000001,-122.770279,0
			48.9405560000001,-122.771385,0
			48.940502,-122.771637,0
			48.9399450000001,-122.772224,0
			48.939777,-122.772385,0
			48.9388890000001,-122.773613,0
			48.9387780000002,-122.773972,0
			48.9386100000002,-122.774445,0
			48.9383890000001,-122.774956,0
			48.9381940000002,-122.775421,0
			48.9378240000001,-122.775894,0
			48.9377400000001,-122.776329,0
			48.9374470000002,-122.776733,0
			48.9371530000002,-122.777145,0
			48.9367830000002,-122.777519,0
			48.9364320000001,-122.777946,0
			48.9362530000002,-122.778564,0
			48.9358900000001,-122.779068,0
			48.9355810000002,-122.779572,0
			48.935268,-122.780083,0
			48.9349250000001,-122.780594,0
			48.9346080000001,-122.781105,0
			48.934448,-122.781754,0
			48.9339980000001,-122.782356,0
			48.933617,-122.78289,0
			48.9333720000002,-122.783539,0
			48.9331970000001,-122.784241,0
			48.9329570000002,-122.784859,0
			48.9327510000002,-122.785492,0
			48.9324870000002,-122.786072,0
			48.9321590000002,-122.786591,0
			48.9317050000001,-122.787033,0
			48.931633,-122.788559,0
			48.9314990000001,-122.78875,0
			48.9316140000002,-122.789139,0
			48.93161,-122.789383,0
			48.9316220000002,-122.790054,0
			48.9316140000002,-122.790451,0
			48.9316640000001,-122.790794,0
			48.9316710000001,-122.791138,0
			48.9316640000001,-122.791473,0
			48.9316060000001,-122.791801,0
			48.931545,-122.792091,0
			48.9315720000001,-122.792305,0
			48.9315680000001,-122.792725,0
			48.9317550000002,-122.793327,0
			48.931988,-122.794029,0
			48.9322200000001,-122.794708,0
			48.932423,-122.795372,0
			48.9325140000001,-122.796066,0
			48.9326130000001,-122.79673,0
			48.9327930000001,-122.797318,0
			48.9329910000001,-122.797852,0
			48.9330860000002,-122.798378,0
			48.933205,-122.798843,0
			48.9333610000002,-122.799248,0
			48.933525,-122.799614,0
			48.9335980000001,-122.799995,0
			48.9336280000001,-122.800369,0
			48.9336970000001,-122.800697,0
			48.933834,-122.800964,0
			48.9339410000002,-122.801224,0
			48.9340670000001,-122.80146,0
			48.934132,-122.80172,0
			48.9341660000002,-122.801941,0
			48.9341660000002,-122.802498,0
			48.934444,-122.80278,0
			48.934444,-122.803337,0
			48.9346660000002,-122.804497,0
			48.9350010000002,-122.805275,0
			48.935261,-122.805672,0
			48.935463,-122.806068,0
			48.9355390000001,-122.806541,0
			48.9355660000002,-122.807045,0
			48.9356230000001,-122.807526,0
			48.9357760000001,-122.807976,0
			48.9358940000001,-122.808434,0
			48.936058,-122.808868,0
			48.936157,-122.809334,0
			48.9362980000002,-122.809784,0
			48.9363750000002,-122.810295,0
			48.9364170000001,-122.810829,0
			48.9365270000001,-122.811363,0
			48.936687,-122.811882,0
			48.9368900000001,-122.812378,0
			48.9370460000001,-122.812859,0
			48.9372330000001,-122.813316,0
			48.9374200000001,-122.813751,0
			48.9375460000001,-122.814201,0
			48.9377060000002,-122.814613,0
			48.9377980000001,-122.815033,0
			48.937889,-122.815422,0
			48.937939,-122.815811,0
			48.9380190000001,-122.816162,0
			48.938068,-122.816505,0
			48.9381410000001,-122.816811,0
			48.9382590000001,-122.81707,0
			48.9382820000002,-122.817505,0
			48.9383320000001,-122.81778,0
			48.9386100000002,-122.818054,0
			48.9391670000001,-122.819725,0
			48.9391670000001,-122.82,0
			48.9392930000002,-122.820122,0
			48.9394720000001,-122.820374,0
			48.939693,-122.820625,0
			48.9399190000001,-122.8209,0
			48.9401360000001,-122.82122,0
			48.940414,-122.821526,0
			48.9407350000001,-122.821838,0
			48.9410970000001,-122.822136,0
			48.94149,-122.822456,0
			48.9419440000001,-122.822754,0
			48.942482,-122.822983,0
			48.9431080000002,-122.82309,0
			48.9437680000001,-122.823212,0
			48.9444350000002,-122.823196,0
			48.9450840000001,-122.823166,0
			48.945522,-122.822952,0
			48.9458430000001,-122.82283,0
			48.9458850000001,-122.822762,0
			48.9461670000001,-122.822273,0
			48.946552,-122.821724,0
			48.947052,-122.821419,0
			48.9474790000002,-122.821136,0
			48.947937,-122.820969,0
			48.948467,-122.820808,0
			48.9490130000001,-122.820564,0
			48.9496080000001,-122.820274,0
			48.9501110000002,-122.819992,0
			48.950794,-122.820061,0
			48.951389,-122.819946,0
			48.9519460000001,-122.819504,0
			48.952499,-122.819443,0
			48.9533350000001,-122.819168,0
			48.953609,-122.819168,0
			48.9546170000001,-122.818504,0
			48.9551090000002,-122.818169,0
			48.9555360000001,-122.817795,0
			48.9560050000001,-122.817551,0
			48.9563750000001,-122.817398,0
			48.9568020000001,-122.817001,0
			48.9572600000001,-122.816635,0
			48.957542,-122.81617,0
			48.9579390000002,-122.815819,0
			48.9580800000001,-122.815361,0
			48.9583470000002,-122.814926,0
			48.9587590000002,-122.814468,0
			48.958828,-122.814369,0
			48.959167,-122.813889,0
			48.9599990000001,-122.812225,0
			48.9599990000001,-122.811943,0
			48.9606630000001,-122.811066,0
			48.960835,-122.810837,0
			48.9611820000001,-122.809593,0
			48.9639970000001,-122.807137,0
			48.965,-122.806114,0
			48.9658320000001,-122.805275,0
			48.9659500000001,-122.804848,0
			48.9661100000002,-122.804726,0
			48.9671670000001,-122.803886,0
			48.967499,-122.803612,0
			48.967609,-122.803337,0
			48.9679600000001,-122.802773,0
			48.9684720000002,-122.802261,0
			48.9686970000002,-122.801796,0
			48.9692000000001,-122.801308,0
			48.9696620000001,-122.80088,0
			48.9700130000002,-122.800537,0
			48.9708210000001,-122.799492,0
			48.9714550000001,-122.799088,0
			48.97192,-122.798569,0
			48.9725650000001,-122.798218,0
			48.973217,-122.798019,0
			48.9738540000002,-122.797943,0
			48.9744260000001,-122.797508,0
			48.974949,-122.79718,0
			48.9754220000001,-122.796638,0
			48.9758190000001,-122.796043,0
			48.9759030000001,-122.795433,0
			48.9765630000002,-122.794609,0
			48.9767530000001,-122.794373,0
			48.9771160000001,-122.793922,0
			48.9775310000001,-122.793655,0
			48.9780120000001,-122.793259,0
			48.9784090000001,-122.792946,0
			48.978554,-122.792763,0
			48.9789430000001,-122.792252,0
			48.9794850000002,-122.791939,0
			48.9798130000001,-122.791595,0
			48.979973,-122.791229,0
			48.9799390000001,-122.790855,0
			48.9800990000002,-122.790527,0
			48.9802210000001,-122.790359,0
			48.9802210000001,-122.790085,0
			48.9803310000001,-122.789719,0
			48.980553,-122.78936,0
			48.980999,-122.788612,0
			48.981667,-122.788002,0
			48.9823880000002,-122.787498,0
			48.9824980000001,-122.787224,0
			48.9827770000001,-122.786942,0
			48.9827770000001,-122.786667,0
			48.9830550000001,-122.786392,0
			48.9830550000001,-122.78611,0
			48.9833870000001,-122.785553,0
			48.9836120000001,-122.785278,0
			48.9840010000001,-122.784721,0
			48.9841650000001,-122.784447,0
			48.984108,-122.784164,0
			48.9842760000001,-122.78389,0
			48.9851650000001,-122.782692,0
			48.9852790000001,-122.782501,0
			48.9855540000001,-122.782219,0
			48.9855540000001,-122.781944,0
			48.9866680000001,-122.78083,0
			48.9866680000001,-122.780556,0
			48.986946,-122.780281,0
			48.986946,-122.779999,0
			48.988056,-122.778893,0
			48.9881100000001,-122.778694,0
			48.9883350000002,-122.778053,0
			48.9886090000001,-122.777496,0
			48.989136,-122.776932,0
			48.9891850000002,-122.776642,0
			48.9892960000001,-122.776535,0
			48.9897230000001,-122.776108,0
			48.9897230000001,-122.775833,0
			48.9900020000001,-122.775558,0
			48.9902760000001,-122.775558,0
			48.9911120000001,-122.774719,0
			48.9913900000002,-122.77417,0
			48.9915540000001,-122.773972,0
			48.9915010000001,-122.773766,0
			48.9913900000002,-122.773331,0
			48.991276,-122.771217,0
			48.9897230000001,-122.769165,0
			48.9893880000001,-122.768829,0
			48.989166,-122.768608,0
			48.9882240000001,-122.767944,0
			48.9872740000002,-122.769165,0
			48.9868890000001,-122.769638,0
			48.9868890000001,-122.769997,0
			48.9866680000001,-122.770554,0
			48.9866680000001,-122.770836,0
			48.9869120000001,-122.771263,0
			48.987217,-122.771805,0
			48.987442,-122.772278,0
			48.9873890000001,-122.772636,0
			48.9866680000001,-122.773056,0
			48.9859620000001,-122.774139,0
			48.9858890000002,-122.774254,0
			48.9855500000002,-122.775833,0
			48.9855540000001,-122.776665,0
			48.9855580000001,-122.777138,0
			48.9855000000001,-122.77742,0
			48.9853900000001,-122.777695,0
			48.984722,-122.779442,0
			48.9844440000001,-122.779724,0
			48.9842760000001,-122.780556,0
			48.9841650000001,-122.78083,0
			48.9840010000001,-122.78167,0
			48.983891,-122.781944,0
			48.983891,-122.782219,0
			48.9832230000002,-122.783333,0
			48.9827770000001,-122.784447,0
			48.9802780000001,-122.787498,0
			48.9800000000001,-122.787781,0
			48.9800000000001,-122.788055,0
			48.9797210000002,-122.78833,0
			48.9797210000002,-122.788612,0
			48.979168,-122.789169,0
			48.9788360000001,-122.789253,0
			48.9786110000001,-122.789719,0
			48.9769440000001,-122.790138,0
			48.974724,-122.78833,0
			48.9744450000001,-122.78833,0
			48.9738730000001,-122.787704,0
			48.9735870000001,-122.787537,0
			48.973354,-122.787308,0
			48.9731640000001,-122.78701,0
			48.9730220000001,-122.786621,0
			48.9711110000001,-122.784721,0
			48.9698070000002,-122.78334,0
			48.9686130000002,-122.779999,0
			48.968056,-122.779442,0
			48.967907,-122.77874,0
			48.9677960000001,-122.77816,0
			48.9674420000001,-122.777817,0
			48.9672580000001,-122.777397,0
			48.96698,-122.776596,0
			48.9668240000001,-122.776001,0
			48.966862,-122.775452,0
			48.9667820000002,-122.775024,0
			48.9667020000001,-122.774406,0
			48.9666140000001,-122.773842,0
			48.9663850000002,-122.773361,0
			48.9661140000002,-122.772919,0
			48.9658360000001,-122.772484,0
			48.9655690000002,-122.772064,0
			48.9653510000001,-122.771622,0
			48.9651910000002,-122.771156,0
			48.9650310000001,-122.770714,0
			48.965,-122.770248,0
			48.9648860000001,-122.769798,0
			48.964432,-122.768547,0
			48.964382,-122.76609,0
			48.9641040000001,-122.765381,0
			48.9640080000001,-122.764633,0
			48.9637490000001,-122.764267,0
			48.9634250000001,-122.764084,0
			48.9631920000002,-122.763771,0
			48.9631880000002,-122.763443,0
			48.9630050000001,-122.763145,0
			48.9627950000001,-122.762848,0
			48.9626120000001,-122.762505,0
			48.9624210000001,-122.762146,0
			48.9622230000001,-122.761749,0
			48.9620400000001,-122.76133,0
			48.9619290000001,-122.760857,0
			48.9617840000002,-122.760384,0
			48.9616850000002,-122.759888,0
			48.961666,-122.759354,0
			48.961666,-122.758804,0
			48.961666,-122.75824,0
			48.961662,-122.75766,0
			48.9616010000001,-122.757088,0
			48.9614330000001,-122.756523,0
			48.9613800000001,-122.755943,0
			48.9613000000001,-122.755379,0
			48.9610900000001,-122.754883,0
			48.9608150000001,-122.754417,0
			48.960552,-122.753952,0
			48.9602890000001,-122.753487,0
			48.9600910000001,-122.752983,0
			48.9599990000001,-122.752502,0
			48.9599990000001,-122.75222,0
			48.9597210000002,-122.751945,0
			48.9597210000002,-122.751663,0
			48.9594460000002,-122.751389,0
			48.9594460000002,-122.751114,0
			48.959118,-122.749603,0
			48.9591140000001,-122.748497,0
			48.958893,-122.747551,0
			48.9590030000001,-122.746857,0
			48.9591710000001,-122.746086,0
			48.9593350000001,-122.745552,0
			48.9595340000002,-122.744705,0
			48.9597210000002,-122.743332,0
			48.9599990000001,-122.743057,0
			48.9602780000001,-122.742226,0
			48.9614830000002,-122.740501,0
			48.962227,-122.738579,0
			48.962227,-122.737389,0
			48.9618340000001,-122.736389,0
			48.9619450000002,-122.735275,0
			48.9627760000002,-122.734444,0
			48.9633600000002,-122.734741,0
			48.9638900000002,-122.734581,0
			48.9648900000001,-122.734055,0
			48.9650570000001,-122.734024,0
			48.9658890000002,-122.734116,0
			48.9669460000001,-122.733948,0
			48.9672780000002,-122.734055,0
			48.967613,-122.734055,0
			48.9678880000002,-122.733917,0
			48.9689450000001,-122.734253,0
			48.9693340000001,-122.734222,0
			48.9708330000001,-122.734222,0
			48.9711110000001,-122.734337,0
			48.9715000000001,-122.734474,0
			48.9719430000002,-122.734474,0
			48.9727780000002,-122.733887,0
			48.9722750000001,-122.731949,0
			48.9726100000001,-122.731506,0
			48.972942,-122.731392,0
			48.9732210000002,-122.73278,0
			48.9735530000002,-122.733665,0
			48.9738880000002,-122.735001,0
			48.9742200000001,-122.735641,0
			48.9741670000001,-122.735916,0
			48.9743310000001,-122.736275,0
			48.9746670000001,-122.736748,0
			48.9748340000001,-122.736946,0
			48.9749980000001,-122.737221,0
			48.9751090000001,-122.737503,0
			48.9752770000002,-122.737778,0
			48.9766650000001,-122.739166,0
			48.9769440000001,-122.739166,0
			48.977287,-122.739395,0
			48.977547,-122.739525,0
			48.9778590000001,-122.739586,0
			48.978142,-122.739632,0
			48.9784470000001,-122.739815,0
			48.9788170000001,-122.73983,0
			48.979275,-122.739777,0
			48.979752,-122.73983,0
			48.980106,-122.739761,0
			48.9806630000001,-122.73967,0
			48.9811670000001,-122.739876,0
			48.9816630000001,-122.739769,0
			48.9822120000002,-122.740021,0
			48.9825330000001,-122.740204,0
			48.982983,-122.740738,0
			48.9833410000002,-122.741318,0
			48.9836010000002,-122.741974,0
			48.9837230000002,-122.742363,0
			48.9839550000002,-122.742844,0
			48.984177,-122.743362,0
			48.984402,-122.743881,0
			48.9844890000001,-122.744453,0
			48.984673,-122.744987,0
			48.984718,-122.745552,0
			48.985001,-122.746124,0
			48.9851110000001,-122.74662,0
			48.9851680000002,-122.747269,0
			48.9853780000001,-122.747787,0
			48.9856110000001,-122.74826,0
			48.9857940000001,-122.748779,0
			48.9860800000001,-122.749336,0
			48.9863400000002,-122.749924,0
			48.9866490000001,-122.750473,0
			48.9869610000002,-122.751022,0
			48.9873240000001,-122.751526,0
			48.9877740000001,-122.751938,0
			48.9882350000001,-122.752342,0
			48.9887500000001,-122.752647,0
			48.9893340000001,-122.752914,0
			48.989166,-122.753662,0
			48.98922,-122.753944,0
			48.9891050000001,-122.754356,0
			48.9899980000001,-122.754501,0
			48.9901080000002,-122.755333,0
			48.9911080000001,-122.755386,0
			48.991165,-122.755638,0
			48.9913900000002,-122.755836,0
			48.9916080000001,-122.756248,0
			48.9916270000001,-122.756691,0
			48.991493,-122.757133,0
			48.9913480000001,-122.757591,0
			48.9913180000001,-122.758049,0
			48.991474,-122.75843,0
			48.9915580000001,-122.758636,0
			48.991783,-122.759087,0
			48.9916150000001,-122.759804,0
			48.9915580000001,-122.760948,0
			48.9912260000001,-122.761475,0
			48.9908330000001,-122.76236,0
			48.9908910000001,-122.764168,0
			48.9912800000001,-122.764725,0
			48.9912800000001,-122.764999,0
			48.9911690000002,-122.765442,0
			48.9912800000001,-122.766251,0
			48.9922220000001,-122.766304,0
			48.9924430000001,-122.766029,0
			48.9925000000002,-122.765274,0
			48.992779,-122.764999,0
			48.992779,-122.764725,0
			48.9930570000001,-122.764442,0
			48.9930570000001,-122.763885,0
			48.99361,-122.763336,0
			48.99361,-122.763054,0
			48.9941670000001,-122.76239,0
			48.9949420000001,-122.761948,0
			48.9949990000002,-122.761665,0
			48.9952770000001,-122.761391,0
			48.9958340000002,-122.761108,0
			48.9983330000002,-122.758614,0
			48.9986110000001,-122.758614,0
			48.9988900000001,-122.758331,0
			48.9991680000002,-122.758331,0
			49.0000000000001,-122.757774,0
			49.0005840000001,-122.756294,0
			49.0008200000001,-122.756378,0
			49.0010910000001,-122.756516,0
			49.0013430000002,-122.756706,0
			49.0015870000001,-122.756943,0
			49.0018690000002,-122.757195,0
			49.0021900000001,-122.757446,0
			49.0025330000001,-122.757721,0
			49.0025096010002,-122.757688972,0
			49.002232,-122.757309,0
			49.0014339810002,-122.75642061,0
			49.001190185,-122.756149206,0
			49.0011884330001,-122.755634243,0
			49.0011880010001,-122.755491999,0
			49.001183021,-122.753912735,0
			49.0018387830001,-122.75387446,0
			49.0022844640001,-122.753853025,0
			49.0032920000002,-122.753853,0
			49.003254,-122.73032,0
			49.0031740000002,-122.681751,0
			49.0031740000002,-122.681709,0
			49.0030900000002,-122.631409,0
			49.0029370000001,-122.539215,0
			49.0028341610002,-122.478569003,0
			49.0028300000001,-122.476005,0
			49.002827,-122.473526186,0
			49.0028040000001,-122.459404,0
			49.0028040000001,-122.459175054,0
			49.002726114,-122.459168185,0
			49.0025769780001,-122.459156051,0
			49.0024410000001,-122.459145,0
		</coordinates>
	</polygon>
</kml>
