<?xml version="1.0" encoding="UTF-8"?>
<kml xmlns="http://earth.google.com/kml/2.2">
	<polygon id="USA_GA_Monroe" samplingProbability="1">
		<coordinates>
			32.9526596080001,-83.7111206059999,0
			32.9529914860001,-83.730796813,0
			32.9420700070002,-83.7307128909999,0
			32.9411506660001,-83.731788635,0
			32.9323997510001,-83.7475585939999,0
			32.930561065,-83.7497329709999,0
			32.9245605460001,-83.761146545,0
			32.91627884,-83.774726867,0
			32.914901733,-83.776908874,0
			32.910739898,-83.7856063839999,0
			32.9033508300001,-83.8008270269999,0
			32.9033508300001,-83.801376343,0
			32.9019584670001,-83.8041000359999,0
			32.897338868,-83.8133392329999,0
			32.8913497920001,-83.823112489,0
			32.8812217720002,-83.838836671,0
			32.8710784920001,-83.8562088019999,0
			32.8627891540001,-83.8692169189999,0
			32.8484916690001,-83.892547608,0
			32.8484115600001,-83.902366638,0
			32.8483619700001,-83.9089279179999,0
			32.8486404410001,-83.930770874,0
			32.8486289980002,-83.931861877,0
			32.848522186,-83.9449615489999,0
			32.8484992990001,-83.948226929,0
			32.848861694,-83.959159851,0
			32.848781585,-83.9684371939999,0
			32.8569793690002,-83.96798706,0
			32.8573493960001,-83.9783782969998,0
			32.849151612,-83.9782714849999,0
			32.8489608760001,-84.000106811,0
			32.8488807670001,-84.008850098,0
			32.8491210940002,-84.033416749,0
			32.849399567,-84.0530776979999,0
			32.8496208190001,-84.078201295,0
			32.8493919380001,-84.1011428819999,0
			32.8496208190001,-84.124069214,0
			32.860099793,-84.1242065429999,0
			32.8819503790002,-84.123977662,0
			32.9060897830001,-84.123779298,0
			32.932048797,-84.1230468759999,0
			32.9321403510002,-84.1132125849999,0
			32.931510926,-84.083686829,0
			32.931339264,-84.0541687009999,0
			32.9422607430001,-84.053756714,0
			32.9477310190001,-84.0538406379999,0
			32.9478187560002,-84.043998717,0
			32.955101014,-84.0440978989999,0
			32.9755897520001,-84.043823241,0
			33.0001792920002,-84.0430526729999,0
			33.0015487660002,-84.0430679309999,0
			33.098960876,-84.0416336059998,0
			33.1481208800002,-84.041175842,0
			33.151760102,-84.0412292469999,0
			33.1822509760001,-84.0410766599999,0
			33.1836204530002,-84.041099549,0
			33.1877212530002,-84.0411529539999,0
			33.1895408630001,-84.041175842,0
			33.1995506290002,-84.041313171,0
			33.2027320860001,-84.0413513179998,0
			33.2027511590001,-84.0397033679999,0
			33.2027702330001,-84.036956787,0
			33.2027893060002,-84.0353164679998,0
			33.202838898,-84.029289245,0
			33.2026290890001,-84.0024032599999,0
			33.2026519770001,-83.999656677,0
			33.2023696890002,-83.979911804,0
			33.2021904000002,-83.9464569089999,0
			33.20223999,-83.9409713739999,0
			33.2018508920002,-83.933288574,0
			33.201580047,-83.9102630629999,0
			33.2016487130001,-83.902030945,0
			33.2021904000002,-83.8899688719999,0
			33.2022819520001,-83.8790130609999,0
			33.2022819520001,-83.8784561149999,0
			33.2023010260001,-83.875709534,0
			33.2023086560002,-83.8746185299999,0
			33.2023200990002,-83.8729705799999,0
			33.2018814090001,-83.871871949,0
			33.201900482,-83.8691329949999,0
			33.2019119270001,-83.868026734,0
			33.2019119270001,-83.867477418,0
			33.2010002150002,-83.866912841,0
			33.2000999450001,-83.8663558949999,0
			33.2000999450001,-83.8658065799999,0
			33.2005615240001,-83.865257264,0
			33.2005691520002,-83.8641662599999,0
			33.2005691520002,-83.8636169439999,0
			33.200580598,-83.8625259409999,0
			33.200592041,-83.861427307,0
			33.2005996710001,-83.8608779909999,0
			33.2005996710001,-83.8603286749999,0
			33.2005996710001,-83.8597793569999,0
			33.2001495370002,-83.859230041,0
			33.199699401,-83.858673095,0
			33.1992492680002,-83.8581161489999,0
			33.1992492680002,-83.857566833,0
			33.1988105770001,-83.8564758299999,0
			33.1978988650001,-83.8559112559999,0
			33.1969985970001,-83.8547973639999,0
			33.1969985970001,-83.8542633059999,0
			33.1965484610001,-83.85370636,0
			33.1961021430001,-83.8531494139999,0
			33.1951904300001,-83.8531417839998,0
			33.1947402960001,-83.852592468,0
			33.1947402960001,-83.852043152,0
			33.1952018730001,-83.8514862059999,0
			33.1956596370001,-83.8509521479999,0
			33.1961288460001,-83.8487625129999,0
			33.1961402900002,-83.848213195,0
			33.1966094970002,-83.846031188,0
			33.1970710760001,-83.8454818719999,0
			33.1970787060002,-83.8449325559999,0
			33.1970787060002,-83.8443908689998,0
			33.1961708060001,-83.8438262939998,0
			33.1966285700001,-83.843276977,0
			33.1966285700001,-83.842742919,0
			33.1966400150001,-83.8421859749999,0
			33.1957321180001,-83.8416366569999,0
			33.195281982,-83.841079711,0
			33.1952896120001,-83.840530395,0
			33.1943817150001,-83.839965821,0
			33.1939201360001,-83.840522767,0
			33.1921005250002,-83.839950561,0
			33.1916618350001,-83.838836671,0
			33.1907501220001,-83.838836671,0
			33.1907501220001,-83.8382873529999,0
			33.1898422240001,-83.8377304089998,0
			33.1898498550001,-83.8371810909999,0
			33.1898498550001,-83.8366317749999,0
			33.189861298,-83.8360824589999,0
			33.189861298,-83.835540771,0
			33.188949585,-83.8355331409999,0
			33.1880416870001,-83.8355178829999,0
			33.1871299750001,-83.8355102549999,0
			33.1866798410002,-83.8349533089998,0
			33.185779572,-83.8338470469999,0
			33.185779572,-83.833297729,0
			33.185779572,-83.8327560429998,0
			33.1848793040002,-83.8327407829999,0
			33.1844215400001,-83.8321914669999,0
			33.1844291680002,-83.8310928349999,0
			33.1844406140001,-83.8305358889999,0
			33.1844406140001,-83.8299865709999,0
			33.183528901,-83.829437255,0
			33.1830787650001,-83.8288879399999,0
			33.1830902100001,-83.8277893059999,0
			33.182640077,-83.82723999,0
			33.1821784980002,-83.827781678,0
			33.1817321770001,-83.8272171009999,0
			33.1817321770001,-83.8266830439999,0
			33.1821899410001,-83.8255767819999,0
			33.181751251,-83.8244857779999,0
			33.1813011170001,-83.8239364629999,0
			33.181308747,-83.822837829,0
			33.180400849,-83.822830201,0
			33.1772003170001,-83.823890686,0
			33.1758308410001,-83.8244171149999,0
			33.1749191280001,-83.8244171149999,0
			33.1740112300001,-83.824409485,0
			33.17219162,-83.824386596,0
			33.170829773,-83.8238220219999,0
			33.1699218760002,-83.8243560799999,0
			33.1626319890001,-83.8248367299999,0
			33.1612701430001,-83.8248214719999,0
			33.1603622430001,-83.8242568969999,0
			33.1594505300001,-83.8242568969999,0
			33.1580886840002,-83.823692321,0
			33.1576385500001,-83.8231430049999,0
			33.157180786,-83.8225860589999,0
			33.1562805170001,-83.8220291129999,0
			33.1558303830001,-83.821472167,0
			33.1549186710002,-83.820922851,0
			33.1549301160002,-83.8203659049999,0
			33.1540222160002,-83.8198089589999,0
			33.1540298460001,-83.819267274,0
			33.1535797130001,-83.818710328,0
			33.1526718150001,-83.8181533819999,0
			33.1522216790001,-83.817596435,0
			33.151771545,-83.8170471199999,0
			33.1513214120002,-83.816497802,0
			33.1508712780001,-83.815940858,0
			33.1499595650002,-83.8159332279999,0
			33.1499595650002,-83.815376282,0
			33.14950943,-83.8148269659998,0
			33.1490592960001,-83.81427765,0
			33.1481513980001,-83.8142700199999,0
			33.1472396860001,-83.8142623889999,0
			33.1472320550001,-83.814811707,0
			33.146770478,-83.815345765,0
			33.1463203430002,-83.8159027109999,0
			33.145401002,-83.816436768,0
			33.1449394230002,-83.8169784539999,0
			33.1431198120001,-83.8174972529999,0
			33.1422119150001,-83.8174972529999,0
			33.141300202,-83.817489623,0
			33.140388489,-83.816932679,0
			33.1385803220001,-83.816360473,0
			33.1372108460001,-83.8168869019999,0
			33.1358489990001,-83.8163375859999,0
			33.1344795230002,-83.8163223259999,0
			33.1335716250002,-83.8163070679999,0
			33.1317520150001,-83.8162918089999,0
			33.1299209590001,-83.8168258669999,0
			33.128559113,-83.816810608,0
			33.1271896360001,-83.8168029779999,0
			33.125370026,-83.816772462,0
			33.1249198920001,-83.8162231439999,0
			33.1235618590001,-83.81565857,0
			33.1231117250001,-83.8151092539998,0
			33.122661591,-83.8145523079999,0
			33.1222114560002,-83.813446046,0
			33.1217689520001,-83.8123474119998,0
			33.1217689520001,-83.811813354,0
			33.1222305310001,-83.8101730349999,0
			33.1222496040001,-83.8085327159999,0
			33.1222496040001,-83.8074264519999,0
			33.121810914,-83.8063278199999,0
			33.1213607780001,-83.8052291859999,0
			33.1209106440002,-83.8046722419999,0
			33.1204605110001,-83.804122924,0
			33.120010377,-83.8035659779999,0
			33.119098664,-83.8024673459999,0
			33.1186485290002,-83.8019103999999,0
			33.1182022100001,-83.8013610849999,0
			33.1177520760002,-83.800811767,0
			33.11730194,-83.800247192,0
			33.1168518070002,-83.7997131349999,0
			33.1163902280001,-83.7991485589999,0
			33.1159400940002,-83.798599243,0
			33.11548996,-83.7980499269999,0
			33.1141319270002,-83.7974929809998,0
			33.1109504700001,-83.7963561999999,0
			33.110500336,-83.7958068849999,0
			33.1091384900001,-83.7952423099999,0
			33.1077804570001,-83.7952270499999,0
			33.107318878,-83.7946777339999,0
			33.10641098,-83.794670106,0
			33.1059494030001,-83.7952117919999,0
			33.104141236,-83.7946472169999,0
			33.1036911020001,-83.7940902709998,0
			33.102329254,-83.792976379,0
			33.101421356,-83.7924270629999,0
			33.1009788510001,-83.79132843,0
			33.1005287170001,-83.7907714839999,0
			33.1005287170001,-83.790229798,0
			33.1000709530001,-83.7896728519999,0
			33.0996208190002,-83.7891159059999,0
			33.0996284490001,-83.78856659,0
			33.0991821290001,-83.788017272,0
			33.0987205500001,-83.7874679559998,0
			33.098281861,-83.786369324,0
			33.0973701490001,-83.7858123779999,0
			33.096469879,-83.7852630609999,0
			33.096469879,-83.7847061169999,0
			33.0955696120001,-83.783607483,0
			33.0946617120001,-83.7830505369999,0
			33.0937499990001,-83.7824859629999,0
			33.0928497320001,-83.7813873289999,0
			33.0914916990001,-83.780830383,0
			33.090122224,-83.780822755,0
			33.088760375,-83.7802505499999,0
			33.087398529,-83.779685974,0
			33.086490631,-83.779685974,0
			33.0855789190001,-83.7791290279999,0
			33.0851287850002,-83.778572082,0
			33.0846786490002,-83.7780227659999,0
			33.0842285160002,-83.7774658199999,0
			33.0837821970001,-83.776916504,0
			33.0837821970001,-83.7763671879999,0
			33.0828704840001,-83.776359558,0
			33.081958771,-83.7758026119999,0
			33.0810508740001,-83.775787354,0
			33.0801506040001,-83.7752380379998,0
			33.0797004710001,-83.7746887199999,0
			33.0792503370001,-83.774131774,0
			33.078788758,-83.773582458,0
			33.078800201,-83.773033142,0
			33.0783500670001,-83.7724761959999,0
			33.077899934,-83.771392823,0
			33.077899934,-83.7708435049999,0
			33.0774497980001,-83.769737243,0
			33.0774612430001,-83.7691879269999,0
			33.0770111090001,-83.7686386109999,0
			33.0765495310001,-83.7680892949999,0
			33.0761108400001,-83.7669906619999,0
			33.0761108400001,-83.7664413459999,0
			33.0752105710002,-83.7653427119999,0
			33.0747604370001,-83.7642364499999,0
			33.0743103030001,-83.763687134,0
			33.0729484570001,-83.763122558,0
			33.072502136,-83.762573242,0
			33.0715904230001,-83.7620162959999,0
			33.0706901560002,-83.7614593499999,0
			33.07024002,-83.7609100339999,0
			33.0697898860001,-83.7598114,0
			33.0697898860001,-83.7592620849999,0
			33.0693397530001,-83.7587127689999,0
			33.0688896190001,-83.7576065069998,0
			33.0689010620001,-83.7565231309999,0
			33.0684509280002,-83.7559661869999,0
			33.0680007930001,-83.7548675539999,0
			33.067550659,-83.7532196039999,0
			33.0675621040002,-83.7526702879999,0
			33.066650392,-83.752113342,0
			33.0662002560001,-83.7515563959999,0
			33.0657501220002,-83.7510070799999,0
			33.065299988,-83.7504577639999,0
			33.064849855,-83.7499084459999,0
			33.0643920910002,-83.749351502,0
			33.0643997190001,-83.7488098149999,0
			33.0630416880001,-83.747154235,0
			33.0625915540001,-83.7465972909998,0
			33.0621414180002,-83.7460479729999,0
			33.060771942,-83.7460327149999,0
			33.059860229,-83.7460327149999,0
			33.0589485160002,-83.7460174559999,0
			33.0580406180002,-83.746009826,0
			33.0571289060001,-83.746002198,0
			33.0566787720001,-83.7454528799999,0
			33.0562286380002,-83.7448959359999,0
			33.0553207410001,-83.7448883059999,0
			33.0553207410001,-83.7443389899998,0
			33.0530509950001,-83.743232726,0
			33.052150727,-83.742668152,0
			33.052150727,-83.7421188359999,0
			33.051700591,-83.7415695179999,0
			33.051700591,-83.741027832,0
			33.051250458,-83.740470886,0
			33.0508003240001,-83.7399215709999,0
			33.0498886110001,-83.739356994,0
			33.049438478,-83.738822937,0
			33.0489921570002,-83.7382583629999,0
			33.0471687310001,-83.738243102,0
			33.0462608340002,-83.738243102,0
			33.0453491210002,-83.7382278439999,0
			33.0439910900001,-83.737121582,0
			33.0430793770001,-83.736557008,0
			33.0412712100002,-83.7360000619999,0
			33.0394592280002,-83.7338027959999,0
			33.0390090940001,-83.7332458499999,0
			33.0381088270001,-83.7321395879999,0
			33.0376586910002,-83.73159027,0
			33.0372009270001,-83.7310333239999,0
			33.0367507930002,-83.7304763799999,0
			33.0363006600002,-83.7299270619999,0
			33.0363006600002,-83.7293930049999,0
			33.035850526,-83.7288360589999,0
			33.0349502560001,-83.7277297969999,0
			33.034038544,-83.7271804809999,0
			33.0335922250001,-83.7266159049999,0
			33.0335922250001,-83.7260665889999,0
			33.0317688000002,-83.7255172729999,0
			33.02904892,-83.7249374389999,0
			33.0276794430001,-83.724380493,0
			33.0267791760002,-83.723281861,0
			33.025421142,-83.722717285,0
			33.0245208750001,-83.721618653,0
			33.0240592960002,-83.721069335,0
			33.0217895520001,-83.721603393,0
			33.0208702090002,-83.7226791379999,0
			33.0199584960001,-83.7226715099999,0
			33.0195007320001,-83.7232131949999,0
			33.0194892890001,-83.723762511,0
			33.0181198130002,-83.72593689,0
			33.0176620490001,-83.726478576,0
			33.0167388930001,-83.727020264,0
			33.0167388930001,-83.7275619509999,0
			33.0162811290001,-83.728111267,0
			33.0158195500002,-83.728652955,0
			33.014911652,-83.728652955,0
			33.0144500730001,-83.7291870119999,0
			33.013988494,-83.729728698,0
			33.0103607190001,-83.728599548,0
			33.0103607190001,-83.728050232,0
			33.0094490060001,-83.7280426019999,0
			33.0085487370001,-83.7274932859999,0
			33.0071792600001,-83.726928712,0
			33.007190705,-83.726387024,0
			33.00674057,-83.7258300779999,0
			33.0062789930001,-83.7252807619999,0
			33.0058288570002,-83.724731446,0
			33.0058403020001,-83.7236328119999,0
			33.0053901680002,-83.723075866,0
			33.004489899,-83.7219772349999,0
			33.0040397650001,-83.720886231,0
			33.0031204220002,-83.7208786009999,0
			33.0026817320001,-83.7197799689999,0
			33.0013198850001,-83.719223023,0
			33.0004005430001,-83.719207763,0
			32.9994888300001,-83.7197494499999,0
			32.9985694890001,-83.720832824,0
			32.9985694890001,-83.7219314579999,0
			32.9976501460002,-83.7230072029998,0
			32.99628067,-83.724098206,0
			32.9949111950001,-83.724632264,0
			32.9921798700001,-83.724601745,0
			32.9908103950001,-83.724037171,0
			32.989459992,-83.7229385369999,0
			32.9881019590002,-83.721832276,0
			32.9858207710001,-83.7223587029998,0
			32.984458923,-83.7218017569999,0
			32.9821815490001,-83.72177887,0
			32.981269836,-83.72177124,0
			32.980361938,-83.722312928,0
			32.978988647,-83.722839355,0
			32.978080749,-83.7228317249999,0
			32.9776191720001,-83.7233657849999,0
			32.976711273,-83.7233657849999,0
			32.9767189030002,-83.722816467,0
			32.975811005,-83.722267151,0
			32.9753608710001,-83.7217178349998,0
			32.9748992920001,-83.7211608889999,0
			32.973999023,-83.720062255,0
			32.973560334,-83.718421936,0
			32.9730987550001,-83.717857362,0
			32.972190858,-83.717323304,0
			32.970378876,-83.7167510979999,0
			32.9694709780001,-83.7161865229999,0
			32.9690208440001,-83.7151031499999,0
			32.9681320200002,-83.7123565669999,0
			32.9672393810001,-83.709068298,0
			32.966339111,-83.7074203499999,0
			32.9658889780002,-83.7068557739999,0
			32.9640693670001,-83.7063064579999,0
			32.9627113340002,-83.7057418819999,0
			32.9613418570001,-83.706275939,0
			32.9599685680001,-83.706817627,0
			32.9585990910002,-83.7084426879999,0
			32.9572219840002,-83.709526062,0
			32.9549407970002,-83.7105865479999,0
			32.9526596080001,-83.7111206059999,0
		</coordinates>
	</polygon>
</kml>
