<?xml version="1.0" encoding="UTF-8"?>
<kml xmlns="http://earth.google.com/kml/2.2">
	<polygon id="USA_OH_Lorain" samplingProbability="1">
		<coordinates>
			41.063869476,-82.1714477529999,0
			41.0659904480002,-82.327438355,0
			41.0660095210001,-82.3365783689999,0
			41.115909577,-82.337677002,0
			41.1376991280002,-82.3388519279999,0
			41.211200714,-82.3405227659999,0
			41.2593116760001,-82.341636658,0
			41.2842597960002,-82.342185974,0
			41.3573303220001,-82.3450927729999,0
			41.3897491820001,-82.346679396,0
			41.429038982,-82.3486021959999,0
			41.4290313720001,-82.3473663339998,0
			41.4299316410001,-82.3418731689999,0
			41.4308319090001,-82.3332824709999,0
			41.4312591560001,-82.3191986089999,0
			41.4312400830001,-82.3032608029999,0
			41.4312286370001,-82.295303345,0
			41.4321212770001,-82.286109924,0
			41.4316597000002,-82.278762817,0
			41.4321022030001,-82.272636415,0
			41.4320793150001,-82.2634506219999,0
			41.4388618470002,-82.2462768549999,0
			41.4411087030001,-82.2395172129999,0
			41.4456405650001,-82.2321472169999,0
			41.450149536,-82.2217330939999,0
			41.4546699530001,-82.213752746,0
			41.4601020820002,-82.204528808,0
			41.4650688180001,-82.1934814459999,0
			41.4682312010002,-82.1873321529999,0
			41.4714012150001,-82.1842575079999,0
			41.4723091120002,-82.1830291759999,0
			41.4722900390001,-82.178741455,0
			41.472740173,-82.1744384759999,0
			41.4740905760001,-82.173202515,0
			41.4745407120001,-82.1707458499999,0
			41.475440979,-82.1676864619998,0
			41.4763412480002,-82.164611816,0
			41.4785919190002,-82.1572494499999,0
			41.4812889100001,-82.149269104,0
			41.4857902540001,-82.13759613,0
			41.4907417310002,-82.1216430669999,0
			41.4943199160001,-82.1044540409999,0
			41.4992294310001,-82.0786666879999,0
			41.5028190620002,-82.0639266969999,0
			41.5077514650002,-82.047958374,0
			41.5095291140001,-82.0369110109999,0
			41.5131187440001,-82.0258483879999,0
			41.515789032,-82.01233673,0
			41.514850616,-82.003746032,0
			41.5130004890001,-81.9945678719999,0
			41.5093193060001,-81.9823303209999,0
			41.5051803600002,-81.968872071,0
			41.504730224,-81.9682617189999,0
			41.4784088130001,-81.9696884159999,0
			41.351341249,-81.9712524419999,0
			41.3504600520002,-81.877037048,0
			41.2746887220002,-81.8777008059998,0
			41.2746505750001,-81.9724426279999,0
			41.1997795110001,-81.9736099249999,0
			41.2001495360001,-82.0725173949999,0
			41.1361808790001,-82.074127198,0
			41.1369209290002,-82.1698913579999,0
			41.1251220710002,-82.1699371349999,0
			41.063869476,-82.1714477529999,0
		</coordinates>
	</polygon>
</kml>
