<?xml version="1.0" encoding="UTF-8"?>
<kml xmlns="http://earth.google.com/kml/2.2">
	<polygon id="USA_MI_Saint_Clair" samplingProbability="1">
		<coordinates>
			43.1696196510001,-82.5009448819999,0
			43.1690788270001,-82.5009765619999,0
			43.1679221590001,-82.5005158149999,0
			43.1663945400001,-82.4999073039999,0
			43.166320936,-82.4998779849999,0
			43.1557690000001,-82.497353001,0
			43.1470779320001,-82.4953770039999,0
			43.1447601320001,-82.4948501579998,0
			43.1425633380001,-82.4936531869999,0
			43.1374145340002,-82.49084795,0
			43.1364290010001,-82.490311,0
			43.1277389990001,-82.4889299989999,0
			43.119140789,-82.490676911,0
			43.1190462980001,-82.4906233839999,0
			43.1181660000001,-82.4901249999999,0
			43.1131210000001,-82.487267,0
			43.104412,-82.485268,0
			43.1036032790001,-82.4847704249999,0
			43.102550507,-82.4841232299999,0
			43.1007117570002,-82.481274555,0
			43.1001180000002,-82.480355,0
			43.0982510000001,-82.4774629999999,0
			43.0948225440001,-82.4750845059999,0
			43.089882,-82.4716570009999,0
			43.0868818740001,-82.470268673,0
			43.0838810000001,-82.4688799989999,0
			43.0808330690001,-82.4672174919999,0
			43.079711914,-82.466606139,0
			43.0602188110001,-82.454566955,0
			43.0601340270001,-82.4545259629999,0
			43.0596328210002,-82.45428364,0
			43.0532913210002,-82.4512176509999,0
			43.0500717170001,-82.4501495359999,0
			43.0448989870002,-82.4448089599999,0
			43.0448838120001,-82.4447970989999,0
			43.044459513,-82.4444654519999,0
			43.0411605850001,-82.4418869009999,0
			43.0230216980001,-82.4291610719998,0
			43.019589255,-82.426761354,0
			43.0155790000001,-82.4239579999999,0
			43.006855753,-82.421960928,0
			43.004873526,-82.4231376709999,0
			43.0013451790001,-82.4252325809999,0
			42.997478485,-82.4275283809998,0
			42.996736958,-82.4273191549999,0
			42.9963903320001,-82.4272213509999,0
			42.995639802,-82.427009583,0
			42.9929008490002,-82.4265518189999,0
			42.992054008,-82.426030686,0
			42.9905644690002,-82.425114046,0
			42.9891815190001,-82.4242629999999,0
			42.9846821350001,-82.4219166469999,0
			42.9827645050001,-82.420916635,0
			42.982700348,-82.4208831789999,0
			42.9826912230001,-82.420384327,0
			42.9826895710002,-82.420293992,0
			42.9826889130001,-82.4202579879999,0
			42.9785920000001,-82.419696,0
			42.9772668900001,-82.4195139409999,0
			42.9762920080001,-82.4193806589999,0
			42.976295814,-82.4197210389999,0
			42.9762976900002,-82.4198815529999,0
			42.9762991420001,-82.4200057839998,0
			42.9745819320001,-82.419842551,0
			42.9727957010001,-82.4196726169999,0
			42.972286325,-82.419624153,0
			42.9655750000001,-82.4243089999998,0
			42.96151,-82.4271469999999,0
			42.9614861520002,-82.4271678789999,0
			42.9548280000001,-82.4329969999999,0
			42.9499890000001,-82.4372329999999,0
			42.9430500000001,-82.4482879999999,0
			42.9364510000001,-82.4555659999999,0
			42.9306369130001,-82.457525754,0
			42.927441,-82.4586029999999,0
			42.9211620000001,-82.4614719999999,0
			42.9118120000001,-82.4682769999999,0
			42.9109120000001,-82.4685589999999,0
			42.9068490000001,-82.4698329999999,0
			42.9027907970002,-82.4710077689999,0
			42.8987309990002,-82.4721829999999,0
			42.8945055400001,-82.4745089469999,0
			42.891120911,-82.4763717639999,0
			42.8810501100002,-82.474456787,0
			42.8692207330001,-82.4745178219999,0
			42.8688323200002,-82.4745408639999,0
			42.8683200000001,-82.474571,0
			42.8591690000002,-82.4732279999999,0
			42.8557534110001,-82.472648496,0
			42.8509410000001,-82.4718319999998,0
			42.8486135350001,-82.4730497369999,0
			42.8388520000001,-82.4781570009999,0
			42.8388709970002,-82.4787899999999,0
			42.833491537,-82.4814512289999,0
			42.8316921680001,-82.482339253,0
			42.8290870880001,-82.482816914,0
			42.8167610170001,-82.485076905,0
			42.8154036920001,-82.4847295409999,0
			42.814007,-82.4843719999999,0
			42.810807017,-82.4835530519999,0
			42.8107670250001,-82.4835526209999,0
			42.8098907480002,-82.4835968029999,0
			42.8072354450001,-82.4827468129998,0
			42.8016369900001,-82.4809544399999,0
			42.8016200000001,-82.480949,0
			42.7957420000001,-82.477943,0
			42.784402223,-82.4721444319999,0
			42.7843740000001,-82.4721299999999,0
			42.7841179570001,-82.4720713879999,0
			42.7840420000002,-82.4720539999999,0
			42.7827300000001,-82.4718479999999,0
			42.7689700000001,-82.4697269999999,0
			42.7662981280002,-82.4695477369999,0
			42.7639620000002,-82.4693909999999,0
			42.7639515330001,-82.469391602,0
			42.7627980000001,-82.469458,0
			42.7598680650001,-82.46962812,0
			42.7575100000001,-82.472454,0
			42.7489010000001,-82.482773,0
			42.7479750000001,-82.4834329999999,0
			42.747233093,-82.4839618649999,0
			42.7422218320001,-82.4875335699999,0
			42.7304115310002,-82.488212586,0
			42.719970704,-82.4888229379999,0
			42.7141990660002,-82.4935226429999,0
			42.7043609630002,-82.499076843,0
			42.7030809990001,-82.499602931,0
			42.7025599990002,-82.4998169989998,0
			42.7025499680001,-82.499820722,0
			42.7013390000001,-82.5002699999999,0
			42.6984097070002,-82.5013572269999,0
			42.6886220000001,-82.5049899999999,0
			42.6701700000002,-82.511673,0
			42.6542590000001,-82.5119629999999,0
			42.6388210000001,-82.512848,0
			42.6347100000002,-82.514512,0
			42.6298290000001,-82.516487,0
			42.6188390000001,-82.528969,0
			42.617624639,-82.530279836,0
			42.6109090000001,-82.5375289999999,0
			42.6078990000001,-82.5432969999999,0
			42.611932951,-82.5454932839999,0
			42.6120607750001,-82.5455628779999,0
			42.6136066550001,-82.5510925409999,0
			42.6166820000001,-82.555414,0
			42.61787,-82.557083,0
			42.6178718330001,-82.5570930259999,0
			42.619035902,-82.5634590989999,0
			42.621139526,-82.5749664319999,0
			42.626548767,-82.6033630369999,0
			42.6262824940001,-82.6046238609999,0
			42.6260470000001,-82.605738,0
			42.6249500000001,-82.6109309999999,0
			42.6246868700001,-82.613235958,0
			42.6245920000002,-82.614067,0
			42.6267680000001,-82.6190399999999,0
			42.6304510000001,-82.6274569999999,0
			42.6324499990001,-82.633583,0
			42.6309890000001,-82.6455229999999,0
			42.631650617,-82.6469709249999,0
			42.6329260460002,-82.6497621549999,0
			42.632931,-82.6497729999999,0
			42.63464,-82.645927,0
			42.63678,-82.641449,0
			42.6433300000002,-82.632347,0
			42.6504519990002,-82.6269610009999,0
			42.6504691980001,-82.6269508129999,0
			42.65473,-82.624427,0
			42.6553224010001,-82.6240760479999,0
			42.6562612450001,-82.6235200149999,0
			42.6671909990001,-82.6241610009999,0
			42.6689497920001,-82.6236602509999,0
			42.6698989880001,-82.623390198,0
			42.6701867060001,-82.624267002,0
			42.6719090000001,-82.629517,0
			42.671960277,-82.6302058399999,0
			42.6726490000001,-82.639458,0
			42.673224965,-82.643482255,0
			42.673801,-82.647507,0
			42.6702380000001,-82.6502,0
			42.6703910000001,-82.6551819999999,0
			42.6704331710001,-82.6552326969999,0
			42.6760000460001,-82.6619253459999,0
			42.6798210150001,-82.666519165,0
			42.6798568160002,-82.666608319,0
			42.6799020000001,-82.6667209999999,0
			42.6808010000001,-82.6689609999999,0
			42.6870190000001,-82.6792219999999,0
			42.6913600030001,-82.687721096,0
			42.6913897050002,-82.688616477,0
			42.6914215090002,-82.6895904529999,0
			42.6910896310001,-82.6939773559999,0
			42.6906410200002,-82.6959093409999,0
			42.6901290000001,-82.698113,0
			42.6894740060001,-82.7009343609999,0
			42.689470145,-82.7009501859999,0
			42.6890450000001,-82.702597,0
			42.688692266,-82.7039643209999,0
			42.687839508,-82.707267761,0
			42.6846885680001,-82.7086868279999,0
			42.683705677,-82.7133403279999,0
			42.6827880000002,-82.717683,0
			42.6822887660001,-82.720048108,0
			42.6818400000001,-82.722176,0
			42.680691,-82.727631,0
			42.8966600000002,-82.738373,0
			42.8957600000001,-82.8673779999999,0
			42.8939400000002,-82.9838869999999,0
			42.9060702240002,-82.9843133319999,0
			42.93292,-82.9852569999999,0
			42.9813800000001,-82.9869609999999,0
			43.1545219440001,-82.994461028,0
			43.1651687630001,-82.6438674929999,0
			43.169990989,-82.50092334,0
			43.1697857590001,-82.5009351519999,0
			43.1696196510001,-82.5009448819999,0
		</coordinates>
	</polygon>
</kml>
