<?xml version="1.0" encoding="UTF-8"?>
<kml xmlns="http://earth.google.com/kml/2.2">
	<polygon id="USA_TN_Obion" samplingProbability="1">
		<coordinates>
			36.5039787300001,-89.34829712,0
			36.5077285780001,-89.3020782469999,0
			36.5077641820002,-89.3009656399999,0
			36.5077973810002,-89.2999281649999,0
			36.50782013,-89.2992172249999,0
			36.5075399370002,-89.2757271749999,0
			36.5068170000001,-89.2150919999999,0
			36.505459,-89.101257,0
			36.5048570000001,-89.050552,0
			36.5044678400001,-89.0177879979999,0
			36.50371933,-88.9547424309999,0
			36.5042800910001,-88.836197084,0
			36.5043106080001,-88.8316268919999,0
			36.4961509710002,-88.8233184819999,0
			36.4880599990001,-88.820152282,0
			36.47052002,-88.81376648,0
			36.4123992910002,-88.8156127939999,0
			36.4125099190001,-88.8493499749999,0
			36.405899049,-88.8599700919999,0
			36.3973312380001,-88.876800536,0
			36.3973617560002,-88.8945312499999,0
			36.410690308,-88.9247817989999,0
			36.41281128,-88.9494628909999,0
			36.22644043,-88.9627227779999,0
			36.2009620660001,-88.965148926,0
			36.2046699520001,-89.1569671619999,0
			36.2048492430001,-89.1672363279999,0
			36.2050895690001,-89.175247193,0
			36.2055015560002,-89.194076538,0
			36.2070808420001,-89.2363662719999,0
			36.2119407650001,-89.4362792979999,0
			36.2122306840001,-89.473381042,0
			36.2118988030001,-89.4847717279999,0
			36.216861726,-89.4855728149999,0
			36.2209396370001,-89.485763549,0
			36.2258720400001,-89.4722900399999,0
			36.2272796640002,-89.4552383409999,0
			36.2353096000001,-89.444190979,0
			36.2598304740001,-89.42817688,0
			36.2726707460001,-89.4236221319999,0
			36.2887306210001,-89.4175033579999,0
			36.2997894290001,-89.4117126469999,0
			36.3030204780002,-89.4095764159999,0
			36.3159103400002,-89.4032974249999,0
			36.3282394420001,-89.400428773,0
			36.3314285270001,-89.4000015249999,0
			36.3327903750002,-89.400062561,0
			36.3467597950001,-89.4035491939998,0
			36.348991395,-89.4047927849999,0
			36.3521690360001,-89.4049377439999,0
			36.406860352,-89.3645019539999,0
			36.4100990310001,-89.3623580939999,0
			36.422222139,-89.366912842,0
			36.4298591620001,-89.3695297249999,0
			36.4348602290002,-89.369186401,0
			36.4430999750001,-89.366691589,0
			36.4476699840001,-89.3657531729999,0
			36.4545898430001,-89.3614807129999,0
			36.4564399720002,-89.3604202279998,0
			36.4760704050001,-89.3401107789999,0
			36.4783210750001,-89.3407821649999,0
			36.4855003360001,-89.343391418,0
			36.4972686780001,-89.3444900519999,0
			36.5039787300001,-89.34829712,0
		</coordinates>
	</polygon>
</kml>
