<?xml version="1.0" encoding="UTF-8"?>
<kml xmlns="http://earth.google.com/kml/2.2">
	<polygon id="USA_WV_Mason" samplingProbability="1">
		<coordinates>
			38.5910797120002,-82.2154693609999,0
			38.5907211310001,-82.21257019,0
			38.5916099550001,-82.2043228159999,0
			38.5916595470001,-82.2035369869999,0
			38.5920410150001,-82.1972579949999,0
			38.5928497330002,-82.1941070549999,0
			38.594161987,-82.1902618399999,0
			38.595699311,-82.1873931879999,0
			38.5970001220001,-82.1854629519999,0
			38.598709107,-82.18257904,0
			38.6002311710002,-82.1804275509999,0
			38.604331971,-82.175781251,0
			38.6085014340001,-82.172973632,0
			38.6146507270001,-82.170700073,0
			38.617248536,-82.1701965319999,0
			38.6214294440001,-82.1694488519999,0
			38.625701905,-82.170005798,0
			38.6298713680001,-82.1707077029999,0
			38.639350892,-82.1727600099999,0
			38.6460914600002,-82.176483154,0
			38.6468887330001,-82.1768493659998,0
			38.6573295590001,-82.1815414429999,0
			38.6676902770001,-82.1853866589999,0
			38.6758804330001,-82.187995911,0
			38.6776313780001,-82.188407898,0
			38.6817703250002,-82.189216613,0
			38.6827888500002,-82.189216613,0
			38.6857604990001,-82.1888809199999,0
			38.6903114320002,-82.187843324,0
			38.6958007820001,-82.1850509629999,0
			38.699920655,-82.1828231809998,0
			38.704021455,-82.1817474359999,0
			38.7112007140001,-82.1814193729999,0
			38.7149887090001,-82.1830520619999,0
			38.71667862,-82.183906555,0
			38.7201499930001,-82.1856231699999,0
			38.7243194580001,-82.187683106,0
			38.7328605660001,-82.191467286,0
			38.7378311160002,-82.1928024289999,0
			38.7432594310001,-82.192962646,0
			38.7479400630002,-82.193107605,0
			38.7514190680002,-82.1932067879999,0
			38.7550697320001,-82.1944122319999,0
			38.7587890630001,-82.1965866089999,0
			38.7621688850001,-82.2006072999999,0
			38.7648315440001,-82.2036361689998,0
			38.766109467,-82.207153321,0
			38.7679290770001,-82.210098267,0
			38.769748687,-82.213630677,0
			38.7705307010001,-82.2146377569999,0
			38.7723197930001,-82.216270446,0
			38.77455902,-82.2175216669999,0
			38.7786293030001,-82.218322755,0
			38.7836189270001,-82.2177963249999,0
			38.7881622320001,-82.217346191,0
			38.7913093570002,-82.216186524,0
			38.7942314150002,-82.21470642,0
			38.8005409250001,-82.2094497689999,0
			38.8032722480001,-82.205238342,0
			38.8077888500001,-82.1993103039999,0
			38.8093299870001,-82.196952821,0
			38.810321808,-82.1949768059999,0
			38.8126602180001,-82.1909179679999,0
			38.8141021730001,-82.1862258909998,0
			38.8143501270002,-82.185546874,0
			38.815898895,-82.180969239,0
			38.8181304940001,-82.174461364,0
			38.8183097850001,-82.173927307,0
			38.8199195860001,-82.1685409539999,0
			38.82365036,-82.1611480709999,0
			38.8268890370001,-82.15650177,0
			38.8312301630001,-82.1513671869999,0
			38.8352813730001,-82.1472015369999,0
			38.8407287610002,-82.143058778,0
			38.846611024,-82.140663148,0
			38.853858948,-82.1389083859999,0
			38.8611907970001,-82.137992858,0
			38.8661689760002,-82.138153076,0
			38.8711700450002,-82.1388015759999,0
			38.8760719300001,-82.140518189,0
			38.8797111520001,-82.141792298,0
			38.8810691840001,-82.1421279919999,0
			38.88697052,-82.1428298949999,0
			38.8910293580001,-82.142417908,0
			38.8927803050001,-82.1421432499999,0
			38.8941993710001,-82.1416091919999,0
			38.8987312310001,-82.139221191,0
			38.9023399350001,-82.136253357,0
			38.9057312020001,-82.131607056,0
			38.9086990360001,-82.1279678339999,0
			38.9126586910002,-82.124130249,0
			38.9181594840001,-82.1207427969999,0
			38.9194908140001,-82.1198196409999,0
			38.9264106760002,-82.115058898,0
			38.9320907590002,-82.1111984249999,0
			38.9357986460001,-82.108863831,0
			38.942138673,-82.1052780149999,0
			38.9438285820002,-82.104316712,0
			38.945308686,-82.1034927359999,0
			38.9485206620001,-82.1022109989999,0
			38.9497604370001,-82.1015319819999,0
			38.952079774,-82.0998916629999,0
			38.9529800410002,-82.0992584229999,0
			38.9570884710001,-82.097007752,0
			38.9582099910002,-82.0964584339999,0
			38.9616584780001,-82.0947723379999,0
			38.9630203240002,-82.094306946,0
			38.9647598280001,-82.093322755,0
			38.968978883,-82.0914306639999,0
			38.9724502560001,-82.089126586,0
			38.9748687740002,-82.0866470339999,0
			38.9767494200001,-82.0845336909999,0
			38.9774093630002,-82.083282472,0
			38.9796104440001,-82.0787124629999,0
			38.9825096120002,-82.072692871,0
			38.9848022470001,-82.067016602,0
			38.986648561,-82.0617218019999,0
			38.9869117730001,-82.061256409,0
			38.991130829,-82.053855896,0
			38.9949798590002,-82.0493469239999,0
			38.996910095,-82.0471572869999,0
			38.9982910160001,-82.0460891719999,0
			39.002418518,-82.0439071659999,0
			39.0067405700001,-82.0433731069999,0
			39.0117187510001,-82.043319702,0
			39.0167007440001,-82.0421066279999,0
			39.0207710270002,-82.039710998,0
			39.0248413080001,-82.0361328119999,0
			39.0266304020001,-82.032066345,0
			39.0281410230002,-82.0287704469999,0
			39.0285186780001,-82.0278167729999,0
			39.028690338,-82.0255432139999,0
			39.0290908820002,-82.0202865599999,0
			39.028419496,-82.0106277469999,0
			39.0282821670001,-82.0096359259999,0
			39.026199342,-82.003036499,0
			39.0235595710002,-81.997627258,0
			39.0201187140001,-81.9923477179999,0
			39.0159912110001,-81.9891281119999,0
			39.0092391970001,-81.986488341,0
			39.0033721920001,-81.984642029,0
			39.000228882,-81.9827804569999,0
			38.9986000060001,-81.981658935,0
			38.997428894,-81.980651855,0
			38.9948616030001,-81.9778976439999,0
			38.9937896730001,-81.9759368889999,0
			38.9935989390001,-81.9754562369999,0
			38.9928703300001,-81.9735794059999,0
			38.992538452,-81.972122193,0
			38.9922904980001,-81.9689407339999,0
			38.9923706060002,-81.9636230469998,0
			38.9933395390001,-81.9595031739999,0
			38.9935607920001,-81.95855713,0
			38.9943084720001,-81.955383301,0
			38.9953117370001,-81.9525070189999,0
			38.9954910280001,-81.9516601569999,0
			38.9957504270001,-81.95024109,0
			38.9957809440001,-81.948905945,0
			38.9959106450001,-81.9453506459999,0
			38.9956092830002,-81.9439620979999,0
			38.9949302670001,-81.941207887,0
			38.993122102,-81.9369125359999,0
			38.990871429,-81.9345321659999,0
			38.9874496460002,-81.9314727779999,0
			38.982940675,-81.929016113,0
			38.980388642,-81.9276123049999,0
			38.9785995490002,-81.926338195,0
			38.9740600590001,-81.9234085079999,0
			38.9695587150002,-81.919837951,0
			38.9654197690001,-81.91696167,0
			38.962768555,-81.91583252,0
			38.9599685680001,-81.9146423339999,0
			38.955318451,-81.9129486079999,0
			38.95370102,-81.912345887,0
			38.9452095040002,-81.9061202999999,0
			38.9390106210002,-81.9024581909999,0
			38.9348716750001,-81.9005432139999,0
			38.931789398,-81.899482727,0
			38.9286193840001,-81.9001007079999,0
			38.9254608160001,-81.901901245,0
			38.9214019780001,-81.90548706,0
			38.918251038,-81.908721924,0
			38.9173507690001,-81.9096679689999,0
			38.912899018,-81.9147415169999,0
			38.909660339,-81.918792724,0
			38.9069290160001,-81.9222183219999,0
			38.9059295660002,-81.9233932499999,0
			38.903209686,-81.9251403809999,0
			38.8999710090002,-81.9273757939998,0
			38.89748001,-81.9281463619999,0
			38.8961486830001,-81.9281616209999,0
			38.8945617680002,-81.927856446,0
			38.8918609620002,-81.92601776,0
			38.889320373,-81.9237060539999,0
			38.8878707900001,-81.92238617,0
			38.8825187690002,-81.914543152,0
			38.881160736,-81.9121627809999,0
			38.8650093080001,-81.9040222169999,0
			38.854721069,-81.8948898309999,0
			38.7338790890001,-81.790863037,0
			38.7154006960002,-81.814598084,0
			38.6824493410001,-81.7736816409999,0
			38.6574592600001,-81.956970215,0
			38.6081390390001,-82.0628509519999,0
			38.4749908450001,-82.055580139,0
			38.5883293160002,-82.2118759149999,0
			38.5910797120002,-82.2154693609999,0
		</coordinates>
	</polygon>
</kml>
