<?xml version="1.0" encoding="UTF-8"?>
<kml xmlns="http://earth.google.com/kml/2.2">
	<polygon id="USA_NJ_Sussex" samplingProbability="1">
		<coordinates>
			41.0856819150001,-74.5026473989999,0
			41.071609498,-74.520317077,0
			41.0629920970002,-74.5300674439999,0
			41.0579986580001,-74.5355529779999,0
			41.0484695440002,-74.546508789,0
			41.046661377,-74.5477294919999,0
			41.045749664,-74.548950196,0
			41.0030708320002,-74.5976181039999,0
			41.0017089850002,-74.599449157,0
			40.9999008180001,-74.6012573249999,0
			40.9985313410002,-74.6030960079999,0
			40.9971694950001,-74.6043090829999,0
			40.994899751,-74.60735321,0
			40.9921722410002,-74.6110000609999,0
			40.9626503000001,-74.64137268,0
			40.9617500300002,-74.6425933839999,0
			40.9590187070001,-74.6425933839999,0
			40.9562988280002,-74.64074707,0
			40.9549407960001,-74.638916017,0
			40.9526786800001,-74.636482238,0
			40.9517707830001,-74.6358795169999,0
			40.9495086670001,-74.635261536,0
			40.9476890560001,-74.635261536,0
			40.9463310250001,-74.635261536,0
			40.9454193120001,-74.635246277,0
			40.9408798220002,-74.6370697029998,0
			40.9372520450002,-74.6401061999999,0
			40.936801911,-74.6407165529999,0
			40.9363403320001,-74.6413192749999,0
			40.931800842,-74.6498260499999,0
			40.930889129,-74.651039123,0
			40.9299812320001,-74.6522521969999,0
			40.9290695190001,-74.6528625479999,0
			40.9267997750001,-74.654083252,0
			40.924530029,-74.6528472899999,0
			40.9236297610001,-74.652236939,0
			40.9213600150001,-74.6528472899999,0
			40.9209022530001,-74.6534500129999,0
			40.9204521180002,-74.654663085,0
			40.9199905410001,-74.657096864,0
			40.9199905410001,-74.657707215,0
			40.9195289620002,-74.658920289,0
			40.9172592160002,-74.661956787,0
			40.9159011840001,-74.6637802119999,0
			40.911350251,-74.673492432,0
			40.9067916870001,-74.6905059819999,0
			40.9045104980001,-74.697799683,0
			40.899059295,-74.7050933829999,0
			40.899501801,-74.7105560309999,0
			40.9017715450001,-74.712387085,0
			40.9049415580001,-74.7136230469999,0
			40.908569336,-74.7148361199999,0
			40.9121894830002,-74.7191085819999,0
			40.9149017330001,-74.725196838,0
			40.9144401560001,-74.7300567629999,0
			40.9162406930002,-74.7343215949999,0
			40.9180603030001,-74.7355422969999,0
			40.9189605720001,-74.7385864249999,0
			40.9189491270001,-74.742233276,0
			40.9157600400001,-74.7470932009999,0
			40.9144020090001,-74.7507324219999,0
			40.9125709530001,-74.7555923469999,0
			40.9125595100002,-74.759849549,0
			40.9111900330001,-74.7683563219999,0
			40.9632186890001,-74.8269729619999,0
			40.9772491460001,-74.8416366579999,0
			41.000320435,-74.865486146,0
			41.0057487490001,-74.8715972899999,0
			41.0070991530001,-74.873435974,0
			41.013431549,-74.880172729,0
			41.0197601310002,-74.886291504,0
			41.0229301450001,-74.88935852,0
			41.0337791450002,-74.9015960689998,0
			41.069049836,-74.938972472,0
			41.070850373,-74.940811158,0
			41.0812492370001,-74.952461242,0
			41.0938987730001,-74.965888976,0
			41.0952987680001,-74.965843201,0
			41.096672058,-74.9664001469999,0
			41.0971488950001,-74.967597961,0
			41.0966110220001,-74.970237732,0
			41.0959815980001,-74.971916199,0
			41.0956993100002,-74.9726715089999,0
			41.094120026,-74.9750289919999,0
			41.0926284780001,-74.976768493,0
			41.0910415660001,-74.9800109849999,0
			41.0893020620001,-74.9829940799999,0
			41.0888404850001,-74.9854278569999,0
			41.0884704580001,-74.9880294809999,0
			41.0887603770001,-74.9898681649999,0
			41.0901222230002,-74.9910964969999,0
			41.09154129,-74.9915390009999,0
			41.0926208500002,-74.9915466309999,0
			41.0935211180001,-74.990905761,0
			41.0962104810001,-74.9889831529999,0
			41.097000123,-74.9885864249999,0
			41.1001815800001,-74.986717224,0
			41.1056289670001,-74.983711243,0
			41.1083717360001,-74.980682374,0
			41.1109619150001,-74.977478027,0
			41.1114006050001,-74.97705841,0
			41.1120185840001,-74.9758300789999,0
			41.1135902400001,-74.972778321,0
			41.113559724,-74.9716262819999,0
			41.1138496400002,-74.9697418219999,0
			41.1140098580001,-74.9667282099999,0
			41.114448548,-74.9652023309999,0
			41.1156997690001,-74.962440492,0
			41.1179809560001,-74.9593963619999,0
			41.1191596990002,-74.956436158,0
			41.119739533,-74.9556198119999,0
			41.1216316220002,-74.95211029,0
			41.1231422430002,-74.949546813,0
			41.124370575,-74.9484558109999,0
			41.1257896420001,-74.947052001,0
			41.1276893610002,-74.9464569079999,0
			41.1293716430001,-74.944229126,0
			41.1302795420002,-74.943016052,0
			41.1311988830001,-74.9405822749999,0
			41.131660462,-74.9381484989999,0
			41.1332511890001,-74.934577941,0
			41.135318756,-74.9302368159998,0
			41.1389694220001,-74.9241561879999,0
			41.1415786740002,-74.919631958,0
			41.1457710260001,-74.9150161749999,0
			41.1500206000002,-74.910766601,0
			41.1526298520001,-74.908370971,0
			41.156848907,-74.9049606329999,0
			41.1626396190001,-74.901718139,0
			41.1658210750001,-74.8999023439999,0
			41.1674690250002,-74.898536682,0
			41.1697120680002,-74.897232056,0
			41.1712799080001,-74.89566803,0
			41.1728706360001,-74.893486023,0
			41.1741409300002,-74.891571046,0
			41.1758384700001,-74.888366699,0
			41.179019929,-74.885330201,0
			41.181240083,-74.8833770749999,0
			41.1819496160001,-74.8829269409999,0
			41.1843795780002,-74.8814163199999,0
			41.186111451,-74.8804779059999,0
			41.1881103520001,-74.879890441,0
			41.1904487620002,-74.878761291,0
			41.1931114190001,-74.877471923,0
			41.19765854,-74.874443054,0
			41.2022094730001,-74.871421814,0
			41.2061805720001,-74.868843079,0
			41.2085685730001,-74.867179871,0
			41.2117500300001,-74.864753722,0
			41.2140312200001,-74.862930299,0
			41.2148895270001,-74.862068176,0
			41.216190338,-74.8613128659999,0
			41.219299316,-74.8598327639999,0
			41.221599579,-74.859283448,0
			41.2233390810001,-74.859901427,0
			41.223960877,-74.8605041499999,0
			41.22492218,-74.861152648,0
			41.2271804810001,-74.8636093129999,0
			41.229438782,-74.8656997689999,0
			41.2321815500001,-74.8662109379999,0
			41.2335319530002,-74.8660812369999,0
			41.2369804380002,-74.8629074099999,0
			41.2389907840001,-74.861839295,0
			41.241710664,-74.8612365719999,0
			41.2439804080001,-74.8600311279999,0
			41.245922089,-74.859352111,0
			41.2483291620002,-74.8570632939999,0
			41.2505607610001,-74.8551330559999,0
			41.2523117060002,-74.8520126349999,0
			41.253089905,-74.849693299,0
			41.2558708200002,-74.8461227409999,0
			41.2593803420001,-74.8442230219999,0
			41.2603607180002,-74.8442306529999,0
			41.2630920410002,-74.84362793,0
			41.2658119210001,-74.8430328369999,0
			41.2689895620001,-74.8418273929999,0
			41.2709198000001,-74.840187073,0
			41.2729492180001,-74.8392028799999,0
			41.2751998910001,-74.8389282219999,0
			41.2778892520001,-74.837600707,0
			41.279899598,-74.835769654,0
			41.282348633,-74.8337631219999,0
			41.285129548,-74.8319473269999,0
			41.2877197270002,-74.8298873899999,0
			41.2899513250001,-74.8279724129999,0
			41.2921791090002,-74.825431824,0
			41.2943115240001,-74.822273254,0
			41.294589997,-74.8218460089999,0
			41.2958297730001,-74.8193359379999,0
			41.2976493830002,-74.8162765499999,0
			41.2999305720001,-74.812629699,0
			41.3026618950001,-74.8077468879999,0
			41.3063087460002,-74.8016509999999,0
			41.3088417050001,-74.7960128779999,0
			41.3102722170001,-74.794517518,0
			41.3108596800001,-74.7937164309998,0
			41.3117294320002,-74.793151856,0
			41.312679292,-74.7925109869999,0
			41.314498902,-74.7925186149999,0
			41.3158607490001,-74.793128968,0
			41.3172187800001,-74.7943572999999,0
			41.318580628,-74.79498291,0
			41.320720674,-74.7948608389999,0
			41.3219108590001,-74.7937164309998,0
			41.3227996840001,-74.79247284,0
			41.323650361,-74.789993286,0
			41.3240394590001,-74.7870483409999,0
			41.324409484,-74.7846069339999,0
			41.324348449,-74.7801666259999,0
			41.3250312810001,-74.776428223,0
			41.3252906800001,-74.7753677359999,0
			41.3258895880001,-74.7729873669999,0
			41.3269195570002,-74.7697067259999,0
			41.3283004760001,-74.767005921,0
			41.3299903880001,-74.765052795,0
			41.3330688480001,-74.763313293,0
			41.336170198,-74.7618713379999,0
			41.3390693660001,-74.7602004999999,0
			41.3411293030001,-74.7581024169999,0
			41.3422203060001,-74.7571258539999,0
			41.3442420960002,-74.7537078859999,0
			41.3455314640001,-74.7506027229999,0
			41.3463592530001,-74.7461471559999,0
			41.3471412670002,-74.7419586179999,0
			41.347278596,-74.739646912,0
			41.3474807750002,-74.7364273059999,0
			41.346931457,-74.7321777339999,0
			41.346851348,-74.727798462,0
			41.3473091120001,-74.724746704,0
			41.3485107430001,-74.7210998529999,0
			41.350219726,-74.716133118,0
			41.351871491,-74.7112960809999,0
			41.353179932,-74.7062225329999,0
			41.3535614020001,-74.7052459719999,0
			41.35490036,-74.7018661489999,0
			41.357639314,-74.695472717,0
			41.3358688360001,-74.6491775499999,0
			41.3152122510001,-74.604972839,0
			41.2839698790001,-74.5362777699999,0
			41.2247505190002,-74.4100570679999,0
			41.2111091620001,-74.3831329339999,0
			41.2032814030001,-74.367652893,0
			41.0988388070002,-74.488632202,0
			41.0888595590001,-74.4996032709999,0
			41.0856819150001,-74.5026473989999,0
		</coordinates>
	</polygon>
</kml>
