<?xml version="1.0" encoding="UTF-8"?>
<kml xmlns="http://earth.google.com/kml/2.2">
	<polygon id="USA_VT_Grand_Isle" samplingProbability="1">
		<coordinates>
			45.010250092,-73.344177246,0
			45.0113601690002,-73.2940597529999,0
			45.0119705210002,-73.266563415,0
			45.0124969480001,-73.2428131109999,0
			45.0125045780001,-73.2425079349998,0
			45.0125198360001,-73.241783143,0
			45.0125312820002,-73.2412567139999,0
			45.012561798,-73.2399063099999,0
			45.0126037600001,-73.2380142219999,0
			45.0126991270001,-73.23360443,0
			45.0127372740001,-73.2319717409999,0
			45.0129585270001,-73.2219238279999,0
			45.0133514400002,-73.2041931139999,0
			45.0134048460001,-73.193359374,0
			45.013408661,-73.1929626459999,0
			45.0133934020001,-73.192581177,0
			44.9960098280001,-73.2027130119998,0
			44.962551117,-73.226867677,0
			44.9556617740001,-73.2345275879999,0
			44.953350066,-73.2396621709999,0
			44.949691772,-73.24154663,0
			44.9433097830002,-73.2401962289999,0
			44.9360389700001,-73.234306335,0
			44.9191894530002,-73.227043152,0
			44.9110794080001,-73.2069931029999,0
			44.9106788640001,-73.195381164,0
			44.9065895080001,-73.1921157829999,0
			44.8919792180001,-73.1926116939998,0
			44.8823814400001,-73.1963806159999,0
			44.8759918210002,-73.1963119499998,0
			44.8691215520001,-73.2007369999999,0
			44.8663711550001,-73.2039413449999,0
			44.8618087770001,-73.20324707,0
			44.8526496900002,-73.207656861,0
			44.8462600710001,-73.2082443239999,0
			44.8376197810002,-73.2030029289999,0
			44.8339691170001,-73.2029571539999,0
			44.8280105600001,-73.2080383299999,0
			44.8248100280001,-73.2080078129999,0
			44.8220596320001,-73.2111968999999,0
			44.8178787230001,-73.2246627809999,0
			44.8100585940001,-73.2368011469999,0
			44.7908096320002,-73.2520294179999,0
			44.77571106,-73.258926392,0
			44.762939454,-73.2581481929999,0
			44.7497596740001,-73.2496414189999,0
			44.7361488340001,-73.2359924319999,0
			44.7229499820001,-73.228782654,0
			44.688282013,-73.228408814,0
			44.6736488350001,-73.234031677,0
			44.6499404910001,-73.2331314079999,0
			44.6453514110001,-73.238212586,0
			44.6416206360001,-73.2529296879999,0
			44.6288185120001,-73.257278442,0
			44.6078491210001,-73.254478455,0
			44.600070954,-73.2582397469999,0
			44.5899887090001,-73.2683868399998,0
			44.577499389,-73.2964630129999,0
			44.5723800670002,-73.314987183,0
			44.5629196160001,-73.364242554,0
			44.5638809210002,-73.3654861449999,0
			44.5671615600001,-73.3681030269999,0
			44.5706596380002,-73.3707427979999,0
			44.571979523,-73.3718261719999,0
			44.5738296520001,-73.373336793,0
			44.577468873,-73.3759613029999,0
			44.5815391540001,-73.377960205,0
			44.5821189880001,-73.3782119759999,0
			44.5855903630002,-73.3797073359999,0
			44.5869903560001,-73.3804016109999,0
			44.5892906190001,-73.381240845,0
			44.592899323,-73.3801269529999,0
			44.5970497130001,-73.3794174199999,0
			44.5997886660002,-73.379463195,0
			44.600990295,-73.379890442,0
			44.6034088130001,-73.3810806279999,0
			44.6075897220001,-73.3834304809999,0
			44.611679078,-73.3853073109999,0
			44.6139907840002,-73.3871688839999,0
			44.6158485410002,-73.3890304559999,0
			44.6171302790002,-73.3897094719999,0
			44.6179695130001,-73.389945984,0
			44.6216087340001,-73.3900070189999,0
			44.6254196170001,-73.3881301879999,0
			44.627559662,-73.3881607049998,0
			44.629379273,-73.388816833,0
			44.6307487490002,-73.3888397219999,0
			44.6318092340001,-73.388847352,0
			44.6325721750001,-73.3888626099999,0
			44.6334800720002,-73.388877868,0
			44.6357803350001,-73.38633728,0
			44.6376914970002,-73.3851394659999,0
			44.6390304570001,-73.3831710809998,0
			44.6408309940001,-73.3819122319999,0
			44.6422004710002,-73.381790161,0
			44.6435699470002,-73.3823928819999,0
			44.6445121770001,-73.3836364749999,0
			44.6453018190001,-73.3839035029999,0
			44.6462898250002,-73.383911133,0
			44.6481208810001,-73.383293152,0
			44.6499290480001,-73.382148743,0
			44.6508903510002,-73.3808212279999,0
			44.653160095,-73.380149842,0
			44.6540603640001,-73.38080597,0
			44.6558914180001,-73.3808288569999,0
			44.6577186580001,-73.3795700069999,0
			44.65909958,-73.377662658,0
			44.660190582,-73.376525879,0
			44.6608085630001,-73.3760681159999,0
			44.6626205450001,-73.374732971,0
			44.6653404230001,-73.373382568,0
			44.6661491400001,-73.3731002809999,0
			44.6677589410002,-73.3727264409999,0
			44.6700706490001,-73.3738479619999,0
			44.672641755,-73.373771668,0
			44.6739692690001,-73.3737258909999,0
			44.6755485540002,-73.373382568,0
			44.6801300060001,-73.3708724969999,0
			44.6860694890001,-73.368362427,0
			44.6957397470002,-73.3634109499998,0
			44.6994819650002,-73.36907196,0
			44.710880279,-73.3686828619998,0
			44.7189292910001,-73.3675231929999,0
			44.7248687750002,-73.3663330069999,0
			44.7259712220002,-73.3662033079999,0
			44.7308006280001,-73.365737914,0
			44.7328300480002,-73.365447998,0
			44.734909058,-73.365150452,0
			44.7409400950002,-73.364547729,0
			44.7441101090001,-73.363159181,0
			44.7459106460001,-73.3618164059999,0
			44.7472190870001,-73.361160277,0
			44.7486305230001,-73.360176086,0
			44.7513313300001,-73.3578033449999,0
			44.7545700070001,-73.3550720219999,0
			44.7573394790001,-73.3538665779999,0
			44.7600898750001,-73.3519668589999,0
			44.7614021290001,-73.3516769399999,0
			44.7628402710001,-73.351356505,0
			44.7660408020001,-73.3501358029999,0
			44.7683296210001,-73.3488616939999,0
			44.7726097120001,-73.3462066639999,0
			44.77566147,-73.3438110339999,0
			44.7767715470001,-73.3428878779999,0
			44.7779502870001,-73.3419113149999,0
			44.7807617190001,-73.3388061519999,0
			44.7839202890001,-73.336853028,0
			44.7866592400001,-73.336227416,0
			44.7903099060002,-73.3356323239998,0
			44.79253006,-73.335662842,0
			44.7938804630001,-73.3358459479999,0
			44.7971496590001,-73.3363571169999,0
			44.8003387460001,-73.337036132,0
			44.8035316460001,-73.338371277,0
			44.8054618840001,-73.3397598269999,0
			44.8072013850001,-73.3412170399999,0
			44.8116912850001,-73.3455505379999,0
			44.816169738,-73.350151061,0
			44.821170807,-73.3587875359999,0
			44.8236694340001,-73.3631362919999,0
			44.825870515,-73.3669967659999,0
			44.8297500620001,-73.3734664909999,0
			44.8338508610001,-73.3780059809999,0
			44.8370208750002,-73.381256104,0
			44.8414917000002,-73.3832473749999,0
			44.8443794250001,-73.383155823,0
			44.8480300910002,-73.3830413819999,0
			44.8498420710002,-73.3829879749999,0
			44.851161958,-73.3827362059999,0
			44.853908539,-73.380836487,0
			44.8575820930002,-73.378318786,0
			44.8607902540002,-73.375137329,0
			44.863059998,-73.3735733039999,0
			44.8643112190001,-73.3728713989999,0
			44.8708419800001,-73.3713531499999,0
			44.8765792840001,-73.3699111949999,0
			44.8911094670001,-73.3649368289999,0
			44.8973808290002,-73.362731933,0
			44.9011001580001,-73.36139679,0
			44.903358459,-73.360038757,0
			44.9060592650002,-73.3573760999998,0
			44.9082489030002,-73.3553237909999,0
			44.9096794120002,-73.3521270759999,0
			44.9110412610001,-73.3501892079999,0
			44.9116592400002,-73.3491134649999,0
			44.9127502440001,-73.3474960319999,0
			44.9144020090002,-73.3455657959999,0
			44.9172897340001,-73.342910767,0
			44.9198913580001,-73.3411102299999,0
			44.9213905340001,-73.3407669069999,0
			44.9226799010002,-73.3407363899999,0
			44.9254112250002,-73.3399963379999,0
			44.9290695190002,-73.3405303949999,0
			44.9298210140001,-73.340507507,0
			44.9350090020002,-73.340339661,0
			44.9427604680001,-73.3400878899999,0
			44.9435195930001,-73.3400573729999,0
			44.9518890380001,-73.339797974,0
			44.9555397040002,-73.3396759029999,0
			44.9578018200001,-73.3383178719999,0
			44.9609909070001,-73.3384017949999,0
			44.9622001660001,-73.3386611929999,0
			44.9642105100001,-73.3394012449999,0
			44.9664306640001,-73.341072083,0
			44.9710006710002,-73.345603943,0
			44.9743804940001,-73.3481292719999,0
			44.9771614070001,-73.3506088249999,0
			44.977741242,-73.3511962899999,0
			44.9796104440001,-73.3528213489999,0
			44.9832496650001,-73.3541564939999,0
			44.986450195,-73.354202271,0
			44.9886322020002,-73.353446961,0
			44.9974403370001,-73.349777221,0
			45.010250092,-73.344177246,0
		</coordinates>
	</polygon>
</kml>
