<?xml version="1.0" encoding="UTF-8"?>
<kml xmlns="http://earth.google.com/kml/2.2">
	<polygon id="USA_NJ_Camden" samplingProbability="1">
		<coordinates>
			39.7322198790001,-74.7358401399999,0
			39.709961,-74.7614669999999,0
			39.7016727450001,-74.7711207149999,0
			39.6526794430001,-74.8281860359999,0
			39.6094703680002,-74.877540589,0
			39.6130790700001,-74.8841323849999,0
			39.6194000240002,-74.8919219969999,0
			39.6212120060002,-74.8919372559999,0
			39.6230201730002,-74.8925399789999,0
			39.6280097970002,-74.893173218,0
			39.6298103340002,-74.897361755,0
			39.6311607370001,-74.900947571,0
			39.6356811520001,-74.903366089,0
			39.6442909250001,-74.9057998649998,0
			39.6610488900001,-74.9088821419999,0
			39.6683006280001,-74.9107131959998,0
			39.6805114750001,-74.9203491219999,0
			39.684570313,-74.9269485469999,0
			39.689540863,-74.9287719719999,0
			39.6940498350001,-74.9353713989999,0
			39.7003021250001,-74.964698791,0
			39.7047805790002,-74.9790801989998,0
			39.711071014,-74.9928741459999,0
			39.717399598,-74.9959030149999,0
			39.7259597770001,-75.009117127,0
			39.7277488710002,-75.0175018319999,0
			39.7308998110001,-75.02231598,0
			39.7404212950001,-75.0217819219999,0
			39.7472190860001,-75.0218429559999,0
			39.750839233,-75.0242462159999,0
			39.7580604560001,-75.0320816029999,0
			39.7634696970001,-75.0375061039999,0
			39.7675399780001,-75.0417327879999,0
			39.771610261,-75.042945862,0
			39.7752304080001,-75.0453720079999,0
			39.7788391120001,-75.0495910639999,0
			39.7801818850001,-75.0531997679999,0
			39.7837791440001,-75.0592117309999,0
			39.7878303540001,-75.064628601,0
			39.7928085320001,-75.06767273,0
			39.7937088020001,-75.0688705439999,0
			39.7950592050001,-75.0718688969999,0
			39.7986793520002,-75.0736999509999,0
			39.805480958,-75.0737533579999,0
			39.811328888,-75.082778931,0
			39.8144798280001,-75.087593079,0
			39.8221893310001,-75.0876464839999,0
			39.8276405340001,-75.084106446,0
			39.8358001710002,-75.084182739,0
			39.8376121520001,-75.0847930899999,0
			39.843059539,-75.0836257929999,0
			39.8462219250001,-75.0860519419999,0
			39.8511810300001,-75.092689515,0
			39.855659485,-75.102912902,0
			39.8601684580001,-75.1083374029999,0
			39.8637619020001,-75.115562439,0
			39.8696403500001,-75.11920166,0
			39.873699188,-75.1222381599999,0
			39.8763999940001,-75.1276474009999,0
			39.8781890880001,-75.1312561029999,0
			39.881370545,-75.130096436,0
			39.8858909610001,-75.1331329349999,0
			39.889530182,-75.1409912109999,0
			39.8901100160001,-75.140197754,0
			39.893119812,-75.137390137,0
			39.8967590330001,-75.1344223029999,0
			39.8999519350002,-75.132652283,0
			39.9040298460002,-75.131492614,0
			39.9054908750002,-75.131118774,0
			39.9085006710002,-75.1306228629999,0
			39.9125900270001,-75.1304473869999,0
			39.9152717580001,-75.1311111459999,0
			39.9180488580001,-75.1321105949999,0
			39.921710967,-75.1337890629999,0
			39.9244499210001,-75.134902954,0
			39.9285507200001,-75.1359558099999,0
			39.9326591500002,-75.1370162969999,0
			39.9367485050001,-75.1374893189999,0
			39.9403800970002,-75.13796997,0
			39.9443511960002,-75.1384429939999,0
			39.947940826,-75.137680054,0
			39.9504318230001,-75.1372070309999,0
			39.9534988400002,-75.135726929,0
			39.95569992,-75.134346008,0
			39.9584007270001,-75.131378173,0
			39.9613609330001,-75.1275558469999,0
			39.9622001650001,-75.126457215,0
			39.9632606520001,-75.124610901,0
			39.9663620000001,-75.119132995,0
			39.9703292850002,-75.1110687259999,0
			39.9723892220002,-75.1038970949999,0
			39.9735603340001,-75.0997009289999,0
			39.9754104610001,-75.0919113159999,0
			39.977249145,-75.0841293339998,0
			39.9798316960001,-75.0774459839998,0
			39.9827499400001,-75.072769165,0
			39.9855995180002,-75.068466187,0
			39.9888801570001,-75.0649261469998,0
			39.9918708800002,-75.0614318849999,0
			39.9936904900001,-75.0602493279999,0
			39.9910087590002,-75.0512161249999,0
			39.9942016590001,-75.047050477,0
			39.9946594230001,-75.044052124,0
			39.9951286320001,-75.0404510499999,0
			39.9955902090002,-75.0380630499999,0
			39.9942512510001,-75.035636902,0
			39.9929008480001,-75.033226014,0
			39.9924621580001,-75.0290298469999,0
			39.9929313670001,-75.025428771,0
			39.9920387280001,-75.0224227899999,0
			39.9893188480001,-75.0199966439999,0
			39.9870719900002,-75.01638031,0
			39.984809876,-75.015167235,0
			39.9821014400001,-75.0121536259999,0
			39.9798393260002,-75.0097274779999,0
			39.9789390560001,-75.0109329219999,0
			39.977561952,-75.0133132929999,0
			39.97574997,-75.014495849,0
			39.973930359,-75.015090942,0
			39.9721107490001,-75.0156784059999,0
			39.9698410030001,-75.0174636849999,0
			39.9671096800001,-75.019836426,0
			39.9644012450001,-75.018623352,0
			39.9589691160002,-75.015579224,0
			39.9567108150001,-75.013160706,0
			39.9550590520001,-75.0127792359999,0
			39.9530792250002,-75.0143280029998,0
			39.952171327,-75.015525817,0
			39.9503517150001,-75.0173187259999,0
			39.9485321040001,-75.017906189,0
			39.9467201240001,-75.016082763,0
			39.9458389280002,-75.0124816889999,0
			39.944938661,-75.0094833369999,0
			39.9435920720001,-75.00705719,0
			39.9422416690002,-75.0040588369999,0
			39.9417991640001,-75.0010528559999,0
			39.939998627,-74.9980468749999,0
			39.9395484930001,-74.9968414309999,0
			39.9391098030001,-74.9926376339999,0
			39.9391212460002,-74.9902420049999,0
			39.9386787420001,-74.9860382079999,0
			39.9396209720002,-74.9788360599999,0
			39.9382705680001,-74.9752426139999,0
			39.9360008240001,-74.9752273559999,0
			39.9350891120002,-74.9770202629999,0
			39.9341697690001,-74.9800109849999,0
			39.9323616040001,-74.980003357,0
			39.930980682,-74.983589173,0
			39.928260804,-74.984169005,0
			39.9246521000001,-74.980537415,0
			39.9219589240002,-74.973930358,0
			39.9210815430002,-74.9649429319999,0
			39.9174690260001,-74.9601058949999,0
			39.911140442,-74.9546661379999,0
			39.9084320070002,-74.9528579709998,0
			39.902542114,-74.9516220099999,0
			39.8980293280002,-74.946197511,0
			39.8948593140001,-74.9431762689999,0
			39.892601013,-74.942565918,0
			39.8894386300001,-74.93775177,0
			39.88628006,-74.9341430659999,0
			39.8822212220001,-74.9293212899999,0
			39.874969482,-74.9274826039999,0
			39.8228912360001,-74.9110031119999,0
			39.789829255,-74.9006271359999,0
			39.7875709540002,-74.8976287849999,0
			39.785308838,-74.8946228019999,0
			39.7830619810001,-74.8898239139999,0
			39.7821693430001,-74.883239746,0
			39.7821922300001,-74.877845765,0
			39.7826614390001,-74.873657227,0
			39.7835807800001,-74.866493226,0
			39.7858810420001,-74.857505798,0
			39.788162232,-74.8509368889999,0
			39.7886314390001,-74.8449630739999,0
			39.789112091,-74.837181092,0
			39.7886810310001,-74.825202941,0
			39.787349701,-74.8174209589999,0
			39.7841987610001,-74.8084259029999,0
			39.7810401930001,-74.802429199,0
			39.7728996290001,-74.7946166999999,0
			39.7706489560002,-74.7874298089999,0
			39.7606887820001,-74.78201294,0
			39.7588806150001,-74.7801971439999,0
			39.7570686350002,-74.7765960689999,0
			39.756618501,-74.7748031619999,0
			39.753910064,-74.7735977179999,0
			39.7516403200001,-74.7723922739999,0
			39.748931886,-74.767601014,0
			39.7448692330001,-74.7616043089999,0
			39.7430686960001,-74.755012512,0
			39.7403602600002,-74.7490158079999,0
			39.7322198790001,-74.7358401399999,0
		</coordinates>
	</polygon>
</kml>
