<?xml version="1.0" encoding="UTF-8"?>
<kml xmlns="http://earth.google.com/kml/2.2">
	<polygon id="USA_KY_Ballard" samplingProbability="1">
		<coordinates>
			36.9838714600001,-89.133888245,0
			36.9906196590001,-89.145118714,0
			36.9964904790002,-89.154533386,0
			37.010528564,-89.170211792,0
			37.0273513800001,-89.179862977,0
			37.0296211240002,-89.1807327279999,0
			37.0306396490002,-89.181007386,0
			37.0410308830002,-89.1815261849999,0
			37.050849916,-89.1797866809999,0
			37.0536499020001,-89.1788864139999,0
			37.05904007,-89.177085877,0
			37.0680809030001,-89.170700073,0
			37.0712890630002,-89.168426514,0
			37.0762596140001,-89.1649322499999,0
			37.0766487120002,-89.164596557,0
			37.101509095,-89.1359176629999,0
			37.1027603160001,-89.1344833379999,0
			37.1178207390001,-89.1170959459999,0
			37.1210098260001,-89.113960267,0
			37.1228904720001,-89.112419129,0
			37.143169404,-89.099609374,0
			37.1622810370001,-89.087532043,0
			37.1717491160001,-89.0796661369999,0
			37.2078590400002,-89.0342178349999,0
			37.2231788640001,-89.0071105949999,0
			37.223701478,-89.005226136,0
			37.2287216180001,-88.9871978769999,0
			37.2299690240001,-88.959503174,0
			37.2275390630001,-88.933937073,0
			37.0002708430001,-88.8358383189999,0
			36.9536399830001,-88.815887452,0
			36.9544105540002,-88.8205413819999,0
			36.952289582,-88.8319702149999,0
			36.9500808710001,-88.846282959,0
			36.9493713380002,-88.855476379,0
			36.9500503550001,-88.863571166,0
			36.9479904180001,-88.872116089,0
			36.9452285770001,-88.8898468019999,0
			36.9423294080001,-88.8960571279999,0
			36.9387893670001,-88.909149169,0
			36.9388999950002,-88.9212570189999,0
			36.9378814700001,-88.9252395629999,0
			36.9363708490001,-88.9303588859999,0
			36.934310913,-88.9388961779999,0
			36.9327087400001,-88.9474716179999,0
			36.930568695,-88.958892823,0
			36.930919648,-88.962356568,0
			36.927051545,-88.9708328249999,0
			36.9264106750001,-88.9771270749999,0
			36.9253692630001,-88.981697082,0
			36.9229698180001,-88.9861907969999,0
			36.9239501950001,-88.999481202,0
			36.927391053,-89.0059890749999,0
			36.9286003120002,-89.0112304679998,0
			36.9303512570002,-89.01361847,0
			36.9283103940002,-89.0210113529999,0
			36.925479889,-89.024909974,0
			36.9274292000001,-89.0359420779999,0
			36.9254112250002,-89.0427627559999,0
			36.925220489,-89.049087524,0
			36.9321098320001,-89.046539307,0
			36.9378395080001,-89.051986695,0
			36.9357299810001,-89.0622558589998,0
			36.931838989,-89.0707168579999,0
			36.928878785,-89.0636672969999,0
			36.9209518440001,-89.0707778929999,0
			36.9161720280002,-89.079193115,0
			36.9210205070002,-89.084030152,0
			36.9314002990001,-89.085678101,0
			36.9349594130001,-89.0881500249999,0
			36.9395103460001,-89.087791443,0
			36.9448204050001,-89.092079164,0
			36.944759369,-89.0943832389999,0
			36.943328858,-89.096618652,0
			36.9444999700002,-89.101669311,0
			36.9480285650001,-89.101501465,0
			36.9541015620002,-89.1005859369999,0
			36.9631385810002,-89.101608276,0
			36.9649505610001,-89.1026992789999,0
			36.9756202710001,-89.10912323,0
			36.9808197020002,-89.1174468999999,0
			36.9837303160001,-89.126235962,0
			36.9838714600001,-89.133888245,0
		</coordinates>
	</polygon>
</kml>
