<?xml version="1.0" encoding="UTF-8"?>
<kml xmlns="http://earth.google.com/kml/2.2">
	<polygon id="USA_OH_Mercer" samplingProbability="1">
		<coordinates>
			40.572311401,-84.803741455,0
			40.700000763,-84.8024978649999,0
			40.7051315300001,-84.8025131229999,0
			40.7281417860001,-84.8022613529999,0
			40.7278709410002,-84.6894226079999,0
			40.7280311580002,-84.5717391969999,0
			40.728038789,-84.4564895629999,0
			40.684951782,-84.455909729,0
			40.6409492500001,-84.455909729,0
			40.553390503,-84.4553222659999,0
			40.4658508300001,-84.4553527829999,0
			40.378299713,-84.4553604129999,0
			40.3583488480002,-84.455406188,0
			40.354591369,-84.4341964719999,0
			40.3545494070001,-84.4951400749999,0
			40.3533020020002,-84.6000976559999,0
			40.3519401550002,-84.6000518809999,0
			40.3523406990001,-84.7098922729999,0
			40.3527908320002,-84.78653717,0
			40.353351594,-84.8058929439999,0
			40.572311401,-84.803741455,0
		</coordinates>
	</polygon>
</kml>
