<?xml version="1.0" encoding="UTF-8"?>
<kml xmlns="http://earth.google.com/kml/2.2">
	<polygon id="USA_IN_Franklin" samplingProbability="1">
		<coordinates>
			39.3055610650001,-84.8190917969999,0
			39.3065185550001,-84.9272918699999,0
			39.307868958,-85.0384674069999,0
			39.3081817630001,-85.065216065,0
			39.3080406190001,-85.2186431879999,0
			39.3071517950001,-85.220436096,0
			39.268009185,-85.2966003429999,0
			39.4534301760001,-85.2976760859999,0
			39.5264320370001,-85.2988662719999,0
			39.5267791760001,-85.2422027589999,0
			39.52696991,-85.1306610099999,0
			39.5272598260001,-85.036422729,0
			39.5275497450002,-85.0226898199999,0
			39.524391174,-85.023345948,0
			39.5242385870001,-85.010826112,0
			39.524040223,-84.994132995,0
			39.5217590330001,-84.8154296879999,0
			39.4692306520002,-84.81590271,0
			39.413421632,-84.816581727,0
			39.3673400880002,-84.8181076059999,0
			39.3531494150001,-84.8185806279999,0
			39.3055610650001,-84.8190917969999,0
		</coordinates>
	</polygon>
</kml>
