<?xml version="1.0" encoding="UTF-8"?>
<kml xmlns="http://earth.google.com/kml/2.2">
	<polygon id="USA_IL_Jefferson" samplingProbability="1">
		<coordinates>
			38.126258851,-88.7055969239999,0
			38.1273803710001,-88.8155670169999,0
			38.1270599360001,-88.9314193729999,0
			38.1266708380001,-88.9460372929999,0
			38.1251411440002,-89.010986329,0
			38.1251487740001,-89.013336182,0
			38.1252593990001,-89.0414276129998,0
			38.1260108950001,-89.132682801,0
			38.126522064,-89.151412964,0
			38.2135391240001,-89.1498184199999,0
			38.301460266,-89.1470565799999,0
			38.3898391720002,-89.14604187,0
			38.4741401680002,-89.144447328,0
			38.47467041,-89.0345306399999,0
			38.474910736,-88.97985077,0
			38.4769210830001,-88.9228210449999,0
			38.4758987430001,-88.8111419669999,0
			38.4752387990001,-88.7018127439999,0
			38.3882217410002,-88.70275116,0
			38.299388886,-88.703720093,0
			38.2572402960002,-88.704177857,0
			38.2141799930001,-88.704643249,0
			38.126258851,-88.7055969239999,0
		</coordinates>
	</polygon>
</kml>
