<?xml version="1.0" encoding="UTF-8"?>
<kml xmlns="http://earth.google.com/kml/2.2">
	<polygon id="USA_NE_Adams" samplingProbability="1">
		<coordinates>
			40.6894416800001,-98.726249694,0
			40.7003288280001,-98.7260589599999,0
			40.7002792360001,-98.721817016,0
			40.6991119380002,-98.6102828969999,0
			40.6995697020002,-98.4914398189999,0
			40.6995315550001,-98.3780517579999,0
			40.6991806040001,-98.282867432,0
			40.698669435,-98.278038026,0
			40.6106796270001,-98.2795562749999,0
			40.5793800350001,-98.2797088619999,0
			40.5698585510002,-98.279937745,0
			40.5276718150001,-98.2797393809999,0
			40.5240402220001,-98.2798309329999,0
			40.3512001030001,-98.2779617299999,0
			40.3516387940001,-98.344306946,0
			40.3512306220001,-98.3829498299999,0
			40.3512992850001,-98.3877716059999,0
			40.3526420600001,-98.496353149,0
			40.351779938,-98.5006027229999,0
			40.352119446,-98.6097869869999,0
			40.3519706740001,-98.7244262689999,0
			40.436779023,-98.724716187,0
			40.6894416800001,-98.726249694,0
		</coordinates>
	</polygon>
</kml>
