<?xml version="1.0" encoding="UTF-8"?>
<kml xmlns="http://earth.google.com/kml/2.2">
	<polygon id="USA_GA_Houston" samplingProbability="1">
		<coordinates>
			32.6922798160001,-83.7006225589998,0
			32.6913719190002,-83.6995162969999,0
			32.6904716490001,-83.697875976,0
			32.6891098030001,-83.696243286,0
			32.6886711120001,-83.6946029669999,0
			32.68914032,-83.6929702759999,0
			32.68914032,-83.6924209599999,0
			32.6882400520001,-83.69078064,0
			32.687789916,-83.690231322,0
			32.6873397830001,-83.6885910029999,0
			32.6859893790001,-83.68585968,0
			32.6850891120002,-83.683670045,0
			32.684188843,-83.682029723,0
			32.682838439,-83.6798400879999,0
			32.681480408,-83.6787261959999,0
			32.6801185620001,-83.6776428219999,0
			32.678771973,-83.6754531869999,0
			32.6778602610001,-83.6738128659998,0
			32.6774215700001,-83.6716232299999,0
			32.6765289310001,-83.6694259649998,0
			32.6751709000001,-83.666687012,0
			32.6747322090001,-83.6650619499999,0
			32.6742897040002,-83.662330627,0
			32.6742897040002,-83.6612396239999,0
			32.674308777,-83.657966613,0
			32.6738700860001,-83.655792236,0
			32.67388916,-83.653610229,0
			32.673900605,-83.6514358519999,0
			32.6739120480001,-83.6492462169999,0
			32.6739196790002,-83.647071838,0
			32.6743812560001,-83.645988464,0
			32.674388886,-83.6448974609999,0
			32.6734809880001,-83.643806457,0
			32.671211242,-83.6426925669999,0
			32.6698608410001,-83.6405029299999,0
			32.6689720170001,-83.6361389149999,0
			32.668979645,-83.6339569099999,0
			32.6689987180001,-83.6317825309999,0
			32.6694602970002,-83.629608154,0
			32.6699295040002,-83.6274261469999,0
			32.6690292370002,-83.6257858269998,0
			32.6681289670001,-83.6241531379999,0
			32.6667709360001,-83.6225128169999,0
			32.665409088,-83.621406555,0
			32.6640586860001,-83.6192169189999,0
			32.663608551,-83.6181259159999,0
			32.6636199960002,-83.6164932249999,0
			32.6645393370001,-83.6148605349999,0
			32.6650009160001,-83.6121368399999,0
			32.6650199890001,-83.609962463,0
			32.6641197200001,-83.6077804559999,0
			32.6632118220002,-83.6072158819998,0
			32.6618499760001,-83.6066665639999,0
			32.6613998420002,-83.6055831909998,0
			32.6614112850002,-83.6039428709999,0
			32.6618690490002,-83.602859498,0
			32.6627807620002,-83.6017761219999,0
			32.6637001050001,-83.600151061,0
			32.664161682,-83.5990600579999,0
			32.6646194460001,-83.597427368,0
			32.6646308910001,-83.5963363649999,0
			32.6651000980001,-83.594696045,0
			32.6651000980001,-83.5930709839999,0
			32.6646614070001,-83.5914306649999,0
			32.6642112740001,-83.5892486579999,0
			32.6628494270001,-83.5876083379999,0
			32.6614913940001,-83.586509704,0
			32.6601295470001,-83.5854110729999,0
			32.6592216500001,-83.5853958119999,0
			32.6592292780002,-83.5848464969999,0
			32.6565017700001,-83.5826568609999,0
			32.6560592640001,-83.58101654,0
			32.6565094000002,-83.580482482,0
			32.656978607,-83.5788497929999,0
			32.6574401860001,-83.577766417,0
			32.6574516300001,-83.576126098,0
			32.6583595270001,-83.5750503549999,0
			32.6588211060001,-83.574508667,0
			32.658370972,-83.572868348,0
			32.6579284670001,-83.571228028,0
			32.6583900460002,-83.5706863399999,0
			32.6597595220002,-83.569610595,0
			32.6597595220002,-83.568519592,0
			32.6602287300001,-83.566886902,0
			32.660240173,-83.565246583,0
			32.659339905,-83.563072204,0
			32.6584320080001,-83.5614318839999,0
			32.657520295,-83.561416626,0
			32.656608582,-83.561416626,0
			32.6547889720001,-83.561401368,0
			32.6538810720002,-83.561401368,0
			32.652980805,-83.5597610479999,0
			32.652980805,-83.55921173,0
			32.652530671,-83.5575790409999,0
			32.6520805350001,-83.5564880379999,0
			32.6511688230001,-83.5559310909999,0
			32.650718689,-83.555389404,0
			32.6497993460001,-83.5559158329999,0
			32.6488914490002,-83.556472779,0
			32.6484298720001,-83.557548522,0
			32.6475219720002,-83.5575408939998,0
			32.6466102610001,-83.557533264,0
			32.6456985480001,-83.557533264,0
			32.6447906490002,-83.5569763179999,0
			32.6443405150001,-83.556427002,0
			32.6438903810001,-83.5547866829999,0
			32.6434402480001,-83.5537033069999,0
			32.642082214,-83.552597045,0
			32.6411705020001,-83.552062988,0
			32.6407203680001,-83.5515060419999,0
			32.6407318110001,-83.5504074099999,0
			32.6402702340002,-83.5498733529998,0
			32.639369965,-83.5493164069999,0
			32.6389122010002,-83.5498580939999,0
			32.6384506220001,-83.55039978,0
			32.6370811470002,-83.5509262089999,0
			32.6361694350001,-83.5514831529999,0
			32.635711671,-83.5509262089999,0
			32.634799958,-83.550918579,0
			32.634361267,-83.549285888,0
			32.6334495550001,-83.5487289439998,0
			32.6325416570001,-83.5487289439998,0
			32.6316299440001,-83.54763031,0
			32.6316299440001,-83.547088622,0
			32.631179811,-83.5459899909999,0
			32.6302719110001,-83.5459899909999,0
			32.629360198,-83.5459823599999,0
			32.629360198,-83.545433045,0
			32.6284599310001,-83.5443420409999,0
			32.628002167,-83.5448837289998,0
			32.6266288750001,-83.5448837289998,0
			32.6261787420001,-83.5443267829999,0
			32.6252708440001,-83.5437774669999,0
			32.6243591310001,-83.543769837,0
			32.623908998,-83.5443115239999,0
			32.6229896550001,-83.544296264,0
			32.6220893870002,-83.543746948,0
			32.6211814880001,-83.5432128909999,0
			32.6202697750001,-83.542655945,0
			32.6198120110001,-83.5431900019999,0
			32.6193504340001,-83.54373169,0
			32.6179809570001,-83.5448074349999,0
			32.6175193780002,-83.5458984369999,0
			32.6170616150001,-83.5469894399999,0
			32.6166000380001,-83.5480728159999,0
			32.6152305610001,-83.548057555,0
			32.614318848,-83.547508239,0
			32.6111412050001,-83.545852662,0
			32.6106910710002,-83.5453109739999,0
			32.6097908010001,-83.543670654,0
			32.608879089,-83.542572021,0
			32.607521057,-83.541473389,0
			32.6057014470002,-83.5409164429999,0
			32.6043396010001,-83.540367127,0
			32.6034317010001,-83.5398178089999,0
			32.602062226,-83.5403518669999,0
			32.6011390680001,-83.54144287,0
			32.5997695920001,-83.5419692999999,0
			32.5988616940001,-83.54196167,0
			32.5970420840002,-83.541946411,0
			32.5956802370002,-83.541397095,0
			32.5952186580001,-83.5408477769998,0
			32.5938606270001,-83.5408401489999,0
			32.5915794380001,-83.540817261,0
			32.5906715400001,-83.5402832029999,0
			32.5897712710001,-83.5391769409999,0
			32.589309692,-83.5386428839998,0
			32.5888595580001,-83.5380859379999,0
			32.5884094240002,-83.5375366219999,0
			32.5870513910002,-83.5358962999999,0
			32.586601257,-83.5348129269998,0
			32.5852317810001,-83.5347976689998,0
			32.584320068,-83.5358657839999,0
			32.5834007270001,-83.53642273,0
			32.5820388800001,-83.5369491569999,0
			32.5811195380001,-83.5363998409999,0
			32.5802192680002,-83.536392211,0
			32.5792999270001,-83.5363769529999,0
			32.57839203,-83.5363769529999,0
			32.5774803170002,-83.5363769529999,0
			32.5765686040001,-83.5363693249998,0
			32.5760993950001,-83.539093018,0
			32.5765495310001,-83.5396270749998,0
			32.5765495310001,-83.540176391,0
			32.5774612440001,-83.5407333369999,0
			32.577449798,-83.5418167119999,0
			32.5769996650002,-83.5423583979999,0
			32.5751686090002,-83.5428924559999,0
			32.5747108470001,-83.5434265129999,0
			32.5742607110002,-83.543968201,0
			32.5742492680001,-83.5450592039999,0
			32.573791504,-83.5461425779999,0
			32.5733184820002,-83.5483169549998,0
			32.5719604490001,-83.5483093269999,0
			32.569679261,-83.5482864379999,0
			32.5678596490001,-83.548278808,0
			32.565120698,-83.5482559199999,0
			32.5642089850001,-83.548797607,0
			32.5633010870001,-83.5487899769999,0
			32.5628509520002,-83.5482406609999,0
			32.5628509520002,-83.5476989759999,0
			32.5614891050001,-83.546058654,0
			32.5605812080001,-83.5465927119999,0
			32.5573921210002,-83.5454864499999,0
			32.5569419870001,-83.5444030759999,0
			32.5569496150002,-83.54384613,0
			32.5569496150002,-83.543312073,0
			32.5560417180001,-83.5427627569999,0
			32.5560417180001,-83.5422058109999,0
			32.5528717040002,-83.539466858,0
			32.5515022270001,-83.539466858,0
			32.5510406500002,-83.540000915,0
			32.5496788020001,-83.5405426029999,0
			32.5492210380001,-83.5399932869999,0
			32.548309325,-83.5394363409999,0
			32.547859192,-83.538887023,0
			32.5469512940001,-83.5377960209998,0
			32.5455894480002,-83.5372467039999,0
			32.5446815500002,-83.5372390749999,0
			32.5442199710001,-83.5366973879999,0
			32.5428619400001,-83.536682129,0
			32.5419502270001,-83.5372161869999,0
			32.5419387820001,-83.537773133,0
			32.5410308840001,-83.5388488759999,0
			32.5401115410002,-83.539390564,0
			32.539199829,-83.5393829339999,0
			32.5382919310001,-83.5393829339999,0
			32.5369300840001,-83.5388183599999,0
			32.5360221870002,-83.5382690439999,0
			32.5351104740002,-83.5377197259999,0
			32.5346603400001,-83.5371704099999,0
			32.5337486280001,-83.5366210939999,0
			32.5332908640001,-83.5360794059999,0
			32.532379151,-83.5360717779999,0
			32.531021118,-83.5360565179999,0
			32.5301094050002,-83.5355072019999,0
			32.529190064,-83.53604889,0
			32.5287399300001,-83.537132263,0
			32.5278205880001,-83.5382232669999,0
			32.5273590090002,-83.538757324,0
			32.526451111,-83.538749694,0
			32.5255393980001,-83.5387420659999,0
			32.5241699220002,-83.538192748,0
			32.5237197880001,-83.537635804,0
			32.5232696540001,-83.536552429,0
			32.5232696540001,-83.5360107429999,0
			32.5232810970001,-83.535469055,0
			32.5223693850002,-83.5343704209999,0
			32.5214614870002,-83.5343627929999,0
			32.5205497740001,-83.5338211059999,0
			32.5200920100001,-83.5343627929999,0
			32.5191802980002,-83.5343627929999,0
			32.5182685850002,-83.5343475349999,0
			32.5173606870002,-83.534339905,0
			32.5169105540001,-83.533790589,0
			32.5169105540001,-83.5332489009999,0
			32.5169105540001,-83.532707214,0
			32.5169105540001,-83.532157898,0
			32.5169219970001,-83.531616212,0
			32.5164604180002,-83.5310668939999,0
			32.515560151,-83.5299758899999,0
			32.5146484380002,-83.5294265749999,0
			32.5137405400002,-83.5294189439999,0
			32.5132789610001,-83.528877259,0
			32.5123786940001,-83.5277786249999,0
			32.5123786940001,-83.527236939,0
			32.5123786940001,-83.5267028819999,0
			32.5119285580002,-83.525596618,0
			32.5119400030002,-83.5250625599999,0
			32.5114898680001,-83.523971557,0
			32.5110321060001,-83.5234222409999,0
			32.511039734,-83.5228805549999,0
			32.5101203930001,-83.5223312369999,0
			32.509220123,-83.5217819209999,0
			32.508758545,-83.5223159789999,0
			32.5078506470001,-83.522857667,0
			32.5064811700001,-83.523391724,0
			32.5060195930001,-83.5239257819999,0
			32.505569458,-83.5233764659999,0
			32.5041999810001,-83.522827148,0
			32.503749847,-83.5222930899998,0
			32.5032997130001,-83.5217361439999,0
			32.5023994440001,-83.519561767,0
			32.5014801030002,-83.519546509,0
			32.5010299690001,-83.519012451,0
			32.5005798340002,-83.5184631359999,0
			32.499671936,-83.51790619,0
			32.498760223,-83.5168228139999,0
			32.4983100900001,-83.5162658699999,0
			32.496501923,-83.5146331789999,0
			32.4960403440001,-83.514076233,0
			32.495140076,-83.512992859,0
			32.4937820430001,-83.5102691649999,0
			32.4928817750002,-83.508628845,0
			32.4919815060002,-83.5064468379999,0
			32.4910812380001,-83.503723145,0
			32.4906311050001,-83.50263977,0
			32.489730835,-83.500457764,0
			32.489730835,-83.4999160769999,0
			32.4892921450001,-83.496650696,0
			32.4892921450001,-83.496109008,0
			32.4892921450001,-83.4955596929999,0
			32.4897499090002,-83.4944763189999,0
			32.4897613520002,-83.4939270009999,0
			32.4897613520002,-83.4933929439999,0
			32.4893112180001,-83.4923019399999,0
			32.4879417420001,-83.492286682,0
			32.487030029,-83.4917373659999,0
			32.4865798950001,-83.4906463619999,0
			32.4856719970001,-83.4900970459999,0
			32.4838485720002,-83.4900970459999,0
			32.4833908080001,-83.4911804199999,0
			32.4824790950001,-83.492256165,0
			32.4820213320002,-83.4927978509999,0
			32.4811019910002,-83.493339539,0
			32.4806518550001,-83.492790223,0
			32.4792900090002,-83.492240905,0
			32.478382111,-83.4911499029999,0
			32.4779205320001,-83.4906005849999,0
			32.477020264,-83.4900512689999,0
			32.476100922,-83.490592957,0
			32.4756507880001,-83.491127015,0
			32.4747314450001,-83.492210388,0
			32.4738121040002,-83.4932861329999,0
			32.4733505250001,-83.494377137,0
			32.4724388120001,-83.4943695069999,0
			32.4715309150002,-83.4943695069999,0
			32.4701690680002,-83.4943466179999,0
			32.4692497250001,-83.4937973019999,0
			32.4683494560001,-83.493263245,0
			32.4674415580001,-83.492706299,0
			32.4660720820002,-83.493247987,0
			32.465610505,-83.4937820439999,0
			32.464698792,-83.494316102,0
			32.4633293160001,-83.4948577869999,0
			32.4624214180001,-83.494308471,0
			32.461509705,-83.4932174679999,0
			32.4610595710001,-83.492126464,0
			32.4596900950001,-83.492118836,0
			32.4587821970001,-83.4926528939998,0
			32.457870485,-83.493186951,0
			32.4569587720002,-83.4937286369999,0
			32.4564895630002,-83.494812012,0
			32.4560317990001,-83.4959030159999,0
			32.4551200860001,-83.4964370729999,0
			32.453750611,-83.4980621349999,0
			32.4523811350001,-83.4980468739999,0
			32.4505615250001,-83.4974975579998,0
			32.448280335,-83.498016358,0
			32.4473686230001,-83.497467042,0
			32.4464607250001,-83.4963760379999,0
			32.446010589,-83.494750977,0
			32.445560455,-83.4936599729999,0
			32.4446716310001,-83.4914932249999,0
			32.4437599190001,-83.4903869629999,0
			32.4424018870002,-83.4892959589999,0
			32.4410400390001,-83.488197327,0
			32.4401321410002,-83.48766327,0
			32.438758849,-83.4876403809999,0
			32.4373893750001,-83.4876327509999,0
			32.4364814750001,-83.4881668089999,0
			32.4351120010001,-83.488708496,0
			32.4346504220002,-83.4892501819999,0
			32.4337387090001,-83.489242554,0
			32.432830811,-83.489227296,0
			32.431919099,-83.489227296,0
			32.431011201,-83.4886932379999,0
			32.4300994880001,-83.488136292,0
			32.4287414550002,-83.487579346,0
			32.427829742,-83.487579346,0
			32.4269218450001,-83.4870300299999,0
			32.4269218450001,-83.4864883419999,0
			32.426471711,-83.485939027,0
			32.4260101320001,-83.4853973389999,0
			32.4246521000002,-83.484298705,0
			32.4232788090001,-83.484832763,0
			32.4223709110001,-83.484832763,0
			32.4214591980002,-83.484832763,0
			32.420551301,-83.4842758189999,0
			32.4201011650001,-83.483726501,0
			32.4196395880001,-83.483177185,0
			32.4182815550002,-83.4826431269998,0
			32.417369842,-83.483169555,0
			32.4155387890001,-83.483161927,0
			32.4141807550002,-83.483146668,0
			32.412811279,-83.4831390379999,0
			32.4091606150001,-83.4825668339998,0
			32.4082489020001,-83.4831161499999,0
			32.4050598150001,-83.484176636,0
			32.404602051,-83.4847183219999,0
			32.4041404720002,-83.485801698,0
			32.404129029,-83.4879760749999,0
			32.4045791630001,-83.4896087639999,0
			32.4041213990001,-83.490692139,0
			32.404109955,-83.4934082039999,0
			32.4036407460002,-83.495567323,0
			32.4027290360001,-83.4972000119999,0
			32.4018096930001,-83.4977264409999,0
			32.4013519290001,-83.4982833849999,0
			32.3999786370002,-83.499893188,0
			32.3990592960002,-83.5009765619999,0
			32.3972396860001,-83.5009613029998,0
			32.3963317860001,-83.500946045,0
			32.3954200760002,-83.500946045,0
			32.3931388860001,-83.500938415,0
			32.3917694100001,-83.50200653,0
			32.3908500670001,-83.502548218,0
			32.389492035,-83.5025405869999,0
			32.389030457,-83.5030822749999,0
			32.389030457,-83.5036163329999,0
			32.3899421690002,-83.5036315909999,0
			32.389930726,-83.5041732789999,0
			32.389930726,-83.505256652,0
			32.3890113830001,-83.5068817129999,0
			32.3890113830001,-83.5074157709999,0
			32.3903808600002,-83.5074310309999,0
			32.3903694160001,-83.507972717,0
			32.391288757,-83.5079803469999,0
			32.3917388910002,-83.5085296629999,0
			32.3917388910002,-83.509071351,0
			32.3917312630001,-83.509613036,0
			32.3917312630001,-83.5101470939999,0
			32.3917312630001,-83.5106964119999,0
			32.3917312630001,-83.5112380969999,0
			32.3917198180001,-83.511787415,0
			32.3921813970002,-83.512329101,0
			32.3921699530001,-83.512870789,0
			32.3926315300002,-83.5134201049999,0
			32.3935394280002,-83.5134277349999,0
			32.3939895640002,-83.5139694199999,0
			32.3944396970002,-83.5145187379999,0
			32.394901276,-83.515060424,0
			32.39535141,-83.5156097419999,0
			32.395809174,-83.5161514279999,0
			32.396259308,-83.5167007449999,0
			32.3967094420001,-83.5172424309998,0
			32.3971595770001,-83.517791747,0
			32.3980789180001,-83.5177993769999,0
			32.3980712900002,-83.518341065,0
			32.3985290540001,-83.5188827509999,0
			32.399440767,-83.5188903809999,0
			32.3989791880002,-83.5194320689999,0
			32.3994293210002,-83.5199661259999,0
			32.3998909000001,-83.5205230719999,0
			32.400341034,-83.52105713,0
			32.401248932,-83.5210723879998,0
			32.401248932,-83.521606446,0
			32.401699067,-83.5221633919999,0
			32.401699067,-83.522712707,0
			32.4021492010002,-83.523246765,0
			32.4021492010002,-83.5237960809999,0
			32.4016914370001,-83.5243377689999,0
			32.3893394480002,-83.534568786,0
			32.364639283,-83.5555572509999,0
			32.3431320180002,-83.5738601689999,0
			32.3111114500001,-83.598030089,0
			32.3010406510002,-83.6060867319999,0
			32.2886810310002,-83.6157531749999,0
			32.2889404290001,-83.649909973,0
			32.2896385190002,-83.6862411499999,0
			32.2900199890001,-83.699256898,0
			32.2900085460001,-83.7003402709998,0
			32.2831802370001,-83.7002792359999,0
			32.2830619810001,-83.718711852,0
			32.287158966,-83.7187500009999,0
			32.2889900210001,-83.7187728869999,0
			32.2899017340002,-83.7187728869999,0
			32.290241242,-83.7366561899999,0
			32.2901496880001,-83.749679565,0
			32.2905120850002,-83.764320374,0
			32.2902603160002,-83.8000869749999,0
			32.2907104490002,-83.8006362909999,0
			32.290908814,-83.8364257809999,0
			32.2908210750001,-83.848358154,0
			32.3008499140001,-83.847923279,0
			32.3218116770001,-83.8476028439999,0
			32.3491592410002,-83.8473510749999,0
			32.3573608400001,-83.8468933109999,0
			32.3577499380002,-83.856658936,0
			32.3819007870001,-83.856376648,0
			32.382041931,-83.8373870849999,0
			32.4016304020001,-83.837051392,0
			32.414852142,-83.8366470329999,0
			32.4230499280001,-83.836738587,0
			32.4389991760001,-83.836906433,0
			32.4389305120001,-83.8461379999999,0
			32.4685287470001,-83.846992493,0
			32.4676208490001,-83.846443177,0
			32.4671821590001,-83.8458862309999,0
			32.4671821590001,-83.8453521729999,0
			32.466270446,-83.8453369129999,0
			32.4658203120001,-83.8448028559999,0
			32.4649086000002,-83.8447799689999,0
			32.4640007020002,-83.8447723389999,0
			32.4635505680001,-83.844223023,0
			32.4626388560001,-83.843666077,0
			32.4621887220002,-83.8431167609999,0
			32.4603691100001,-83.8425598149998,0
			32.4603691100001,-83.842018127,0
			32.4599189760002,-83.841468811,0
			32.4599304210001,-83.8409271239998,0
			32.4599304210001,-83.840393066,0
			32.460391998,-83.8398437499999,0
			32.4608497620001,-83.8393020629999,0
			32.4608497620001,-83.838760377,0
			32.4608612070001,-83.8382186889999,0
			32.4603996280001,-83.8376693729999,0
			32.4604110710001,-83.837127686,0
			32.4604110710001,-83.8365859979999,0
			32.4599609380001,-83.8360366819999,0
			32.4599609380001,-83.8354873659999,0
			32.4599685680001,-83.8349533089998,0
			32.4595222470001,-83.8343963629999,0
			32.4590721130002,-83.8338470469999,0
			32.4586105350002,-83.8333129889999,0
			32.4586219800001,-83.8327560429998,0
			32.4581718440002,-83.8322067249999,0
			32.4581718440002,-83.8316726679999,0
			32.4581794740001,-83.830581664,0
			32.4581794740001,-83.8300399779998,0
			32.4581909170001,-83.8294982909999,0
			32.457740784,-83.8289489749999,0
			32.4572792050001,-83.8283996589999,0
			32.4572906500001,-83.827857971,0
			32.4386100770001,-83.827667237,0
			32.4386405940001,-83.8233184809999,0
			32.4391212460001,-83.8206100469999,0
			32.4395904530001,-83.817359924,0
			32.4464302060002,-83.81742859,0
			32.4465484620002,-83.8005905159999,0
			32.4465713500001,-83.797866821,0
			32.4543190010002,-83.797950745,0
			32.4802818300001,-83.797668457,0
			32.4962310800001,-83.7978286739999,0
			32.4962921150001,-83.7880401609999,0
			32.4999389660001,-83.788078307,0
			32.5131492620001,-83.7876663209999,0
			32.5127601620001,-83.7778778069999,0
			32.5054702750001,-83.777801513,0
			32.505210876,-83.7500762939998,0
			32.505210876,-83.748992921,0
			32.5339202880001,-83.7487258909998,0
			32.5334701550001,-83.747627259,0
			32.5330200190002,-83.747077941,0
			32.5330200190002,-83.7465286249999,0
			32.532569885,-83.7459869379999,0
			32.532569885,-83.7454376219999,0
			32.5321197510001,-83.7448959359999,0
			32.5321197510001,-83.744346618,0
			32.5321311950001,-83.7432632449999,0
			32.531681061,-83.7427062989998,0
			32.5312309270001,-83.742156983,0
			32.5312309270001,-83.7416229249998,0
			32.530780792,-83.7410659789999,0
			32.5298690810002,-83.7405166629999,0
			32.5294189450001,-83.739967346,0
			32.5294189450001,-83.7394332879999,0
			32.5285186780001,-83.738876342,0
			32.5285186780001,-83.7377929689999,0
			32.5289802550002,-83.736709595,0
			32.5289917000002,-83.7361602789999,0
			32.5280799870001,-83.735610961,0
			32.5276298530002,-83.7345199579999,0
			32.5271797180002,-83.7339706419999,0
			32.5267295840001,-83.733421326,0
			32.5258216860001,-83.733406068,0
			32.5249099740001,-83.733406068,0
			32.5244522100001,-83.73286438,0
			32.5235404970001,-83.7333908069999,0
			32.5230903630001,-83.7328491219999,0
			32.5230903630001,-83.732299804,0
			32.5226402280001,-83.7317581179998,0
			32.5226402280001,-83.731208802,0
			32.5231018070002,-83.730667114,0
			32.522651673,-83.7301330569999,0
			32.5222015390001,-83.729576111,0
			32.5226593030002,-83.7279510499999,0
			32.5226707460001,-83.7274093619998,0
			32.5213089000001,-83.7268524159999,0
			32.5213089000001,-83.7263030999999,0
			32.5208587640001,-83.7252120969999,0
			32.5213317880002,-83.7230529779999,0
			32.5208816530002,-83.7219467159999,0
			32.521141052,-83.721046449,0
			32.5231590270001,-83.7225189199999,0
			32.5322799690002,-83.719879151,0
			32.5340995790001,-83.7204360949999,0
			32.5500488290001,-83.7200393669999,0
			32.5678100590001,-83.7201995839999,0
			32.5832901000001,-83.720336913,0
			32.584659576,-83.7198104859999,0
			32.5873985290001,-83.719833374,0
			32.589679719,-83.7198562629999,0
			32.5983314520001,-83.7193908689999,0
			32.599250795,-83.718856811,0
			32.6042900080001,-83.714546204,0
			32.6106719970002,-83.71296692,0
			32.6106414790002,-83.718406677,0
			32.6352310180001,-83.718643189,0
			32.6351699830001,-83.727890014,0
			32.6511192330001,-83.7280273429999,0
			32.6516914370001,-83.708976746,0
			32.6594314570001,-83.709053039,0
			32.6749191280002,-83.709190368,0
			32.6785888670001,-83.7037658689999,0
			32.6822509770001,-83.702171327,0
			32.6886291500002,-83.7011260979999,0
			32.6904602060001,-83.7006073009998,0
			32.6922798160001,-83.7006225589998,0
		</coordinates>
	</polygon>
</kml>
