<?xml version="1.0" encoding="UTF-8"?>
<kml xmlns="http://earth.google.com/kml/2.2">
	<polygon id="USA_NJ_Warren" samplingProbability="1">
		<coordinates>
			40.7888603210001,-74.885032654,0
			40.7870292660001,-74.8898773189999,0
			40.7847404480001,-74.8953323369999,0
			40.7829208380002,-74.8989639279999,0
			40.7801895150002,-74.9013671879999,0
			40.7747421270001,-74.9031677239999,0
			40.7706489560001,-74.9055709839999,0
			40.7679100040002,-74.911010742,0
			40.763820648,-74.9146270759999,0
			40.7560691840001,-74.926109314,0
			40.7465019240001,-74.938186645,0
			40.7383117680001,-74.9454116819999,0
			40.7342109680001,-74.949638367,0
			40.7260208140001,-74.9580841059999,0
			40.7155609140001,-74.9652786249999,0
			40.7123718270001,-74.9689102179999,0
			40.711898805,-74.973747254,0
			40.710521698,-74.9797973629999,0
			40.7087020880001,-74.980400086,0
			40.7068786620001,-74.982810974,0
			40.7055015570001,-74.9864425659999,0
			40.7013893130002,-74.994895935,0
			40.695911408,-75.003349304,0
			40.6954421990002,-75.0063781729999,0
			40.694961549,-75.013648987,0
			40.6940307620002,-75.0190963739999,0
			40.692192079,-75.0251464849999,0
			40.6908187870001,-75.0269470219999,0
			40.6899108890001,-75.028160094,0
			40.6885414130001,-75.030570984,0
			40.6867218020001,-75.0329818719999,0
			40.6862602240001,-75.0335769649999,0
			40.684879304,-75.037818909,0
			40.6830520630002,-75.0420532229999,0
			40.6821289070002,-75.045677185,0
			40.6807518000002,-75.0493011469999,0
			40.6789207470001,-75.0523071279999,0
			40.6775398250001,-75.057159423,0
			40.6757202150001,-75.05895996,0
			40.6693420410002,-75.065567017,0
			40.6661300650001,-75.0728225719999,0
			40.6551589960002,-75.090911865,0
			40.6496810920001,-75.09993744,0
			40.6428298960001,-75.108978271,0
			40.6368408200001,-75.127098083,0
			40.633190154,-75.1337280279999,0
			40.6318092350001,-75.1379470829999,0
			40.6295089720001,-75.1439895639999,0
			40.6290512080001,-75.1451873779999,0
			40.624500275,-75.1481933589999,0
			40.6240386960001,-75.1493911749999,0
			40.6203613280001,-75.158439636,0
			40.617618562,-75.16204834,0
			40.609439851,-75.165596009,0
			40.6085205080001,-75.16619873,0
			40.5998497020001,-75.1782302859999,0
			40.591629029,-75.1908264159999,0
			40.5936203,-75.190773011,0
			40.597961426,-75.192131043,0
			40.6024894710001,-75.193389892,0
			40.6070098880002,-75.195251464,0
			40.6097221370001,-75.1976928709999,0
			40.6109809880001,-75.198089599,0
			40.6129989630002,-75.198722839,0
			40.6147003180002,-75.1995620729999,0
			40.616970062,-75.1995773319999,0
			40.618782044,-75.1989974969999,0
			40.6197013850002,-75.1971893319999,0
			40.6206207280001,-75.1941680909999,0
			40.6208686840002,-75.192306518,0
			40.621490479,-75.1916503899999,0
			40.6226501480002,-75.190437316,0
			40.6253395090002,-75.18913269,0
			40.6271591190001,-75.1890792849999,0
			40.6319885250002,-75.1894378659999,0
			40.635608673,-75.1900863639999,0
			40.637901307,-75.1906585689999,0
			40.6410903940002,-75.191902162,0
			40.6435203560002,-75.194038392,0
			40.6445121770001,-75.195182801,0
			40.6450195310001,-75.1956558229999,0
			40.6463508610001,-75.1969375599999,0
			40.647361756,-75.198669434,0
			40.6491203310001,-75.1992721549999,0
			40.651390077,-75.199234008,0
			40.6537094110001,-75.1987304689999,0
			40.6554489150001,-75.1978530879999,0
			40.658481599,-75.1961822499999,0
			40.6603698730001,-75.19406128,0
			40.663028717,-75.190940857,0
			40.6652488710001,-75.1878433219999,0
			40.6674613950001,-75.1847381589999,0
			40.6693496710001,-75.182342529,0
			40.6715011600002,-75.1795196539999,0
			40.6742286670002,-75.178329468,0
			40.6769599920001,-75.177749634,0
			40.6801719660002,-75.1790466319999,0
			40.6815299990001,-75.181236267,0
			40.6819801330001,-75.1848678599999,0
			40.6825408940001,-75.189903258,0
			40.683139802,-75.1945037839998,0
			40.6846694940001,-75.1986312869998,0
			40.6864318840001,-75.201347352,0
			40.688610076,-75.2027130129999,0
			40.6926803590001,-75.203880311,0
			40.693649292,-75.2037429819999,0
			40.6976890570001,-75.202796935,0
			40.7035903930001,-75.2010421749999,0
			40.7090492240001,-75.198669434,0
			40.7145805360001,-75.195182801,0
			40.7177009590001,-75.192687989,0
			40.7199821460001,-75.1902923589999,0
			40.721431732,-75.188369751,0
			40.7219314580001,-75.1881103519999,0
			40.7237586980002,-75.1871490469999,0
			40.7254409790002,-75.186706543,0
			40.7268714910001,-75.186218261,0
			40.7287902840001,-75.185104371,0
			40.730949402,-75.1832733149999,0
			40.7332115180001,-75.1825866699999,0
			40.7359504700001,-75.183723449,0
			40.738250732,-75.185462952,0
			40.7398719780001,-75.186943054,0
			40.7403297420001,-75.187522889,0
			40.741489411,-75.1890029909999,0
			40.7424507140001,-75.190216065,0
			40.7433509840001,-75.1913681019999,0
			40.744499207,-75.1930007929999,0
			40.7460708610002,-75.1949996949999,0
			40.748069763,-75.1966323859999,0
			40.7510299690002,-75.1977920529999,0
			40.7526016250002,-75.197280884,0
			40.7543220530001,-75.1958618169999,0
			40.756889343,-75.1921005259999,0
			40.7596015930001,-75.1865921029999,0
			40.7605895990001,-75.1829986569999,0
			40.7622184750001,-75.1797790539999,0
			40.7649612440001,-75.1773757939999,0
			40.767688752,-75.175582885,0
			40.7699813840001,-75.1744689949999,0
			40.772739411,-75.1739425649999,0
			40.7745018010002,-75.173217774,0
			40.7761192320002,-75.172088623,0
			40.777900695,-75.170211793,0
			40.7792205820001,-75.167739867,0
			40.7795295720001,-75.1646728509999,0
			40.7796096800001,-75.1641616819999,0
			40.7795600900001,-75.1611328129999,0
			40.7791290280001,-75.1568832409999,0
			40.7784805300001,-75.1525878899999,0
			40.7775001540002,-75.148368835,0
			40.7766189580001,-75.1446228039999,0
			40.7764701850001,-75.1441116329999,0
			40.7755317690001,-75.1399383539999,0
			40.7750206000002,-75.1369171149999,0
			40.775299073,-75.134399415,0
			40.7753715520001,-75.1338500969999,0
			40.7758407590001,-75.132637025,0
			40.7763290410002,-75.1321258539999,0
			40.7776298530002,-75.1307601919999,0
			40.779579164,-75.128761291,0
			40.7820892340001,-75.1269683839999,0
			40.7846794130001,-75.1252822879999,0
			40.7865486150002,-75.122962951,0
			40.7883796690002,-75.1211471559999,0
			40.790100097,-75.1182022089999,0
			40.7906990050001,-75.114433289,0
			40.7922286990001,-75.1108398429999,0
			40.7935485840002,-75.108978271,0
			40.7970695510001,-75.10484314,0
			40.8007202150002,-75.101837159,0
			40.8039016730002,-75.1000366219999,0
			40.8057212840002,-75.099449157,0
			40.8083190930001,-75.098152161,0
			40.8105087280002,-75.096801758,0
			40.810939789,-75.0963439939999,0
			40.8123397840001,-75.09438324,0
			40.8135414130002,-75.0926818849999,0
			40.8145408620002,-75.091262818,0
			40.8157501220001,-75.08921051,0
			40.8179702760001,-75.0867233279999,0
			40.819889068,-75.0856170659999,0
			40.8230400080001,-75.0842895509999,0
			40.8236999510002,-75.0842666629999,0
			40.8257598880001,-75.0841979979999,0
			40.8271522530001,-75.0841522229999,0
			40.8284721370001,-75.0844573969999,0
			40.8312187190002,-75.0852279659999,0
			40.8335304270001,-75.087577821,0
			40.8357009890001,-75.0899810789999,0
			40.8375091560001,-75.0924301149999,0
			40.8397712720002,-75.094268799,0
			40.842029573,-75.0954971319999,0
			40.8443489090001,-75.095619202,0
			40.8470191960002,-75.0943298349999,0
			40.8488502500002,-75.0925216669999,0
			40.8494720460001,-75.090682984,0
			40.8502311720002,-75.0870666499999,0
			40.850700379,-75.0834274289999,0
			40.8507194520001,-75.0797805779999,0
			40.8498306280001,-75.0767440799999,0
			40.8495597830001,-75.075286865,0
			40.8491592420002,-75.074287415,0
			40.8484916680002,-75.0712585459999,0
			40.8486099240002,-75.0688400279999,0
			40.849010467,-75.0663909909999,0
			40.8505706780001,-75.064346314,0
			40.8521308910001,-75.063247681,0
			40.8544311520001,-75.062187196,0
			40.85723877,-75.0604705809999,0
			40.8588485710001,-75.058761596,0
			40.8609619150001,-75.05608368,0
			40.862861634,-75.0549774179999,0
			40.8655586250002,-75.05367279,0
			40.868980408,-75.0538024909999,0
			40.8731803900001,-75.05545044,0
			40.877578736,-75.0581207279999,0
			40.8820686340001,-75.062828064,0
			40.8858718870001,-75.065628052,0
			40.8890190120002,-75.0686416629999,0
			40.8894195560001,-75.069038392,0
			40.8917503350001,-75.071006774,0
			40.8948898320001,-75.0735168469999,0
			40.8975105280001,-75.0746002199999,0
			40.9001884460001,-75.075828553,0
			40.9031906140002,-75.0760879519999,0
			40.906360627,-75.077285766,0
			40.909698486,-75.0784378049999,0
			40.9125099180001,-75.079536439,0
			40.9147796640002,-75.0810089109999,0
			40.9174003600001,-75.0835113529999,0
			40.9192619320002,-75.0858764659999,0
			40.9200897230002,-75.0882492069999,0
			40.921291352,-75.0908203129999,0
			40.9232406610001,-75.0931472769999,0
			40.925338746,-75.095413208,0
			40.929920196,-75.0989379879999,0
			40.9377708440002,-75.1047210689999,0
			40.9449386600001,-75.1091384889999,0
			40.9481010430002,-75.1122131349999,0
			40.9499092100002,-75.113441468,0
			40.955329895,-75.117141724,0
			40.9575996410001,-75.1183776859999,0
			40.9598693850001,-75.119003296,0
			40.9616813670001,-75.119018554,0
			40.9643707280001,-75.119636536,0
			40.9662094120001,-75.1207962029999,0
			40.967601777,-75.1225814809999,0
			40.9681015030002,-75.124999999,0
			40.9693412780002,-75.129440307,0
			40.9702606210001,-75.131317138,0
			40.970981598,-75.1334304819999,0
			40.9725799550002,-75.135681152,0
			40.9729309090001,-75.1361618049999,0
			40.974220277,-75.1369781499999,0
			40.976100923,-75.138023377,0
			40.9787597650001,-75.1368331909999,0
			40.980911256,-75.1348190319999,0
			40.98292923,-75.133216857,0
			40.9839515680001,-75.1330032339999,0
			40.9855003360001,-75.132949829,0
			40.9866790780001,-75.1329116819999,0
			40.9877586370002,-75.1328659059999,0
			40.9903221140001,-75.132637025,0
			40.9918098460001,-75.1309127809999,0
			40.99338913,-75.1278305049999,0
			40.9956817630001,-75.1235885629999,0
			40.9990196240001,-75.1182327269999,0
			41.0002403260001,-75.116516114,0
			41.0032615660001,-75.112251282,0
			41.0063400270002,-75.107269286,0
			41.008499146,-75.09993744,0
			41.0103416450002,-75.0938720709999,0
			41.0125389100002,-75.0889816289999,0
			41.0141906750001,-75.0848464979999,0
			41.0153312690002,-75.0821533189999,0
			41.0159187310001,-75.0807723989999,0
			41.0171203620002,-75.074638367,0
			41.0195388800001,-75.0671463009999,0
			41.0226821900001,-75.0591964729999,0
			41.023540498,-75.057739258,0
			41.027080536,-75.0517425539999,0
			41.0278701790001,-75.050048827,0
			41.0288200380001,-75.0480270379999,0
			41.0305290230002,-75.0441131589999,0
			41.0318985000001,-75.041671752,0
			41.0341796870001,-75.038040162,0
			41.035831452,-75.034988404,0
			41.0380516060001,-75.0324707029999,0
			41.0393600470001,-75.0299911499999,0
			41.0406913770001,-75.028106689,0
			41.0415992740001,-75.026496886,0
			41.0437698360001,-75.0261764529999,0
			41.0451889050001,-75.0261306759999,0
			41.0469894420001,-75.02545929,0
			41.0492095960001,-75.0247497569999,0
			41.0505790700001,-75.0229263309999,0
			41.0523490910001,-75.0209960929999,0
			41.0541305540002,-75.019111633,0
			41.0564193740001,-75.017929077,0
			41.0615005490002,-75.0157012929999,0
			41.0631217960001,-75.014526368,0
			41.065361023,-75.0132369999999,0
			41.0669593810001,-75.0120773309999,0
			41.068611145,-75.0102157579998,0
			41.0690422060001,-75.0083770749999,0
			41.0698394780001,-75.006126404,0
			41.071220398,-75.0046005249999,0
			41.0728988660001,-75.0023803709999,0
			41.074718476,-74.9993362429999,0
			41.0760993960001,-74.9956970209999,0
			41.077259063,-74.991958618,0
			41.0784988410001,-74.988998414,0
			41.0793190000001,-74.9847488399999,0
			41.0801620490001,-74.981010437,0
			41.0805702210001,-74.9804306029999,0
			41.0823707580001,-74.9778823849999,0
			41.0854988090001,-74.9729537969999,0
			41.0890007030001,-74.9691085819999,0
			41.0912399300001,-74.9672012329999,0
			41.0938987730001,-74.965888976,0
			41.0812492370001,-74.952461242,0
			41.070850373,-74.940811158,0
			41.069049836,-74.938972472,0
			41.0337791450002,-74.9015960689998,0
			41.0229301450001,-74.88935852,0
			41.0197601310002,-74.886291504,0
			41.013431549,-74.880172729,0
			41.0070991530001,-74.873435974,0
			41.0057487490001,-74.8715972899999,0
			41.000320435,-74.865486146,0
			40.9772491460001,-74.8416366579999,0
			40.9632186890001,-74.8269729619999,0
			40.9111900330001,-74.7683563219999,0
			40.9071006770001,-74.771987915,0
			40.9020919800002,-74.7804794309999,0
			40.8975410460001,-74.787147523,0
			40.890720367,-74.7895507809999,0
			40.8898086540001,-74.7931900029999,0
			40.8879814160001,-74.799873352,0
			40.8843307500001,-74.8065414439999,0
			40.8770790100001,-74.807121276,0
			40.87253952,-74.8058929439999,0
			40.8680114750001,-74.804039002,0
			40.864830016,-74.804016113,0
			40.861660005,-74.804016113,0
			40.8602905280001,-74.8088684079999,0
			40.8571090700001,-74.8100662239999,0
			40.8525695790001,-74.8094406129999,0
			40.8493804920001,-74.8173217769998,0
			40.8484687820001,-74.8203582769999,0
			40.8461914060001,-74.8209533689999,0
			40.842571258,-74.819107055,0
			40.8362197880002,-74.818481446,0
			40.8334884650002,-74.822113036,0
			40.8321189880001,-74.8263473519999,0
			40.8234786990001,-74.8323898309999,0
			40.818481445,-74.8360061649999,0
			40.8143806470002,-74.8414459219999,0
			40.8102989210001,-74.8432464589999,0
			40.8062019340002,-74.8480987539999,0
			40.802558898,-74.853538514,0
			40.8007202150002,-74.8632431029999,0
			40.8007202150002,-74.863853455,0
			40.7952613840002,-74.8668594359999,0
			40.7920608510001,-74.875343323,0
			40.7888603210001,-74.885032654,0
		</coordinates>
	</polygon>
</kml>
