<?xml version="1.0" encoding="UTF-8"?>
<kml xmlns="http://earth.google.com/kml/2.2">
	<polygon id="USA_PA_Erie" samplingProbability="1">
		<coordinates>
			42.2678794870001,-79.762496949,0
			42.1857109070001,-79.763328553,0
			42.047962189,-79.762786865,0
			42.0206985470002,-79.762588501,0
			41.9984512340002,-79.762420655,0
			41.9981307990002,-79.611091614,0
			41.9578399660001,-79.6123428349999,0
			41.9374008180001,-79.6123428349999,0
			41.8751716620002,-79.6129302979999,0
			41.8510894770001,-79.613426209,0
			41.8508300790001,-79.6565704349999,0
			41.8508605960002,-79.681838989,0
			41.8508605960002,-79.7083435059999,0
			41.8505287180001,-79.727439881,0
			41.850070954,-79.830352784,0
			41.8501892090002,-79.849456787,0
			41.8482093820001,-80.2266311649999,0
			41.8482589720001,-80.245742798,0
			41.8483619690002,-80.30430603,0
			41.8491592410001,-80.3505706779999,0
			41.8493690490002,-80.4023666379999,0
			41.8492889400002,-80.4060592659999,0
			41.849868774,-80.5189132689999,0
			41.8884811410002,-80.5193328859999,0
			41.9782485970001,-80.5181198119998,0
			41.9881286630001,-80.493377685,0
			41.9902420050001,-80.480491639,0
			41.9946098320001,-80.4683227539999,0
			41.999519349,-80.4524688729999,0
			42.0042305000002,-80.445259095,0
			42.0080795280001,-80.4355316169999,0
			42.0110588080001,-80.424537659,0
			42.0155601510001,-80.406188965,0
			42.0184097290002,-80.400749207,0
			42.0255203250002,-80.387443543,0
			42.0265007010001,-80.3843765249999,0
			42.0311698920002,-80.358001709,0
			42.0350990290001,-80.345176698,0
			42.0414199830001,-80.3262786869999,0
			42.0467491150002,-80.311042786,0
			42.0535087590001,-80.2927703849999,0
			42.0615921030001,-80.275779724,0
			42.068710327,-80.2618408199999,0
			42.0776519780001,-80.247352599,0
			42.082530976,-80.2314605719999,0
			42.0859794610002,-80.2185974119999,0
			42.0922203060001,-80.2027664169999,0
			42.101200104,-80.1857986449999,0
			42.1045799250002,-80.176643371,0
			42.1078186040002,-80.173683167,0
			42.11194992,-80.171363831,0
			42.1165504460002,-80.1690597529999,0
			42.1216201780001,-80.1655426029999,0
			42.129940033,-80.1584320069999,0
			42.1350288390001,-80.1542968759999,0
			42.1442298900001,-80.1484527589999,0
			42.1497116100002,-80.1474227909999,0
			42.1520004270001,-80.1462707519999,0
			42.153480529,-80.140747071,0
			42.154972076,-80.1346206659999,0
			42.1546592720001,-80.127182008,0
			42.1579284670001,-80.1229705809999,0
			42.161659242,-80.118156433,0
			42.1654205330001,-80.112106324,0
			42.166419983,-80.1078109749999,0
			42.1642112740001,-80.1046295159999,0
			42.1638488770001,-80.0996627809999,0
			42.1635017410001,-80.094696045,0
			42.1645317090001,-80.0885391239999,0
			42.1632385260001,-80.0847778309999,0
			42.159599305,-80.0852584829999,0
			42.1564102180002,-80.0857620239999,0
			42.153709412,-80.084419251,0
			42.1514396660002,-80.0843429559999,0
			42.1504898060001,-80.0861587529999,0
			42.1499290470002,-80.091712951,0
			42.1516685490002,-80.0954971309999,0
			42.153430939,-80.09803772,0
			42.1520118720001,-80.101081848,0
			42.150161743,-80.102867126,0
			42.1478614810001,-80.1040191649999,0
			42.145580291,-80.1045532229999,0
			42.145050049,-80.1082458499999,0
			42.1445198060001,-80.1119461059999,0
			42.1439819340001,-80.1162567139999,0
			42.1438598630002,-80.1224441529998,0
			42.1436920170001,-80.1304931629999,0
			42.142700196,-80.134780884,0
			42.1408195500001,-80.1378021229999,0
			42.136211395,-80.1407165519999,0
			42.1347999580001,-80.1431427009999,0
			42.1337890630002,-80.148056031,0
			42.1305999770001,-80.1485519419999,0
			42.1269416800002,-80.149650573,0
			42.1246299740001,-80.1514205939999,0
			42.1218605050001,-80.153793335,0
			42.1208801260001,-80.1574707019999,0
			42.119010926,-80.159866332,0
			42.1144485470001,-80.1603164679999,0
			42.1122589120002,-80.15651703,0
			42.1133003240002,-80.1503829949999,0
			42.114768982,-80.144859314,0
			42.116710663,-80.1387481699999,0
			42.120552063,-80.1289901729999,0
			42.1234893810001,-80.1185760499999,0
			42.1267890930001,-80.1125183109999,0
			42.1291618340001,-80.107650757,0
			42.1334800720001,-80.096046449,0
			42.1363220220001,-80.0905761719999,0
			42.139530183,-80.0888519289999,0
			42.1413612360001,-80.0882873529999,0
			42.1419487010001,-80.0815124509999,0
			42.1411018370001,-80.0783767709999,0
			42.1402587890001,-80.0752563469999,0
			42.140789032,-80.0715560909999,0
			42.1422119140001,-80.0685195919999,0
			42.144630432,-80.0611801149999,0
			42.1469993600001,-80.056312562,0
			42.150810241,-80.0471725459999,0
			42.1556701660001,-80.0312499999999,0
			42.1585006720002,-80.0257797239999,0
			42.1617622370001,-80.021568299,0
			42.166950225,-80.0118484509999,0
			42.1711921690002,-80.003952026,0
			42.17634201,-79.9960861199999,0
			42.1805686960001,-79.988807679,0
			42.184810639,-79.980895996,0
			42.1895599370001,-79.970542908,0
			42.1938819890001,-79.958312988,0
			42.1977119440002,-79.9479064949999,0
			42.2014389040002,-79.9430770879999,0
			42.2047119140001,-79.93824768,0
			42.208049774,-79.929687501,0
			42.2100791930002,-79.9186019889999,0
			42.2120285050001,-79.9112319939999,0
			42.2149086000002,-79.902656554,0
			42.218669891,-79.895973206,0
			42.224281311,-79.8874893189999,0
			42.2271118170001,-79.8820114139999,0
			42.2272720340001,-79.8733367929999,0
			42.2251205460001,-79.866462708,0
			42.2243118280002,-79.861473084,0
			42.2262306210002,-79.8553314219999,0
			42.229629517,-79.843666077,0
			42.2319984430001,-79.838180543,0
			42.2353286740001,-79.829612732,0
			42.2400321970001,-79.821090697,0
			42.2461204530001,-79.810760498,0
			42.2507705700002,-79.8047103869999,0
			42.2545814510001,-79.794921876,0
			42.2569999700001,-79.786941529,0
			42.260379791,-79.775268555,0
			42.2646102910002,-79.7673492439999,0
			42.2678794870001,-79.762496949,0
		</coordinates>
	</polygon>
</kml>
