<?xml version="1.0" encoding="UTF-8"?>
<kml xmlns="http://earth.google.com/kml/2.2">
	<polygon id="USA_NY_Niagara" samplingProbability="1">
		<coordinates>
			43.085060008,-78.4651030859999,0
			43.0853448380001,-78.4718998179999,0
			43.08535,-78.472023,0
			43.0884700000001,-78.475288,0
			43.0868650000002,-78.4793769999999,0
			43.086529,-78.4802319999999,0
			43.0840214340001,-78.490798254,0
			43.0853200000002,-78.4946679999999,0
			43.0858821380002,-78.496344942,0
			43.0861511230001,-78.4971466059999,0
			43.0876460360001,-78.497998119,0
			43.0880270000002,-78.498215,0
			43.0897410000001,-78.4991909999998,0
			43.0905142960001,-78.500517786,0
			43.0923690010002,-78.5036999999999,0
			43.0946510920001,-78.50316781,0
			43.0968670000001,-78.506839,0
			43.0981600000002,-78.50898,0
			43.0923247210001,-78.512126944,0
			43.0917090240002,-78.5124589869999,0
			43.0910850510002,-78.513498222,0
			43.0884020000001,-78.5179669999999,0
			43.0888098760001,-78.5198722469999,0
			43.0887852030001,-78.520925909,0
			43.0886192320002,-78.5280227649999,0
			43.08879398,-78.5294626869999,0
			43.0889996150001,-78.5311546049999,0
			43.0890010000001,-78.531166,0
			43.0907520000001,-78.5343929999999,0
			43.0916290000001,-78.535667,0
			43.0920300000001,-78.5382079999999,0
			43.091209,-78.541253,0
			43.091087337,-78.54170363,0
			43.0910301220002,-78.5419158939999,0
			43.095928857,-78.544089819,0
			43.0973400000001,-78.5447159999999,0
			43.0936090010001,-78.548316999,0
			43.0930710000001,-78.5520629999999,0
			43.0951999990001,-78.5584259999999,0
			43.089773,-78.563079,0
			43.0896300000001,-78.563202,0
			43.0894200000001,-78.571983,0
			43.0839920000001,-78.57048,0
			43.0816690220001,-78.5728910189998,0
			43.086287774,-78.577446665,0
			43.0883290000001,-78.5794599999999,0
			43.0851740000001,-78.5793199999999,0
			43.0806120010001,-78.5791169999999,0
			43.0796688460002,-78.579504233,0
			43.0764694220001,-78.580818176,0
			43.0736503600001,-78.5844497689999,0
			43.0717882,-78.586252971,0
			43.0714791970001,-78.5874012309999,0
			43.0707893380002,-78.58996582,0
			43.072399139,-78.5988311779998,0
			43.0750312800001,-78.603340149,0
			43.0753904190001,-78.6044208019999,0
			43.0763017830002,-78.607171337,0
			43.076217,-78.61082,0
			43.0761778700002,-78.6124876779999,0
			43.0761413690001,-78.6140589629999,0
			43.0812930000001,-78.6135419999999,0
			43.0848010000001,-78.61319,0
			43.0862549920001,-78.6191193619999,0
			43.0876220250001,-78.6246937129998,0
			43.0885391190002,-78.62843321,0
			43.0885599550002,-78.628470076,0
			43.0950889300001,-78.6400220479999,0
			43.0890690000001,-78.644127,0
			43.0845110000001,-78.644547,0
			43.0808490000001,-78.6456529999999,0
			43.0808569440001,-78.6456686829999,0
			43.0823550000002,-78.648626,0
			43.08345,-78.650787,0
			43.0846640000001,-78.6552179999999,0
			43.085541,-78.658417,0
			43.0859140000002,-78.6612639999999,0
			43.0867000000002,-78.6672589999999,0
			43.0860400000001,-78.6753769999999,0
			43.0831020000002,-78.678323,0
			43.0821189510001,-78.6793091679999,0
			43.0818407600001,-78.6795881289999,0
			43.0800094600001,-78.6801300049999,0
			43.0808601380002,-78.6826782219999,0
			43.081082398,-78.683138367,0
			43.0830310000002,-78.6871719999999,0
			43.0839720000001,-78.687516,0
			43.0888900000002,-78.689316,0
			43.0868490000001,-78.6986469999998,0
			43.0855274150001,-78.705005795,0
			43.0853000000001,-78.7060999999999,0
			43.0824010000001,-78.7128679999999,0
			43.0857010000001,-78.7268299999999,0
			43.0854800000001,-78.7356109999999,0
			43.079540516,-78.739800477,0
			43.0771408080001,-78.7414932249999,0
			43.0735206610001,-78.740692138,0
			43.069851009,-78.741783116,0
			43.069853402,-78.741813372,0
			43.0703570000001,-78.7481799999999,0
			43.070549,-78.7506029999999,0
			43.0679590000001,-78.763023,0
			43.0673210000001,-78.774601,0
			43.0671310000002,-78.778038,0
			43.0671291040002,-78.7780668669999,0
			43.0664970000001,-78.7876909999999,0
			43.0663910000001,-78.7892989999999,0
			43.0642320000001,-78.802986,0
			43.0640048020002,-78.8030786469999,0
			43.0623558880001,-78.8037510589999,0
			43.0588202370001,-78.805192862,0
			43.0587092430001,-78.8052379979999,0
			43.0553329740001,-78.8064604529999,0
			43.05411911,-78.8069000249999,0
			43.0529594430001,-78.8168869009999,0
			43.0509441010001,-78.8270665759999,0
			43.0508739160001,-78.827421155,0
			43.050869,-78.827446,0
			43.0500440000002,-78.827753,0
			43.0448990000001,-78.829666,0
			43.0436320000001,-78.828962,0
			43.0399590000001,-78.82692,0
			43.039942367,-78.8269051339999,0
			43.0381521240002,-78.8253052069999,0
			43.037738851,-78.824935958,0
			43.0350190000001,-78.824173,0
			43.030449,-78.825211,0
			43.0277600000001,-78.8276159999999,0
			43.0265401230001,-78.8287063929999,0
			43.0257911670001,-78.8293762209999,0
			43.0205690010001,-78.8378980059999,0
			43.0206964310001,-78.8427569389999,0
			43.0210304270001,-78.8554763789999,0
			43.0229301460001,-78.8700027469999,0
			43.0228351070002,-78.8736825839999,0
			43.022593101,-78.8831543129999,0
			43.0227889820002,-78.8837431329999,0
			43.030769348,-78.883537292,0
			43.0393600460001,-78.8858566279999,0
			43.0527801520001,-78.8946685779999,0
			43.0610084530001,-78.9107589719999,0
			43.0682106020001,-78.93119812,0
			43.0725593560001,-78.956512451,0
			43.0749588010001,-78.9861297609999,0
			43.0790710460001,-79.019599915,0
			43.078159333,-79.0364990239999,0
			43.0813903800001,-79.0517272949999,0
			43.0806808470002,-79.0610961919999,0
			43.085948944,-79.0682830809999,0
			43.0989608760001,-79.0582885749999,0
			43.107238769,-79.054946899,0
			43.1081390380002,-79.055618285,0
			43.1148796090002,-79.0584793089999,0
			43.1183700560001,-79.064315795,0
			43.1202201850001,-79.0631561279999,0
			43.131118775,-79.0473861689999,0
			43.1395187390002,-79.0396499639999,0
			43.149528503,-79.039543152,0
			43.163921357,-79.0459365839999,0
			43.1715507500001,-79.0501098619999,0
			43.1770019530002,-79.0503768919999,0
			43.1925315860001,-79.048683167,0
			43.2011909490001,-79.0478668219999,0
			43.2101516730001,-79.0533599849999,0
			43.214698792,-79.053588868,0
			43.224262237,-79.0522766109999,0
			43.2279510500002,-79.0517730719999,0
			43.2351684580001,-79.0540161129999,0
			43.2484092710001,-79.052818299,0
			43.2525100710001,-79.052398682,0
			43.2612991330001,-79.0641784659999,0
			43.262722015,-79.0623702989999,0
			43.2682609570001,-79.0425186159999,0
			43.2740592960001,-79.013236999,0
			43.2771720890001,-78.9989166259999,0
			43.2799301160002,-78.9807968139999,0
			43.2835388180002,-78.964607238,0
			43.2885704040001,-78.9466094969999,0
			43.2950401310001,-78.925529479,0
			43.3015899660002,-78.9013061519999,0
			43.304149628,-78.8900985719999,0
			43.3168106090002,-78.84034729,0
			43.3179588330001,-78.8309631349999,0
			43.3195800790002,-78.820960999,0
			43.322559356,-78.811027526,0
			43.325099945,-78.800453186,0
			43.3258590710001,-78.7885131839999,0
			43.3280601510002,-78.773490905,0
			43.3320121770001,-78.7610931389999,0
			43.3340301510001,-78.7529907219999,0
			43.338020325,-78.7386932369999,0
			43.3406486510001,-78.7243270859999,0
			43.340789795,-78.7186660759999,0
			43.3408088690002,-78.7180404669999,0
			43.3404922490001,-78.712356568,0
			43.3407402030002,-78.702285766,0
			43.341362,-78.695388795,0
			43.3467788710001,-78.6786270149999,0
			43.3527793890001,-78.656227112,0
			43.3588104250002,-78.632560731,0
			43.3599205020001,-78.6237869269999,0
			43.3621788030002,-78.605621339,0
			43.3629913330001,-78.5905380249999,0
			43.3681488050001,-78.5642929069999,0
			43.3729591380001,-78.53363037,0
			43.373722076,-78.5204315189999,0
			43.374649047,-78.4996795649998,0
			43.3748207100002,-78.492118835,0
			43.3754501340002,-78.484588622,0
			43.3746795660002,-78.478248595,0
			43.3739700320001,-78.4693984979999,0
			43.3740615840001,-78.465621948,0
			43.3403587350001,-78.4660568239999,0
			43.3348884590001,-78.4664459219999,0
			43.268920898,-78.4648590079999,0
			43.2303009030002,-78.461936951,0
			43.223480226,-78.461639404,0
			43.2043609620002,-78.4620666499999,0
			43.1633186340002,-78.4653320319999,0
			43.1301002500001,-78.4651565539999,0
			43.0955085760002,-78.4655532829999,0
			43.085060008,-78.4651030859999,0
		</coordinates>
	</polygon>
</kml>
