<?xml version="1.0" encoding="UTF-8"?>
<kml xmlns="http://earth.google.com/kml/2.2">
	<polygon id="USA_WY_Big_Horn" samplingProbability="1">
		<coordinates>
			45.0011291500002,-108.245071411,0
			45.0011596690001,-108.225822449,0
			45.0013008130001,-108.123931885,0
			45.0012512210001,-108.104393005,0
			45.0012397780001,-108.1019516,0
			45.00107193,-108.061950683,0
			45.0009193430001,-108.001159667,0
			45.0008201600002,-107.964538573,0
			45.0008010870001,-107.910392761,0
			44.9992904660001,-107.908447265,0
			44.9960594180001,-107.908287048,0
			44.9970397960002,-107.898376465,0
			44.9958114630001,-107.897201538,0
			44.9911117560002,-107.892318726,0
			44.9920806890001,-107.889526368,0
			44.9861488350002,-107.881736756,0
			44.9857101450001,-107.881332397,0
			44.9811401360001,-107.880050659,0
			44.9756698620001,-107.87941742,0
			44.9733390800001,-107.87941742,0
			44.9717597960002,-107.878852843,0
			44.9616889950001,-107.875076294,0
			44.9559097290002,-107.876480102,0
			44.9503593440002,-107.876441955,0
			44.9487991330001,-107.87915039,0
			44.9478111270001,-107.879081726,0
			44.944519043,-107.880722046,0
			44.936519623,-107.880966187,0
			44.9326896680001,-107.879768371,0
			44.9299087530002,-107.873962402,0
			44.9264411930001,-107.868629456,0
			44.923271179,-107.86379242,0
			44.9201889050001,-107.860992431,0
			44.915809632,-107.853958129,0
			44.9133911140001,-107.851928711,0
			44.909919739,-107.852577209,0
			44.9082908620002,-107.851905823,0
			44.9046211250001,-107.85018921,0
			44.8994102480001,-107.852500916,0
			44.8930397030001,-107.859138489,0
			44.885261536,-107.859428405,0
			44.8803901670001,-107.861351013,0
			44.8739814770001,-107.863967896,0
			44.868869782,-107.860069275,0
			44.8675994880001,-107.855178834,0
			44.8615684510002,-107.845832826,0
			44.859321595,-107.842636109,0
			44.8509788520001,-107.840431213,0
			44.8451805120002,-107.833747864,0
			44.8391494750001,-107.83139801,0
			44.8342094430001,-107.827026367,0
			44.831829072,-107.826416016,0
			44.8270492550001,-107.830322266,0
			44.823699951,-107.827430726,0
			44.8210906990001,-107.821456909,0
			44.820331573,-107.816940307,0
			44.81711197,-107.815277099,0
			44.8105087280001,-107.815910339,0
			44.8071784970001,-107.818946838,0
			44.8009109500002,-107.83039856,0
			44.7969703680001,-107.831382751,0
			44.7899017340002,-107.831016541,0
			44.7911186220001,-107.827392579,0
			44.7911491400002,-107.822021485,0
			44.7907600400001,-107.821868896,0
			44.786640167,-107.813522339,0
			44.7843513490002,-107.80580902,0
			44.784061431,-107.805656433,0
			44.7797889710002,-107.793159485,0
			44.7727813720001,-107.781562804,0
			44.772811889,-107.757438659,0
			44.7684516920002,-107.752288818,0
			44.7599487310001,-107.754562379,0
			44.7538719190001,-107.745002746,0
			44.7462501520001,-107.747299194,0
			44.7411613460001,-107.742996217,0
			44.7280197150001,-107.744270324,0
			44.7238502500002,-107.750167846,0
			44.7148094180002,-107.740592957,0
			44.7164611810002,-107.730186462,0
			44.7111587520001,-107.711067201,0
			44.7035903930001,-107.681777954,0
			44.693389892,-107.683273316,0
			44.681800842,-107.673561096,0
			44.6806716910001,-107.666389465,0
			44.6842994690001,-107.656440736,0
			44.6931800850002,-107.650405883,0
			44.6947402950001,-107.623191833,0
			44.6945190430001,-107.618530274,0
			44.6981315620001,-107.605026244,0
			44.6926307690002,-107.595420837,0
			44.6907691970001,-107.584518433,0
			44.6820487980001,-107.568519591,0
			44.6797485350001,-107.561470031,0
			44.6747207650001,-107.558296204,0
			44.6733398450001,-107.554450989,0
			44.6664695730001,-107.545509338,0
			44.6646118160001,-107.535896302,0
			44.6604995730001,-107.533363341,0
			44.6563987740002,-107.535308838,0
			44.6491088870002,-107.53793335,0
			44.6409111030001,-107.541191101,0
			44.6358795170001,-107.539299012,0
			44.6331214910001,-107.530982972,0
			44.6326217650001,-107.519432068,0
			44.6366920480002,-107.509132386,0
			44.6366500860001,-107.500152588,0
			44.6297988900002,-107.49571228,0
			44.6234092710001,-107.495117187,0
			44.6115417490001,-107.493278503,0
			44.611030578,-107.479812622,0
			44.6087112420001,-107.468933105,0
			44.6059303290002,-107.459342957,0
			44.6040420530001,-107.442672729,0
			44.6112899780002,-107.430419922,0
			44.6030807500001,-107.429206848,0
			44.6012191780002,-107.420883178,0
			44.597511292,-107.408729553,0
			44.5965499870001,-107.398483276,0
			44.5937805170001,-107.389526366,0
			44.592391967,-107.385688781,0
			44.5855216980001,-107.379981994,0
			44.5795898440001,-107.378112794,0
			44.560081483,-107.370246888,0
			44.5526504520001,-107.371955873,0
			44.5471496590001,-107.366867065,0
			44.5448608400002,-107.363693238,0
			44.5411720270001,-107.356040955,0
			44.5413398750001,-107.3513031,0
			44.5412406920001,-107.351173401,0
			44.5415306090001,-107.332481383,0
			44.5317192090001,-107.322586059,0
			44.5233993540001,-107.327590942,0
			44.5012817380001,-107.293975831,0
			44.4847297670001,-107.297225951,0
			44.483791351,-107.305458069,0
			44.475608827,-107.298812866,0
			44.4643096930002,-107.30329132,0
			44.458271027,-107.299942016,0
			44.45923996,-107.27848053,0
			44.455570221,-107.273422241,0
			44.4510612490002,-107.278182984,0
			44.4472999580001,-107.258583068,0
			44.4415702820002,-107.255126953,0
			44.438190461,-107.240615846,0
			44.4437408440002,-107.220306397,0
			44.4497299190002,-107.216308594,0
			44.4453201300001,-107.200370788,0
			44.4354095460002,-107.203025817,0
			44.4236907970001,-107.201995849,0
			44.4182395940001,-107.199172974,0
			44.405879975,-107.198646544,0
			44.3994598390001,-107.198860169,0
			44.3979797370001,-107.188316345,0
			44.4031715400002,-107.182357788,0
			44.4031295780001,-107.176467895,0
			44.3932189940001,-107.167922974,0
			44.3766593930001,-107.175491334,0
			44.373069762,-107.164138795,0
			44.368041992,-107.160217286,0
			44.3603401180001,-107.171913147,0
			44.3584785460001,-107.185028076,0
			44.34682846,-107.187751771,0
			44.3453903200001,-107.176521302,0
			44.3351287840001,-107.171951293,0
			44.335170746,-107.162345886,0
			44.332450866,-107.15512085,0
			44.325359344,-107.160423278,0
			44.322311401,-107.155166627,0
			44.3240585330001,-107.143623351,0
			44.3006019590002,-107.143608093,0
			44.165592195,-107.145812988,0
			44.1685104370001,-108.550552368,0
			44.1684112550001,-108.573997497,0
			44.1831588750001,-108.573036194,0
			44.198200226,-108.573158265,0
			44.2127799990001,-108.573280334,0
			44.2419509880001,-108.573516845,0
			44.2574501040002,-108.573661804,0
			44.285251617,-108.573890687,0
			44.2998313900001,-108.574645995,0
			44.3440513620001,-108.575027465,0
			44.356361389,-108.574493408,0
			44.3878097530001,-108.574768066,0
			44.4010391230001,-108.574882508,0
			44.4169998180002,-108.574378967,0
			44.4293098450001,-108.57447815,0
			44.444358825,-108.573966981,0
			44.5223312390001,-108.573989869,0
			44.5227203370002,-108.589996337,0
			44.5373115540002,-108.590126038,0
			44.6111907960001,-108.591423034,0
			44.625782014,-108.592185974,0
			44.651329041,-108.591766357,0
			44.6677513130001,-108.591911316,0
			44.6960411070001,-108.591522216,0
			44.7088089000002,-108.591629028,0
			44.7238693230001,-108.591766357,0
			44.7822608940002,-108.592277526,0
			44.860290528,-108.592956543,0
			44.860630036,-108.61807251,0
			44.8743209830001,-108.618843079,0
			44.8825416560001,-108.618919372,0
			44.9733695990001,-108.620407104,0
			45.0012397780001,-108.620658874,0
			45.0012397780001,-108.615486146,0
			45.0013999950001,-108.594177245,0
			45.0014419550002,-108.579368591,0
			45.0014801020001,-108.558715821,0
			45.001560211,-108.538719177,0
			45.0014305120001,-108.518081665,0
			45.0013008130001,-108.498077392,0
			45.0012817390001,-108.494819642,0
			45.0013618460001,-108.474166869,0
			45.0015411370001,-108.42841339,0
			45.0015716560002,-108.40776062,0
			45.0016288760001,-108.387748717,0
			45.0014305120001,-108.355422975,0
			45.0017509470002,-108.28894806,0
			45.0017395010001,-108.260559082,0
			45.0015487670001,-108.249603271,0
			45.0014991770001,-108.249008178,0
			45.0011291500002,-108.245071411,0
		</coordinates>
	</polygon>
</kml>
