<?xml version="1.0" encoding="UTF-8"?>
<kml xmlns="http://earth.google.com/kml/2.2">
	<polygon id="USA_ND_Divide" samplingProbability="1">
		<coordinates>
			49.0001068120001,-103.208442689,0
			49.000133515,-103.165077209,0
			49.0001449590001,-103.146766663,0
			49.0001487740001,-103.143417359,0
			49.0001487740001,-103.14124298,0
			49.0001487740001,-103.140640259,0
			49.0002403260001,-102.999992371,0
			49.000457763,-102.977531433,0
			49.0008087170001,-102.941711425,0
			49.000057222,-102.941703797,0
			48.7220191960001,-102.939315795,0
			48.721080779,-102.886695862,0
			48.6328010550001,-102.888206482,0
			48.6336288460001,-103.12625122,0
			48.6336898810001,-103.148078918,0
			48.633731841,-103.169906616,0
			48.634868622,-103.277732848,0
			48.6335906990001,-103.409309386,0
			48.633171082,-103.538223267,0
			48.632759095,-104.047828674,0
			49.0000457760001,-104.049591064,0
			49.0000381460001,-104.041374207,0
			49.000011445,-104.01070404,0
			49.000011445,-104.00970459,0
			49.000011445,-104.009346008,0
			49.000011445,-104.009231568,0
			49.000011445,-104.007690431,0
			48.9999999990002,-104,0
			49.000003814,-103.997161865,0
			49.0000381460001,-103.956504822,0
			49.0001068120001,-103.875167846,0
			49.0001068120001,-103.874320984,0
			49.000057222,-103.808776855,0
			49.000057222,-103.807807922,0
			49.000057222,-103.807014465,0
			49.0000457760001,-103.791770935,0
			49.0000419610001,-103.789207458,0
			49.0000419610001,-103.789031982,0
			49.0000419610001,-103.786331176,0
			49.000049591,-103.756317139,0
			49.0000534070002,-103.741508483,0
			49.0000534070002,-103.741302491,0
			49.000057222,-103.690673828,0
			49.0000610350001,-103.689208984,0
			49.0000610350001,-103.688354492,0
			49.0000610350001,-103.686859132,0
			49.0000610350001,-103.686065675,0
			49.0000648500001,-103.685623169,0
			49.0000648500001,-103.685462952,0
			49.0000648500001,-103.685340881,0
			49.00007248,-103.681259155,0
			49.0000801080001,-103.677200317,0
			49.0000801080001,-103.676750183,0
			49.000083923,-103.675102234,0
			49.000083923,-103.674888611,0
			49.000083923,-103.674468994,0
			49.000083923,-103.674331665,0
			49.000083923,-103.674102784,0
			49.000083923,-103.674064637,0
			49.000083923,-103.673919678,0
			49.000083923,-103.673858643,0
			49.000083923,-103.673789977,0
			49.000083923,-103.673744202,0
			49.000083923,-103.673652648,0
			49.000083923,-103.673591613,0
			49.000083923,-103.673515319,0
			49.000083923,-103.673477172,0
			49.000083923,-103.67337799,0
			49.000083923,-103.673240661,0
			49.000083923,-103.673103332,0
			49.000083923,-103.672981262,0
			49.000083923,-103.672828674,0
			49.000083923,-103.672561645,0
			49.000083923,-103.672416688,0
			49.000083923,-103.672279359,0
			49.000083923,-103.672149658,0
			49.000083923,-103.672035217,0
			49.000083923,-103.67186737,0
			49.000087738,-103.671737671,0
			49.000087738,-103.671600342,0
			49.000087738,-103.671463013,0
			49.000087738,-103.671325684,0
			49.000087738,-103.671188355,0
			49.000087738,-103.670700072,0
			49.000087738,-103.670326232,0
			49.000087738,-103.670211792,0
			49.000087738,-103.669960022,0
			49.000087738,-103.669548036,0
			49.000087738,-103.669418335,0
			49.000087738,-103.66936493,0
			49.000087738,-103.669136047,0
			49.000087738,-103.669052125,0
			49.000087738,-103.668998718,0
			49.000087738,-103.668945312,0
			49.000087738,-103.668907166,0
			49.000087738,-103.66873169,0
			49.000087738,-103.668289184,0
			49.000087738,-103.668159485,0
			49.000087738,-103.668060303,0
			49.000087738,-103.667907714,0
			49.000087738,-103.667770385,0
			49.000087738,-103.66772461,0
			49.000087738,-103.667572021,0
			49.000087738,-103.667518616,0
			49.000087738,-103.667358398,0
			49.000087738,-103.667259216,0
			49.000087738,-103.667198181,0
			49.000087738,-103.66709137,0
			49.000087738,-103.66681671,0
			49.000087738,-103.666679382,0
			49.000087738,-103.666564941,0
			49.000087738,-103.66644287,0
			49.000087738,-103.666404724,0
			49.000087738,-103.666267395,0
			49.000087738,-103.666000367,0
			49.000087738,-103.665855408,0
			49.000087738,-103.665664674,0
			49.000087738,-103.665451049,0
			49.000087738,-103.665039062,0
			49.000087738,-103.664627075,0
			49.000087738,-103.664215088,0
			49.000087738,-103.664077759,0
			49.000087738,-103.664031982,0
			49.0000915530001,-103.66381073,0
			49.0000915530001,-103.663398743,0
			49.0000915530001,-103.662986756,0
			49.0000915530001,-103.662689209,0
			49.0000915530001,-103.662574769,0
			49.0000915530001,-103.66243744,0
			49.0000915530001,-103.662391663,0
			49.0000915530001,-103.662322997,0
			49.0000915530001,-103.66216278,0
			49.0000915530001,-103.661758423,0
			49.0000915530001,-103.661346436,0
			49.0000915530001,-103.660964966,0
			49.0000915530001,-103.66052246,0
			49.0000915530001,-103.660377503,0
			49.0000915530001,-103.660118104,0
			49.0000915530001,-103.659889221,0
			49.0000915530001,-103.659736633,0
			49.0000915530001,-103.659568786,0
			49.0000915530001,-103.659530639,0
			49.0000915530001,-103.659431457,0
			49.0000915530001,-103.659362793,0
			49.0000915530001,-103.659294128,0
			49.0000915530001,-103.659233093,0
			49.0000915530001,-103.659156799,0
			49.0000915530001,-103.659095764,0
			49.0000915530001,-103.658882141,0
			49.0000915530001,-103.658744812,0
			49.0000915530001,-103.658699035,0
			49.0000915530001,-103.658615113,0
			49.0000915530001,-103.658477782,0
			49.0000915530001,-103.658332825,0
			49.0000915530001,-103.658203124,0
			49.0000915530001,-103.658065795,0
			49.0000915530001,-103.65789032,0
			49.0000915530001,-103.657791137,0
			49.0000915530001,-103.657653808,0
			49.0000915530001,-103.657516479,0
			49.0000915530001,-103.657386781,0
			49.0000915530001,-103.657272338,0
			49.0000915530001,-103.657104493,0
			49.0000915530001,-103.656974792,0
			49.0000915530001,-103.656837463,0
			49.0000915530001,-103.656692506,0
			49.0000915530001,-103.656562805,0
			49.0000915530001,-103.656425476,0
			49.0000915530001,-103.656150818,0
			49.0000915530001,-103.656013489,0
			49.0000915530001,-103.65587616,0
			49.0000915530001,-103.655815125,0
			49.0000915530001,-103.655746459,0
			49.0000915530001,-103.655601502,0
			49.0000915530001,-103.655349731,0
			49.0000915530001,-103.655197143,0
			49.0000915530001,-103.655036926,0
			49.0000915530001,-103.654785156,0
			49.0000915530001,-103.654373169,0
			49.0000915530001,-103.654167175,0
			49.0000915530001,-103.653961183,0
			49.0000915530001,-103.65384674,0
			49.0000953680002,-103.653717041,0
			49.0000953680002,-103.653556824,0
			49.0000953680002,-103.653114318,0
			49.0000953680002,-103.65273285,0
			49.0000953680002,-103.652320861,0
			49.0000953680002,-103.652183532,0
			49.0000953680002,-103.651840211,0
			49.0000953680002,-103.651725768,0
			49.0000953680002,-103.651504517,0
			49.0000953680002,-103.651092529,0
			49.0000953680002,-103.650680542,0
			49.0000953680002,-103.650543213,0
			49.0000953680002,-103.650466919,0
			49.0000953680002,-103.650268555,0
			49.0000953680002,-103.649864196,0
			49.0000953680002,-103.649650573,0
			49.0000953680002,-103.649452209,0
			49.0000953680002,-103.649040222,0
			49.0000953680002,-103.648658752,0
			49.0000953680002,-103.648490906,0
			49.0000953680002,-103.648277282,0
			49.0000953680002,-103.648223877,0
			49.0000953680002,-103.648086548,0
			49.0000953680002,-103.648017884,0
			49.0000953680002,-103.647895813,0
			49.0000953680002,-103.64781189,0
			49.0000953680002,-103.647689819,0
			49.0000953680002,-103.647567748,0
			49.0000953680002,-103.647399903,0
			49.0000953680002,-103.647308349,0
			49.0000953680002,-103.647262574,0
			49.0000953680002,-103.64717102,0
			49.0000953680002,-103.647132873,0
			49.0000953680002,-103.646987916,0
			49.0000953680002,-103.646850587,0
			49.0000953680002,-103.646781921,0
			49.0000953680002,-103.646720886,0
			49.0000953680002,-103.646583557,0
			49.0000953680002,-103.646522522,0
			49.0000953680002,-103.646461486,0
			49.0000953680002,-103.646408081,0
			49.0000953680002,-103.646308899,0
			49.0000953680002,-103.64617157,0
			49.0000953680002,-103.646034241,0
			49.0000953680002,-103.645927429,0
			49.0000953680002,-103.645759583,0
			49.0000953680002,-103.645690918,0
			49.0000953680002,-103.645629883,0
			49.0000953680002,-103.645553589,0
			49.0000953680002,-103.64542389,0
			49.0000953680002,-103.645278931,0
			49.0000953680002,-103.645141602,0
			49.0000953680002,-103.645019531,0
			49.0000953680002,-103.644874572,0
			49.0000953680002,-103.644729615,0
			49.0000953680002,-103.644691468,0
			49.0000953680002,-103.644645691,0
			49.0000953680002,-103.644599914,0
			49.0000953680002,-103.644462585,0
			49.0000953680002,-103.644317626,0
			49.0000953680002,-103.644195557,0
			49.0000953680002,-103.644050598,0
			49.0000953680002,-103.643913269,0
			49.0000953680002,-103.643806457,0
			49.0000953680002,-103.643745422,0
			49.0000953680002,-103.643638611,0
			49.0000953680002,-103.643501282,0
			49.0000953680002,-103.643371582,0
			49.0000953680002,-103.643226623,0
			49.0000953680002,-103.643089294,0
			49.0000953680002,-103.642959595,0
			49.0000953680002,-103.642822266,0
			49.0000953680002,-103.642677307,0
			49.0000953680002,-103.642623902,0
			49.0000953680002,-103.642547608,0
			49.0000953680002,-103.642410279,0
			49.0000953680002,-103.642135621,0
			49.0000953680002,-103.64199829,0
			49.0000953680002,-103.641860961,0
			49.0000953680002,-103.641799928,0
			49.0000953680002,-103.641731262,0
			49.0000953680002,-103.641586303,0
			49.0000953680002,-103.641448974,0
			49.0000953680002,-103.641349792,0
			49.0000953680002,-103.641181946,0
			49.0000953680002,-103.641036987,0
			49.0000953680002,-103.640907288,0
			49.0000953680002,-103.640769959,0
			49.0000953680002,-103.640632629,0
			49.0000953680002,-103.640594482,0
			49.0000991820001,-103.640296935,0
			49.0000991820001,-103.639846802,0
			49.0000991820001,-103.639778138,0
			49.0000953680002,-103.639717103,0
			49.0000953680002,-103.639678956,0
			49.0000953680002,-103.639541627,0
			49.0000991820001,-103.639396668,0
			49.0000953680002,-103.639266967,0
			49.0000953680002,-103.639129638,0
			49.0000953680002,-103.63885498,0
			49.0000953680002,-103.638717651,0
			49.0000953680002,-103.638603211,0
			49.0000953680002,-103.638450623,0
			49.0000953680002,-103.638305664,0
			49.0000953680002,-103.638168335,0
			49.0000991820001,-103.63809967,0
			49.0000991820001,-103.637908936,0
			49.0000991820001,-103.637489319,0
			49.0000991820001,-103.63720703,0
			49.0000991820001,-103.636993408,0
			49.0000953680002,-103.636894226,0
			49.0000953680002,-103.636810302,0
			49.0000953680002,-103.636772155,0
			49.0000953680002,-103.636665345,0
			49.0000953680002,-103.636398315,0
			49.0000953680002,-103.636253358,0
			49.0000991820001,-103.636116027,0
			49.0000991820001,-103.636032105,0
			49.0000991820001,-103.635848999,0
			49.0000991820001,-103.63559723,0
			49.0000991820001,-103.635437012,0
			49.0000991820001,-103.635025025,0
			49.0000991820001,-103.634620667,0
			49.0000991820001,-103.63420868,0
			49.0000991820001,-103.633987427,0
			49.0000953680002,-103.633880615,0
			49.0000953680002,-103.633796693,0
			49.0000991820001,-103.633659364,0
			49.0000953680002,-103.633560182,0
			49.0000991820001,-103.633384704,0
			49.0000991820001,-103.632972717,0
			49.0000991820001,-103.632614135,0
			49.0000991820001,-103.632156371,0
			49.0000991820001,-103.631706238,0
			49.0000991820001,-103.631332397,0
			49.0000991820001,-103.631134033,0
			49.0000991820001,-103.630928039,0
			49.0000991820001,-103.630516052,0
			49.0000991820001,-103.630104065,0
			49.0000991820001,-103.629692078,0
			49.0001144420002,-103.629425048,0
			49.0001297000002,-103.62915039,0
			49.000083923,-103.626182556,0
			49.0000801080001,-103.625915526,0
			49.0000801080001,-103.625213623,0
			49.0000801080001,-103.609161376,0
			49.0000801080001,-103.608016968,0
			49.0000801080001,-103.606384278,0
			49.0000686650002,-103.578208923,0
			49.0000686650002,-103.577056884,0
			49.0000648500001,-103.568580627,0
			49.0000648500001,-103.568031311,0
			49.0000610350001,-103.560829163,0
			49.000057222,-103.55669403,0
			49.000049591,-103.546745301,0
			49.000049591,-103.545852662,0
			49.0000419610001,-103.540794372,0
			49.0000419610001,-103.539215088,0
			49.0000381460001,-103.534408568,0
			49.000034333,-103.530998231,0
			49.000034333,-103.527107239,0
			49.0000381460001,-103.507751464,0
			49.0000381460001,-103.500000001,0
			49.0000381460001,-103.499832153,0
			49.0000381460001,-103.499526978,0
			49.0000381460001,-103.497993469,0
			49.0000381460001,-103.497657776,0
			49.0000381460001,-103.494812013,0
			49.0000381460001,-103.493133544,0
			49.0000381460001,-103.490524292,0
			49.000034333,-103.486579895,0
			49.0000305180001,-103.474357604,0
			49.0000305180001,-103.473640443,0
			49.0000305180001,-103.473503112,0
			49.0000305180001,-103.473335266,0
			49.0000305180001,-103.472511292,0
			49.0000381460001,-103.466224671,0
			49.0000381460001,-103.465522765,0
			49.0000419610001,-103.462806701,0
			49.0000457760001,-103.459442138,0
			49.000049591,-103.454833984,0
			49.000049591,-103.453018189,0
			49.0000534070002,-103.449737548,0
			49.000057222,-103.439399719,0
			49.0000610350001,-103.438430786,0
			49.0000610350001,-103.438270568,0
			49.0000610350001,-103.437156676,0
			49.0000610350001,-103.436981201,0
			49.0000610350001,-103.436714173,0
			49.0000610350001,-103.43623352,0
			49.0000610350001,-103.435668946,0
			49.0000610350001,-103.435142517,0
			49.0000610350001,-103.434570312,0
			49.0000648500001,-103.434204102,0
			49.0000648500001,-103.434013366,0
			49.0000648500001,-103.43383026,0
			49.0000648500001,-103.433052064,0
			49.0000686650002,-103.421005249,0
			49.00007248,-103.414848328,0
			49.0000762950001,-103.410011292,0
			49.0000762950001,-103.406959534,0
			49.0000801080001,-103.398155213,0
			49.0000801080001,-103.393745422,0
			49.0000801080001,-103.388122558,0
			49.0000801080001,-103.386650085,0
			49.0000457760001,-103.374542237,0
			49.000011445,-103.36240387,0
			49.000011445,-103.36064148,0
			49.0000152600001,-103.357124328,0
			49.0000190730001,-103.352554322,0
			49.0000190730001,-103.352149963,0
			49.0000190730001,-103.351356506,0
			49.0000190730001,-103.351219177,0
			49.0000190730001,-103.350738526,0
			49.0000190730001,-103.350357056,0
			49.0000190730001,-103.348617554,0
			49.0000190730001,-103.348388672,0
			49.0000190730001,-103.347976685,0
			49.0000190730001,-103.347709655,0
			49.0000190730001,-103.347496032,0
			49.0000190730001,-103.347122192,0
			49.0000190730001,-103.346778869,0
			49.0000190730001,-103.346496583,0
			49.000022888,-103.341758728,0
			49.0000267030001,-103.337638855,0
			49.000034333,-103.326805115,0
			49.000034333,-103.326293946,0
			49.000034333,-103.325241089,0
			49.000034333,-103.324371338,0
			49.0000381460001,-103.320922852,0
			49.0000381460001,-103.319778443,0
			49.0000457760001,-103.308197021,0
			49.000049591,-103.301750183,0
			49.000003814,-103.245758057,0
			49.0000457760001,-103.245140076,0
			49.000083923,-103.244598388,0
			49.000083923,-103.244354249,0
			49.000083923,-103.243370056,0
			49.000083923,-103.243095398,0
			49.000083923,-103.241096496,0
			49.000087738,-103.237106324,0
			49.0000953680002,-103.22277832,0
			49.0001068120001,-103.208442689,0
		</coordinates>
	</polygon>
</kml>
