<?xml version="1.0" encoding="UTF-8"?>
<kml xmlns="http://earth.google.com/kml/2.2">
	<polygon id="USA_WI_Marquette" samplingProbability="1">
		<coordinates>
			43.6427116400001,-89.6000289909999,0
			43.7305793760001,-89.59953308,0
			43.8180007940001,-89.597763062,0
			43.8945121770001,-89.5972290049999,0
			43.9824218740001,-89.5979766849999,0
			43.9820022590001,-89.4823303229999,0
			43.982391358,-89.3653869629999,0
			43.9826698310001,-89.2471923819999,0
			43.9829521190002,-89.165840148,0
			43.8759117130002,-89.165100098,0
			43.8759918220001,-89.1974563589999,0
			43.8126907360001,-89.1977386469999,0
			43.8108711250002,-89.197746278,0
			43.8076820380002,-89.199028015,0
			43.8044891360001,-89.1971359239999,0
			43.8022117620002,-89.1939773559999,0
			43.8012886040001,-89.1901931759999,0
			43.802188874,-89.185111999,0
			43.8076210030002,-89.174942017,0
			43.809879304,-89.1679611199999,0
			43.7625312800001,-89.1681900029999,0
			43.763450623,-89.1713485709999,0
			43.7639122000001,-89.1751480109999,0
			43.762111663,-89.1834030159999,0
			43.7616691600001,-89.189727782,0
			43.7626419080001,-89.217597961,0
			43.7603721620001,-89.2201385499999,0
			43.760379792,-89.2226715079999,0
			43.7649497990001,-89.2296218869999,0
			43.763599395,-89.2410278309999,0
			43.7590484620002,-89.242950439,0
			43.757240295,-89.2454910279999,0
			43.7303695680001,-89.2455902099999,0
			43.6429595950001,-89.2452774049999,0
			43.6426811220001,-89.364799499,0
			43.6422920230002,-89.483680724,0
			43.6427116400001,-89.6000289909999,0
		</coordinates>
	</polygon>
</kml>
