<?xml version="1.0" encoding="UTF-8"?>
<kml xmlns="http://earth.google.com/kml/2.2">
	<polygon id="USA_NY_Steuben" samplingProbability="1">
		<coordinates>
			41.9990386970002,-77.7512664789999,0
			42.0550918580001,-77.748748779,0
			42.123291017,-77.7453765859998,0
			42.1828613280001,-77.7429733279999,0
			42.2474288940001,-77.7400817879999,0
			42.4043693550001,-77.73085022,0
			42.4039917000001,-77.7264862059999,0
			42.405818939,-77.72592926,0
			42.4144783020001,-77.725723267,0
			42.4722099320001,-77.7243270869998,0
			42.5340995790001,-77.720092773,0
			42.5341911310002,-77.6603393559999,0
			42.5792007450002,-77.6598663339999,0
			42.578411103,-77.5689086919999,0
			42.5773620610001,-77.490409851,0
			42.576938629,-77.458023071,0
			42.576358795,-77.405693054,0
			42.576011658,-77.3664398189999,0
			42.5759010310002,-77.3421478279999,0
			42.575881957,-77.2786331169999,0
			42.5769309990001,-77.143753052,0
			42.5736694340002,-77.144187927,0
			42.5573387160001,-77.149085999,0
			42.5412597650001,-77.149017333,0
			42.5312690740001,-77.146156312,0
			42.5179100030001,-77.148727417,0
			42.5085792540002,-77.14996338,0
			42.5020484930001,-77.1496887199999,0
			42.5010414130001,-77.1491928089999,0
			42.4998703000001,-77.149147034,0
			42.4980697640001,-77.1478729249999,0
			42.4953804020002,-77.1440658559999,0
			42.4940795890001,-77.1396865839999,0
			42.4943313610001,-77.136070252,0
			42.4963188170001,-77.129196167,0
			42.5025215150001,-77.1196060179999,0
			42.50782013,-77.1146621709998,0
			42.5057411200002,-77.1077804559999,0
			42.4851493830002,-77.1071166999998,0
			42.4849395760002,-77.1071319579999,0
			42.4835700990001,-77.1071014409999,0
			42.4804000860001,-77.107032776,0
			42.4144783020001,-77.104934693,0
			42.4081687930001,-77.1047363279999,0
			42.314601899,-77.1013412469999,0
			42.2741813670002,-77.0997924809999,0
			42.2733192440002,-77.0960464479999,0
			42.2738990790001,-77.086135864,0
			42.2763099670001,-77.0744171149999,0
			42.280311585,-76.9653701779999,0
			42.1208496100001,-76.9657363899999,0
			42.002311708,-76.9651031499999,0
			42.0009918210001,-77.1132965089999,0
			42.0001716620001,-77.1767425529999,0
			42.0010490410001,-77.4394073479999,0
			41.9997901920001,-77.6096191419999,0
			41.999198914,-77.6883621219999,0
			41.9990921020001,-77.7030868539999,0
			41.9990386970002,-77.7512664789999,0
		</coordinates>
	</polygon>
</kml>
