<?xml version="1.0" encoding="UTF-8"?>
<kml xmlns="http://earth.google.com/kml/2.2">
	<polygon id="USA_IL_Dupage" samplingProbability="1">
		<coordinates>
			41.987609864,-88.2634277339999,0
			41.9882621770001,-88.1473312379999,0
			41.992481232,-88.0342483519998,0
			41.9938316350001,-87.917503357,0
			41.9075508120001,-87.918830871,0
			41.8185310360001,-87.9177627559999,0
			41.7317619320001,-87.9141769409999,0
			41.7172203060001,-87.913887024,0
			41.7017021190001,-87.943756104,0
			41.6940307620002,-87.9482421869999,0
			41.6879005440001,-87.9674377439999,0
			41.68770218,-87.9883422859999,0
			41.6874008190001,-88.001258851,0
			41.686828614,-88.030776977,0
			41.7295188900001,-88.0317382819998,0
			41.7271804800001,-88.1499023439999,0
			41.7251396170001,-88.2625122059999,0
			41.8109588630002,-88.262840271,0
			41.8622589120001,-88.2631759649998,0
			41.8999595640001,-88.263122559,0
			41.987609864,-88.2634277339999,0
		</coordinates>
	</polygon>
</kml>
