<?xml version="1.0" encoding="UTF-8"?>
<kml xmlns="http://earth.google.com/kml/2.2">
	<polygon id="USA_KY_Oldham" samplingProbability="1">
		<coordinates>
			38.3793792720001,-85.636741639,0
			38.3801689140001,-85.636520386,0
			38.3938789370002,-85.6326522829999,0
			38.422489167,-85.619262695,0
			38.434242248,-85.6098175049999,0
			38.4442214960001,-85.598075867,0
			38.451068879,-85.5820388789999,0
			38.4514007570002,-85.580917358,0
			38.4527397150001,-85.5742263799999,0
			38.4537620550001,-85.568717957,0
			38.4565620420001,-85.533470155,0
			38.4567909250001,-85.532371521,0
			38.464260102,-85.5052719109999,0
			38.4645195020001,-85.5047073369998,0
			38.46736908,-85.4999618529999,0
			38.4747886660001,-85.4908523559999,0
			38.4760704030001,-85.4894866939999,0
			38.4767608650001,-85.4889297479999,0
			38.499172211,-85.475891114,0
			38.5022697460001,-85.4740905749999,0
			38.508609773,-85.4689483639999,0
			38.509429931,-85.467857361,0
			38.5101890570001,-85.466339112,0
			38.515941619,-85.4503402719999,0
			38.518371583,-85.4435729979999,0
			38.519180298,-85.441841126,0
			38.5204505930001,-85.4392089849999,0
			38.524009705,-85.4329071049999,0
			38.519470214,-85.4293823249999,0
			38.5208320630002,-85.4223327649999,0
			38.5176506040001,-85.4135131839998,0
			38.518550874,-85.4005661019999,0
			38.515819551,-85.389976501,0
			38.5185318,-85.3787918089999,0
			38.514438629,-85.372329712,0
			38.510810851,-85.3711624139999,0
			38.50764084,-85.3652877809999,0
			38.5094413770001,-85.3570480349999,0
			38.5089797980002,-85.351760865,0
			38.5026206970001,-85.3388366699999,0
			38.5003318800001,-85.3235473629999,0
			38.4976120000002,-85.319442749,0
			38.4962387080001,-85.3159179679999,0
			38.4926109310002,-85.3141632079999,0
			38.459571838,-85.3459777839999,0
			38.4423294070001,-85.331329345,0
			38.403800964,-85.3249588019999,0
			38.373840333,-85.2956771849999,0
			38.3579597480002,-85.2828063969999,0
			38.309978485,-85.3245925899999,0
			38.3032188410001,-85.351593017,0
			38.3077888500001,-85.3855972279999,0
			38.3077888500001,-85.393226623,0
			38.3050804130002,-85.395576476,0
			38.3037300120001,-85.409072876,0
			38.2946586620002,-85.407913209,0
			38.2937622080001,-85.4102478029999,0
			38.2946701050001,-85.4131774909999,0
			38.302371979,-85.4166870119999,0
			38.3019218450001,-85.422546387,0
			38.3037414550002,-85.4266586299999,0
			38.2983016980002,-85.4272460949999,0
			38.2942199720001,-85.424911498,0
			38.292861938,-85.4272460949999,0
			38.2942199720001,-85.4337005619998,0
			38.29875946,-85.4383926399999,0
			38.29875946,-85.446006774,0
			38.3019409180002,-85.447181702,0
			38.3041992190001,-85.4489364619999,0
			38.2996788030001,-85.4548110969999,0
			38.2910614010001,-85.455986022,0
			38.2856292720001,-85.4612731939999,0
			38.2847213740001,-85.467712401,0
			38.3372802740001,-85.560981751,0
			38.3359222410001,-85.567428589,0
			38.3341102610001,-85.5750579839999,0
			38.3395309450001,-85.5856170659999,0
			38.3418121340001,-85.569198609,0
			38.3793792720001,-85.636741639,0
		</coordinates>
	</polygon>
</kml>
