<?xml version="1.0" encoding="UTF-8"?>
<kml xmlns="http://earth.google.com/kml/2.2">
	<polygon id="USA_NY_Saratoga" samplingProbability="1">
		<coordinates>
			42.770389557,-73.6825408939999,0
			42.7731895450001,-73.6874618529999,0
			42.77873993,-73.6941833499999,0
			42.7994499210002,-73.712387085,0
			42.8182106020002,-73.7212829599999,0
			42.823249816,-73.7242660519999,0
			42.8210906980001,-73.732452393,0
			42.818881989,-73.736892701,0
			42.8152809150002,-73.7400970459999,0
			42.7982406620001,-73.7574005119999,0
			42.7874908450001,-73.7695388789999,0
			42.789829255,-73.774482727,0
			42.7916984550001,-73.778800965,0
			42.790870667,-73.785072326,0
			42.7872810360001,-73.7882843019999,0
			42.7814598080002,-73.795303346,0
			42.7788085940001,-73.8016128539999,0
			42.7789115910001,-73.80909729,0
			42.7804489130001,-73.8221817029999,0
			42.7850418090002,-73.8258132929999,0
			42.7905311580001,-73.8281784059999,0
			42.7951202400002,-73.831817627,0
			42.7993087770001,-73.8392105109999,0
			42.8149490350001,-73.8538360589999,0
			42.8347587580002,-73.87399292,0
			42.850761413,-73.8811187739999,0
			42.850940704,-73.8961181649999,0
			42.8891906740001,-73.9002304079999,0
			42.911491394,-73.9015960689999,0
			42.9085197450001,-73.919181823,0
			42.9063796990001,-73.929862976,0
			42.8989791870001,-73.958190918,0
			42.9031410220001,-73.963729858,0
			42.9113998420001,-73.969810486,0
			42.9336395270001,-74.006240845,0
			42.9458007810001,-74.036026001,0
			42.9476814270001,-74.0410003659999,0
			42.954200745,-74.054626465,0
			42.9568901060001,-74.092765807,0
			42.9828491220001,-74.0966262809999,0
			43.0785598750002,-74.1153793339999,0
			43.2508087160001,-74.142723083,0
			43.3656616210002,-74.1618728629999,0
			43.3850021370001,-74.0134277339999,0
			43.3985786430001,-73.8908767689999,0
			43.3912200930002,-73.8841171269999,0
			43.3797492980001,-73.876831054,0
			43.3751716610001,-73.8744125379999,0
			43.3697204590001,-73.8758010859999,0
			43.3651885990001,-73.8771667469999,0
			43.3610992440001,-73.877265929,0
			43.3403892520002,-73.8582382199999,0
			43.337650298,-73.8583068849999,0
			43.3349418640001,-73.85962677,0
			43.3317718500001,-73.860961915,0
			43.3290405270001,-73.8610305779999,0
			43.3267402650002,-73.859191895,0
			43.324409485,-73.8542099009999,0
			43.3225517280001,-73.8511123659999,0
			43.3193321220002,-73.8486709589999,0
			43.309219361,-73.8407287589999,0
			43.3064689640001,-73.8389129639999,0
			43.3050498960001,-73.8345413219999,0
			43.3045501720001,-73.8314132679999,0
			43.303619386,-73.8295364379999,0
			43.29906845,-73.8296508779999,0
			43.2886199960001,-73.8305358889999,0
			43.2799797060002,-73.8313827509999,0
			43.2777099620001,-73.832054138,0
			43.2750205990001,-73.835266113,0
			43.2723197940001,-73.8372192379999,0
			43.2686996470001,-73.83920288,0
			43.2614288340001,-73.8399963379999,0
			43.2568817140001,-73.8401107779999,0
			43.252780914,-73.839576721,0
			43.2509422300001,-73.837738037,0
			43.2499809270001,-73.833976745,0
			43.250370026,-73.8283233629999,0
			43.2512321460002,-73.825149537,0
			43.2530288700002,-73.823219299,0
			43.253440857,-73.8200683589998,0
			43.2533912650002,-73.8156661999998,0
			43.2519302370001,-73.8081588749999,0
			43.2490921030001,-73.8000488279999,0
			43.2440109250002,-73.793891907,0
			43.2412414550001,-73.790817261,0
			43.2347793580001,-73.7840576159999,0
			43.2283401490001,-73.779190063,0
			43.2255516050001,-73.7742309559999,0
			43.225040436,-73.770469665,0
			43.2272911070002,-73.7678985589998,0
			43.2309112540001,-73.7665557859999,0
			43.234500885,-73.7633209219999,0
			43.2403106690001,-73.7549972539999,0
			43.2484207150001,-73.7484970099999,0
			43.2529220580002,-73.7452468879999,0
			43.2565612790001,-73.7451629639999,0
			43.2611198420001,-73.7462921139999,0
			43.265670778,-73.746177674,0
			43.269729615,-73.742927551,0
			43.2728500370001,-73.7384490969999,0
			43.2745819100002,-73.73147583,0
			43.2758293160002,-73.7232666019999,0
			43.27666092,-73.7169570919999,0
			43.2779808050001,-73.713783263,0
			43.2793006890001,-73.710601807,0
			43.2801704400002,-73.707443236,0
			43.2796707160001,-73.7042999259999,0
			43.280090333,-73.701766968,0
			43.2818717970002,-73.6985778809999,0
			43.283199311,-73.6966629029999,0
			43.2849998480001,-73.6947174069999,0
			43.2849693300002,-73.6922073369999,0
			43.282669067,-73.6903762819999,0
			43.277198793,-73.6899032589999,0
			43.2712707530002,-73.6887969969999,0
			43.2666587840001,-73.684509277,0
			43.2661399850001,-73.680122376,0
			43.26651001,-73.673820496,0
			43.26966858,-73.671852111,0
			43.2755699170001,-73.6710662839999,0
			43.2815704350001,-73.6772003169999,0
			43.285270691,-73.681503296,0
			43.2888908380002,-73.680152893,0
			43.2920494090001,-73.67817688,0
			43.2933692930001,-73.6750030509999,0
			43.2932891850002,-73.6693267829999,0
			43.2922515880001,-73.6599273669999,0
			43.2921485910001,-73.653007508,0
			43.2943992620001,-73.6504287719999,0
			43.301208496,-73.6496200569998,0
			43.3048400880001,-73.6488876349999,0
			43.3070907590001,-73.6469421389999,0
			43.3074798590001,-73.6425170889999,0
			43.3059501650001,-73.6305999749999,0
			43.3067703260002,-73.624282837,0
			43.3084297190001,-73.613540649,0
			43.3092422490001,-73.606597901,0
			43.308719635,-73.6015777579999,0
			43.301429748,-73.601142883,0
			43.2918701180001,-73.600776673,0
			43.2764587410001,-73.6056137089999,0
			43.2710304260001,-73.607643127,0
			43.26737976,-73.6071166999999,0
			43.2686615000001,-73.6007919309999,0
			43.2672195430002,-73.595802307,0
			43.2617301930001,-73.5934371939999,0
			43.2535514830001,-73.594291687,0
			43.2468299870002,-73.601387024,0
			43.2409706130001,-73.605331421,0
			43.2340393080001,-73.5979766839999,0
			43.2289505000001,-73.592460633,0
			43.2175102240001,-73.5883789069999,0
			43.1943511960001,-73.5908966069999,0
			43.1807022090001,-73.5912933359999,0
			43.1716499320001,-73.5940475469998,0
			43.1670913710001,-73.593536376,0
			43.1606521620001,-73.588699342,0
			43.152931213,-73.589538574,0
			43.1425399780001,-73.5948486329999,0
			43.1343803410001,-73.596336365,0
			43.127040864,-73.5921401979999,0
			43.1132698060001,-73.5837402349999,0
			43.1059494010001,-73.5814285289999,0
			43.0941391000002,-73.5823898309998,0
			43.0818595890001,-73.582733155,0
			43.0746116650001,-73.5848083499998,0
			43.0646095290002,-73.5850906379998,0
			43.0586891190001,-73.584632874,0
			43.053260804,-73.5866622919999,0
			43.0487785340001,-73.591171265,0
			43.0429115300001,-73.5944671619999,0
			43.035640716,-73.595298766,0
			43.0224800120002,-73.596916199,0
			43.0084915160001,-73.604820252,0
			43.001781464,-73.6125259409998,0
			42.9954185490001,-73.6127014169999,0
			42.9935913080002,-73.6121215819999,0
			42.985401154,-73.611717223,0
			42.980899811,-73.6156005849999,0
			42.9791488640002,-73.6200408929999,0
			42.977840423,-73.6238327029998,0
			42.973369598,-73.6295928959999,0
			42.9633712770001,-73.629867554,0
			42.950641633,-73.630210877,0
			42.9411697390001,-73.635482789,0
			42.940361024,-73.6430129999998,0
			42.9378013620002,-73.6549682619998,0
			42.9302215590001,-73.665817261,0
			42.9189987180002,-73.676116943,0
			42.9090919490002,-73.6832733159999,0
			42.898200989,-73.6848068229999,0
			42.8876800530001,-73.6807022099999,0
			42.8748703000001,-73.674789429,0
			42.8625907900001,-73.674476624,0
			42.8109703060001,-73.658363342,0
			42.8041992190001,-73.6616592409999,0
			42.8015289310001,-73.6654663089999,0
			42.7988815320002,-73.6711730959999,0
			42.7753791810001,-73.681159972,0
			42.770389557,-73.6825408939999,0
		</coordinates>
	</polygon>
</kml>
