<?xml version="1.0" encoding="UTF-8"?>
<kml xmlns="http://earth.google.com/kml/2.2">
	<polygon id="USA_LA_Richland" samplingProbability="1">
		<coordinates>
			32.154628755,-91.8963012699999,0
			32.1632804880001,-91.897956848,0
			32.1664505010001,-91.904479981,0
			32.1659812920001,-91.9071807849999,0
			32.166889192,-91.9098892219999,0
			32.1691589360001,-91.910446168,0
			32.168209076,-91.9212570189999,0
			32.1659088140001,-91.92666626,0
			32.1654319760001,-91.9331588749999,0
			32.1690521240001,-91.9396667469999,0
			32.175430297,-91.941337585,0
			32.175418854,-91.944038392,0
			32.1749305740001,-91.9526977529999,0
			32.169429779,-91.9602508539999,0
			32.1698493960002,-91.96836853,0
			32.166641235,-91.9732208249999,0
			32.166610719,-91.9807968139999,0
			32.1684188840002,-91.981903076,0
			32.1743698130001,-91.977058412,0
			32.1793899530001,-91.9760131829999,0
			32.1884918220001,-91.9803924559999,0
			32.1958007820002,-91.976097107,0
			32.1985511780002,-91.9723281849999,0
			32.2021903990001,-91.9728927619999,0
			32.2044601450002,-91.9745330809998,0
			32.2044487000002,-91.9783172609999,0
			32.1906814570002,-91.999893189,0
			32.190200807,-92.0063858039999,0
			32.1929206850002,-92.009117127,0
			32.1979293820001,-92.0091476429998,0
			32.201129914,-92.006996155,0
			32.2048187270001,-91.9989013679999,0
			32.2098693860002,-91.9902572629999,0
			32.214019776,-91.9794616699999,0
			32.2204017650001,-91.9778671269999,0
			32.2235794060002,-91.9805984499999,0
			32.2240219120002,-91.984397888,0
			32.2253608700001,-91.9914474489999,0
			32.2317008970001,-92.0006866459999,0
			32.245399476,-91.9937362679999,0
			32.251319886,-91.994857788,0
			32.2522201530002,-91.9991989139999,0
			32.2540321350002,-92.0008316029999,0
			32.2590408330001,-92.0003280649999,0
			32.263629913,-91.9922332759999,0
			32.2659187320002,-91.991157532,0
			32.2768516550001,-91.9933929449999,0
			32.277118683,-92.0345916749999,0
			32.2940292370002,-92.0243988029999,0
			32.30316162,-92.020118714,0
			32.318222046,-92.015876771,0
			32.3232307430001,-92.0169982909999,0
			32.3332786560001,-92.0116271969998,0
			32.3469505320001,-92.0117263789999,0
			32.3578987130001,-92.0074462879999,0
			32.3670120250001,-92.0091400149999,0
			32.3793220520001,-92.0065078739999,0
			32.3966789250002,-91.9957580559999,0
			32.4126701360001,-91.9855422969998,0
			32.4149589540002,-91.9828414929999,0
			32.4195404060002,-91.9768981939999,0
			32.4227600100001,-91.9703979499999,0
			32.4264221190002,-91.966072082,0
			32.4360198980002,-91.960159302,0
			32.4406013480001,-91.9536666879999,0
			32.4456214910001,-91.951522828,0
			32.4492797850001,-91.948822021,0
			32.4570312500001,-91.9461517339999,0
			32.4675216670001,-91.944038392,0
			32.4770889280001,-91.943008424,0
			32.4885101330001,-91.9359970099999,0
			32.4962806700001,-91.9262619019999,0
			32.504981995,-91.915435792,0
			32.507720948,-91.912193298,0
			32.5100288390001,-91.904586791,0
			32.5164184580001,-91.9008178719999,0
			32.52143097,-91.899757385,0
			32.5260009770001,-91.898147584,0
			32.529640198,-91.8976211549999,0
			32.5341987610001,-91.8965530389999,0
			32.5360298150001,-91.8960189819999,0
			32.5392189020001,-91.8949508669999,0
			32.5415000910001,-91.893325806,0
			32.5419693000001,-91.8906097409999,0
			32.5438117990001,-91.8851928719998,0
			32.5338096630001,-91.8764266959999,0
			32.5279006960001,-91.872596742,0
			32.5247306830001,-91.8676910399999,0
			32.522468567,-91.863327027,0
			32.5206604000001,-91.8606033319999,0
			32.5174903860001,-91.854606629,0
			32.5161399850001,-91.8486328119999,0
			32.5166015620001,-91.845359803,0
			32.5207099920001,-91.8421173089998,0
			32.5243606580001,-91.8399581899999,0
			32.5298309320002,-91.8416061399999,0
			32.536201478,-91.842727662,0
			32.5389289860001,-91.84274292,0
			32.5398521420001,-91.840026856,0
			32.5412216180001,-91.8389358519998,0
			32.5466995250001,-91.8367919919999,0
			32.553089142,-91.8297500609999,0
			32.5549316410002,-91.8248596199999,0
			32.5576820370002,-91.8194274899999,0
			32.5627021800001,-91.8145523069999,0
			32.5649795540001,-91.814018249,0
			32.565898895,-91.8118515009999,0
			32.5686416630002,-91.8085861199999,0
			32.5700187680001,-91.805335998,0
			32.5704803470001,-91.8015289309999,0
			32.5682220460002,-91.7960815439999,0
			32.5650291440001,-91.79498291,0
			32.563678743,-91.792251587,0
			32.5618591300002,-91.78843689,0
			32.5627899160001,-91.7835388189999,0
			32.5637092590001,-91.7786483769999,0
			32.5619010920001,-91.7721099859999,0
			32.560081482,-91.770477294,0
			32.5555305480001,-91.767738343,0
			32.5601120010002,-91.7590484609998,0
			32.5596694950002,-91.75415802,0
			32.5578613280002,-91.7454528809999,0
			32.558319092,-91.7443618779999,0
			32.5601501470001,-91.739471436,0
			32.571090698,-91.7356872559999,0
			32.5792808540002,-91.738441468,0
			32.5893211370002,-91.7335662839999,0
			32.5952415470001,-91.729782105,0
			32.5988922130001,-91.728157043,0
			32.6020889280001,-91.7243576049999,0
			32.6061897280001,-91.7194671639999,0
			32.610309601,-91.7134933469999,0
			32.6144218450001,-91.7069702159999,0
			32.6112403870001,-91.6977081289999,0
			32.610790253,-91.694442749,0
			32.6103401190001,-91.6922683719999,0
			32.6094398500001,-91.6895370489999,0
			32.612171173,-91.6884613029999,0
			32.6149101260001,-91.68737793,0
			32.6162796030002,-91.684661865,0
			32.6167411820001,-91.679756165,0
			32.6153793330001,-91.676490783,0
			32.6149291990002,-91.670501709,0
			32.6158485420002,-91.666687011,0
			32.617671968,-91.665611268,0
			32.6185913090001,-91.663978576,0
			32.6204109190001,-91.661262512,0
			32.6213302620002,-91.6579971309999,0
			32.6231498720001,-91.655822754,0
			32.6295318610001,-91.6547470089999,0
			32.6327209480001,-91.655296327,0
			32.6359100350001,-91.652580262,0
			32.6381912240001,-91.6487731939999,0
			32.6409301750002,-91.6465988169999,0
			32.645488739,-91.644432068,0
			32.6514091490001,-91.6422576909999,0
			32.6577911380002,-91.6406402599999,0
			32.661891938,-91.6395568839998,0
			32.6696319580001,-91.639022827,0
			32.6687622070001,-91.597633362,0
			32.6332397470001,-91.5970382689999,0
			32.5822296150002,-91.5964279179998,0
			32.5822410580001,-91.5811996469999,0
			32.5822601310001,-91.4685516359999,0
			32.5817909240002,-91.4457015999999,0
			32.579978944,-91.4451599119999,0
			32.5612907410002,-91.4310302729999,0
			32.5562820440001,-91.4353866569999,0
			32.5526390080001,-91.4424591059999,0
			32.5503692620001,-91.4424591059999,0
			32.5467185980002,-91.438659668,0
			32.543529511,-91.4413833629999,0
			32.543079377,-91.445732117,0
			32.5412597650001,-91.45552063,0
			32.5376209830001,-91.457687063,0
			32.5368665620002,-91.460402645,0
			32.5353503080001,-91.4658628859999,0
			32.5351900000002,-91.4669949999999,0
			32.5348890000001,-91.469116,0
			32.533196,-91.470271,0
			32.5317000000001,-91.4712909999999,0
			32.5294190000002,-91.468033,0
			32.527149001,-91.468033,0
			32.5235993220001,-91.469310198,0
			32.522590977,-91.4696730329999,0
			32.5216850000001,-91.4709669999999,0
			32.5203090000001,-91.472931,0
			32.5202880370001,-91.472937284,0
			32.5178072580001,-91.473681041,0
			32.5166700980001,-91.4740219709999,0
			32.509842,-91.4800029999999,0
			32.5034600000001,-91.4816359999999,0
			32.50275449,-91.4817123399999,0
			32.4984510000001,-91.4821779999999,0
			32.4939269760001,-91.4835870379999,0
			32.487968445,-91.485443115,0
			32.4860471440002,-91.4877321289999,0
			32.4848750000002,-91.4891289999999,0
			32.4847790000001,-91.4892429989999,0
			32.4847572300002,-91.4892274039999,0
			32.4786116070002,-91.4848252029999,0
			32.477951051,-91.484352112,0
			32.4764998140001,-91.4836584989999,0
			32.476097,-91.4834659999999,0
			32.4711190000001,-91.4810869999999,0
			32.4710962770001,-91.4810792819999,0
			32.4655428940001,-91.4791930469999,0
			32.4583587650001,-91.4767532349999,0
			32.457251765,-91.4765343029999,0
			32.4556246580001,-91.4762129189999,0
			32.4533500000002,-91.4756699999999,0
			32.4512258680001,-91.4753892689999,0
			32.4492492680002,-91.475128174,0
			32.4491611050001,-91.4756498089999,0
			32.4490910000001,-91.4760659999999,0
			32.448792,-91.4778369999999,0
			32.4383090010001,-91.482727,0
			32.4383042500002,-91.4827364459999,0
			32.4373500000001,-91.4846339999999,0
			32.4369390000002,-91.4854509999999,0
			32.4246520000002,-91.487633,0
			32.4205510420001,-91.4849090279999,0
			32.4150809990001,-91.4849090009999,0
			32.4147960650001,-91.4852482599999,0
			32.413261,-91.4870759999999,0
			32.409573,-91.482398,0
			32.409206537,-91.4819331459999,0
			32.406421661,-91.4784011849999,0
			32.4059600820001,-91.4811096189999,0
			32.4059600820001,-91.5272674549998,0
			32.4054794320001,-91.588066101,0
			32.4049797060001,-91.6336669929999,0
			32.4013214120001,-91.6412658689999,0
			32.3981285100001,-91.6456069949999,0
			32.3922004700001,-91.6510162359999,0
			32.3903694160001,-91.6548233019999,0
			32.3880920400001,-91.657531739,0
			32.388542176,-91.6624221809999,0
			32.390350341,-91.6672973639999,0
			32.3862419130001,-91.672729491,0
			32.3862304680001,-91.677612305,0
			32.3839492810001,-91.680320739,0
			32.3807601940001,-91.680313111,0
			32.3766593940001,-91.681388855,0
			32.3730201710002,-91.6813812259999,0
			32.3734588620001,-91.690055848,0
			32.3739089980001,-91.691696167,0
			32.3739089980001,-91.6955032359999,0
			32.3738899240001,-91.700920105,0
			32.3698005680001,-91.6992797849999,0
			32.363410951,-91.7003631589999,0
			32.356121064,-91.7030487069999,0
			32.351108552,-91.702491761,0
			32.3470115670001,-91.7024765019999,0
			32.3451805120002,-91.703559876,0
			32.3438110350001,-91.7073593139999,0
			32.3447189330001,-91.7095260629999,0
			32.3433418280001,-91.7149505619999,0
			32.341049195,-91.7176589969999,0
			32.3383216850002,-91.7187271119999,0
			32.3346710220002,-91.719268799,0
			32.3332901000001,-91.7257690439998,0
			32.335559846,-91.73336792,0
			32.3378219620001,-91.739341735,0
			32.3364486700002,-91.7436828609999,0
			32.337810516,-91.7463989259999,0
			32.3382606500002,-91.748016357,0
			32.3364219660001,-91.7550659169999,0
			32.334590913,-91.758872985,0
			32.3318519600002,-91.7631988529999,0
			32.32957077,-91.7637329099999,0
			32.3254699710001,-91.7631759639999,0
			32.3190994270001,-91.7599029539999,0
			32.3149795540002,-91.7653121949999,0
			32.3108901970001,-91.7625885019999,0
			32.3095207210001,-91.7631301869999,0
			32.3081398010001,-91.7658309939999,0
			32.3049507140001,-91.7663574209998,0
			32.2990303040002,-91.7663497929999,0
			32.295841217,-91.7674179079999,0
			32.2908210750001,-91.7701110839999,0
			32.2853393550001,-91.771720887,0
			32.2812385560001,-91.7717132569999,0
			32.2739486690001,-91.7722167979999,0
			32.2707595820002,-91.7738418569999,0
			32.2680206310001,-91.7722015379999,0
			32.2639312740001,-91.7711105339999,0
			32.2570915220001,-91.772712707,0
			32.252990722,-91.7721633909999,0
			32.2511596680001,-91.7732315059999,0
			32.242950439,-91.775909424,0
			32.2388420110001,-91.7802429189999,0
			32.2374496460001,-91.7861862179999,0
			32.236991882,-91.7888870239999,0
			32.2333412180001,-91.7915878309999,0
			32.2306098930002,-91.7910385129999,0
			32.227409363,-91.7948074339999,0
			32.2269401560001,-91.7986068719999,0
			32.2251091000001,-91.80293274,0
			32.223731996,-91.8078079229999,0
			32.2232704170001,-91.809967042,0
			32.2218894970001,-91.8126831049999,0
			32.2191505440002,-91.815368653,0
			32.2164001470001,-91.81968689,0
			32.210472107,-91.8212966929999,0
			32.2054595950001,-91.8223571779999,0
			32.199069977,-91.822326661,0
			32.1963386540001,-91.8228607189998,0
			32.1903991710001,-91.8282470709999,0
			32.1899299620001,-91.831497193,0
			32.1881103520001,-91.832031251,0
			32.1858291620001,-91.8331069939999,0
			32.1835403450002,-91.835266113,0
			32.1780509950001,-91.841186523,0
			32.1762084960002,-91.8482208249999,0
			32.175739289,-91.8514709469999,0
			32.176181793,-91.8568878179999,0
			32.1761703490001,-91.8595962529999,0
			32.1743392940001,-91.862289429,0
			32.1738586430002,-91.869316101,0
			32.174289704,-91.8779907219999,0
			32.172908784,-91.880691529,0
			32.1697196970001,-91.8817596439999,0
			32.1665191650001,-91.8839111319999,0
			32.161491394,-91.8887557989999,0
			32.154628755,-91.8963012699999,0
		</coordinates>
	</polygon>
</kml>
