<?xml version="1.0" encoding="UTF-8"?>
<kml xmlns="http://earth.google.com/kml/2.2">
	<polygon id="USA_SD_Union" samplingProbability="1">
		<coordinates>
			42.9104499820002,-96.5370864859999,0
			42.9091186530001,-96.5370864859999,0
			42.8991584780001,-96.5389099119999,0
			42.8973007210001,-96.537773133,0
			42.8973388680002,-96.5333404529999,0
			42.8955688480001,-96.5313796989999,0
			42.8947715750001,-96.529136659,0
			42.892421723,-96.526779176,0
			42.8897514350001,-96.5273666379999,0
			42.8877105720001,-96.5366668689999,0
			42.8844299330001,-96.5409011849999,0
			42.881259919,-96.540138244,0
			42.8790397650002,-96.5356826779999,0
			42.8763389590002,-96.5367965699999,0
			42.8760490430002,-96.542106629,0
			42.8720092780001,-96.546623231,0
			42.8684806830001,-96.547546387,0
			42.865718841,-96.5464630129999,0
			42.8634796140001,-96.5478363029999,0
			42.861671449,-96.5479431149999,0
			42.8588600150001,-96.5456008909998,0
			42.8541488640001,-96.540237427,0
			42.8518791200001,-96.5403671269999,0
			42.8506698610001,-96.545440673,0
			42.8489303600002,-96.5480422969999,0
			42.847259521,-96.5531463619998,0
			42.8436508170001,-96.553489685,0
			42.837322236,-96.5519561759999,0
			42.8358802800001,-96.5550231939999,0
			42.83644867,-96.556892395,0
			42.8360214240002,-96.5575408929999,0
			42.8351707450001,-96.5594558719999,0
			42.828041076,-96.5596771249999,0
			42.827072143,-96.562141418,0
			42.8274688720001,-96.5646591179999,0
			42.834541321,-96.5688858039999,0
			42.8354606630001,-96.573143006,0
			42.8362808220002,-96.576927186,0
			42.833980561,-96.5780792249999,0
			42.8335418710001,-96.5774307249999,0
			42.8307609560002,-96.579193115,0
			42.8239593520001,-96.5782470699999,0
			42.8206710830001,-96.583106995,0
			42.81816101,-96.5841979989999,0
			42.8146400450001,-96.5878372189999,0
			42.8092803960001,-96.5915832519999,0
			42.8057098390001,-96.5936584469999,0
			42.7986793520001,-96.5896301259999,0
			42.7923088070002,-96.6019058239999,0
			42.7879219060002,-96.6022720329998,0
			42.7864799510002,-96.6053314219999,0
			42.78319931,-96.61680603,0
			42.7765312200001,-96.622177124,0
			42.7708320620001,-96.629371643,0
			42.768089294,-96.632606507,0
			42.7659492490002,-96.6333923339998,0
			42.7627487190001,-96.632949829,0
			42.7593994140001,-96.627510071,0
			42.7587890630002,-96.622200012,0
			42.7588195800001,-96.6209564209999,0
			42.7557296750002,-96.6170730589999,0
			42.7541809070001,-96.620307923,0
			42.7532806400001,-96.624450683,0
			42.7508087170001,-96.629241942,0
			42.74217987,-96.632057189,0
			42.7404403680001,-96.6323165889999,0
			42.736438751,-96.6356658929998,0
			42.733909607,-96.6354370119999,0
			42.729911805,-96.631523132,0
			42.7263603210002,-96.6331100459998,0
			42.7222099310001,-96.6314697269999,0
			42.719299317,-96.625389099,0
			42.717472077,-96.6248626719998,0
			42.715209961,-96.62561798,0
			42.7112007130002,-96.628326417,0
			42.707710267,-96.6280059819999,0
			42.7059593200001,-96.6254272459999,0
			42.706489563,-96.622978211,0
			42.6999702450001,-96.6177291879999,0
			42.697170258,-96.615386963,0
			42.6984405530001,-96.612197876,0
			42.6992492680001,-96.609031678,0
			42.6977806090002,-96.6053695679999,0
			42.6987800610001,-96.602020264,0
			42.697948457,-96.5988616939999,0
			42.6961212160001,-96.595466614,0
			42.6890792840001,-96.589111329,0
			42.6891593930001,-96.5859909059999,0
			42.680789948,-96.5743865969999,0
			42.6786613460002,-96.5746231079999,0
			42.6768798830001,-96.5759658809999,0
			42.6736793520001,-96.5755233769999,0
			42.6736106870002,-96.5730285649999,0
			42.6738395700002,-96.5655288689999,0
			42.6728515630001,-96.5630874619999,0
			42.6675415050001,-96.5575790409999,0
			42.6590385440002,-96.5576324469999,0
			42.6589508050001,-96.5545196529999,0
			42.6604309090002,-96.5504074099999,0
			42.6619300840001,-96.54486084,0
			42.6593284600002,-96.5391311649999,0
			42.6561584470002,-96.5378265379999,0
			42.6480102550001,-96.5373916629999,0
			42.6449012760002,-96.5341262819999,0
			42.6431503300001,-96.530937196,0
			42.6412887570002,-96.5274581899999,0
			42.6409988410001,-96.5258560179999,0
			42.6384506220001,-96.5238800049999,0
			42.6347312930001,-96.520973206,0
			42.632980348,-96.51864624,0
			42.6312103270001,-96.5167007439999,0
			42.6295585630002,-96.5156631469999,0
			42.6245689390001,-96.515953064,0
			42.621501923,-96.519859314,0
			42.619178771,-96.525527955,0
			42.6189804070002,-96.5268630969999,0
			42.618648529,-96.5286331179998,0
			42.6172409050001,-96.5304260249999,0
			42.6159400940001,-96.531402588,0
			42.6141204840001,-96.5315093999999,0
			42.6132087710001,-96.531562805,0
			42.6108703620001,-96.5291976919999,0
			42.609642029,-96.525115968,0
			42.6101417550001,-96.523262024,0
			42.6129608150002,-96.51902771,0
			42.6137199400002,-96.5184402469999,0
			42.6143798840001,-96.5165863029999,0
			42.6149291990001,-96.5128707889999,0
			42.613189698,-96.509056091,0
			42.6051216130001,-96.5043411249999,0
			42.600608826,-96.502899169,0
			42.598331452,-96.5027999869999,0
			42.5960922240001,-96.501457214,0
			42.5902290350002,-96.4993362419999,0
			42.587451935,-96.4925231929998,0
			42.5853004460001,-96.4960098269999,0
			42.5807914750002,-96.4945678709999,0
			42.578121185,-96.4919586189999,0
			42.5777587900001,-96.4880905149999,0
			42.576759338,-96.485031127,0
			42.5755386360001,-96.485618592,0
			42.5727806090001,-96.486747742,0
			42.572231294,-96.4910812379999,0
			42.573051452,-96.494857788,0
			42.571159363,-96.497886657,0
			42.5680999750001,-96.49923706,0
			42.5635604850002,-96.4994964599999,0
			42.5620193480001,-96.4981613149999,0
			42.5588798530001,-96.495407104,0
			42.560070039,-96.4861984249999,0
			42.5570487970002,-96.47921753,0
			42.549350739,-96.477645874,0
			42.5334510810001,-96.4769592289999,0
			42.5293502820001,-96.4774093629999,0
			42.5261116030001,-96.479759217,0
			42.5214996340002,-96.4925918589999,0
			42.5137405400002,-96.4917907709999,0
			42.512290955,-96.4887619019999,0
			42.5121307370001,-96.4837875359999,0
			42.5100898740001,-96.47644043,0
			42.507141114,-96.4745864869999,0
			42.5036697390001,-96.474937439,0
			42.5014419560001,-96.4763183589999,0
			42.4962120060001,-96.475357056,0
			42.4945106520001,-96.472976685,0
			42.493019104,-96.4687118529999,0
			42.4906692520001,-96.458946227,0
			42.4894790660001,-96.4499511709998,0
			42.4878120430001,-96.4568786629999,0
			42.4860496530001,-96.464141846,0
			42.4842796320001,-96.468971252,0
			42.4839210510002,-96.4698486329999,0
			42.4830017100001,-96.4735031119999,0
			42.48167038,-96.4793701169999,0
			42.4811096190001,-96.4818420399999,0
			42.4811515810002,-96.482772826,0
			42.4814605710001,-96.491470336,0
			42.4814987190001,-96.4924087529999,0
			42.4830703730001,-96.4963760379999,0
			42.484550475,-96.500030517,0
			42.4882888800001,-96.50440979,0
			42.4904708870001,-96.5069580069999,0
			42.492488862,-96.5091629029999,0
			42.4966506970001,-96.512702941,0
			42.501651764,-96.5168991079999,0
			42.5044593810001,-96.5192565909999,0
			42.506248474,-96.5204467769999,0
			42.5125007620001,-96.525489808,0
			42.515769958,-96.53022766,0
			42.5186614990001,-96.5344085689999,0
			42.5199394230002,-96.5394363409999,0
			42.520530701,-96.5417633059999,0
			42.5217819220001,-96.5510330199999,0
			42.5216102590002,-96.5522994989998,0
			42.521080017,-96.556297302,0
			42.5204391490001,-96.559158326,0
			42.5196609500001,-96.5630874619999,0
			42.5190505990001,-96.56613922,0
			42.5185203550001,-96.5673675529999,0
			42.5160522460001,-96.573143006,0
			42.5137710570001,-96.5787963859999,0
			42.5133895870002,-96.5794372559999,0
			42.5092201240001,-96.586601257,0
			42.5082321170001,-96.5887069699999,0
			42.5066604610001,-96.592323302,0
			42.5053215030002,-96.5973205559999,0
			42.504600525,-96.6002578739999,0
			42.5045585630001,-96.6023559569999,0
			42.5044898990001,-96.6062469469999,0
			42.5065498360001,-96.6107788089999,0
			42.5091018680001,-96.616386415,0
			42.5095291130002,-96.6173324589998,0
			42.5123291020001,-96.620903014,0
			42.5140914920001,-96.623146057,0
			42.5169219970001,-96.623191834,0
			42.5181121830001,-96.623207092,0
			42.5192489630001,-96.622917176,0
			42.5208091740001,-96.62198639,0
			42.5236816410002,-96.6205902089998,0
			42.5276718130001,-96.6194686889999,0
			42.5295295730002,-96.6191558839999,0
			42.5318489090002,-96.6194686889999,0
			42.5357894910001,-96.619979858,0
			42.5394897470002,-96.6208877559999,0
			42.5403709410001,-96.6211013779999,0
			42.5434494020002,-96.62322235,0
			42.546421052,-96.625328064,0
			42.5470809930002,-96.6258010859999,0
			42.5501594540001,-96.6279830929999,0
			42.551700592,-96.630226136,0
			42.5544090260001,-96.6341857909999,0
			42.5568504330001,-96.637756348,0
			42.5583419800001,-96.6399307249999,0
			42.5592994700001,-96.6413192749999,0
			42.561981201,-96.6446990969999,0
			42.5658187860001,-96.6495361329999,0
			42.5702705390001,-96.6565704349999,0
			42.573280335,-96.6613159179999,0
			42.5753517150002,-96.6645965569999,0
			42.5784492500001,-96.669807433,0
			42.5800209040001,-96.672477723,0
			42.5827598570002,-96.6776886,0
			42.5866813660002,-96.6855621339998,0
			42.5873908990001,-96.6869812009999,0
			42.5902214040001,-96.6905670159999,0
			42.5965614310001,-96.7007064809999,0
			42.5975418100001,-96.7018966669999,0
			42.604999542,-96.7092208869999,0
			42.6090698250001,-96.7132186899998,0
			42.6123619090002,-96.7121963499999,0
			42.6208419790001,-96.7095870969999,0
			42.6220207220001,-96.7092285149998,0
			42.6243896480001,-96.7072372439999,0
			42.6278800960001,-96.70388031,0
			42.6311187750001,-96.700767516,0
			42.6318397520002,-96.7000808719999,0
			42.6344299310002,-96.6967163089999,0
			42.6362609870001,-96.694267272,0
			42.6388587960001,-96.692222596,0
			42.6489105220001,-96.684318543,0
			42.6496009820002,-96.6837768549999,0
			42.657928467,-96.6906204229999,0
			42.6595993050001,-96.6919174189999,0
			42.6605186460001,-96.6930465699999,0
			42.6620903020001,-96.6987762449999,0
			42.6631088250001,-96.7030868529999,0
			42.6645889290001,-96.7073898319999,0
			42.665470123,-96.7110900879999,0
			42.6656417860001,-96.7148208619999,0
			42.6658287050002,-96.7191772459999,0
			42.666000367,-96.722923279,0
			42.6660690310002,-96.724456787,0
			42.6663208000002,-96.7266387939999,0
			42.6664314280001,-96.7303771969999,0
			42.666549683,-96.7344131479999,0
			42.6663513190001,-96.7360992419999,0
			42.6656417860001,-96.742233277,0
			42.6654396060001,-96.7439727779999,0
			42.665111541,-96.746742248,0
			42.6630020150001,-96.7648773199999,0
			42.6628913870002,-96.7658004759999,0
			42.6631622320001,-96.771087646,0
			42.6634407050001,-96.7766876219999,0
			42.6635398870002,-96.778793335,0
			42.6646995540001,-96.784736634,0
			42.6658287050002,-96.7908859239999,0
			42.6684913640001,-96.7956161509999,0
			42.6711311330002,-96.8003158559999,0
			42.6716690060002,-96.801162721,0
			42.6740303040002,-96.805152893,0
			42.6775588990001,-96.8055267329999,0
			42.682239533,-96.8060607899999,0
			42.6834487930001,-96.806076051,0
			42.68542862,-96.8062973019999,0
			42.68952942,-96.806236266,0
			42.6902313230001,-96.8062286379999,0
			42.6945495610001,-96.806472777,0
			42.6954803470001,-96.806556701,0
			42.7109298710001,-96.8069229129999,0
			43.0830421450001,-96.8039016719999,0
			43.084442138,-96.4510269159999,0
			43.0812606810002,-96.4512176519999,0
			43.0759201060001,-96.455299377,0
			43.074760437,-96.4545593269999,0
			43.0654907230001,-96.4616928109999,0
			43.0635719300002,-96.4679489139999,0
			43.0647621160001,-96.4741973869999,0
			43.0525207520001,-96.4918670649999,0
			43.051460267,-96.4987258909999,0
			43.0489692680001,-96.5080261219999,0
			43.0460395810001,-96.516677857,0
			43.0437393180001,-96.5178298939999,0
			43.0405006410001,-96.520187377,0
			43.0395812990002,-96.5170364369998,0
			43.039299012,-96.513236999,0
			43.0393600460001,-96.5095214849999,0
			43.0367012030001,-96.5074768059999,0
			43.0311088560001,-96.5128860469999,0
			43.0267105100001,-96.512756349,0
			43.0193786620001,-96.4962463379999,0
			43.0119705200001,-96.492286682,0
			43.0056495660001,-96.4923400869999,0
			42.9991607670001,-96.497695923,0
			42.9929695140001,-96.5109481809999,0
			42.9897689820002,-96.510513306,0
			42.9849090590001,-96.515167237,0
			42.977359773,-96.5155563349999,0
			42.973369598,-96.5109863279999,0
			42.972370149,-96.507125855,0
			42.9699096690002,-96.5033264169999,0
			42.9616889960001,-96.500221252,0
			42.9595603940002,-96.4984817499998,0
			42.9543991090001,-96.50515747,0
			42.9496192930002,-96.50718689,0
			42.9448394790001,-96.505355835,0
			42.9432601930002,-96.50756073,0
			42.9428100590001,-96.514671326,0
			42.938999175,-96.5171966549999,0
			42.9336509700001,-96.5174026489999,0
			42.9304504400002,-96.517883301,0
			42.9339408880001,-96.5242996219999,0
			42.9265289310002,-96.530242921,0
			42.9186820980001,-96.5371627799998,0
			42.9104499820002,-96.5370864859999,0
		</coordinates>
	</polygon>
</kml>
