<?xml version="1.0" encoding="UTF-8"?>
<kml xmlns="http://earth.google.com/kml/2.2">
	<polygon id="USA_PA_York" samplingProbability="1">
		<coordinates>
			39.7213400000001,-76.5698169999999,0
			39.7211110000001,-76.7006069999999,0
			39.7210006950002,-76.727491804,0
			39.7208385630001,-76.7669019579999,0
			39.7207489030001,-76.7886961609999,0
			39.7205390930001,-76.8401412969999,0
			39.7196922310001,-76.996215821,0
			39.7196807860001,-76.999809264,0
			39.7502899170001,-76.9996032719999,0
			39.758899688,-76.9995269779999,0
			39.775218963,-76.9994201659999,0
			39.8001594540001,-76.999839783,0
			39.8314399720001,-77.0002288809999,0
			39.83277893,-76.995422363,0
			39.8336715690001,-76.9918289179999,0
			39.8359298700001,-76.988822937,0
			39.8390922560001,-76.9858016969999,0
			39.84452057,-76.982772828,0
			39.8476791380001,-76.981536865,0
			39.849910736,-76.9731369019999,0
			39.8508110050001,-76.971336365,0
			39.8521499630001,-76.9653396609999,0
			39.852600099,-76.964126587,0
			39.854400636,-76.960533141,0
			39.8566513060001,-76.958106995,0
			39.8584709170001,-76.958099365,0
			39.8607406630002,-76.958679199,0
			39.8620986940002,-76.9598693849999,0
			39.865280151,-76.962242126,0
			39.868011476,-76.9640197749999,0
			39.8721008300001,-76.9651870719999,0
			39.8739089970001,-76.9657669059999,0
			39.873470307,-76.9675827019999,0
			39.8734817500002,-76.9705657959999,0
			39.8739509590002,-76.9741592399999,0
			39.8748703000002,-76.9771499619999,0
			39.87668991,-76.9783401479999,0
			39.8807792670001,-76.9801101679998,0
			39.9007415770001,-76.984764099,0
			39.9034614570001,-76.9835433969999,0
			39.9066200250002,-76.9811172479999,0
			39.9106788630001,-76.9763030999999,0
			39.9160995490001,-76.972045898,0
			39.918819427,-76.970840454,0
			39.9210891730001,-76.9708175659999,0
			39.9233589170001,-76.9726028439999,0
			39.9256286630002,-76.9731826789999,0
			39.9319686880001,-76.9731369019999,0
			39.934230804,-76.971916199,0
			39.936031341,-76.9683074949999,0
			39.9373893740001,-76.9682998649999,0
			39.981040955,-76.9985885619998,0
			40.011039733,-77.0181884779999,0
			40.0164985660001,-77.0229568489999,0
			40.0187911990001,-77.0277404779999,0
			40.0192604060002,-77.0331420909999,0
			40.0197296150001,-77.038536071,0
			40.0220413210001,-77.0481414789999,0
			40.0234298710001,-77.057136535,0
			40.024349212,-77.0619430529999,0
			40.0275421140001,-77.066719055,0
			40.0334587090001,-77.0732879649999,0
			40.0407295220002,-77.0780563359999,0
			40.048000335,-77.0840072619999,0
			40.0511817940001,-77.0870132449999,0
			40.058010102,-77.095367432,0
			40.0611991890001,-77.098358154,0
			40.0634918210001,-77.107360839,0
			40.0639495850002,-77.1091613779999,0
			40.064418792,-77.112159729,0
			40.0648803710001,-77.11517334,0
			40.0676193240001,-77.1235580449999,0
			40.0708313000002,-77.134361267,0
			40.0717506410001,-77.138557433,0
			40.0830307010001,-77.122283936,0
			40.0997390750001,-77.099349976,0
			40.105159759,-77.092102051,0
			40.1132812490002,-77.0800323479999,0
			40.1155395500001,-77.0764083859999,0
			40.125911713,-77.0619201669999,0
			40.144859314,-77.034736633,0
			40.1470794680001,-77.022087098,0
			40.1488609310001,-77.0124511719999,0
			40.1497497560002,-77.008232116,0
			40.1524505620002,-77.0027999869999,0
			40.1537895200001,-76.998580932,0
			40.153781892,-76.995567323,0
			40.1532897940002,-76.987747192,0
			40.1550712600001,-76.9793090809999,0
			40.1559600840001,-76.975090026,0
			40.1577720640001,-76.9738769539999,0
			40.1595802310001,-76.9738616929999,0
			40.160511017,-76.9774627689999,0
			40.1623306280002,-76.9810562129999,0
			40.1632385250001,-76.981658936,0
			40.1641502380001,-76.9810485849999,0
			40.165500641,-76.9792327869999,0
			40.165489198,-76.9774322509999,0
			40.1654510510002,-76.965995789,0
			40.1658897400001,-76.9629898059999,0
			40.1672096260001,-76.953346252,0
			40.1667404170001,-76.9497528079999,0
			40.1662521360001,-76.94252777,0
			40.1648597710001,-76.936515808,0
			40.1639213570001,-76.928108214,0
			40.1638984680001,-76.924491882,0
			40.1643295290001,-76.9196777339999,0
			40.165679932,-76.915451049,0
			40.167011262,-76.9100265499999,0
			40.167911529,-76.908218384,0
			40.1697196960001,-76.908203124,0
			40.172000886,-76.9099884029999,0
			40.1770286560001,-76.919578552,0
			40.1811408990002,-76.9255599969999,0
			40.1838722220002,-76.9279479989999,0
			40.1856803890001,-76.928543092,0
			40.1870422360001,-76.9273071289999,0
			40.1884002690001,-76.9261016849999,0
			40.1892890930001,-76.924285888,0
			40.1883811960002,-76.9218902579999,0
			40.1870002760002,-76.9182891839999,0
			40.1865386970001,-76.9158859259999,0
			40.1887893670001,-76.9134597779999,0
			40.19060135,-76.9122390749999,0
			40.1933212270001,-76.9122161869999,0
			40.1964988710001,-76.9140014649999,0
			40.1983299270001,-76.917587281,0
			40.199260713,-76.921806336,0
			40.1992797860001,-76.926620484,0
			40.1988410960002,-76.9296264649999,0
			40.2011108400001,-76.9296112069999,0
			40.2056312570001,-76.9271697999999,0
			40.2087898250001,-76.9229278559999,0
			40.2092208870001,-76.9199066169999,0
			40.2096710210002,-76.9169006339999,0
			40.2087516780001,-76.9151000969999,0
			40.206939698,-76.9145126349999,0
			40.2069206240001,-76.912712098,0
			40.2091789250002,-76.910293579,0
			40.2127990720001,-76.9090499879999,0
			40.2155189520001,-76.9090270999999,0
			40.2173309320001,-76.9084091189999,0
			40.216869355,-76.904800415,0
			40.2150421150001,-76.9023971569999,0
			40.2141189570002,-76.9006118779999,0
			40.2173004160001,-76.9005813589999,0
			40.22138977,-76.9029464729999,0
			40.2236595160001,-76.9035415649999,0
			40.2245597840001,-76.9029312139999,0
			40.2245521560002,-76.900520324,0
			40.2245407100001,-76.897506713,0
			40.2218093870002,-76.895126343,0
			40.2168006900001,-76.892158507,0
			40.2158889770001,-76.8897628779999,0
			40.2172203070001,-76.885528564,0
			40.217670441,-76.8831176759999,0
			40.2185592650002,-76.880096435,0
			40.218090058,-76.875877379,0
			40.217151642,-76.8704757689999,0
			40.2180519110001,-76.8686599729999,0
			40.2189521780001,-76.8674468989999,0
			40.2225608820001,-76.865013123,0
			40.2266311650002,-76.8613586419999,0
			40.225700379,-76.8571472169999,0
			40.2252388000002,-76.85534668,0
			40.2233886710001,-76.848136902,0
			40.2224617000001,-76.8439331049999,0
			40.2220001210001,-76.8421325679999,0
			40.2201614380002,-76.837936401,0
			40.2192497250001,-76.8367385869999,0
			40.2187919610001,-76.836143495,0
			40.2151412970002,-76.8325576789999,0
			40.2128715510001,-76.8319778439998,0
			40.2101516730002,-76.8314132679999,0
			40.2069702140001,-76.8302307129999,0
			40.2046890250001,-76.829048157,0
			40.2042388910002,-76.8284530639999,0
			40.2033195510001,-76.8266525269999,0
			40.2028694150002,-76.826049804,0
			40.201950074,-76.8242568979999,0
			40.2010307310001,-76.8218536379999,0
			40.2010192880001,-76.8200531009999,0
			40.2010192880001,-76.8194503779999,0
			40.2010002140001,-76.8158264149999,0
			40.2005195620002,-76.811630249,0
			40.2005119320001,-76.809219361,0
			40.2005004890001,-76.807411193,0
			40.200489045,-76.8068237309999,0
			40.200489045,-76.805610657,0
			40.2004814150001,-76.8044128429999,0
			40.2004814150001,-76.803802489,0
			40.2004699700001,-76.802597045,0
			40.2000007630002,-76.800186157,0
			40.1954307560001,-76.793006896,0
			40.1949691770002,-76.792419433,0
			40.1926918030001,-76.7894287109999,0
			40.1917800900001,-76.7882385249999,0
			40.1899490370001,-76.785247802,0
			40.189029694,-76.7834472649999,0
			40.1858215330001,-76.7774581899999,0
			40.1821517940001,-76.7702789309999,0
			40.179389954,-76.764289855,0
			40.1784820570001,-76.762489318,0
			40.178001404,-76.758888245,0
			40.1775398250002,-76.7570877079999,0
			40.1770820610001,-76.7558822639999,0
			40.1761589050001,-76.7540893549999,0
			40.1757087720001,-76.7534942619999,0
			40.1743316650001,-76.751701355,0
			40.1707000730001,-76.749931335,0
			40.1693305980001,-76.7493362419999,0
			40.1675109880002,-76.7487640379999,0
			40.1643409740001,-76.748786926,0
			40.1620712280001,-76.7488327029999,0
			40.1434707640001,-76.7478027349999,0
			40.1352996830001,-76.7454757689999,0
			40.1302795410001,-76.740127563,0
			40.1257095340001,-76.732955932,0
			40.1220207210001,-76.7233734129998,0
			40.1174316410001,-76.7149963379999,0
			40.112850189,-76.7072372439999,0
			40.102329254,-76.692932129,0
			40.0849990840002,-76.678100586,0
			40.082279206,-76.676933289,0
			40.073162079,-76.6692199699999,0
			40.0672187810001,-76.662681579,0
			40.0612297050002,-76.6489257819999,0
			40.0611801150002,-76.641716004,0
			40.0559387220002,-76.604537964,0
			40.052639008,-76.587150574,0
			40.0498390190001,-76.57637787,0
			40.0484085090002,-76.56678009,0
			40.0492401130001,-76.557159424,0
			40.050109864,-76.552352904,0
			40.052341461,-76.5469131469999,0
			40.0541191100001,-76.54208374,0
			40.0549888600001,-76.537857055,0
			40.0540695190002,-76.5354690549999,0
			40.0513191230002,-76.532501221,0
			40.047229767,-76.531356812,0
			40.0390701290001,-76.5308609019999,0
			40.0308914180001,-76.527969361,0
			40.0222091670001,-76.5196762079999,0
			40.0148887640001,-76.5119781499999,0
			40.009860993,-76.5060424809998,0
			40.0052986140001,-76.5025024409999,0
			39.9984703070001,-76.4996032719999,0
			39.9889411930002,-76.498527527,0
			39.9794197090002,-76.4980621349999,0
			39.9739608760001,-76.4963378909999,0
			39.9625701900001,-76.4892959589999,0
			39.9538993830002,-76.48222351,0
			39.9470405590001,-76.4757232659999,0
			39.944290161,-76.4709472649999,0
			39.938282014,-76.4572372439999,0
			39.9332008360001,-76.4459228519999,0
			39.9308700560001,-76.4381561279999,0
			39.9285316470002,-76.4298019409999,0
			39.925750732,-76.4232482919999,0
			39.9211311350002,-76.413116455,0
			39.9169921880001,-76.4059829699999,0
			39.9155693050001,-76.398811339,0
			39.9141616830001,-76.3934402469999,0
			39.9123001110001,-76.3880691529999,0
			39.9068298350001,-76.3851470939999,0
			39.901378632,-76.384040832,0
			39.8954696650001,-76.382339477,0
			39.8895492550001,-76.3794326789999,0
			39.885009765,-76.378295898,0
			39.8827514640001,-76.378936768,0
			39.8795814510001,-76.3795928959999,0
			39.8768692010001,-76.380226136,0
			39.8700294500002,-76.3767318719999,0
			39.863182067,-76.3714370739999,0
			39.8585700990001,-76.362525939,0
			39.8539619450001,-76.3542175299999,0
			39.8503189090001,-76.352478028,0
			39.847591401,-76.3513183589999,0
			39.8448715220001,-76.351966859,0
			39.8398704520001,-76.350852967,0
			39.829818726,-76.3426208489999,0
			39.8179206860001,-76.3308258059999,0
			39.8156318670001,-76.3272781369999,0
			39.8128509510001,-76.3213272089999,0
			39.8073310850001,-76.3130493159999,0
			39.801380158,-76.3065643309999,0
			39.7927093500001,-76.3007125849999,0
			39.7863121030002,-76.2960357659999,0
			39.7835502630001,-76.2918930059999,0
			39.7812194820001,-76.284736634,0
			39.780269622,-76.2805709839999,0
			39.7766189580001,-76.278236389,0
			39.7706909180001,-76.2747497559999,0
			39.7606391920001,-76.2665481569999,0
			39.744651795,-76.254257203,0
			39.7359619130001,-76.2466430659999,0
			39.7309303280001,-76.2431259159999,0
			39.7281990050001,-76.2407760609999,0
			39.7218513490002,-76.240898132,0
			39.7215737240001,-76.2686009759999,0
			39.7213897700001,-76.2869567879999,0
			39.7211384320001,-76.3614623459999,0
			39.7209701530001,-76.411346436,0
			39.7212525370001,-76.468124688,0
			39.7216987620001,-76.5578460689999,0
			39.7214891660001,-76.5648430159999,0
			39.7213400000001,-76.5698169999999,0
		</coordinates>
	</polygon>
</kml>
