<?xml version="1.0" encoding="UTF-8"?>
<kml xmlns="http://earth.google.com/kml/2.2">
	<polygon id="USA_ID_Cassia" samplingProbability="1">
		<coordinates>
			42.6673202520001,-113.473388672,0
			42.6712913510001,-113.458976746,0
			42.6733589170001,-113.433387757,0
			42.6727294930001,-113.412826538,0
			42.6780586250001,-113.397766113,0
			42.6806716930001,-113.384010316,0
			42.6801109310001,-113.372169494,0
			42.6773300180001,-113.364730835,0
			42.6672096250001,-113.35118103,0
			42.6571121210002,-113.340751649,0
			42.6511497490001,-113.334617614,0
			42.6465492260001,-113.328460693,0
			42.6414985670001,-113.322937011,0
			42.6359786980001,-113.316169739,0
			42.6290893560002,-113.307571411,0
			42.6317214960002,-113.297546387,0
			42.6307487480001,-113.290710449,0
			42.6288909910002,-113.286376953,0
			42.6265716550001,-113.281440734,0
			42.6278419500002,-113.271446228,0
			42.6286888120001,-113.265197753,0
			42.6259193420001,-113.260887146,0
			42.6163291930002,-113.256072998,0
			42.6180915830001,-113.249809265,0
			42.6216697700002,-113.244140624,0
			42.625690461,-113.236587525,0
			42.626548767,-113.232208252,0
			42.62828064,-113.222831726,0
			42.6318588250001,-113.216537476,0
			42.6322593690002,-113.211540222,0
			42.6344604500001,-113.20464325,0
			42.6339416500002,-113.197799683,0
			42.631099702,-113.186012268,0
			42.62828064,-113.176719665,0
			42.6187400830001,-113.176902771,0
			42.5896415720001,-113.176216126,0
			42.5889320390001,-113.026123048,0
			42.5891685500001,-113.00681305,0
			42.560070039,-113.006187439,0
			42.5309791560001,-113.005569457,0
			42.516429901,-113.005256653,0
			42.5014190680001,-113.004341125,0
			42.4864196780001,-113.00403595,0
			42.4146003720001,-113.001869201,0
			42.4144783020001,-113.001869201,0
			42.3282699590001,-113.003112792,0
			42.270118714,-113.003112792,0
			42.2551193240001,-113.003433227,0
			42.2419509890001,-113.003097534,0
			42.1992416380001,-113.002777099,0
			42.1697120670001,-113.003410339,0
			42.125648499,-113.003120422,0
			42.1110992430001,-113.002197267,0
			42.0970191960001,-113.002502441,0
			42.0820312510002,-113.002197267,0
			42.0688591010001,-113.002487183,0
			41.9984588620001,-113.002761841,0
			41.9977416990002,-113.060806275,0
			41.997501373,-113.079956055,0
			41.9966087350001,-113.151611328,0
			41.9967803960001,-113.154869079,0
			41.9967689510001,-113.1590271,0
			41.9967422490001,-113.17817688,0
			41.9952888490001,-113.425338745,0
			41.9949722290002,-113.449920654,0
			41.9948806770001,-113.463623046,0
			41.9948387150001,-113.468452453,0
			41.9944686900002,-113.50920105,0
			41.9939498910001,-113.566017152,0
			41.9940414430001,-113.597602844,0
			41.9937286380001,-113.608001709,0
			41.9935607900002,-113.619827271,0
			41.9930496210001,-113.656867981,0
			41.9924087530002,-113.701881408,0
			41.9920806880001,-113.722877502,0
			41.9921493540001,-113.734031677,0
			41.9919586180001,-113.743247987,0
			41.9915313720001,-113.763648988,0
			41.9904098520001,-113.832191467,0
			41.9898605340001,-113.85193634,0
			41.989841461,-113.85257721,0
			41.990440369,-113.870483399,0
			41.9905090340001,-113.87349701,0
			41.9911193860002,-113.909980775,0
			41.99143982,-113.92854309,0
			41.991619109,-113.948318481,0
			41.9916496280002,-113.951972962,0
			41.9920616150001,-113.971717835,0
			41.9924392700001,-113.990226745,0
			41.992919923,-114.013816833,0
			41.9933815000001,-114.040382385,0
			41.99338913,-114.041206359,0
			41.9935302740001,-114.048881531,0
			41.9941291820002,-114.159210206,0
			41.9944305430001,-114.225921632,0
			41.994522095,-114.245681763,0
			41.9946899410001,-114.281661987,0
			42.331729889,-114.28060913,0
			42.331729889,-114.284332274,0
			42.3458213820001,-114.284896851,0
			42.3603591930001,-114.284858704,0
			42.3749008170001,-114.285438538,0
			42.3898887640001,-114.286010743,0
			42.4144783020001,-114.286460876,0
			42.4185218810002,-114.28653717,0
			42.4175186160002,-114.069747924,0
			42.5047798160001,-114.071067811,0
			42.504760742,-114.065483094,0
			42.5183792130002,-114.064140319,0
			42.5227394100001,-114.009986878,0
			42.5290985100001,-114.009941101,0
			42.5263290400001,-113.997520447,0
			42.5312919630001,-113.989402771,0
			42.533519745,-113.979415894,0
			42.5330390920002,-113.972579956,0
			42.5330200190001,-113.96761322,0
			42.5330085760002,-113.96573639,0
			42.5329895020001,-113.960762024,0
			42.5311508190002,-113.956413268,0
			42.5315704360002,-113.9458313,0
			42.5320205690002,-113.945213318,0
			42.532009124,-113.942710876,0
			42.5324516300001,-113.940216064,0
			42.5329017630001,-113.937728882,0
			42.534240723,-113.933982849,0
			42.5351409910001,-113.930862426,0
			42.5414009090001,-113.9090271,0
			42.545440673,-113.898406982,0
			42.5490303040001,-113.889053344,0
			42.5494384760001,-113.879707336,0
			42.5475692750001,-113.867897033,0
			42.5361099240001,-113.847473145,0
			42.5351104740001,-113.830680847,0
			42.5391616820002,-113.821929931,0
			42.5441093460001,-113.813171386,0
			42.5495109560001,-113.803146361,0
			42.554000855,-113.794387818,0
			42.5562400820001,-113.787521362,0
			42.5557518010002,-113.780677796,0
			42.5506820690001,-113.76828003,0
			42.5383605960001,-113.760322572,0
			42.5315208440001,-113.75541687,0
			42.5246505740001,-113.746780395,0
			42.5209503180002,-113.73500061,0
			42.5204200760001,-113.723182679,0
			42.5208091740001,-113.711982727,0
			42.521129609,-113.689582825,0
			42.5264816280001,-113.673339844,0
			42.5327491760002,-113.659576416,0
			42.5413208000001,-113.648902893,0
			42.5435600280001,-113.644508362,0
			42.5508193980002,-113.642547608,0
			42.559421539,-113.636840821,0
			42.5725517280001,-113.629829407,0
			42.580699921,-113.625366211,0
			42.5879287720002,-113.618415832,0
			42.5965003960001,-113.609588624,0
			42.6037216190001,-113.601402283,0
			42.606880188,-113.598236084,0
			42.6105003370001,-113.595710754,0
			42.615928651,-113.592521667,0
			42.6186294550001,-113.588127136,0
			42.6199798590001,-113.586860656,0
			42.6222496030001,-113.585586549,0
			42.6240615850001,-113.58555603,0
			42.625881195,-113.58492279,0
			42.6326904290001,-113.584197999,0
			42.6435585030002,-113.579071046,0
			42.6498603820002,-113.570877075,0
			42.655220032,-113.557098389,0
			42.657878877,-113.547706604,0
			42.6614494320002,-113.538307191,0
			42.662750245,-113.529556274,0
			42.6676521300002,-113.517028809,0
			42.6711196900002,-113.495162964,0
			42.6659889220001,-113.477767944,0
			42.6673202520001,-113.473388672,0
		</coordinates>
	</polygon>
</kml>
