<?xml version="1.0" encoding="UTF-8"?>
<kml xmlns="http://earth.google.com/kml/2.2">
	<polygon id="USA_OK_Le_Flore" samplingProbability="1">
		<coordinates>
			34.7287406930001,-94.453788757,0
			34.7099304200001,-94.4570999149998,0
			34.7081184400001,-94.45715332,0
			34.6990203860001,-94.4571304309999,0
			34.697200776,-94.4571762079999,0
			34.6953887930001,-94.4572372439999,0
			34.6717720040002,-94.4578933719999,0
			34.6199188240001,-94.4593124389999,0
			34.6063690190001,-94.4598693849999,0
			34.6027297990001,-94.4600219719999,0
			34.5909309390001,-94.4605102539999,0
			34.5507888800001,-94.462242126,0
			34.524181366,-94.4631500229999,0
			34.5200996390001,-94.4632873539999,0
			34.506469726,-94.4637527469999,0
			34.50725937,-94.4999999999999,0
			34.5076484680001,-94.5179519659999,0
			34.5079116830001,-94.524642945,0
			34.5079994200001,-94.6228790279999,0
			34.5078201290002,-94.6301422109999,0
			34.5071220410001,-94.93775177,0
			34.6804084790001,-94.9398269649999,0
			34.6800613400002,-95.0623474109999,0
			34.8522605890001,-95.060272217,0
			34.8534317020001,-95.000785827,0
			34.9416008000001,-95.0006866449999,0
			34.9418487550001,-94.9288330069999,0
			35.0573120130002,-94.9294509889999,0
			35.2004508980001,-94.9297332769999,0
			35.2018699640001,-94.8147583019999,0
			35.3214187630001,-94.8161087029999,0
			35.325050354,-94.815910339,0
			35.3243103040001,-94.8102493279999,0
			35.3244400030001,-94.8024978649999,0
			35.3272514340001,-94.7952117909999,0
			35.3302192690001,-94.7911376949999,0
			35.3457603460001,-94.7842559819999,0
			35.3512687690002,-94.7780761729999,0
			35.355659485,-94.7706832889999,0
			35.3563308720001,-94.7525558469999,0
			35.3543205250001,-94.7339782719999,0
			35.3484497080001,-94.7227706909999,0
			35.344001769,-94.7185592639999,0
			35.337268829,-94.7112808229999,0
			35.3320617670001,-94.7026062009999,0
			35.3299407960001,-94.6924285889999,0
			35.328559876,-94.686073304,0
			35.321891786,-94.680091859,0
			35.3186988830001,-94.679656983,0
			35.3138809200001,-94.6787109369999,0
			35.3090591440002,-94.6777572619999,0
			35.3026313780002,-94.67627716,0
			35.2976493840001,-94.6720962519999,0
			35.2936210630001,-94.6659393309999,0
			35.2904205330001,-94.655197143,0
			35.2930107120001,-94.633728027,0
			35.2959404000001,-94.6290130609999,0
			35.2992591850001,-94.621665954,0
			35.302188873,-94.6169509879999,0
			35.307201385,-94.611442567,0
			35.3118820190001,-94.6098175059999,0
			35.320121765,-94.6053619389999,0
			35.3246688840001,-94.6011734009999,0
			35.3275604240001,-94.595802307,0
			35.3271598820002,-94.58808136,0
			35.327930451,-94.572540284,0
			35.323429108,-94.5677032469999,0
			35.311149597,-94.555671691,0
			35.3070487980001,-94.5482177739999,0
			35.305648804,-94.541870117,0
			35.3047790540001,-94.535476685,0
			35.3067703250001,-94.5230789189999,0
			35.3085021980001,-94.5158462529999,0
			35.3039398190002,-94.5097427369999,0
			35.305080413,-94.5013885499999,0
			35.305030823,-94.4999999999999,0
			35.304901124,-94.4964065539999,0
			35.3019905080001,-94.487213136,0
			35.3062515250001,-94.4801864619999,0
			35.312549591,-94.478790284,0
			35.319831849,-94.4830932629999,0
			35.3272209180001,-94.4954528819999,0
			35.3330421460001,-94.4992370609999,0
			35.3433189400001,-94.493339538,0
			35.3468818670001,-94.480819701,0
			35.3531494150002,-94.479072572,0
			35.3650894170001,-94.4846572879998,0
			35.3737487800001,-94.4782180789999,0
			35.3767204300001,-94.4644393909999,0
			35.3771209710001,-94.452140808,0
			35.3755111710001,-94.4419174189999,0
			35.3808517460002,-94.4331588749999,0
			35.3748588570002,-94.4332275389999,0
			35.3721694940002,-94.4316482549999,0
			35.3661804210001,-94.4320297249999,0
			34.9336586010001,-94.4473800669999,0
			34.7287406930001,-94.453788757,0
		</coordinates>
	</polygon>
</kml>
