<?xml version="1.0" encoding="UTF-8"?>
<kml xmlns="http://earth.google.com/kml/2.2">
	<polygon id="USA_LA_Vernon" samplingProbability="1">
		<coordinates>
			30.8920097350001,-92.824249268,0
			30.8778419510001,-92.8250808719999,0
			30.8767604830002,-92.876213073,0
			30.8777484890002,-92.9763870239999,0
			30.8797302240001,-93.0329132079999,0
			30.878507614,-93.118667602,0
			30.878400802,-93.1256027219999,0
			30.878351212,-93.129325866,0
			30.8782806390001,-93.1341171259999,0
			30.8846797940002,-93.1342468269999,0
			30.8842391980002,-93.223220826,0
			30.8840408340001,-93.429977417,0
			30.8806800840002,-93.4389572149998,0
			30.8736896510001,-93.4467773439999,0
			30.869752884,-93.4626693719999,0
			30.8650302880001,-93.4710769649998,0
			30.8616828910002,-93.4795227059999,0
			30.8642597190002,-93.4886474609999,0
			30.8676395430001,-93.5041885369999,0
			30.8702182760002,-93.512771607,0
			30.8760795600001,-93.517723084,0
			30.8795604710002,-93.526863097,0
			30.881572723,-93.541831971,0
			30.8782501220001,-93.548683167,0
			30.8776798260001,-93.5545196529999,0
			30.8740081790002,-93.5554962159999,0
			30.870330811,-93.556472779,0
			30.868429185,-93.560676574,0
			30.8693428050001,-93.56060028,0
			30.8702812190002,-93.5610580439999,0
			30.8708705910001,-93.563148498,0
			30.8706417080001,-93.564987183,0
			30.87104988,-93.5663375849999,0
			30.8724803920001,-93.5672912589999,0
			30.87430191,-93.567146302,0
			30.876070023,-93.5678024299999,0
			30.87648964,-93.5694122309999,0
			30.876371384,-93.571258545,0
			30.8783226010001,-93.5732269289999,0
			30.8806591030001,-93.5741195689999,0
			30.884309769,-93.5738296499999,0
			30.8864727030001,-93.5733871469999,0
			30.8887996670001,-93.57131958,0
			30.89138031,-93.5695266709999,0
			30.893600464,-93.568290711,0
			30.8939609530001,-93.5666732799999,0
			30.8956012730001,-93.5633316039999,0
			30.8963108060001,-93.560317992,0
			30.897600174,-93.5583572379999,0
			30.8977909080002,-93.5544967649999,0
			30.898572922,-93.551345824,0
			30.8996810920001,-93.551345824,0
			30.9010391230001,-93.5519104009999,0
			30.9027996080002,-93.553146361,0
			30.9046802530001,-93.554061889,0
			30.9065399180002,-93.5544509899999,0
			30.9083614360001,-93.5543060299999,0
			30.9097900400002,-93.555259705,0
			30.910551071,-93.5569458009999,0
			30.911899567,-93.558036805,0
			30.9132480620002,-93.5591506949999,0
			30.9145927430001,-93.5591506949999,0
			30.9160175320001,-93.5576171879999,0
			30.91763115,-93.5562362659999,0
			30.9188194280001,-93.554489136,0
			30.9206695550002,-93.5529403689999,0
			30.9227905270002,-93.550491334,0
			30.924489974,-93.548217773,0
			30.9253101350001,-93.5465469369999,0
			30.9247894280001,-93.545516968,0
			30.9235801690002,-93.543952943,0
			30.9222393040001,-93.542312621,0
			30.9212894440001,-93.5404586789999,0
			30.9216499330001,-93.5388259879999,0
			30.922359467,-93.535919189,0
			30.9240207670002,-93.5322265629999,0
			30.9252109530001,-93.53012848,0
			30.9275302890001,-93.528053283,0
			30.9293594370001,-93.527557372,0
			30.931940078,-93.526786804,0
			30.9334907530002,-93.527137757,0
			30.9357681280001,-93.527191162,0
			30.9379291540001,-93.527381896,0
			30.9402408600001,-93.5277328499999,0
			30.941669464,-93.528686523,0
			30.943069458,-93.52910614,0
			30.9448528290001,-93.53061676,0
			30.9475498200002,-93.532806396,0
			30.9507312790001,-93.5339660649999,0
			30.953020096,-93.5334930429999,0
			30.9552307120001,-93.5334930429999,0
			30.9571094520002,-93.53465271,0
			30.9584407800002,-93.5368194579999,0
			30.9583301550002,-93.5396575919999,0
			30.9583301550002,-93.5426864629999,0
			30.9591007240001,-93.544937134,0
			30.9614696500001,-93.5463562009999,0
			30.9633617410001,-93.5472717279999,0
			30.9657306670002,-93.5486907949999,0
			30.9667606350001,-93.5507431029999,0
			30.9677295680001,-93.5535888669999,0
			30.9690303810002,-93.557357788,0
			30.9698696130001,-93.5611114499999,0
			30.9698390970001,-93.5627059939999,0
			30.9697895050001,-93.565376282,0
			30.9701328280001,-93.5691833499999,0
			30.9707107550001,-93.5712814329999,0
			30.9719429030001,-93.572898864,0
			30.9735603340001,-93.573188783,0
			30.9757499690002,-93.571411132,0
			30.977018356,-93.569831848,0
			30.9788703920001,-93.5688095099999,0
			30.9810390470001,-93.56778717,0
			30.983741761,-93.56703949,0
			30.9869003290001,-93.5662460329999,0
			30.9885101320002,-93.5663909919999,0
			30.989860535,-93.567489623,0
			30.990730286,-93.5691604619999,0
			30.9913425440002,-93.5717773439999,0
			30.9924697870001,-93.5754394529999,0
			30.994699479,-93.5777511589999,0
			30.9974212640001,-93.5788879399999,0
			31.0006294250001,-93.5778961179999,0
			31.005239488,-93.575881959,0
			31.0075511940001,-93.5743408199999,0
			31.0101509100002,-93.5724258419999,0
			31.012342453,-93.5706558219999,0
			31.0127029430002,-93.5690231329999,0
			31.0126094810001,-93.567428588,0
			31.0120601650001,-93.565856934,0
			31.009170532,-93.5634231569999,0
			31.0073299410001,-93.561531067,0
			31.006010056,-93.55883026,0
			31.006000519,-93.556182861,0
			31.0063610080001,-93.5545501719999,0
			31.0076694490001,-93.5533828739999,0
			31.0084209450001,-93.5519485469998,0
			31.0093402870002,-93.550582886,0
			31.009670258,-93.5484085089998,0
			31.009511948,-93.545745849,0
			31.0093307500001,-93.542549132,0
			31.010009766,-93.5402374259999,0
			31.011358262,-93.5381088259999,0
			31.0148792270001,-93.5356903079999,0
			31.0174407970002,-93.5334930429999,0
			31.0193004620001,-93.5319366449999,0
			31.0207118980002,-93.5298385619999,0
			31.0208206180001,-93.5277328499999,0
			31.0215797440001,-93.524986267,0
			31.021881103,-93.5222930899999,0
			31.0227127070001,-93.5202865589999,0
			31.024370194,-93.5178222659999,0
			31.0256118780001,-93.5155715949999,0
			31.0264892590001,-93.5134277349998,0
			31.0280609130001,-93.510559083,0
			31.0307006840001,-93.5087432859999,0
			31.0321025840001,-93.5091705329999,0
			31.0338706970001,-93.5098724359999,0
			31.0350208290001,-93.5121459949999,0
			31.0356712340002,-93.515312196,0
			31.036279678,-93.5179367059999,0
			31.0373382570002,-93.5201110829999,0
			31.039110183,-93.5228271479999,0
			31.041179657,-93.523429871,0
			31.0429992680002,-93.523277282,0
			31.043851852,-93.5221481309999,0
			31.0450706490001,-93.5218963619998,0
			31.0464305880001,-93.522476196,0
			31.0477504730001,-93.525177003,0
			31.0490703590001,-93.5278778069999,0
			31.0499496460001,-93.530036926,0
			31.0521907810001,-93.5316467289999,0
			31.0540695190002,-93.5325698849999,0
			31.0554008490002,-93.5317764269998,0
			31.0557708740002,-93.5302963249999,0
			31.0559406290001,-93.526992798,0
			31.056339265,-93.524360657,0
			31.0571308140001,-93.522163392,0
			31.0588607780001,-93.5204162599999,0
			31.0615596770002,-93.51966858,0
			31.063409806,-93.5200500479999,0
			31.0656509410001,-93.520812988,0
			31.0672111520001,-93.5224227909999,0
			31.0683403020001,-93.52607727,0
			31.0698299420001,-93.52810669,0
			31.0705127720001,-93.52947998,0
			31.0727996840001,-93.5295410149999,0
			31.07406044,-93.529907227,0
			31.075510026,-93.5312118529999,0
			31.0768394480001,-93.5333786,0
			31.077680588,-93.5376663209999,0
			31.0775699620002,-93.5435485839999,0
			31.0778503430001,-93.547805786,0
			31.0794010160001,-93.5509033209999,0
			31.082229614,-93.552276611,0
			31.0840797420001,-93.5526733389999,0
			31.0867519380001,-93.5513763429999,0
			31.089401245,-93.5495605479999,0
			31.0916385640001,-93.5488510129999,0
			31.0930709840002,-93.549797059,0
			31.0936203000001,-93.551368713,0
			31.092830658,-93.5535659779999,0
			31.0915298470001,-93.554580688,0
			31.09016037,-93.5545501719999,0
			31.0883102410002,-93.55557251,0
			31.0882701890001,-93.5577087399999,0
			31.0891475680001,-93.5593261709999,0
			31.090049745,-93.5604171749999,0
			31.091989518,-93.562736511,0
			31.0943603520001,-93.564163208,0
			31.0961895000001,-93.56401062,0
			31.097919464,-93.5622711189999,0
			31.0973396310001,-93.560173035,0
			31.0973911290001,-93.55847168,0
			31.0976104740001,-93.5569381709998,0
			31.0988006600001,-93.5563659669999,0
			31.1007728570002,-93.5561523439999,0
			31.102069855,-93.554977417,0
			31.1020126350001,-93.5539169319999,0
			31.1018505100001,-93.5512466419999,0
			31.1031303400001,-93.5495529179998,0
			31.1044597630002,-93.5488967899999,0
			31.1067104350001,-93.5485458379999,0
			31.1080799100001,-93.5480804439999,0
			31.1099395740002,-93.5470428469999,0
			31.1120510110002,-93.545616151,0
			31.1141128550001,-93.5433959969999,0
			31.1173000340001,-93.5414505009999,0
			31.1196594250002,-93.5397872929999,0
			31.1228580470001,-93.5398788449999,0
			31.1264209740002,-93.5407333369999,0
			31.13294983,-93.5428771969999,0
			31.138570786,-93.54511261,0
			31.1469612120001,-93.547660827,0
			31.1506710050001,-93.548439026,0
			31.1528396620001,-93.5491867059999,0
			31.1543407450002,-93.548683167,0
			31.1556510940002,-93.54750824,0
			31.1564407360001,-93.5453033439999,0
			31.1566104890001,-93.5428619389999,0
			31.1580276500002,-93.5402221679999,0
			31.1592197410001,-93.538116455,0
			31.1614704140001,-93.5373992909999,0
			31.1644725800002,-93.537712098,0
			31.1661510460001,-93.5391693109999,0
			31.1680603030001,-93.5410232549999,0
			31.1702995300002,-93.5432128909999,0
			31.1721286780001,-93.5432510369999,0
			31.1727409370001,-93.542396545,0
			31.1735496520001,-93.5406188969999,0
			31.1734409330001,-93.5385894769999,0
			31.1737995140001,-93.536949157,0
			31.174110414,-93.534736633,0
			31.175859451,-93.533042907,0
			31.177650452,-93.532356262,0
			31.1796398160001,-93.5322113029999,0
			31.182371141,-93.532806396,0
			31.1846103680001,-93.533943176,0
			31.1850605020001,-93.5355529789999,0
			31.1854724890001,-93.5382385249999,0
			31.1849803930001,-93.5398330699999,0
			31.1844806670002,-93.5419616699999,0
			31.1847801210001,-93.5446472179999,0
			31.1857528690001,-93.547866821,0
			31.1865406040001,-93.5514831529999,0
			31.1866798400001,-93.5537414539999,0
			31.1897697450001,-93.5527877819999,0
			31.195739747,-93.5507965089999,0
			31.2031612400001,-93.544570922,0
			31.213130952,-93.5491027839999,0
			31.2149028780001,-93.5518188469999,0
			31.2199707030001,-93.549812317,0
			31.2232627870002,-93.544540405,0
			31.2274208070002,-93.5419692999999,0
			31.2301101680002,-93.5447158809999,0
			31.2300090780001,-93.5500564569999,0
			31.2336311350001,-93.5517578129999,0
			31.2345085140001,-93.5533905029999,0
			31.241771699,-93.5562515259999,0
			31.2414302830001,-93.5498199449999,0
			31.2438106550002,-93.5445327749999,0
			31.2493400570001,-93.5419769279999,0
			31.256679535,-93.540031434,0
			31.2594795240001,-93.5368881219999,0
			31.2617702490001,-93.53642273,0
			31.2690601350001,-93.5371322629999,0
			31.2709312430001,-93.5350265499999,0
			31.2731895440002,-93.53616333,0
			31.278720856,-93.533622741,0
			31.2771511070001,-93.4425506589999,0
			31.3670711510002,-93.391098023,0
			31.3665695200002,-93.3390960689999,0
			31.3650226600001,-93.2361373909999,0
			31.3651485450001,-93.1675262459999,0
			31.363870621,-93.0340270999999,0
			31.3597908020001,-93.0323486319999,0
			31.3598804490001,-92.991622924,0
			31.3562526710002,-92.989936829,0
			31.3522109990001,-92.9850463879999,0
			31.3494701390001,-92.9850006109999,0
			31.3490295400002,-92.9833831799999,0
			31.34677124,-92.981742858,0
			31.33946991,-92.9815979009999,0
			31.3396911630002,-92.964988708,0
			31.3328495020001,-92.96433258,0
			31.3328399670001,-92.9300384529999,0
			31.3250694280001,-92.9304428089999,0
			31.325040818,-92.89668274,0
			31.317739487,-92.896553039,0
			31.3174896250001,-92.8799362179999,0
			31.301509858,-92.880210876,0
			31.2887382500001,-92.87838745,0
			31.2889308940001,-92.862861633,0
			31.2747783660001,-92.862632752,0
			31.274530412,-92.84601593,0
			31.2535228730001,-92.8467407219999,0
			31.252798081,-92.8301391589999,0
			31.2505283350002,-92.8295669549998,0
			31.1290607450002,-92.8286361689999,0
			31.018529893,-92.8279113769999,0
			31.0112209330001,-92.8277893059999,0
			31.0112609870001,-92.824050904,0
			30.8920097350001,-92.824249268,0
		</coordinates>
	</polygon>
</kml>
