<?xml version="1.0" encoding="UTF-8"?>
<kml xmlns="http://earth.google.com/kml/2.2">
	<polygon id="USA_ID_Bannock" samplingProbability="1">
		<coordinates>
			42.9528884890001,-112.750366211,0
			42.9701004030002,-112.744918823,0
			42.9809112540001,-112.736495971,0
			42.9909210210001,-112.736877442,0
			42.9930992130001,-112.729927063,0
			42.9948005680001,-112.721122741,0
			42.9955787660002,-112.711692809,0
			42.997760774,-112.704742431,0
			43.0004196160001,-112.699661255,0
			43.0035209660001,-112.693939209,0
			43.0084915160001,-112.691307069,0
			43.0129890450002,-112.687431335,0
			43.0165786750002,-112.684196473,0
			43.0196914670001,-112.679107667,0
			43.0222587590001,-112.667762756,0
			43.0190086370001,-112.662826539,0
			43.0234413150001,-112.654556274,0
			43.0232315070001,-112.639526367,0
			43.0231018060001,-112.630737305,0
			43.0232696540002,-112.185676575,0
			43.0250892640001,-112.185623168,0
			43.0250816340002,-112.059616088,0
			43.0021209730001,-112.048530579,0
			42.9943809510001,-112.048179627,0
			42.9893989570002,-112.048980712,0
			42.9866905220002,-112.050331116,0
			42.985401154,-112.054138184,0
			42.9832115170001,-112.05860138,0
			42.9820404050001,-112.069290161,0
			42.9781494150002,-112.080078125,0
			42.9727821360001,-112.085281373,0
			42.9678306590001,-112.087959289,0
			42.964241028,-112.09059143,0
			42.9579200740002,-112.093322755,0
			42.952079773,-112.09726715,0
			42.9499397280001,-112.104240417,0
			42.9482498160001,-112.111808776,0
			42.9474906930001,-112.119979859,0
			42.9439811710001,-112.126976012,0
			42.9408416740002,-112.129600525,0
			42.9336318960001,-112.132972718,0
			42.9300384530001,-112.135597229,0
			42.9186515820001,-112.134742736,0
			42.9059600820001,-112.137046814,0
			42.8924102790002,-112.14251709,0
			42.886009217,-112.14086151,0
			42.880970001,-112.138526916,0
			42.8727493280001,-112.136940002,0
			42.8563690180001,-112.136253357,0
			42.8283691410001,-112.122207641,0
			42.8220100410001,-112.122421264,0
			42.8156585700001,-112.123268128,0
			42.8130111690002,-112.127731323,0
			42.8050308230001,-112.13925171,0
			42.7978096020001,-112.141998291,0
			42.7878112800001,-112.142341614,0
			42.7822914120001,-112.138778687,0
			42.7727012630002,-112.136611939,0
			42.7667884830001,-112.136810303,0
			42.7604408260001,-112.137657165,0
			42.753108979,-112.134780883,0
			42.745361329,-112.133796692,0
			42.736499786,-112.121620178,0
			42.729099274,-112.115013122,0
			42.723628998,-112.113937378,0
			42.714969635,-112.112998962,0
			42.7071990960001,-112.11075592,0
			42.6988906860001,-112.104187012,0
			42.693191529,-112.090652465,0
			42.7007293700001,-112.08040619,0
			42.7189788830001,-112.059165955,0
			42.7193489080001,-112.030456544,0
			42.7189407360001,-112.009246826,0
			42.7186317440001,-111.993026733,0
			42.718219757,-111.971817016,0
			42.7168197640001,-111.970008849,0
			42.7136192320002,-111.968872071,0
			42.7085304260001,-111.964691162,0
			42.7030105590002,-111.961151124,0
			42.6901817330001,-111.956008911,0
			42.68157959,-111.958190918,0
			42.6753120420001,-111.962791443,0
			42.6750907910001,-111.951568603,0
			42.6750297560001,-111.948455811,0
			42.630920411,-111.94821167,0
			42.6309700010001,-111.927642822,0
			42.631179811,-111.915161134,0
			42.6166305540002,-111.91507721,0
			42.602519988,-111.914360046,0
			42.56024933,-111.915306091,0
			42.5457000730001,-111.915237427,0
			42.531169892,-111.915779113,0
			42.5312614440002,-111.897712707,0
			42.5053405770001,-111.897438049,0
			42.4903411860001,-111.897377013,0
			42.4900016780001,-111.880599975,0
			42.4463691710001,-111.880996703,0
			42.4168205260002,-111.880867005,0
			42.4171600350001,-111.897636413,0
			42.4144783020001,-111.897621155,0
			42.3880691540002,-111.897476196,0
			42.3589897160002,-111.897949218,0
			42.2557716370002,-111.895606995,0
			42.2578392040001,-111.976760863,0
			42.2580490110001,-111.98790741,0
			42.2721290590002,-111.987396241,0
			42.287578583,-111.987457275,0
			42.2879104610001,-112.051956177,0
			42.288349151,-112.124511719,0
			42.2888298040001,-112.126358033,0
			42.2911796570001,-112.130622863,0
			42.2930412290001,-112.1324234,0
			42.294521333,-112.139190674,0
			42.295509339,-112.143501281,0
			42.295120239,-112.147239684,0
			42.2956695570002,-112.152175903,0
			42.2976112380001,-112.158943177,0
			42.3035507210001,-112.160598755,0
			42.3085594180001,-112.16166687,0
			42.3168220530001,-112.165733338,0
			42.323760986,-112.172950744,0
			42.328849792,-112.177757264,0
			42.3320693970001,-112.180130005,0
			42.3353004460001,-112.183120728,0
			42.345859528,-112.188980103,0
			42.3541221630001,-112.19304657,0
			42.353988647,-112.211677551,0
			42.3540802010002,-112.2427063,0
			42.3537712090002,-112.250801087,0
			42.3538703920001,-112.256378173,0
			42.3475189210001,-112.257209777,0
			42.331760408,-112.265792847,0
			42.3281402580001,-112.26714325,0
			42.3259696970001,-112.27279663,0
			42.3201484690001,-112.277946472,0
			42.318809509,-112.279228211,0
			42.31842041,-112.282966614,0
			42.3190002450002,-112.290390015,0
			42.327400208,-112.303146362,0
			42.3252792370001,-112.312530517,0
			42.3240814210001,-112.321876525,0
			42.3291587830001,-112.326683045,0
			42.3337097170001,-112.327156067,0
			42.3423690800001,-112.32875061,0
			42.34962082,-112.327293396,0
			42.3554191590001,-112.320892334,0
			42.3616905210001,-112.315727234,0
			42.3656997680001,-112.310638428,0
			42.3688316350002,-112.308059692,0
			42.3747215280001,-112.306632996,0
			42.3801193240002,-112.303352357,0
			42.383621216,-112.295791625,0
			42.3890495300001,-112.294372559,0
			42.3962898260002,-112.292282105,0
			42.4076690670001,-112.293167115,0
			42.4144783020001,-112.292137146,0
			42.4180908210002,-112.29158783,0
			42.424919128,-112.291992187,0
			42.4335708610001,-112.29296112,0
			42.4440803540001,-112.296356201,0
			42.4504508970002,-112.296775819,0
			42.457351685,-112.301528931,0
			42.4615287790002,-112.306999208,0
			42.4607009900001,-112.31199646,0
			42.452590942,-112.315979004,0
			42.4493598940001,-112.328102112,0
			42.4475898750001,-112.341217041,0
			42.4491386410001,-112.344429017,0
			42.4527511600002,-112.346733092,0
			42.4553413390001,-112.346321106,0
			42.4585914610001,-112.344657898,0
			42.4669799810002,-112.34439087,0
			42.4669418350001,-112.352966309,0
			42.4669494630002,-112.35308838,0
			42.4669113160001,-112.364158631,0
			42.4743690500001,-112.363983155,0
			42.4740409850002,-112.369056701,0
			42.4812202460001,-112.369171143,0
			42.481300355,-112.37890625,0
			42.4885597230001,-112.378860473,0
			42.488639832,-112.382606506,0
			42.4890289300001,-112.382919311,0
			42.50284958,-112.383499145,0
			42.5029792790002,-112.41897583,0
			42.5572586070001,-112.419006349,0
			42.5571403510001,-112.415138245,0
			42.5684509290002,-112.414749145,0
			42.5680885320001,-112.390419007,0
			42.5718421930001,-112.389640808,0
			42.5715217600001,-112.384956361,0
			42.588352204,-112.385688782,0
			42.5886116040002,-112.388442994,0
			42.6240501400001,-112.38910675,0
			42.6235389710002,-112.378601073,0
			42.6463699350001,-112.378616334,0
			42.6462821960002,-112.417152405,0
			42.6750717170001,-112.416870116,0
			42.675430297,-112.436225891,0
			42.6967506410001,-112.43712616,0
			42.69657135,-112.456382751,0
			42.7332420360001,-112.456199647,0
			42.7327194220001,-112.495857238,0
			42.7907485960001,-112.496246338,0
			42.7910003670001,-112.515907287,0
			42.9023399350002,-112.515571594,0
			42.9104309090001,-112.515151977,0
			42.9144592280001,-112.520629883,0
			42.9189300550001,-112.519821168,0
			42.9237022410001,-112.528747559,0
			42.9301414500002,-112.531639099,0
			42.935890197,-112.545616149,0
			42.9402885430002,-112.545379638,0
			42.9408187880001,-112.543159484,0
			42.9546890260002,-112.548957826,0
			42.9609985360001,-112.557502746,0
			42.9587516780001,-112.561668396,0
			42.959480285,-112.566009522,0
			42.9634704590001,-112.567543029,0
			42.9648094170001,-112.574516296,0
			42.9731216440001,-112.579193115,0
			42.9730720520001,-112.593986511,0
			42.96364212,-112.602783203,0
			42.9609985360001,-112.618843078,0
			42.954021454,-112.626602172,0
			42.9426994330001,-112.649871827,0
			42.9427909850001,-112.649948121,0
			42.938869477,-112.677162171,0
			42.9417610170001,-112.684638976,0
			42.9353485110001,-112.70072937,0
			42.9240913390001,-112.703216552,0
			42.914791108,-112.728446961,0
			42.9072189330001,-112.73060608,0
			42.905471802,-112.735900878,0
			42.9133605960001,-112.746841431,0
			42.9185104380001,-112.747772217,0
			42.9235801700002,-112.743507385,0
			42.9348297120001,-112.73513031,0
			42.9364585880001,-112.73235321,0
			42.9407691960001,-112.731697082,0
			42.9446907040002,-112.736801148,0
			42.9472999570002,-112.747238159,0
			42.9528884890001,-112.750366211,0
		</coordinates>
	</polygon>
</kml>
