<?xml version="1.0" encoding="UTF-8"?>
<kml xmlns="http://earth.google.com/kml/2.2">
	<polygon id="USA_OH_Highland" samplingProbability="1">
		<coordinates>
			39.0551719670001,-83.3857116699999,0
			39.036529541,-83.511657715,0
			39.018459319,-83.6114959729999,0
			39.0201492310001,-83.673126221,0
			39.021240234,-83.7021636959999,0
			39.0196189880002,-83.8170318609999,0
			39.020839691,-83.870956421,0
			39.0240020760001,-83.8722076419999,0
			39.0566711420001,-83.8698577869999,0
			39.1396408080001,-83.8678665159999,0
			39.1419105540002,-83.8673171999999,0
			39.2471008310001,-83.8657302859999,0
			39.245620729,-83.834213257,0
			39.2234001150002,-83.8355789179999,0
			39.2227592470001,-83.8106231689999,0
			39.2305297860001,-83.8048171989998,0
			39.2319221490001,-83.8012771609999,0
			39.2364616400001,-83.8007659919999,0
			39.2419700630001,-83.7943420409999,0
			39.2519721990001,-83.7915496819999,0
			39.2620010390002,-83.7857818599999,0
			39.3338813790002,-83.6675033569999,0
			39.3785514830001,-83.5908431999999,0
			39.3770904540001,-83.372985839,0
			39.368019104,-83.3734741219999,0
			39.3621101370001,-83.376968383,0
			39.3575515740001,-83.379890442,0
			39.3543891910002,-83.379257203,0
			39.3480606090001,-83.3756103519999,0
			39.3435096730001,-83.377937316,0
			39.3394088740002,-83.3814468379999,0
			39.332141876,-83.383743286,0
			39.3262596130001,-83.3824768059999,0
			39.3248710630002,-83.3860321049999,0
			39.322601318,-83.387199402,0
			39.3162803650001,-83.3835525509999,0
			39.31219101,-83.383499146,0
			39.3085594180001,-83.3846359249999,0
			39.3049621590001,-83.3816299439998,0
			39.2972412100002,-83.38331604,0
			39.293170929,-83.380889892,0
			39.2932014460002,-83.377922058,0
			39.2914009090002,-83.376106262,0
			39.284099579,-83.3825683599999,0
			39.2786712650001,-83.3807067879998,0
			39.2754096990001,-83.3925628659999,0
			39.2717704770001,-83.394302368,0
			39.2695198060001,-83.3930816649998,0
			39.2650604250002,-83.3829269399999,0
			39.2628211970002,-83.3787384029999,0
			39.2610092170002,-83.378128052,0
			39.25648117,-83.3786621099999,0
			39.25284195,-83.379806518,0
			39.2510299690001,-83.379776002,0
			39.250591279,-83.377998351,0
			39.2497100830001,-83.3738174429998,0
			39.2470207220001,-83.3702316279999,0
			39.2443313610001,-83.3654479979999,0
			39.2430000310001,-83.3618698129998,0
			39.2434692380001,-83.35949707,0
			39.2457504270001,-83.357147217,0
			39.2498397840001,-83.354820252,0
			39.2526016230001,-83.348907471,0
			39.251270294,-83.3453292849999,0
			39.2485504160001,-83.344696046,0
			39.2394790660002,-83.345787049,0
			39.2322120680002,-83.3480834969999,0
			39.2326889050001,-83.3451232909999,0
			39.2327003480001,-83.3433303839998,0
			39.19726944,-83.3536071779999,0
			39.0551719670001,-83.3857116699999,0
		</coordinates>
	</polygon>
</kml>
