<?xml version="1.0" encoding="UTF-8"?>
<kml xmlns="http://earth.google.com/kml/2.2">
	<polygon id="USA_KY_Mason" samplingProbability="1">
		<coordinates>
			38.5936813370001,-83.9914627079999,0
			38.620731354,-83.9791183469999,0
			38.654972076,-83.962486267,0
			38.7126197820002,-83.9329757689999,0
			38.7499999990001,-83.9132919319999,0
			38.7675094600001,-83.904647827,0
			38.7662010190001,-83.8968658449999,0
			38.7630615240001,-83.8782272339999,0
			38.7628097540001,-83.8767395019999,0
			38.7615814220001,-83.8702163689999,0
			38.761100769,-83.868576049,0
			38.757450104,-83.8599014279999,0
			38.756278991,-83.857719421,0
			38.7555389410001,-83.8569030769999,0
			38.7447319030001,-83.8483657849999,0
			38.7441406250001,-83.8480529779999,0
			38.7396888740002,-83.8465957639999,0
			38.7364387510002,-83.84564209,0
			38.7244186410002,-83.842102051,0
			38.722011566,-83.8411560069999,0
			38.7175102240001,-83.8369369519999,0
			38.7098007210002,-83.82334137,0
			38.7060813910001,-83.8084259029999,0
			38.7026786820001,-83.7945861819999,0
			38.6989288340001,-83.788803101,0
			38.689868927,-83.7834167489999,0
			38.688179017,-83.78276062,0
			38.6857604990001,-83.7817916879999,0
			38.6719017020001,-83.777786255,0
			38.6637802120002,-83.775260924,0
			38.6624603270001,-83.7743759149999,0
			38.6548690790002,-83.7683486929999,0
			38.6538887030002,-83.7674331669999,0
			38.650341034,-83.7596969599999,0
			38.6493797300001,-83.7546615589999,0
			38.6466293330001,-83.732353211,0
			38.644939424,-83.7181472779999,0
			38.6387214670001,-83.70527649,0
			38.6336708080001,-83.6948623669999,0
			38.6262893670001,-83.6678085319999,0
			38.6258888240001,-83.6650161729999,0
			38.6263198860001,-83.6573333729999,0
			38.6304512020001,-83.6487960809999,0
			38.6356315620001,-83.6429672249999,0
			38.6346817030001,-83.6400527959999,0
			38.6117820750001,-83.624732971,0
			38.5254592900001,-83.642227173,0
			38.5039596550002,-83.7215881339999,0
			38.500011445,-83.7305068969999,0
			38.4943313590001,-83.7453460699999,0
			38.4922294630001,-83.757156373,0
			38.4564590460001,-83.8591079709999,0
			38.492290498,-83.930046082,0
			38.5042305000001,-83.9421386719999,0
			38.5325698860001,-83.9615402229999,0
			38.5825195310001,-83.968727112,0
			38.5857200620001,-83.97101593,0
			38.5889205940001,-83.9732971189999,0
			38.5936393750001,-83.9879302969999,0
			38.5936813370001,-83.9914627079999,0
		</coordinates>
	</polygon>
</kml>
