<?xml version="1.0" encoding="UTF-8"?>
<kml xmlns="http://earth.google.com/kml/2.2">
	<polygon id="USA_RI_Newport" samplingProbability="1">
		<coordinates>
			41.6746290000002,-71.1958619999999,0
			41.6709400000001,-71.1762089999999,0
			41.6682400000001,-71.1768299999999,0
			41.6682210000002,-71.1768339999999,0
			41.659481,-71.133247,0
			41.6522100000001,-71.1320569999999,0
			41.6404190000001,-71.1358029999999,0
			41.6372410000002,-71.135208,0
			41.637029,-71.1350939999999,0
			41.6349720000002,-71.1339869999999,0
			41.6336690000001,-71.133996,0
			41.6327020000001,-71.1340029999998,0
			41.6304320000001,-71.1340179999999,0
			41.6277120000001,-71.1358719999999,0
			41.6259000000001,-71.1377259999999,0
			41.6257270000002,-71.137867,0
			41.6236310000001,-71.13958,0
			41.6224980000002,-71.140204,0
			41.6213720000001,-71.140823,0
			41.6186610000001,-71.141356,0
			41.6181910000001,-71.141449,0
			41.615021,-71.1420669999999,0
			41.6135210000001,-71.1423079999999,0
			41.610931,-71.1427229999999,0
			41.6068500000001,-71.14212,0
			41.6036610000002,-71.140907,0
			41.599638,-71.137913,0
			41.5995710000001,-71.137863,0
			41.5989800000001,-71.1372149999999,0
			41.5945590000001,-71.1323619999999,0
			41.5515870000001,-71.1270589999999,0
			41.5182800000001,-71.122948,0
			41.500572,-71.121201,0
			41.4966530000002,-71.120739,0
			41.4955790000001,-71.1206129999999,0
			41.4950790000001,-71.1261369999999,0
			41.4946400000001,-71.1304319999999,0
			41.4932900000001,-71.1341169999999,0
			41.4910390000002,-71.1402589999999,0
			41.4869610000001,-71.1415019999999,0
			41.4819600000002,-71.1421429999999,0
			41.4783520000001,-71.1464539999998,0
			41.4756390000002,-71.1519779999999,0
			41.4742890000002,-71.1587299999999,0
			41.4715810000001,-71.161804,0
			41.4715920000002,-71.1648709999999,0
			41.468422,-71.168556,0
			41.4652520000001,-71.171638,0
			41.4611700000001,-71.1716609999999,0
			41.4589120000001,-71.1759569999999,0
			41.458469,-71.1827009999999,0
			41.4571190000001,-71.1869959999999,0
			41.4544110000001,-71.191299,0
			41.4525990000002,-71.195587,0
			41.4539720000001,-71.1998669999999,0
			41.46077,-71.1967769999999,0
			41.4671210000001,-71.1937029999999,0
			41.475281,-71.1918179999999,0
			41.485279,-71.1948389999999,0
			41.4893720000001,-71.1991119999999,0
			41.494831,-71.203377,0
			41.4980200000001,-71.207047,0
			41.5030100000002,-71.208252,0
			41.5070920000001,-71.2039409999999,0
			41.5111690000001,-71.2014769999999,0
			41.5129890000002,-71.2026899999999,0
			41.5166320000001,-71.2075809999999,0
			41.5193520000001,-71.208786,0
			41.5234300000001,-71.2075579999999,0
			41.5288890000002,-71.210587,0
			41.5320700000001,-71.2099689999998,0
			41.5388600000001,-71.206261,0
			41.5420490000001,-71.208702,0
			41.5461500000002,-71.2185059999999,0
			41.549789,-71.218491,0
			41.555691,-71.218468,0
			41.5606920000001,-71.2215119999999,0
			41.5615920000001,-71.2178269999999,0
			41.5597610000002,-71.211082,0
			41.562931,-71.2092289999999,0
			41.5724600000001,-71.2104189999999,0
			41.57473,-71.210411,0
			41.5792690000001,-71.2110059999999,0
			41.5810890000002,-71.2116089999999,0
			41.5829090000001,-71.2140579999999,0
			41.588352,-71.210968,0
			41.59198,-71.208496,0
			41.5937920000002,-71.2060319999999,0
			41.5956,-71.204796,0
			41.598782,-71.204788,0
			41.6015090000001,-71.2066189999999,0
			41.6042400000001,-71.2090609999999,0
			41.6078800000002,-71.2121119999999,0
			41.6137810000001,-71.2120899999998,0
			41.6233100000002,-71.2132799999999,0
			41.6255800000001,-71.2132719999999,0
			41.6328390000001,-71.2120129999998,0
			41.6378400000002,-71.2126079999999,0
			41.6441920000001,-71.2107389999999,0
			41.6491810000001,-71.208878,0
			41.6537210000002,-71.2076259999999,0
			41.6646000000001,-71.2057339999999,0
			41.67004,-71.2014159999999,0
			41.6782610000001,-71.198921,0
			41.6764300000001,-71.197379,0
			41.6746290000002,-71.1958619999999,0
		</coordinates>
	</polygon>
</kml>
