<?xml version="1.0" encoding="UTF-8"?>
<kml xmlns="http://earth.google.com/kml/2.2">
	<polygon id="USA_GA_Walton" samplingProbability="1">
		<coordinates>
			33.930149079,-83.799179077,0
			33.9283409120001,-83.7980499269999,0
			33.9265289300001,-83.7963714609999,0
			33.9247322080001,-83.7941360459999,0
			33.9224815380001,-83.7907867439999,0
			33.9206695560001,-83.78856659,0
			33.9184188850001,-83.7857666009999,0
			33.9166107180001,-83.7835464469999,0
			33.9157218940001,-83.781318665,0
			33.9148292540002,-83.7796478269999,0
			33.9134712230002,-83.777976989,0
			33.91212082,-83.7763137809999,0
			33.9116706860001,-83.774642945,0
			33.9107818600001,-83.772956849,0
			33.9089698800001,-83.770729064,0
			33.9076194760001,-83.7690582279999,0
			33.90763092,-83.76738739,0
			33.907192231,-83.765731812,0
			33.9062919620001,-83.76461792,0
			33.9058303830001,-83.764060974,0
			33.9035720820001,-83.762931824,0
			33.902660369,-83.7634658809999,0
			33.9003791820001,-83.7634506229999,0
			33.8990097050001,-83.764549255,0
			33.8985595700001,-83.7639770499999,0
			33.897201538,-83.7639770499999,0
			33.895389558,-83.7622985839999,0
			33.8949394220001,-83.7611770639999,0
			33.8954010010002,-83.7600860599999,0
			33.8958702080002,-83.7584304809999,0
			33.8967895510002,-83.7573318489999,0
			33.8977088920001,-83.7551269529998,0
			33.8981704710002,-83.754028319,0
			33.8981704710002,-83.7534713749999,0
			33.8972816470002,-83.751800537,0
			33.8968391410002,-83.7495880129999,0
			33.8968391410002,-83.7484817499999,0
			33.8973121640001,-83.7468338019999,0
			33.8982200630002,-83.746276856,0
			33.8991394040002,-83.745742798,0
			33.900508881,-83.744636536,0
			33.9009590140001,-83.7440872189999,0
			33.9018821720001,-83.7435531609999,0
			33.9023399360001,-83.742446899,0
			33.901889801,-83.7418899529999,0
			33.901889801,-83.741333007,0
			33.9005317690002,-83.7407684329999,0
			33.900081635,-83.7396469129999,0
			33.8991889960001,-83.7374343869998,0
			33.8987503060001,-83.7352218629998,0
			33.8987693790002,-83.7324523929999,0
			33.8987693790002,-83.731346131,0
			33.899238586,-83.7296905509999,0
			33.8992500320001,-83.7285766589999,0
			33.899261475,-83.7263717659999,0
			33.8992691050001,-83.725273132,0
			33.899730682,-83.7241592399999,0
			33.9001808180001,-83.723609924,0
			33.9006614680001,-83.720848084,0
			33.9011192320002,-83.7197494499999,0
			33.9011192320002,-83.7191925039999,0
			33.9015808110001,-83.7180862429999,0
			33.9015884410002,-83.7175369269999,0
			33.9025001540001,-83.716438293,0
			33.9025115970002,-83.7153320309999,0
			33.902969361,-83.714782715,0
			33.9043388380001,-83.7131271349999,0
			33.9048118600002,-83.7114791879999,0
			33.9048194880001,-83.70981598,0
			33.9052886970001,-83.707611084,0
			33.9057502740002,-83.7054061879999,0
			33.9053115860001,-83.7037429809998,0
			33.905319214,-83.7026290879999,0
			33.9066886900002,-83.7009811409999,0
			33.9066886900002,-83.700431823,0
			33.9080619820002,-83.6993408189999,0
			33.908519746,-83.6987915029999,0
			33.9094390870001,-83.6982421879999,0
			33.9103507990001,-83.697135926,0
			33.9108085630001,-83.6965866099999,0
			33.9117202760002,-83.696601868,0
			33.911319732,-83.686080933,0
			33.9117889420002,-83.6849822989999,0
			33.913619995,-83.6816787719999,0
			33.9150009150001,-83.6800308219999,0
			33.9150009150001,-83.6794662479999,0
			33.915908815,-83.6789321899999,0
			33.9163703920001,-83.6783828739999,0
			33.9177513130001,-83.6761779789999,0
			33.9173011780001,-83.675621033,0
			33.9173088080001,-83.6739730829999,0
			33.9173202510001,-83.6723022469999,0
			33.916870117,-83.671752929,0
			33.9164085380001,-83.6711883549999,0
			33.916870117,-83.670082093,0
			33.9168891910002,-83.6689758309999,0
			33.916439057,-83.6684188849999,0
			33.9159812930002,-83.6678619389999,0
			33.9159889210001,-83.6662063589999,0
			33.915538788,-83.6656494129999,0
			33.9146308900001,-83.6650772089998,0
			33.913269044,-83.6650695809999,0
			33.912361146,-83.6650619499999,0
			33.9119110100001,-83.664497376,0
			33.9119110100001,-83.663398742,0
			33.9123802190001,-83.6617431649999,0
			33.9123802190001,-83.6611862189999,0
			33.9123916630002,-83.660636903,0
			33.9105796820001,-83.659523011,0
			33.9092216490001,-83.6578369139999,0
			33.908309936,-83.657279968,0
			33.9083213820001,-83.656730652,0
			33.9092292790002,-83.6556320189999,0
			33.9087791440002,-83.6550674439999,0
			33.90832901,-83.654518127,0
			33.9078788760001,-83.6533966059999,0
			33.907890319,-83.6517486569999,0
			33.907909393,-83.648979187,0
			33.907909393,-83.648429871,0
			33.9065513610001,-83.6478729249999,0
			33.9061012280001,-83.64730072,0
			33.9065589920001,-83.6467514049999,0
			33.9056510920001,-83.6461868279999,0
			33.9056587220001,-83.6439819329998,0
			33.9056701650001,-83.6423187249999,0
			33.9056816110001,-83.6406631469999,0
			33.9052314770001,-83.6395492549999,0
			33.9047889710001,-83.6378860469999,0
			33.9038810740001,-83.636772155,0
			33.902980804,-83.6356582649999,0
			33.902080537,-83.633987427,0
			33.9016304010001,-83.633438111,0
			33.900260926,-83.633422852,0
			33.8998107910002,-83.6328659059999,0
			33.8989105230001,-83.63230896,0
			33.8979988100001,-83.6323013299999,0
			33.8975486750001,-83.6317367559999,0
			33.8966407770001,-83.6317367559999,0
			33.89345932,-83.6305999749998,0
			33.8925514230001,-83.630592345,0
			33.8916397100001,-83.6311416629999,0
			33.8898201000002,-83.6311264029999,0
			33.8884506230001,-83.6311111449999,0
			33.8875503540002,-83.6305465699999,0
			33.8866386410001,-83.629989624,0
			33.8852920530001,-83.6277694699999,0
			33.8852996830001,-83.626663208,0
			33.8852996830001,-83.6255569459999,0
			33.8853111260001,-83.6244506849999,0
			33.8853187560001,-83.623336792,0
			33.8848609930001,-83.6227874749999,0
			33.884868623,-83.6216812129999,0
			33.8853302000001,-83.6205825809999,0
			33.8853416450001,-83.6194763189999,0
			33.8853416450001,-83.618919373,0
			33.884429932,-83.618911743,0
			33.8835296630001,-83.617797851,0
			33.8830795290002,-83.6172409069998,0
			33.8830909720001,-83.6150283809999,0
			33.8830909720001,-83.6144790649998,0
			33.881752014,-83.610038757,0
			33.8813018810001,-83.609481811,0
			33.8813018810001,-83.6083831789999,0
			33.8813095090001,-83.607269287,0
			33.8817787180001,-83.6045074459999,0
			33.883602143,-83.603416442,0
			33.8836097710001,-83.6023101799999,0
			33.8822402950001,-83.602302552,0
			33.881790161,-83.6011886599999,0
			33.8818016060002,-83.6006317139999,0
			33.881809235,-83.5995330819999,0
			33.8822593680001,-83.5989761359999,0
			33.8827209470001,-83.597869874,0
			33.8827285770001,-83.596755982,0
			33.8818321230002,-83.595100402,0
			33.881381989,-83.5939865119999,0
			33.8813896170001,-83.5912170399999,0
			33.8818511960002,-83.590118408,0
			33.88230896,-83.5890121469999,0
			33.8827705390001,-83.5879058849999,0
			33.883232116,-83.586807251,0
			33.8837013250001,-83.584602355,0
			33.8837013250001,-83.5840530389999,0
			33.8832511900001,-83.5834884649999,0
			33.8828010560001,-83.5829315189999,0
			33.8828010560001,-83.582382201,0
			33.8818893430001,-83.582366943,0
			33.881431579,-83.5834732049999,0
			33.8805198670001,-83.584022523,0
			33.8800621030001,-83.5845718389999,0
			33.87915039,-83.5840072619999,0
			33.8782386770002,-83.5845565799999,0
			33.8782386770002,-83.5851058959999,0
			33.8777809150001,-83.585662842,0
			33.8773307800001,-83.586212158,0
			33.8768692030002,-83.5867614739998,0
			33.8764190670001,-83.5861968999999,0
			33.8755111690001,-83.5861968999999,0
			33.8741416930001,-83.5873031619999,0
			33.8732299800001,-83.5872879029999,0
			33.8723220820001,-83.587280273,0
			33.8714103700001,-83.5872726449999,0
			33.8700408930001,-83.587806702,0
			33.8691406260001,-83.5872573849999,0
			33.8682289130001,-83.5872497559999,0
			33.8677711490001,-83.5877990719999,0
			33.8673095700001,-83.5883483879999,0
			33.8645896920002,-83.5877761839999,0
			33.8636817930001,-83.587219238,0
			33.863689423,-83.586662292,0
			33.8641395570002,-83.586112976,0
			33.864601136,-83.5855560299999,0
			33.864601136,-83.585006714,0
			33.8641510020001,-83.584457398,0
			33.8637008660002,-83.5839004519999,0
			33.863250732,-83.5827865599999,0
			33.861888886,-83.5822219859999,0
			33.860980988,-83.5822067249999,0
			33.860069276,-83.5816574099999,0
			33.8596191400001,-83.581100464,0
			33.8596305850001,-83.5799942019999,0
			33.8591690060002,-83.5794372559998,0
			33.858268739,-83.5783309939999,0
			33.8564605720001,-83.5766525269999,0
			33.8541984560002,-83.574417115,0
			33.853290558,-83.574417115,0
			33.8519287120001,-83.5744094849999,0
			33.850559235,-83.574951173,0
			33.849201202,-83.5749359119999,0
			33.8487510680001,-83.5743865959999,0
			33.8487510680001,-83.5732803349999,0
			33.8478393550001,-83.5732727039999,0
			33.8473892220001,-83.572723388,0
			33.8464889520001,-83.5716018679999,0
			33.8469390880001,-83.57105255,0
			33.8469505310001,-83.5705032339999,0
			33.8474006650002,-83.569396973,0
			33.8474121100002,-83.5682907109999,0
			33.8474197380001,-83.5666427609999,0
			33.8465194710001,-83.5655212409999,0
			33.8447113040002,-83.5638504029999,0
			33.84426117,-83.5621871949999,0
			33.8438110360001,-83.561630249,0
			33.842899323,-83.561622621,0
			33.8419914240002,-83.560516357,0
			33.8410987870001,-83.5582962029999,0
			33.8406410230001,-83.557189941,0
			33.839740753,-83.5560760509999,0
			33.8392906190001,-83.5549697869999,0
			33.8393020630002,-83.5538558969999,0
			33.838840486,-83.5533065789999,0
			33.8384017950001,-83.552192689,0
			33.8365821850002,-83.5510787969999,0
			33.8365898130001,-83.5499725349999,0
			33.8347816460001,-83.5483016969998,0
			33.8338699330001,-83.547187805,0
			33.8338813790002,-83.546630858,0
			33.8338813790002,-83.5455322269999,0
			33.8334388730001,-83.5438690189999,0
			33.8325309750002,-83.543312073,0
			33.8316192630001,-83.542747499,0
			33.8307189950002,-83.5410766599999,0
			33.8302688590001,-83.540527345,0
			33.8284606940001,-83.5377502439999,0
			33.8284606940001,-83.5372009289999,0
			33.8280105590001,-83.5366363519999,0
			33.8275604250001,-83.535537721,0
			33.8248596190001,-83.5310974129998,0
			33.8239517210001,-83.531089783,0
			33.8230285650001,-83.5321884159999,0
			33.8225708010001,-83.533287048,0
			33.8216590880001,-83.533287048,0
			33.8216705320002,-83.5310668939999,0
			33.821220398,-83.5299682619999,0
			33.8212318430002,-83.5288467399999,0
			33.820781707,-83.527748108,0
			33.8203392040001,-83.5249862669999,0
			33.8198890680002,-83.5238723749999,0
			33.8194389340001,-83.5233230589999,0
			33.8185310370002,-83.521652223,0
			33.8185386670001,-83.521102905,0
			33.8199005130002,-83.5205612189999,0
			33.8199005130002,-83.5199966429999,0
			33.8190002440002,-83.5194473269999,0
			33.8180885310002,-83.5183258069999,0
			33.8171920790001,-83.517776489,0
			33.8167305000001,-83.517219543,0
			33.8167419430001,-83.5166702269999,0
			33.8180999760001,-83.516128539,0
			33.8176498410001,-83.515571595,0
			33.8171997070002,-83.5144577029999,0
			33.8172111520001,-83.5133590689999,0
			33.8162994400002,-83.512252807,0
			33.815849304,-83.5111389149999,0
			33.8153991700001,-83.5105819689999,0
			33.815860749,-83.5100326529999,0
			33.8167686470002,-83.5094833379999,0
			33.8176803590001,-83.5094909679999,0
			33.8181304930001,-83.5089416499999,0
			33.8181419380001,-83.507843018,0
			33.8179016120001,-83.505767823,0
			33.8163299560001,-83.5067062369999,0
			33.8149604800001,-83.507812499,0
			33.811302186,-83.511657715,0
			33.8099403390001,-83.5121994019999,0
			33.8081207290002,-83.5121917719998,0
			33.8053817760001,-83.514938355,0
			33.8026390070001,-83.5171279909999,0
			33.8008117690001,-83.519332886,0
			33.7971611030002,-83.523170471,0
			33.796691896,-83.525932311,0
			33.7857513430001,-83.531936645,0
			33.7816391000001,-83.534667968,0
			33.7715988150001,-83.5428771969999,0
			33.7638511670002,-83.548362732,0
			33.7588310240002,-83.552726746,0
			33.750160218,-83.5593032839999,0
			33.7323493960002,-83.572990418,0
			33.726871491,-83.5779190069999,0
			33.7140808100002,-83.5877609259999,0
			33.711349487,-83.589942933,0
			33.7013015760001,-83.5981369019999,0
			33.6999320990002,-83.599243164,0
			33.6967391970002,-83.601432801,0
			33.6866912840001,-83.60962677,0
			33.6812095650001,-83.613441467,0
			33.6734390260001,-83.6200027459999,0
			33.671161651,-83.622192384,0
			33.665679932,-83.62600708,0
			33.6647605890001,-83.627113342,0
			33.6510620120001,-83.6380233759999,0
			33.6332397470001,-83.6522216789999,0
			33.5989799510002,-83.6789398179998,0
			33.5989799510002,-83.679489136,0
			33.597148895,-83.6805801399999,0
			33.598949432,-83.683898926,0
			33.6093215940001,-83.6994323729999,0
			33.6170997630002,-83.69178772,0
			33.6220512400001,-83.6995468139999,0
			33.6229591370002,-83.700660706,0
			33.6238594050001,-83.701766968,0
			33.645938874,-83.734497071,0
			33.6462898260002,-83.7499465949999,0
			33.6462287900001,-83.7587814319999,0
			33.6727790840002,-83.8004074099999,0
			33.6853790280002,-83.820396424,0
			33.699760437,-83.843727112,0
			33.7065010070002,-83.8542861949999,0
			33.7365989680001,-83.9021224969999,0
			33.7438697810001,-83.914299012,0
			33.7442321780002,-83.9149093629999,0
			33.7500801090001,-83.9238128649999,0
			33.7864189150001,-83.982246398,0
			33.8006706250001,-83.96420288,0
			33.8043518070001,-83.9592666619999,0
			33.8245697020002,-83.9329757689999,0
			33.8245697020002,-83.9324264539999,0
			33.8424911500001,-83.909416198,0
			33.84249878,-83.9088668819999,0
			33.847999573,-83.902297974,0
			33.853519439,-83.8951568599999,0
			33.8851890580002,-83.855148315,0
			33.8939094540002,-83.8441772459999,0
			33.90171051,-83.8342971799999,0
			33.9053802490002,-83.8299102779999,0
			33.9287719730002,-83.8008270269999,0
			33.930149079,-83.799179077,0
		</coordinates>
	</polygon>
</kml>
