<?xml version="1.0" encoding="UTF-8"?>
<kml xmlns="http://earth.google.com/kml/2.2">
	<polygon id="USA_CO_Jackson" samplingProbability="1">
		<coordinates>
			40.4848594660002,-105.851280213,0
			40.4826011650001,-105.853706359,0
			40.478519439,-105.85975647,0
			40.4762687680001,-105.866409302,0
			40.4749221800002,-105.879096986,0
			40.4740104680001,-105.883926392,0
			40.4735603340001,-105.886360169,0
			40.471752167,-105.889389038,0
			40.4685821530001,-105.892410278,0
			40.4676704410002,-105.893623352,0
			40.4626884470001,-105.895446777,0
			40.456790923,-105.896057128,0
			40.4449996960001,-105.89668274,0
			40.4341201780002,-105.899108886,0
			40.4304885860001,-105.899116517,0
			40.4164314270001,-105.899131775,0
			40.4091796870001,-105.899749756,0
			40.404640197,-105.90096283,0
			40.3969306960001,-105.902786256,0
			40.396030426,-105.904586793,0
			40.3983001700001,-105.913650513,0
			40.3987617490002,-105.916656494,0
			40.3978500360001,-105.918479919,0
			40.3973999030001,-105.919082642,0
			40.3892402650002,-105.925727844,0
			40.386981965,-105.929946899,0
			40.384262085,-105.93599701,0
			40.3833503720001,-105.939613342,0
			40.3815422070001,-105.94203186,0
			40.3792686460002,-105.943237304,0
			40.3751907350002,-105.943847655,0
			40.3729209910001,-105.943847655,0
			40.3711090080001,-105.941436767,0
			40.3693008430001,-105.938423156,0
			40.3665695180002,-105.936607361,0
			40.3643112190001,-105.936607361,0
			40.3624916070002,-105.937828063,0
			40.3611297610001,-105.941436767,0
			40.360229493,-105.946876525,0
			40.3579597470002,-105.949287415,0
			40.347991943,-105.955329896,0
			40.3457221990002,-105.958351135,0
			40.3457221990002,-105.960762023,0
			40.3457221990002,-105.961967469,0
			40.3475418090001,-105.966186524,0
			40.3548011790002,-105.971611024,0
			40.35705948,-105.974632263,0
			40.3593292240001,-105.978851318,0
			40.3620491040001,-105.98789978,0
			40.3629608160002,-105.993927002,0
			40.3625106810001,-105.99936676,0
			40.3615989680001,-106.003585815,0
			40.3615989680001,-106.005996705,0
			40.3629608160002,-106.0078125,0
			40.3679504400002,-106.012641906,0
			40.3702201840001,-106.016258241,0
			40.3706703180002,-106.019882203,0
			40.3702201840001,-106.023498535,0
			40.3697586050001,-106.026519774,0
			40.3656806940002,-106.035568238,0
			40.3634109500001,-106.041000365,0
			40.3584213260001,-106.050636292,0
			40.3579597470002,-106.052459717,0
			40.3561401370001,-106.062110902,0
			40.355239869,-106.065132141,0
			40.3484306330001,-106.077186584,0
			40.347068787,-106.081413269,0
			40.3466110230002,-106.08442688,0
			40.3470611570001,-106.088043212,0
			40.3488693240001,-106.091667175,0
			40.3524894710002,-106.097702027,0
			40.3529510500001,-106.099517822,0
			40.3524894710002,-106.10192871,0
			40.3506698610001,-106.104942322,0
			40.348400117,-106.107955933,0
			40.34431076,-106.116996766,0
			40.3434104930002,-106.118797303,0
			40.3393211360001,-106.123016358,0
			40.3379592900001,-106.126029967,0
			40.33613968,-106.131446838,0
			40.3347816460001,-106.13205719,0
			40.3311500560002,-106.132652283,0
			40.33069992,-106.133857727,0
			40.3297805790001,-106.135665894,0
			40.330230713,-106.141700744,0
			40.331588746,-106.147132874,0
			40.333400726,-106.150749206,0
			40.3356590270001,-106.154373168,0
			40.3401908870001,-106.15799713,0
			40.3428993240001,-106.162231446,0
			40.3442611700002,-106.165252685,0
			40.3442611700002,-106.168869019,0
			40.343799591,-106.171279907,0
			40.3419799810002,-106.174285888,0
			40.332450867,-106.180297852,0
			40.3297309870001,-106.182708741,0
			40.3279113770001,-106.186317445,0
			40.326080323,-106.192337037,0
			40.326080323,-106.195358276,0
			40.3260688780001,-106.203796386,0
			40.3269615170001,-106.211036683,0
			40.3269500740001,-106.215866089,0
			40.3260421760002,-106.220687865,0
			40.3242187510002,-106.224906921,0
			40.3237609870001,-106.227920532,0
			40.3246612540001,-106.230926513,0
			40.3264694220001,-106.234558105,0
			40.3318901060001,-106.241210937,0
			40.340042115,-106.249076843,0
			40.3554420470001,-106.257575989,0
			40.358161927,-106.260002135,0
			40.359062196,-106.262420654,0
			40.359050751,-106.265426636,0
			40.3567810070002,-106.26965332,0
			40.3554115300001,-106.272659301,0
			40.3554000850002,-106.276283263,0
			40.357650757,-106.283538818,0
			40.357189179,-106.28716278,0
			40.3562812810001,-106.290168761,0
			40.3530998240001,-106.293777465,0
			40.349460601,-106.296173095,0
			40.3476409910001,-106.296768188,0
			40.3440208440002,-106.29675293,0
			40.3394889840002,-106.295516967,0
			40.3349609370001,-106.294906616,0
			40.3326911930001,-106.295501709,0
			40.3313217160002,-106.297302246,0
			40.330410004,-106.300315857,0
			40.3294906630001,-106.304527284,0
			40.3294792180001,-106.308151246,0
			40.331279754,-106.314796448,0
			40.3339920040001,-106.319625854,0
			40.336238862,-106.325073242,0
			40.337139129,-106.328086853,0
			40.3375892650001,-106.331710815,0
			40.3384895320001,-106.334732057,0
			40.347068787,-106.343818665,0
			40.354759217,-106.351699829,0
			40.3565597540001,-106.356529236,0
			40.35610199,-106.360153198,0
			40.355178834,-106.364356995,0
			40.3556098940002,-106.370399476,0
			40.3542404180002,-106.375816345,0
			40.3519516000002,-106.38244629,0
			40.347850801,-106.389656068,0
			40.345581055,-106.390861512,0
			40.3383293150001,-106.390220642,0
			40.3356094370001,-106.390213012,0
			40.33423996,-106.391403198,0
			40.3337821970001,-106.393211365,0
			40.3346786510002,-106.395622253,0
			40.3401107780001,-106.399276734,0
			40.3432693490001,-106.402313233,0
			40.345981598,-106.407150268,0
			40.349578857,-106.415611267,0
			40.3513717660002,-106.422866822,0
			40.3517990110001,-106.428298951,0
			40.3495101940002,-106.435516357,0
			40.3481292720001,-106.440338135,0
			40.3481216440002,-106.44455719,0
			40.3494720470001,-106.44758606,0
			40.355800629,-106.453056336,0
			40.3576011650002,-106.456092834,0
			40.3603210450001,-106.457305908,0
			40.3630409250001,-106.456718445,0
			40.3653106690002,-106.457939148,0
			40.3675613400001,-106.461578368,0
			40.369819641,-106.462799073,0
			40.3734512330001,-106.463417054,0
			40.3761596680001,-106.465263366,0
			40.3793220530001,-106.470703126,0
			40.3811302180002,-106.471321105,0
			40.384761811,-106.470741272,0
			40.387020111,-106.472557068,0
			40.3901786820001,-106.477416993,0
			40.3928909310001,-106.478027344,0
			40.3983497620001,-106.473846436,0
			40.4019813550001,-106.473876952,0
			40.4056015020001,-106.476310731,0
			40.4087600700001,-106.480560303,0
			40.4100990300001,-106.484786988,0
			40.4100914000001,-106.487213135,0
			40.4091796870001,-106.489616394,0
			40.4000587470001,-106.500419616,0
			40.398700714,-106.501617432,0
			40.394588471,-106.507629394,0
			40.3941307070002,-106.508216858,0
			40.3900489810001,-106.510017395,0
			40.3886795040001,-106.513023376,0
			40.3882102970001,-106.516036988,0
			40.3863792410001,-106.51965332,0
			40.3859214780001,-106.520851136,0
			40.3841018670001,-106.523246765,0
			40.3809089670001,-106.525642395,0
			40.3736495970001,-106.527397155,0
			40.3663902290002,-106.528549194,0
			40.3636703500001,-106.529136659,0
			40.3627510070002,-106.530937196,0
			40.362739563,-106.533363342,0
			40.3649902340001,-106.5388031,0
			40.365879058,-106.541221618,0
			40.3681221010001,-106.547866822,0
			40.3699188230001,-106.550903321,0
			40.3726387020001,-106.553337098,0
			40.3749008180001,-106.554573059,0
			40.3762512220001,-106.556388856,0
			40.37759018,-106.560623169,0
			40.377090454,-106.571479798,0
			40.3784217830002,-106.578117371,0
			40.3792800910001,-106.587188721,0
			40.378349305,-106.592010498,0
			40.376060485,-106.596206664,0
			40.3746910090001,-106.599822999,0
			40.3746795660001,-106.60283661,0
			40.375110626,-106.605262756,0
			40.3773689270001,-106.607688905,0
			40.3791809090001,-106.608306884,0
			40.3927612300001,-106.613861084,0
			40.4031791690001,-106.61756897,0
			40.4052696240001,-106.618392944,0
			40.4157409670001,-106.624946594,0
			40.4191818240002,-106.628730773,0
			40.427940369,-106.624153137,0
			40.430030822,-106.620613098,0
			40.432128907,-106.622329711,0
			40.4326705930001,-106.633422851,0
			40.4332199090001,-106.640548707,0
			40.4395713810001,-106.648902893,0
			40.4433784500001,-106.649330139,0
			40.4462699900001,-106.651550293,0
			40.4501609800001,-106.654541015,0
			40.454349519,-106.655921935,0
			40.4571990970001,-106.656639099,0
			40.4593620310002,-106.658226013,0
			40.4616508490002,-106.657035827,0
			40.4710998540001,-106.657775879,0
			40.4701385510001,-106.664253235,0
			40.4752502430001,-106.666358947,0
			40.4833221440001,-106.655532837,0
			40.4903106690001,-106.658363342,0
			40.492752076,-106.653289794,0
			40.4932403560001,-106.653396607,0
			40.497322083,-106.654052735,0
			40.5050201410002,-106.655937196,0
			40.5095405580001,-106.657791138,0
			40.51589203,-106.659057617,0
			40.5172386180001,-106.660881042,0
			40.519031525,-106.665130614,0
			40.5194702150001,-106.668762207,0
			40.5203704830001,-106.669982911,0
			40.5217208860001,-106.670600891,0
			40.5262603760002,-106.670036316,0
			40.5298995970001,-106.668258668,0
			40.5321693430001,-106.667068482,0
			40.5353393560001,-106.668312073,0
			40.53760147,-106.67074585,0
			40.5438919070002,-106.680496216,0
			40.5456504820001,-106.683273316,0
			40.5505790710001,-106.684196472,0
			40.5566787720001,-106.691642761,0
			40.5638198860001,-106.690780639,0
			40.571990967,-106.697067261,0
			40.5732803340002,-106.697723389,0
			40.5818901060001,-106.699012757,0
			40.5859794620002,-106.697853088,0
			40.5900688180001,-106.696067811,0
			40.5932502750001,-106.694892884,0
			40.5968818680001,-106.695526123,0
			40.6022987370002,-106.698608398,0
			40.6081810000001,-106.702896119,0
			40.6127090450001,-106.703552247,0
			40.6186103830001,-106.703010559,0
			40.6245193480001,-106.701248169,0
			40.629081727,-106.695838928,0
			40.6327400210002,-106.690422059,0
			40.6368293770001,-106.688026429,0
			40.6409187310001,-106.68686676,0
			40.645011903,-106.685089112,0
			40.6468315130001,-106.683891296,0
			40.6500091550001,-106.683921814,0
			40.6522598280001,-106.686370849,0
			40.6549606320001,-106.690032959,0
			40.658592224,-106.690055847,0
			40.6622314450001,-106.688285827,0
			40.6681404120001,-106.685913085,0
			40.672229766,-106.684745788,0
			40.6754112250001,-106.682952881,0
			40.6781311030001,-106.683586121,0
			40.6808509830001,-106.684219361,0
			40.6822204590001,-106.68121338,0
			40.6868095390002,-106.672760009,0
			40.6904487620001,-106.669761658,0
			40.6963500990001,-106.668609619,0
			40.7017898560002,-106.669868469,0
			40.7058601370001,-106.672332764,0
			40.7090187070001,-106.676002503,0
			40.7108192440002,-106.67843628,0
			40.7126312270001,-106.677856445,0
			40.7176399240001,-106.673660279,0
			40.7208213810001,-106.673690795,0
			40.7353401180001,-106.673217773,0
			40.7376098640001,-106.672027587,0
			40.7412605280002,-106.668426513,0
			40.7444419870001,-106.667846679,0
			40.7521705620001,-106.663673401,0
			40.7553520210002,-106.663085938,0
			40.758522034,-106.664337159,0
			40.7616920480002,-106.664978027,0
			40.7666893000001,-106.663200379,0
			40.7707901000001,-106.658988953,0
			40.7821998590001,-106.645736695,0
			40.7885894780001,-106.637306213,0
			40.7913208010002,-106.636116027,0
			40.7976799020001,-106.635566711,0
			40.8058395390001,-106.635643005,0
			40.8112716690001,-106.6381073,0
			40.8180618290001,-106.641822814,0
			40.8198509210002,-106.644866944,0
			40.8220787050001,-106.652786255,0
			40.8256797790002,-106.6588974,0
			40.8292999260001,-106.661346436,0
			40.8347396860001,-106.662620544,0
			40.8397407530001,-106.660240173,0
			40.8447494500002,-106.656036378,0
			40.848838807,-106.655456543,0
			40.8515510560002,-106.656700134,0
			40.8538017270001,-106.660980225,0
			40.8569488520002,-106.664649964,0
			40.8596687320002,-106.665885925,0
			40.8632888790002,-106.66835785,0
			40.8650817880001,-106.67263031,0
			40.8664207460002,-106.676277161,0
			40.869121552,-106.679946899,0
			40.8727302560002,-106.683029175,0
			40.8772621160001,-106.684898376,0
			40.882709504,-106.684951783,0
			40.8858718870001,-106.686203004,0
			40.8867607110001,-106.689849853,0
			40.886741638,-106.694107057,0
			40.885818482,-106.695922852,0
			40.8735084530002,-106.707336427,0
			40.871681214,-106.709152222,0
			40.8707618720002,-106.71157074,0
			40.870288849,-106.715217591,0
			40.8688888560001,-106.722496032,0
			40.8697700500002,-106.726150513,0
			40.8711204530001,-106.728591918,0
			40.871089935,-106.734657287,0
			40.871520997,-106.737709045,0
			40.8733100890001,-106.740768433,0
			40.8769302380001,-106.743240357,0
			40.882820129,-106.745117187,0
			40.8855400090002,-106.743927001,0
			40.8891792300001,-106.742759704,0
			40.89099884,-106.742767334,0
			40.892341613,-106.745216369,0
			40.8931503310001,-106.761032105,0
			40.8931312570002,-106.765289307,0
			40.8949317940002,-106.768348693,0
			40.8976287850002,-106.770812989,0
			40.9012603760002,-106.77205658,0
			40.9017105100001,-106.772682189,0
			40.9034996030001,-106.775131226,0
			40.9043922430002,-106.778182984,0
			40.9043693540002,-106.781227112,0
			40.901180267,-106.784835816,0
			40.8988990780002,-106.787246704,0
			40.8956794740001,-106.793899536,0
			40.8947296150001,-106.799957275,0
			40.8946990960001,-106.8048172,0
			40.8955993650001,-106.806655883,0
			40.8973999020001,-106.807899474,0
			40.8996696460002,-106.808532714,0
			40.902851105,-106.807350158,0
			40.9055709850001,-106.807991028,0
			40.9109916690002,-106.812309266,0
			40.9141387940001,-106.815376282,0
			40.9209289550001,-106.818496703,0
			40.9272613520001,-106.821006776,0
			40.929519653,-106.822250366,0
			40.9299697880001,-106.82408142,0
			40.929500579,-106.825286866,0
			40.9267387400001,-106.831947326,0
			40.9257812500001,-106.839241028,0
			40.9262084970002,-106.842903137,0
			40.9275512700002,-106.846557618,0
			40.9288902280001,-106.849006653,0
			40.9379119880001,-106.857627869,0
			40.9442405700001,-106.861358642,0
			40.9523811340001,-106.865097047,0
			40.9550895680001,-106.866355896,0
			40.965969086,-106.86831665,0
			40.976390839,-106.869049072,0
			40.978672028,-106.867858886,0
			40.9809494020002,-106.86606598,0
			40.9828109750001,-106.86000061,0
			40.985569001,-106.855155946,0
			40.9883003240001,-106.852760314,0
			40.9914817810001,-106.85218811,0
			40.993289948,-106.852821349,0
			41.0041008000001,-106.863906861,0
			41.0034599300002,-106.591140747,0
			41.003749848,-106.582008362,0
			41.0037689220002,-106.572257995,0
			41.0038108840001,-106.543647766,0
			41.003280639,-106.486419677,0
			41.0034713750002,-106.455970763,0
			41.0035209650002,-106.448051452,0
			41.0026397710001,-106.379257203,0
			41.0024604800001,-106.351860047,0
			41.0025100700001,-106.331779481,0
			41.0025291440001,-106.326301574,0
			41.0023498530001,-106.325737,0
			41.0009803780002,-106.321479798,0
			40.999382019,-106.317138672,0
			40.9988899230001,-106.203292847,0
			40.998859406,-106.196685791,0
			40.998859406,-106.195976257,0
			40.9928207410002,-106.192306518,0
			40.9842109680002,-106.190467834,0
			40.9746818540001,-106.188011169,0
			40.96969986,-106.184951783,0
			40.9610786440001,-106.183113097,0
			40.9515495300001,-106.182472229,0
			40.9492797860001,-106.183067322,0
			40.9456520080001,-106.186706543,0
			40.9433784490001,-106.186706543,0
			40.9411087030001,-106.186096192,0
			40.937030792,-106.184257508,0
			40.9311485290002,-106.179382325,0
			40.9257087710002,-106.173286439,0
			40.9175605770001,-106.164146423,0
			40.9148406990001,-106.15927124,0
			40.9085006720001,-106.152572631,0
			40.906230926,-106.14769745,0
			40.903518677,-106.140396118,0
			40.9012603760002,-106.136138916,0
			40.8967285160002,-106.131866456,0
			40.889930725,-106.126998902,0
			40.884941101,-106.125778198,0
			40.8794898980001,-106.127586365,0
			40.8749504100002,-106.12940216,0
			40.8726806640001,-106.12940216,0
			40.871330261,-106.127578735,0
			40.8708801270001,-106.123931884,0
			40.8640899660001,-106.111160278,0
			40.860462189,-106.105682374,0
			40.8568305960002,-106.103858948,0
			40.8522987370001,-106.103240967,0
			40.8504791260001,-106.102020264,0
			40.849128723,-106.099586488,0
			40.8473091130001,-106.097770691,0
			40.8423194890001,-106.096542358,0
			40.8405113220001,-106.095329284,0
			40.8382492060002,-106.090469361,0
			40.8337097180001,-106.086807252,0
			40.8296318070001,-106.083770752,0
			40.8273696910002,-106.07952118,0
			40.81785202,-106.06250763,0
			40.8151321420001,-106.057037354,0
			40.8115005500002,-106.054000854,0
			40.8051490790002,-106.050346375,0
			40.802890779,-106.046707153,0
			40.7988014220002,-106.044876099,0
			40.7919998160001,-106.043670655,0
			40.7870101920001,-106.04184723,0
			40.782470704,-106.036376953,0
			40.7783889780002,-106.029701233,0
			40.772949218,-106.026062013,0
			40.7647895810002,-106.023628234,0
			40.7597999570002,-106.023017883,0
			40.7552604670001,-106.021202087,0
			40.7507286070001,-106.017562867,0
			40.7439193730002,-106.012702942,0
			40.733489991,-106.000572206,0
			40.7266922000001,-105.992691039,0
			40.722599029,-105.990867614,0
			40.7189788820001,-105.990867614,0
			40.7139892580001,-105.991477967,0
			40.7112693780001,-105.990867614,0
			40.7080917360001,-105.989051819,0
			40.7049102780001,-105.984207154,0
			40.7022018430001,-105.980567931,0
			40.6972007760001,-105.975112915,0
			40.6944808960001,-105.973899841,0
			40.6854095460001,-105.972686767,0
			40.679061889,-105.970268249,0
			40.6704406750001,-105.966026307,0
			40.6659088150001,-105.962997437,0
			40.6604614270001,-105.958160401,0
			40.6577415470001,-105.956336975,0
			40.6500320430001,-105.954536438,0
			40.6464004510001,-105.952720641,0
			40.6400489810001,-105.947875977,0
			40.635059357,-105.947273253,0
			40.6255302430001,-105.947875977,0
			40.6187286390002,-105.946678163,0
			40.6137390130001,-105.943656921,0
			40.6110191350002,-105.941238403,0
			40.606021881,-105.929130553,0
			40.6014785760001,-105.926109314,0
			40.5942306510001,-105.924911498,0
			40.5801696770001,-105.923706054,0
			40.577899933,-105.923110961,0
			40.5701789860001,-105.914649964,0
			40.563831329,-105.909812928,0
			40.5606498720002,-105.908607484,0
			40.5552101130001,-105.909217835,0
			40.5493202220001,-105.908020019,0
			40.5443305980001,-105.905601501,0
			40.5393295290001,-105.905006408,0
			40.535259248,-105.905006408,0
			40.530269624,-105.905616761,0
			40.5243721000001,-105.908653259,0
			40.5230102540002,-105.908660889,0
			40.5216522220001,-105.906837463,0
			40.5216407770001,-105.898376465,0
			40.5216407770001,-105.890510559,0
			40.5216293340001,-105.881439208,0
			40.5211715700001,-105.876602172,0
			40.516620637,-105.867538452,0
			40.5120811470001,-105.859077453,0
			40.5070915230001,-105.854263305,0
			40.5043716430001,-105.851837159,0
			40.49892044,-105.851257324,0
			40.492118836,-105.851882934,0
			40.4848594660002,-105.851280213,0
		</coordinates>
	</polygon>
</kml>
