<?xml version="1.0" encoding="UTF-8"?>
<kml xmlns="http://earth.google.com/kml/2.2">
	<polygon id="USA_TX_Harris" samplingProbability="1">
		<coordinates>
			29.5600890000002,-95.2253269999999,0
			29.55949,-95.2327119999999,0
			29.56109,-95.2378689999999,0
			29.5607680000001,-95.241043,0
			29.5584910000001,-95.2411729999999,0
			29.556341,-95.2444379999999,0
			29.5550990000002,-95.2476579999999,0
			29.5543210000001,-95.2508469999999,0
			29.5549600000002,-95.2550199999999,0
			29.5568410000002,-95.255959,0
			29.559561,-95.25528,0
			29.562281,-95.2546009999999,0
			29.5660420000002,-95.2564769999999,0
			29.5707110000001,-95.2583159999999,0
			29.57629,-95.2600859999999,0
			29.5896490000001,-95.2614359999999,0
			29.5924400000001,-95.262321,0
			29.5944600000001,-95.2664109999999,0
			29.5956500000001,-95.2726359999999,0
			29.5974100000001,-95.281471,0
			29.5982490000001,-95.290352,0
			29.5967100000001,-95.2972559999999,0
			29.5957700000001,-95.3072969999999,0
			29.596909,-95.3124769999998,0
			29.5976200000001,-95.318222,0
			29.598261,-95.322388,0
			29.5983200000001,-95.334457,0
			29.5970800000002,-95.337677,0
			29.5908700000001,-95.3427579999998,0
			29.5873930000001,-95.3471529999999,0
			29.5866600000001,-95.351387,0
			29.5860810000001,-95.3592989999999,0
			29.58725,-95.3760379999999,0
			29.587971,-95.3822859999999,0
			29.5863000000001,-95.386063,0
			29.5836910000001,-95.389359,0
			29.58293,-95.3930819999999,0
			29.5832000000001,-95.4103929999998,0
			29.582799913,-95.4224930239998,0
			29.5828307040001,-95.4232413519999,0
			29.5828750000001,-95.4243209999999,0
			29.5831010000001,-95.4298169999999,0
			29.6638200000001,-95.607727,0
			29.7023127940002,-95.674756122,0
			29.7893410000001,-95.8263019999999,0
			30.0455450000002,-95.919837,0
			30.0990715580002,-95.9393783089999,0
			30.1350330000001,-95.9525069999999,0
			30.1615200000001,-95.9628369999999,0
			30.1617410000001,-95.95649,0
			30.1594670000001,-95.953288,0
			30.1573910000001,-95.950363,0
			30.1496726130001,-95.9444463889999,0
			30.147020099,-95.942413076,0
			30.1467754960001,-95.942154363,0
			30.14370002,-95.9389011199999,0
			30.1436810000001,-95.938881,0
			30.1428110000001,-95.927826,0
			30.1385,-95.9227519999999,0
			30.135765,-95.9194019999999,0
			30.1334497920002,-95.916566378,0
			30.129381181,-95.911582946,0
			30.1254310610001,-95.9038467409999,0
			30.1233291620002,-95.8965606689999,0
			30.1229051450002,-95.892816066,0
			30.121962,-95.884483,0
			30.1207700000002,-95.877136,0
			30.1187610000002,-95.872482,0
			30.113091,-95.8680109999999,0
			30.105520001,-95.861526001,0
			30.1025910010001,-95.8569179999999,0
			30.1000730000001,-95.8507079999999,0
			30.0971510000001,-95.8460999999999,0
			30.0943600000001,-95.8451769999999,0
			30.0918070000001,-95.8453089999999,0
			30.0897900000002,-95.845413,0
			30.0868990990001,-95.8450843049998,0
			30.086571,-95.8450469999999,0
			30.0834600000001,-95.835701,0
			30.0826210000001,-95.825706,0
			30.08367,-95.8172069999999,0
			30.085089,-95.8127509999999,0
			30.08572,-95.8107679999999,0
			30.0879902240001,-95.8088475659999,0
			30.0883809210002,-95.8085170669999,0
			30.0886000000001,-95.805932,0
			30.0887685870001,-95.803939387,0
			30.0890102390002,-95.801086426,0
			30.0907405240001,-95.793719147,0
			30.090901,-95.7930359999999,0
			30.0912000000001,-95.7917629999999,0
			30.0923600000002,-95.786423,0
			30.0918470000001,-95.7842099999999,0
			30.0912705890001,-95.78172554,0
			30.08876,-95.7760389999999,0
			30.0879860000001,-95.7724289999999,0
			30.0876410000001,-95.770821,0
			30.0877054090001,-95.768490781,0
			30.087831497,-95.7639465329999,0
			30.0880991020001,-95.7636404569998,0
			30.0891910000001,-95.7623919999999,0
			30.0926609990001,-95.758423001,0
			30.094445256,-95.757271158,0
			30.0962300000001,-95.756119,0
			30.0974010000002,-95.7507709999999,0
			30.0966210000001,-95.742363,0
			30.0964323060001,-95.737522734,0
			30.0962510000001,-95.732872,0
			30.1008661070001,-95.7125764959999,0
			30.101721,-95.7088170009998,0
			30.102025311,-95.7059189969999,0
			30.102389877,-95.702447174,0
			30.1011033700001,-95.701361237,0
			30.100019,-95.7004469999999,0
			30.0993353440002,-95.6987150279999,0
			30.0990010010001,-95.6978680009998,0
			30.0990840000001,-95.6972039999999,0
			30.0997358510002,-95.6919607219999,0
			30.1003931010002,-95.6867073729999,0
			30.1027650700001,-95.6869230649999,0
			30.104057032,-95.687040547,0
			30.1040730000001,-95.6870419999999,0
			30.1057450000001,-95.6849219999999,0
			30.106251,-95.6842799999999,0
			30.1056310000001,-95.6800919999999,0
			30.1049420000001,-95.678893,0
			30.1031684990002,-95.6758097399999,0
			30.1026783,-95.6749572749999,0
			30.1020776210001,-95.671313342,0
			30.101706,-95.6690579999999,0
			30.1014710000001,-95.6676329999999,0
			30.1157210000002,-95.6457369999999,0
			30.13213,-95.6205669999999,0
			30.132615,-95.618328,0
			30.133289,-95.615219,0
			30.1333900000002,-95.606232,0
			30.133434477,-95.5976437639999,0
			30.1334419990001,-95.596191216,0
			30.1345134990001,-95.5934003879999,0
			30.1367586450001,-95.5875531309999,0
			30.1397068300001,-95.5863312609999,0
			30.1426200000001,-95.5851289999999,0
			30.1483710000002,-95.5800629999999,0
			30.1520226050001,-95.573868744,0
			30.1535210000001,-95.5713269999999,0
			30.1561224940001,-95.567751134,0
			30.1587219240001,-95.564178467,0
			30.1603202830001,-95.558273315,0
			30.1642041600002,-95.554236048,0
			30.1651500000001,-95.553253,0
			30.1694910000001,-95.547203,0
			30.169488911,-95.5471899139999,0
			30.1684710390002,-95.540811757,0
			30.1676500000002,-95.535667,0
			30.1649490000001,-95.5257719999999,0
			30.164939471,-95.525764526,0
			30.1620753630002,-95.523518049,0
			30.157396566,-95.51984821,0
			30.1573810000002,-95.5198359999999,0
			30.157329615,-95.5197678499999,0
			30.1489804030001,-95.5086943189999,0
			30.1428673630002,-95.500586619,0
			30.142839,-95.500549,0
			30.1422860000001,-95.499969,0
			30.1399710000001,-95.497543,0
			30.133982001,-95.496802999,0
			30.1339264600002,-95.4967933299999,0
			30.1291860000002,-95.4959679999999,0
			30.1270810050002,-95.4956016559999,0
			30.1270600000001,-95.495597999,0
			30.1188299680001,-95.4960479799999,0
			30.1113190000002,-95.491699,0
			30.1078000000001,-95.4839709999999,0
			30.107794636,-95.4839378729999,0
			30.1055353790001,-95.4699817389999,0
			30.1053410070001,-95.46878083,0
			30.1054563640002,-95.4659164579999,0
			30.1057891850001,-95.45765686,0
			30.1068766820001,-95.4541764969999,0
			30.1085600000001,-95.44879,0
			30.11468225,-95.4291970039999,0
			30.1146910000001,-95.4291690009999,0
			30.115511,-95.4270099999998,0
			30.1158410000002,-95.4238199999999,0
			30.1139530000001,-95.42234,0
			30.1139432930001,-95.4223335139999,0
			30.1087962490002,-95.4188938119999,0
			30.105933398,-95.4169806079999,0
			30.097882,-95.413852,0
			30.095227935,-95.412821692,0
			30.0906810010001,-95.403030001,0
			30.0891134890001,-95.4005227689999,0
			30.084299082,-95.3928221309999,0
			30.084248447,-95.3916327489999,0
			30.0841200120001,-95.38861128,0
			30.0852000160002,-95.3852440999999,0
			30.0853290000002,-95.3848420009999,0
			30.085437,-95.384485,0
			30.0861389910001,-95.3821593419999,0
			30.086350495,-95.3795406529999,0
			30.0864389850001,-95.3784411889999,0
			30.0860878660001,-95.377612738,0
			30.084909,-95.3748319999999,0
			30.082658878,-95.3724743769998,0
			30.0815600000001,-95.371322999,0
			30.080249085,-95.3708996539999,0
			30.0787700010001,-95.3704219989999,0
			30.0768110010001,-95.367363,0
			30.0765151120001,-95.3646660719999,0
			30.0760612500002,-95.3605270389999,0
			30.0758704680001,-95.356065394,0
			30.0757341820001,-95.3528760779999,0
			30.075701,-95.3520969999999,0
			30.0526410000001,-95.3164369999998,0
			30.0487590000002,-95.311386,0
			30.0450200000001,-95.3112819999999,0
			30.0391226680001,-95.3111190379999,0
			30.03637123,-95.311042785,0
			30.0330982220001,-95.3096389769998,0
			30.031179429,-95.3076324449999,0
			30.0316974930001,-95.3052268389998,0
			30.0317880000001,-95.304807,0
			30.0323241420002,-95.3023191809999,0
			30.0323300000001,-95.3022919999999,0
			30.0312520000001,-95.2986599999999,0
			30.0301400000001,-95.2939679999999,0
			30.0296343570001,-95.2932696009999,0
			30.0286712640001,-95.2919387819999,0
			30.0276012420002,-95.2883071899999,0
			30.0292491910002,-95.283988952,0
			30.0309219590001,-95.2801970929999,0
			30.0320400000001,-95.27433,0
			30.0320610000001,-95.2642969999999,0
			30.0322137420001,-95.2636695809999,0
			30.032841001,-95.2610929999999,0
			30.0331823940001,-95.2606752819999,0
			30.1675000000002,-95.0963289999999,0
			30.1669396450001,-95.0961193809998,0
			30.130043,-95.082317,0
			29.993120386,-95.031097145,0
			29.9944850830001,-95.0291982409999,0
			29.9954336370001,-95.0278788479999,0
			29.9954400000001,-95.02787,0
			29.9976500000002,-95.0241169999999,0
			29.9957555070001,-95.0161067289999,0
			29.9935700000001,-95.0068659999999,0
			29.9931330000001,-95.0055889999999,0
			29.9920204480002,-95.0023381869999,0
			29.9919800010001,-95.00222,0
			29.9843841260002,-94.9975807959999,0
			29.9801883700001,-94.995018006,0
			29.9787309500002,-94.993678651,0
			29.9758893760001,-94.991066619,0
			29.9758800000002,-94.991058,0
			29.973706,-94.98968,0
			29.9731938050001,-94.9893554509999,0
			29.9721012110001,-94.9886627209999,0
			29.9683494580001,-94.98677063,0
			29.9640842620001,-94.9841047169999,0
			29.963808,-94.9839319999999,0
			29.9622331330002,-94.9829474619999,0
			29.9622100000001,-94.9829329999999,0
			29.9603970000001,-94.982452,0
			29.9557182390001,-94.98121145,0
			29.9554732730001,-94.981511122,0
			29.9551801430001,-94.981886575,0
			29.9544110000002,-94.982872,0
			29.9544907570001,-94.984494974,0
			29.9545400000002,-94.9854969999999,0
			29.9545329940001,-94.985510515,0
			29.9536895760002,-94.987136842,0
			29.9492385290001,-94.989595212,0
			29.9483860000001,-94.990066,0
			29.9483299990002,-94.9900969999999,0
			29.9384399990001,-94.9943919999999,0
			29.9325901170001,-94.99684895,0
			29.9288100000001,-94.994446,0
			29.926466013,-94.9950816739999,0
			29.9238320000001,-94.9957959999999,0
			29.9228208200001,-94.996290314,0
			29.921051843,-94.997155075,0
			29.9188998700001,-94.9982069299999,0
			29.9137151330002,-94.995424875,0
			29.9118480010001,-94.9944229999999,0
			29.9061390000001,-94.990021,0
			29.9025750000001,-94.9883859999999,0
			29.900049,-94.987228,0
			29.9000154770001,-94.98722179,0
			29.8941330000001,-94.9861319999999,0
			29.885931,-94.984612,0
			29.8830360000001,-94.9827129999999,0
			29.8793110000001,-94.98027,0
			29.8695410000001,-94.9771799999999,0
			29.8629700000002,-94.9738919999999,0
			29.8612900000001,-94.971581,0
			29.8585610000001,-94.9678269999999,0
			29.8568500000001,-94.9605559999999,0
			29.8537200000001,-94.9523159999999,0
			29.8505910000002,-94.9494529999999,0
			29.8494090000001,-94.9483719999999,0
			29.8483080000001,-94.9479419999999,0
			29.8447400000001,-94.946548,0
			29.8428490000002,-94.9446019999999,0
			29.8418500000001,-94.943573,0
			29.8390310000001,-94.9421619999999,0
			29.8347510000002,-94.9387359999999,0
			29.8344010000002,-94.9385989999998,0
			29.832411,-94.9378199999999,0
			29.8325900000001,-94.937349,0
			29.8336410000002,-94.9345929999999,0
			29.8333900000002,-94.9333809999999,0
			29.8300820000001,-94.9174189999999,0
			29.8279610000001,-94.911232,0
			29.8228610000002,-94.909973,0
			29.8150310000001,-94.909393,0
			29.8135820000001,-94.9128789999999,0
			29.8125610000002,-94.915337,0
			29.809538,-94.9159059999999,0
			29.8084700000001,-94.9161069999998,0
			29.8044530000001,-94.918472,0
			29.8005290000002,-94.922928,0
			29.7964900000001,-94.924751,0
			29.7925400000001,-94.9186779999999,0
			29.7851410000001,-94.917549,0
			29.7811790000001,-94.9209519999999,0
			29.7752080000001,-94.9207919999999,0
			29.770969,-94.918427,0
			29.7668110000001,-94.915899,0
			29.7662510000001,-94.915558,0
			29.7594300000001,-94.917023,0
			29.758403,-94.9176969999999,0
			29.7576500000001,-94.91819,0
			29.7541210000001,-94.9242369999999,0
			29.7538300000002,-94.9247359999999,0
			29.74991,-94.9291919999999,0
			29.7467310000001,-94.9299089999999,0
			29.7393400000001,-94.9287799999999,0
			29.7353000000002,-94.9306109999999,0
			29.7256510000001,-94.94014,0
			29.7219420000002,-94.94318,0
			29.7207930000001,-94.9441219999999,0
			29.718419,-94.9431999999999,0
			29.71612,-94.942307,0
			29.71331,-94.938271,0
			29.7112010000002,-94.9352419999999,0
			29.70554,-94.9319079999999,0
			29.700952,-94.9296099999999,0
			29.6980300000002,-94.928146,0
			29.6957140000001,-94.9276849999999,0
			29.6920110000001,-94.9269489999999,0
			29.6868140000001,-94.9251989999999,0
			29.6840800000001,-94.9242779999999,0
			29.6825650000001,-94.925266,0
			29.6805230000001,-94.926598,0
			29.6777670000001,-94.933304,0
			29.678167,-94.93351,0
			29.6783870000001,-94.933678,0
			29.6784900000001,-94.9337009999999,0
			29.6788250000001,-94.933914,0
			29.6791950000002,-94.9341889999999,0
			29.6797870000001,-94.934471,0
			29.6802790000002,-94.934998,0
			29.6801570000002,-94.935501,0
			29.679474,-94.9358139999999,0
			29.6793290000001,-94.935883,0
			29.679245,-94.9371569999999,0
			29.679279,-94.9375229999999,0
			29.6797710000001,-94.9376529999999,0
			29.6808340000001,-94.9372249999998,0
			29.681072,-94.937126,0
			29.6819880000002,-94.9367599999998,0
			29.6825050000002,-94.9365309999999,0
			29.6830160000001,-94.9361109999999,0
			29.683313,-94.9359889999999,0
			29.6843530000001,-94.9360119999999,0
			29.6849990000001,-94.9361109999999,0
			29.6855560000001,-94.9361109999999,0
			29.6858310000002,-94.936386,0
			29.6863880000001,-94.936386,0
			29.6866660000002,-94.9361109999999,0
			29.6872220000001,-94.9361109999999,0
			29.6875000000001,-94.936386,0
			29.6877780000002,-94.9361109999999,0
			29.688053,-94.9361109999999,0
			29.6883350000001,-94.936386,0
			29.6888890000001,-94.936386,0
			29.6891670000002,-94.9361109999999,0
			29.689445,-94.9361109999999,0
			29.6897220000001,-94.9358369999999,0
			29.6900010000001,-94.9358369999999,0
			29.6905360000001,-94.93589,0
			29.690836,-94.9358369999999,0
			29.691111,-94.9358369999999,0
			29.6917250000001,-94.9357679999999,0
			29.6922800000002,-94.935638,0
			29.6927720000002,-94.9357759999999,0
			29.6933020000001,-94.9359969999999,0
			29.6938690000002,-94.9367369999999,0
			29.6947400000001,-94.9375459999999,0
			29.6951560000001,-94.938553,0
			29.6951560000001,-94.938835,0
			29.6954350000001,-94.9391099999999,0
			29.6958430000001,-94.93998,0
			29.6960620000001,-94.940414,0
			29.696199,-94.940666,0
			29.6972540000001,-94.9416809999998,0
			29.6973780000001,-94.942169,0
			29.6982120000002,-94.943001,0
			29.6982120000002,-94.9432749999999,0
			29.69849,-94.9435579999999,0
			29.698513,-94.943794,0
			29.698685,-94.9456019999999,0
			29.6987670000001,-94.9460529999998,0
			29.6990590000001,-94.9464799999999,0
			29.699211,-94.947174,0
			29.6989960000002,-94.9488449999999,0
			29.6989520000001,-94.9493409999998,0
			29.6989710000001,-94.9497219999999,0
			29.6988200000002,-94.9499739999999,0
			29.6988200000002,-94.950096,0
			29.6987670000001,-94.9502179999998,0
			29.6987670000001,-94.9549409999999,0
			29.6990430000002,-94.955223,0
			29.6990430000002,-94.9560549999999,0
			29.6993220000002,-94.956329,0
			29.6993220000002,-94.957443,0
			29.6996000000001,-94.9577179999999,0
			29.6996000000001,-94.958,0
			29.6993220000002,-94.958275,0
			29.6993220000002,-94.959663,0
			29.6996000000001,-94.9599459999999,0
			29.6996000000001,-94.960777,0
			29.6998790000001,-94.9610519999999,0
			29.6998790000001,-94.9618909999999,0
			29.7001530000002,-94.962166,0
			29.7001530000002,-94.9627229999999,0
			29.6998790000001,-94.962997,0
			29.6998790000001,-94.9632799999999,0
			29.7001530000002,-94.9635539999999,0
			29.7001530000002,-94.9649429999999,0
			29.6998790000001,-94.9652249999999,0
			29.6998790000001,-94.9655,0
			29.6996000000001,-94.965775,0
			29.6996000000001,-94.9660569999999,0
			29.6998790000001,-94.966331,0
			29.6998790000001,-94.9668879999999,0
			29.6999800000001,-94.966988,0
			29.7004360000001,-94.9674449999999,0
			29.7005560000001,-94.9686129999999,0
			29.7007450000002,-94.9690629999999,0
			29.7011550000001,-94.9703139999999,0
			29.7014620000001,-94.970856,0
			29.7014810000001,-94.971489,0
			29.7016660000001,-94.9722209999999,0
			29.7016660000001,-94.9725039999999,0
			29.701942,-94.9727779999999,0
			29.701942,-94.9730529999999,0
			29.7028540000002,-94.973312,0
			29.7030940000001,-94.973244,0
			29.7036110000001,-94.9729159999999,0
			29.7041440000002,-94.973114,0
			29.7043950000001,-94.973488,0
			29.7047020000002,-94.9739229999999,0
			29.7051030000001,-94.9741439999999,0
			29.7052780000002,-94.9747239999999,0
			29.705557,-94.974998,0
			29.7058330000001,-94.974998,0
			29.706388,-94.9755549999999,0
			29.706669,-94.9755549999999,0
			29.7069440000002,-94.97583,0
			29.7079330000001,-94.9768909999999,0
			29.7079330000001,-94.9771649999998,0
			29.708488,-94.9777219999999,0
			29.708488,-94.978279,0
			29.708767,-94.9785539999999,0
			29.7089610000001,-94.979362,0
			29.7090450000001,-94.9796679999999,0
			29.7093180000002,-94.980202,0
			29.7094520000001,-94.9805449999999,0
			29.7093200000002,-94.9810559999999,0
			29.7094960000002,-94.9820019999999,0
			29.709572,-94.982941,0
			29.7097230000001,-94.98333,0
			29.7094100000002,-94.9841309999999,0
			29.7091670000001,-94.9850009999999,0
			29.7091670000001,-94.9852749999999,0
			29.7094440000001,-94.985558,0
			29.7091670000001,-94.9858319999999,0
			29.7091670000001,-94.986115,0
			29.7087020000002,-94.986946,0
			29.7085480000001,-94.987244,0
			29.7086110000001,-94.9875029999999,0
			29.7086110000001,-94.9883349999999,0
			29.708887,-94.9886089999999,0
			29.708887,-94.988892,0
			29.7088510000001,-94.9889679999999,0
			29.7087550000001,-94.9891659999999,0
			29.7086110000001,-94.9891659999999,0
			29.7077790000002,-94.9899979999999,0
			29.7077790000002,-94.9908369999999,0
			29.7080550000001,-94.991112,0
			29.7080550000001,-94.9916689999999,0
			29.7082120000001,-94.99189,0
			29.708767,-94.992447,0
			29.708767,-94.993279,0
			29.7082120000001,-94.9938349999999,0
			29.7082120000001,-94.99411,0
			29.7079330000001,-94.9943849999999,0
			29.707655,-94.9946669999999,0
			29.707655,-94.994942,0
			29.7073780000001,-94.995224,0
			29.7073780000001,-94.9963299999999,0
			29.7083340000001,-94.997223,0
			29.7080550000001,-94.9974979999999,0
			29.7080550000001,-94.998055,0
			29.7083340000001,-94.9983369999999,0
			29.7094440000001,-94.9983369999999,0
			29.7097230000001,-94.998611,0
			29.7105560000001,-94.99778,0
			29.7108330000001,-94.99778,0
			29.7108330000001,-94.9974979999999,0
			29.7111090000002,-94.997223,0
			29.7108330000001,-94.996948,0
			29.7108330000001,-94.9966659999999,0
			29.7102780000002,-94.996109,0
			29.7102780000002,-94.9958339999999,0
			29.7115460000001,-94.9951399999999,0
			29.7126540000002,-94.995781,0
			29.7127780000001,-94.996109,0
			29.713331,-94.9966659999999,0
			29.713331,-94.996948,0
			29.7127780000001,-94.9974979999999,0
			29.7127780000001,-94.998055,0
			29.7125,-94.998055,0
			29.7112670000001,-94.998276,0
			29.7111090000002,-94.9999999999999,0
			29.7108330000001,-95.000557,0
			29.7105560000001,-95.0008319999999,0
			29.7105560000001,-95.001389,0
			29.7108330000001,-95.00222,0
			29.7113900000002,-95.002777,0
			29.7111090000002,-95.0044479999999,0
			29.7105560000001,-95.0049969999999,0
			29.7091670000001,-95.006943,0
			29.7086110000001,-95.0086139999999,0
			29.7086110000001,-95.009445,0
			29.7083340000001,-95.00972,0
			29.7083340000001,-95.0100019999999,0
			29.7075,-95.0108339999999,0
			29.7075,-95.011108,0
			29.7069440000002,-95.0116649999999,0
			29.7069440000002,-95.0119479999999,0
			29.706669,-95.012222,0
			29.706669,-95.0124969999999,0
			29.706388,-95.0127789999999,0
			29.706388,-95.013054,0
			29.7052780000002,-95.0141679999999,0
			29.7050000000001,-95.0141679999999,0
			29.7047210000001,-95.014442,0
			29.7047210000001,-95.015274,0
			29.7044470000002,-95.0155559999999,0
			29.7044470000002,-95.0158309999999,0
			29.7047210000001,-95.0161129999999,0
			29.7069440000002,-95.0161129999999,0
			29.7072220000001,-95.0158309999999,0
			29.7075,-95.0158309999999,0
			29.7094440000001,-95.013885,0
			29.7094440000001,-95.0133359999999,0
			29.7097230000001,-95.013054,0
			29.7097230000001,-95.0127789999999,0
			29.7102780000002,-95.012222,0
			29.7102780000002,-95.0119479999999,0
			29.7108330000001,-95.0113909999999,0
			29.7108330000001,-95.011108,0
			29.7119450000001,-95.008888,0
			29.7119450000001,-95.0066679999999,0
			29.712221,-95.006386,0
			29.712221,-95.006111,0
			29.7125,-95.0058359999999,0
			29.7125,-95.00528,0
			29.7127780000001,-95.0049969999999,0
			29.7127780000001,-95.004723,0
			29.7130550000001,-95.0044479999999,0
			29.7130550000001,-95.0041659999999,0
			29.713331,-95.003891,0
			29.713331,-95.003609,0
			29.7136140000002,-95.0033339999999,0
			29.7137930000001,-95.0031739999999,0
			29.7146470000002,-95.001518,0
			29.7149140000001,-95.0005799999999,0
			29.715639,-95.000282,0
			29.7161290000001,-95.000397,0
			29.7163890000001,-95.001114,0
			29.7172220000001,-95.001389,0
			29.7180580000002,-95.001945,0
			29.7186850000002,-95.002518,0
			29.7191180000001,-95.0029749999999,0
			29.7195850000001,-95.003395,0
			29.7199750000001,-95.0038829999999,0
			29.720289,-95.0044479999999,0
			29.7206060000001,-95.0050199999999,0
			29.7208820000001,-95.0056229999999,0
			29.7211300000001,-95.006233,0
			29.721397,-95.0068279999999,0
			29.7215370000001,-95.008682,0
			29.7216990000002,-95.0108799999999,0
			29.721889,-95.0112149999999,0
			29.7219410000001,-95.0115969999999,0
			29.721966,-95.0119779999999,0
			29.722052,-95.012344,0
			29.722183,-95.012772,0
			29.7222250000002,-95.013222,0
			29.7222190000002,-95.0136259999999,0
			29.7220920000001,-95.013969,0
			29.7215610000001,-95.0141979999999,0
			29.7211110000002,-95.014442,0
			29.7208330000001,-95.0141679999999,0
			29.7202780000002,-95.0141679999999,0
			29.719999,-95.014442,0
			29.7197230000001,-95.014442,0
			29.7194440000001,-95.0147249999999,0
			29.7194440000001,-95.015274,0
			29.7188890000002,-95.0158309999999,0
			29.7188890000002,-95.0163879999999,0
			29.7180580000002,-95.01722,0
			29.7175010000001,-95.01722,0
			29.7172220000001,-95.0175019999999,0
			29.715553,-95.0175019999999,0
			29.7152790000001,-95.01722,0
			29.7141670000001,-95.01722,0
			29.7138880000001,-95.0169449999999,0
			29.7136140000002,-95.0169449999999,0
			29.7127780000001,-95.0161129999999,0
			29.7125,-95.0161129999999,0
			29.712221,-95.0158309999999,0
			29.7116660000001,-95.0158309999999,0
			29.7102780000002,-95.01722,0
			29.709999,-95.01722,0
			29.7097230000001,-95.0175019999999,0
			29.708887,-95.0175019999999,0
			29.7086110000001,-95.0177759999999,0
			29.7086110000001,-95.0180589999998,0
			29.7091670000001,-95.018608,0
			29.709999,-95.018608,0
			29.7102780000002,-95.0188899999999,0
			29.7108330000001,-95.0188899999999,0
			29.7111090000002,-95.0191649999999,0
			29.7113900000002,-95.0191649999999,0
			29.7116660000001,-95.0194469999999,0
			29.7125,-95.0194469999999,0
			29.7127780000001,-95.0191649999999,0
			29.713331,-95.0191649999999,0
			29.7136140000002,-95.0194469999999,0
			29.7141670000001,-95.0194469999999,0
			29.7144430000002,-95.0191649999999,0
			29.715553,-95.0191649999999,0
			29.715836,-95.0188899999999,0
			29.7161100000001,-95.0188899999999,0
			29.7163890000001,-95.0191649999999,0
			29.7177770000002,-95.0191649999999,0
			29.7180580000002,-95.0188899999999,0
			29.7183340000001,-95.0188899999999,0
			29.7186110000001,-95.018608,0
			29.7194440000001,-95.018608,0
			29.721661,-95.018837,0
			29.7222400000002,-95.0192109999999,0
			29.722771,-95.0196149999999,0
			29.7232610000001,-95.0200419999999,0
			29.7237150000001,-95.0204849999999,0
			29.724209,-95.020813,0
			29.7247180000002,-95.021103,0
			29.7252220000001,-95.021385,0
			29.725742,-95.021629,0
			29.7263070000002,-95.02182,0
			29.7267930000001,-95.0220869999999,0
			29.7270370000001,-95.022545,0
			29.7273580000002,-95.022888,0
			29.7277830000001,-95.023087,0
			29.7282220000002,-95.023293,0
			29.7286380000002,-95.0232769999999,0
			29.7289750000002,-95.023087,0
			29.7293470000002,-95.022972,0
			29.72966,-95.0227739999999,0
			29.7299900000001,-95.022636,0
			29.730556,-95.0229799999998,0
			29.7311250000001,-95.023193,0
			29.7316340000001,-95.023048,0
			29.7321000000001,-95.022888,0
			29.732512,-95.0231169999999,0
			29.732763,-95.023628,0
			29.7328680000001,-95.0242229999999,0
			29.7327460000001,-95.0247879999999,0
			29.7327460000001,-95.025337,0
			29.733166,-95.0257869999999,0
			29.733725,-95.026146,0
			29.7342490000001,-95.026558,0
			29.7345910000001,-95.0270689999999,0
			29.7350860000001,-95.0274889999999,0
			29.7357220000001,-95.027634,0
			29.7363990000002,-95.027596,0
			29.7370760000001,-95.0276869999998,0
			29.737759,-95.0276029999999,0
			29.7384280000002,-95.02755,0
			29.7390670000001,-95.0276179999999,0
			29.7396340000001,-95.027756,0
			29.7401770000001,-95.027885,0
			29.7407190000002,-95.028015,0
			29.7412550000001,-95.0281139999999,0
			29.741653,-95.028336,0
			29.7419890000001,-95.028603,0
			29.7423400000002,-95.0288389999999,0
			29.74275,-95.029015,0
			29.7432440000001,-95.029167,0
			29.743753,-95.0293119999999,0
			29.744244,-95.029465,0
			29.7446840000002,-95.029671,0
			29.7451190000001,-95.0298539999999,0
			29.7454890000001,-95.030052,0
			29.7458100000001,-95.030312,0
			29.7460900000002,-95.0306089999999,0
			29.7462830000001,-95.0310359999999,0
			29.7465060000001,-95.0315319999999,0
			29.7468220000001,-95.031929,0
			29.7471680000002,-95.032295,0
			29.747484,-95.032677,0
			29.7477950000002,-95.033043,0
			29.7481560000001,-95.0333709999999,0
			29.7485030000001,-95.0336989999999,0
			29.7487580000001,-95.0341189999999,0
			29.7490390000001,-95.034508,0
			29.7492430000001,-95.034958,0
			29.7494620000001,-95.035385,0
			29.7497200000001,-95.0357819999999,0
			29.749966,-95.036171,0
			29.7501660000001,-95.036583,0
			29.7502610000001,-95.037033,0
			29.7502780000001,-95.037506,0
			29.7502780000001,-95.037971,0
			29.750277,-95.0384289999998,0
			29.750254,-95.038872,0
			29.75017,-95.039284,0
			29.750071,-95.0396879999999,0
			29.7499730000001,-95.0400699999999,0
			29.7499010000002,-95.0404359999999,0
			29.7500650000001,-95.040833,0
			29.7503600000001,-95.0412449999999,0
			29.7505040000001,-95.0417789999999,0
			29.7504480000001,-95.0424499999999,0
			29.7504560000001,-95.0431369999999,0
			29.750254,-95.0437319999999,0
			29.7497650000001,-95.0441439999999,0
			29.7492120000002,-95.044495,0
			29.7487220000002,-95.044907,0
			29.7483560000001,-95.0454099999999,0
			29.7480580000001,-95.045959,0
			29.747778,-95.046509,0
			29.74749,-95.047043,0
			29.7471680000002,-95.047546,0
			29.746784,-95.048004,0
			29.7463950000002,-95.0484539999999,0
			29.7461010000002,-95.0490569999999,0
			29.7458320000001,-95.0496979999999,0
			29.7455830000001,-95.0503539999999,0
			29.745378,-95.0510249999999,0
			29.7452160000001,-95.051704,0
			29.7451040000001,-95.0523529999999,0
			29.7452220000001,-95.0529709999999,0
			29.7457390000001,-95.0533909999999,0
			29.7464330000001,-95.0536119999999,0
			29.7471680000002,-95.0537719999999,0
			29.7478690000001,-95.053917,0
			29.7485410000001,-95.054031,0
			29.7491510000001,-95.0538789999998,0
			29.7497200000001,-95.0536119999999,0
			29.7502690000001,-95.0533069999999,0
			29.7507650000001,-95.0529399999999,0
			29.7512110000002,-95.0525209999999,0
			29.7516500000001,-95.0520939999999,0
			29.7520560000002,-95.051636,0
			29.7524590000001,-95.0511779999999,0
			29.7529220000002,-95.050842,0
			29.7534200000002,-95.050552,0
			29.753944,-95.0503079999999,0
			29.754442,-95.0502779999999,0
			29.7547250000002,-95.0500029999999,0
			29.7555540000002,-95.0500029999999,0
			29.7558350000002,-95.049721,0
			29.7561110000001,-95.049721,0
			29.7561110000001,-95.0502779999999,0
			29.7566640000002,-95.0508349999999,0
			29.7566640000002,-95.0511089999999,0
			29.7569470000001,-95.0513919999999,0
			29.7569470000001,-95.051666,0
			29.7572230000001,-95.0519409999999,0
			29.7572230000001,-95.0522229999999,0
			29.7580570000002,-95.0530549999999,0
			29.7580570000002,-95.0533369999998,0
			29.7583330000001,-95.0536119999999,0
			29.7583330000001,-95.053886,0
			29.7580570000002,-95.0541689999999,0
			29.7580570000002,-95.0549999999999,0
			29.7583330000001,-95.0552749999999,0
			29.7586120000001,-95.0552749999999,0
			29.7586120000001,-95.0555569999999,0
			29.7588880000002,-95.055832,0
			29.7588880000002,-95.056114,0
			29.7594450000001,-95.056664,0
			29.7597220000001,-95.056664,0
			29.7600000000002,-95.0569459999999,0
			29.7605550000001,-95.0569459999999,0
			29.760834,-95.056664,0
			29.760834,-95.056114,0
			29.7605550000001,-95.055832,0
			29.7605550000001,-95.0549999999999,0
			29.7602790000001,-95.0547259999999,0
			29.7602790000001,-95.053886,0
			29.7600000000002,-95.0536119999999,0
			29.7600000000002,-95.0533369999998,0
			29.7591670000002,-95.052498,0
			29.7591670000002,-95.0522229999999,0
			29.7588880000002,-95.0522229999999,0
			29.7586120000001,-95.0519409999999,0
			29.7586120000001,-95.0511089999999,0
			29.7583330000001,-95.0508349999999,0
			29.7583330000001,-95.050552,0
			29.7580570000002,-95.0502779999999,0
			29.7580570000002,-95.049721,0
			29.7583330000001,-95.0494459999999,0
			29.7583330000001,-95.049164,0
			29.757778,-95.0486149999999,0
			29.757778,-95.0480579999999,0
			29.7580390000001,-95.0477369999999,0
			29.7581830000001,-95.0473939999999,0
			29.758371,-95.047028,0
			29.7585950000001,-95.0466459999999,0
			29.7587970000001,-95.0462269999999,0
			29.7590350000001,-95.045784,0
			29.7592490000002,-95.0452729999999,0
			29.7594780000001,-95.0447389999999,0
			29.7597310000001,-95.0441889999999,0
			29.7599980000002,-95.0436479999999,0
			29.760273,-95.0431819999999,0
			29.760567,-95.0430599999999,0
			29.7608600000001,-95.0430449999999,0
			29.7611580000001,-95.043098,0
			29.761471,-95.043373,0
			29.761864,-95.04364,0
			29.7622410000001,-95.0439679999998,0
			29.7626570000001,-95.0442729999999,0
			29.7632120000002,-95.0443189999999,0
			29.7637980000002,-95.044167,0
			29.7643830000001,-95.0439379999999,0
			29.7649630000001,-95.0436479999999,0
			29.7655430000002,-95.0433429999999,0
			29.7661480000001,-95.0430679999999,0
			29.766787,-95.042839,0
			29.7674710000002,-95.042671,0
			29.7681450000001,-95.0424799999999,0
			29.7687970000001,-95.042267,0
			29.7694450000001,-95.04213,0
			29.7700610000001,-95.0420679999999,0
			29.770559,-95.0422359999999,0
			29.7710090000002,-95.042496,0
			29.771465,-95.0427779999999,0
			29.771946,-95.0430449999999,0
			29.7724720000001,-95.043259,0
			29.7730980000001,-95.043335,0
			29.7737350000001,-95.0434109999999,0
			29.774342,-95.0435709999999,0
			29.7749610000001,-95.043663,0
			29.775452,-95.043915,0
			29.7758880000001,-95.0442349999999,0
			29.776283,-95.0446239999999,0
			29.7766550000001,-95.0450289999999,0
			29.7769990000002,-95.045464,0
			29.7773760000001,-95.045876,0
			29.7777,-95.046326,0
			29.7779870000002,-95.046745,0
			29.7782330000001,-95.047173,0
			29.7785590000001,-95.0475229999999,0
			29.7789080000002,-95.0478589999999,0
			29.7792490000002,-95.0482029999999,0
			29.7794440000001,-95.0487439999999,0
			29.779608,-95.0493089999999,0
			29.779791,-95.0497739999999,0
			29.7796610000001,-95.050125,0
			29.779522,-95.0505449999999,0
			29.7794610000001,-95.051048,0
			29.7794460000001,-95.0515819999999,0
			29.7794530000002,-95.052124,0
			29.7795140000001,-95.052673,0
			29.7796760000001,-95.0531919999999,0
			29.7798040000001,-95.053711,0
			29.7799890000001,-95.0541689999999,0
			29.780149,-95.054626,0
			29.7801860000001,-95.0550989999999,0
			29.780016,-95.0555569999999,0
			29.779795,-95.0559839999999,0
			29.779497,-95.0563509999999,0
			29.7792380000001,-95.0567399999999,0
			29.7791160000002,-95.057205,0
			29.7788960000001,-95.057655,0
			29.7786850000001,-95.0580979999999,0
			29.778515,-95.0585629999999,0
			29.7783640000001,-95.059029,0
			29.7782420000001,-95.059502,0
			29.7780510000002,-95.059906,0
			29.7779180000002,-95.060326,0
			29.7781490000001,-95.0609049999999,0
			29.7782920000002,-95.061546,0
			29.7783700000001,-95.062172,0
			29.7785050000001,-95.062752,0
			29.7787530000002,-95.063362,0
			29.779196,-95.0639269999999,0
			29.7794930000001,-95.0640559999999,0
			29.779705,-95.0639339999999,0
			29.7799550000001,-95.063789,0
			29.7801930000001,-95.0635829999998,0
			29.7804370000001,-95.063339,0
			29.78072,-95.0631409999999,0
			29.781075,-95.0630869999999,0
			29.7814660000001,-95.063194,0
			29.781841,-95.0635149999999,0
			29.782202,-95.0639419999999,0
			29.7824900000001,-95.0644379999999,0
			29.7827780000001,-95.0650019999999,0
			29.783056,-95.065277,0
			29.783056,-95.0655519999999,0
			29.7833350000002,-95.0658339999999,0
			29.7836110000001,-95.0658339999999,0
			29.7850000000001,-95.064445,0
			29.7850000000001,-95.064163,0
			29.7852780000002,-95.0638889999999,0
			29.7852780000002,-95.063614,0
			29.7850000000001,-95.0633319999999,0
			29.7850000000001,-95.0630569999999,0
			29.7847210000001,-95.0627749999999,0
			29.7847210000001,-95.0622249999999,0
			29.7844470000002,-95.0619429999999,0
			29.7844470000002,-95.0616679999998,0
			29.7847210000001,-95.0613859999999,0
			29.7852780000002,-95.0613859999999,0
			29.785557,-95.0611109999999,0
			29.7861120000001,-95.0611109999999,0
			29.7866690000002,-95.0616679999998,0
			29.7866690000002,-95.0624999999998,0
			29.7872220000001,-95.0630569999999,0
			29.7875000000002,-95.0627749999999,0
			29.7877790000002,-95.0627749999999,0
			29.7886100000002,-95.0619429999999,0
			29.7886100000002,-95.0616679999998,0
			29.788889,-95.0613859999999,0
			29.788889,-95.0611109999999,0
			29.7891670000001,-95.0608369999999,0
			29.7891670000001,-95.0605549999999,0
			29.7894440000001,-95.06028,0
			29.789722,-95.06028,0
			29.7900010000002,-95.0605549999999,0
			29.7900010000002,-95.0608369999999,0
			29.7905560000001,-95.0613859999999,0
			29.7916660000001,-95.0613859999999,0
			29.7927780000001,-95.06028,0
			29.7927780000001,-95.0591659999999,0
			29.793056,-95.0588909999999,0
			29.793056,-95.0586089999999,0
			29.7938880000001,-95.0577769999999,0
			29.7938880000001,-95.0575029999998,0
			29.7941670000001,-95.0575029999998,0
			29.794722,-95.0569459999999,0
			29.7950000000001,-95.0569459999999,0
			29.7952790000001,-95.056664,0
			29.7958350000001,-95.056664,0
			29.7961120000001,-95.0563889999999,0
			29.7963890000001,-95.0563889999999,0
			29.7966670000002,-95.056664,0
			29.7975010000001,-95.056664,0
			29.7980560000001,-95.0572199999999,0
			29.7980560000001,-95.0575029999998,0
			29.7983340000001,-95.0575029999998,0
			29.7988890000001,-95.0580519999999,0
			29.7999990000002,-95.0580519999999,0
			29.7999990000002,-95.0577769999999,0
			29.8002780000002,-95.0575029999998,0
			29.8005560000001,-95.0575029999998,0
			29.8011110000002,-95.0580519999999,0
			29.8008330000001,-95.0583339999999,0
			29.8011110000002,-95.0586089999999,0
			29.8013900000001,-95.0586089999999,0
			29.8016660000001,-95.0588909999999,0
			29.801945,-95.0588909999999,0
			29.8022210000001,-95.0591659999999,0
			29.8025000000002,-95.0591659999999,0
			29.802778,-95.059448,0
			29.8030550000001,-95.059448,0
			29.8036120000002,-95.059998,0
			29.8036120000002,-95.06028,0
			29.8044450000002,-95.0611109999999,0
			29.8044450000002,-95.0613859999999,0
			29.8050000000001,-95.0619429999999,0
			29.8055550000001,-95.0624999999998,0
			29.8055550000001,-95.0627749999999,0
			29.8063890000001,-95.063614,0
			29.8063890000001,-95.064163,0
			29.8075030000001,-95.065277,0
			29.8075030000001,-95.0655519999999,0
			29.8077770000002,-95.0658339999999,0
			29.8080560000001,-95.0658339999999,0
			29.8083320000001,-95.0661089999999,0
			29.8102780000002,-95.0661089999999,0
			29.810556,-95.0663909999999,0
			29.8113860000001,-95.0663909999999,0
			29.8116660000001,-95.0666659999998,0
			29.812222,-95.0666659999998,0
			29.8125000000001,-95.066948,0
			29.812778,-95.066948,0
			29.8133340000001,-95.0674969999999,0
			29.8133340000001,-95.0680539999999,0
			29.8136120000001,-95.068336,0
			29.8136120000001,-95.071945,0
			29.8133340000001,-95.0722199999999,0
			29.8136120000001,-95.072502,0
			29.8136120000001,-95.072777,0
			29.8133340000001,-95.0730589999999,0
			29.8133340000001,-95.073608,0
			29.8136120000001,-95.0738909999999,0
			29.8133340000001,-95.0741649999999,0
			29.8133340000001,-95.074448,0
			29.812778,-95.0749969999999,0
			29.812778,-95.075279,0
			29.8138890000001,-95.075279,0
			29.814444,-95.075836,0
			29.814444,-95.0763849999999,0
			29.8133340000001,-95.077499,0
			29.813057,-95.077499,0
			29.8125000000001,-95.076942,0
			29.812222,-95.076942,0
			29.811947,-95.0772249999999,0
			29.8116660000001,-95.0772249999999,0
			29.8113860000001,-95.076942,0
			29.8108350000001,-95.077499,0
			29.8108350000001,-95.077774,0
			29.810556,-95.0780559999999,0
			29.810556,-95.079445,0
			29.8102780000002,-95.0797199999999,0
			29.8102780000002,-95.0800019999999,0
			29.8099990000001,-95.080276,0
			29.8099990000001,-95.0805589999999,0
			29.8094430000002,-95.0805589999999,0
			29.8088890000001,-95.081108,0
			29.808611,-95.081108,0
			29.8080560000001,-95.081665,0
			29.8080560000001,-95.081947,0
			29.8083320000001,-95.0822219999999,0
			29.8083320000001,-95.082497,0
			29.808611,-95.082779,0
			29.8094430000002,-95.082779,0
			29.809725,-95.082497,0
			29.8099990000001,-95.082497,0
			29.8102780000002,-95.082779,0
			29.810556,-95.082497,0
			29.8111110000002,-95.082497,0
			29.8113860000001,-95.0822219999999,0
			29.8116660000001,-95.0822219999999,0
			29.811947,-95.081947,0
			29.812222,-95.081947,0
			29.8133340000001,-95.080833,0
			29.814169,-95.080833,0
			29.814444,-95.081108,0
			29.8147220000001,-95.081108,0
			29.815277,-95.081665,0
			29.815277,-95.081947,0
			29.815556,-95.0822219999999,0
			29.816389,-95.0822219999999,0
			29.816668,-95.081947,0
			29.816668,-95.081665,0
			29.816389,-95.0813899999999,0
			29.816389,-95.081108,0
			29.818609,-95.0788879999999,0
			29.819721,-95.077774,0
			29.8202780000001,-95.078331,0
			29.8205550000001,-95.078331,0
			29.8208310000001,-95.0780559999999,0
			29.8211140000002,-95.0780559999999,0
			29.8213880000001,-95.077774,0
			29.8216670000001,-95.077774,0
			29.821943,-95.077499,0
			29.8222220000002,-95.077499,0
			29.8225000000001,-95.077774,0
			29.8225000000001,-95.0780559999999,0
			29.8227790000001,-95.078331,0
			29.8227790000001,-95.0788879999999,0
			29.823053,-95.0791699999999,0
			29.8228610000002,-95.0805589999999,0
			29.8225820000001,-95.08091,0
			29.8213880000001,-95.080833,0
			29.8211140000002,-95.0805589999999,0
			29.8208310000001,-95.0805589999999,0
			29.8205550000001,-95.080833,0
			29.8200000000001,-95.080833,0
			29.819721,-95.081108,0
			29.8191660000001,-95.081108,0
			29.8188900000002,-95.0813899999999,0
			29.8188900000002,-95.081665,0
			29.818609,-95.081947,0
			29.8188900000002,-95.0822219999999,0
			29.8188900000002,-95.082779,0
			29.8191660000001,-95.0830539999999,0
			29.8191660000001,-95.0833359999999,0
			29.819721,-95.0838849999999,0
			29.8202780000001,-95.0833359999999,0
			29.8202780000001,-95.0830539999999,0
			29.8208310000001,-95.082497,0
			29.8213880000001,-95.082497,0
			29.8216670000001,-95.0822219999999,0
			29.8227790000001,-95.0822219999999,0
			29.823053,-95.082497,0
			29.8236100000001,-95.082497,0
			29.8238890000001,-95.082779,0
			29.824167,-95.082779,0
			29.824167,-95.0830539999999,0
			29.8238890000001,-95.0833359999999,0
			29.8238890000001,-95.083611,0
			29.823336,-95.0841669999999,0
			29.823336,-95.084442,0
			29.8236100000001,-95.084442,0
			29.8236100000001,-95.084999,0
			29.823336,-95.085281,0
			29.823336,-95.085831,0
			29.8227790000001,-95.0863879999999,0
			29.8222220000002,-95.0863879999999,0
			29.821943,-95.0866699999999,0
			29.8216380000002,-95.0871659999999,0
			29.8221570000002,-95.0876459999999,0
			29.8227790000001,-95.0880579999999,0
			29.823336,-95.0880579999999,0
			29.8236100000001,-95.0883329999999,0
			29.8238890000001,-95.0883329999999,0
			29.824167,-95.088608,0
			29.824446,-95.088608,0
			29.8247220000001,-95.0888899999999,0
			29.8247220000001,-95.089447,0
			29.824446,-95.0897219999999,0
			29.824446,-95.089996,0
			29.824167,-95.090279,0
			29.824167,-95.0905529999999,0
			29.8238890000001,-95.0905529999999,0
			29.8236100000001,-95.0908359999999,0
			29.823053,-95.0908359999999,0
			29.8225000000001,-95.090279,0
			29.8225000000001,-95.0897219999999,0
			29.8222220000002,-95.089447,0
			29.8222220000002,-95.0891649999999,0
			29.8216670000001,-95.088608,0
			29.8216670000001,-95.0883329999999,0
			29.8205550000001,-95.0872189999999,0
			29.8202780000001,-95.0872189999999,0
			29.8200000000001,-95.086945,0
			29.819721,-95.0872189999999,0
			29.819721,-95.087776,0
			29.8200000000001,-95.0880579999999,0
			29.8200000000001,-95.0883329999999,0
			29.8202780000001,-95.088608,0
			29.8202780000001,-95.0888899999999,0
			29.8208310000001,-95.089447,0
			29.8208310000001,-95.0905529999999,0
			29.8211140000002,-95.0908359999999,0
			29.8211140000002,-95.09111,0
			29.8213880000001,-95.091393,0
			29.8213880000001,-95.0924989999999,0
			29.821943,-95.0924989999999,0
			29.8238890000001,-95.094444,0
			29.8247220000001,-95.094444,0
			29.8250010000001,-95.0947189999999,0
			29.8250010000001,-95.0950009999999,0
			29.825277,-95.095276,0
			29.8247220000001,-95.0958329999999,0
			29.824167,-95.0958329999999,0
			29.8236100000001,-95.095276,0
			29.8227790000001,-95.095276,0
			29.8225000000001,-95.0950009999999,0
			29.8216670000001,-95.0950009999999,0
			29.8213880000001,-95.0947189999999,0
			29.8205550000001,-95.0947189999999,0
			29.8202780000001,-95.094444,0
			29.8191660000001,-95.094444,0
			29.817778,-95.0930559999999,0
			29.817778,-95.091942,0
			29.8180560000001,-95.0916669999999,0
			29.8180560000001,-95.091393,0
			29.8183330000001,-95.09111,0
			29.8183330000001,-95.090279,0
			29.817778,-95.0897219999999,0
			29.8174990000001,-95.0897219999999,0
			29.816668,-95.0905529999999,0
			29.816668,-95.0908359999999,0
			29.816389,-95.09111,0
			29.816389,-95.091393,0
			29.8161110000001,-95.0916669999999,0
			29.8161110000001,-95.0922239999999,0
			29.816389,-95.0924989999999,0
			29.816389,-95.0930559999999,0
			29.8161110000001,-95.0933299999999,0
			29.8161110000001,-95.0938869999999,0
			29.8158340000001,-95.0941699999999,0
			29.8158340000001,-95.0936129999998,0
			29.815556,-95.0933299999999,0
			29.815556,-95.0930559999999,0
			29.8150010000001,-95.0924989999999,0
			29.814169,-95.0933299999999,0
			29.814169,-95.0936129999998,0
			29.8138890000001,-95.0938869999999,0
			29.8138890000001,-95.0941699999999,0
			29.8133340000001,-95.0947189999999,0
			29.8133340000001,-95.0950009999999,0
			29.813057,-95.095276,0
			29.813057,-95.095558,0
			29.8125000000001,-95.096107,0
			29.811947,-95.096107,0
			29.8116660000001,-95.09639,0
			29.8113860000001,-95.09639,0
			29.8111110000002,-95.0966639999999,0
			29.810556,-95.0966639999999,0
			29.8102780000002,-95.09639,0
			29.8102780000002,-95.0958329999999,0
			29.8099990000001,-95.095558,0
			29.8091640000002,-95.095558,0
			29.808611,-95.096107,0
			29.8077770000002,-95.096107,0
			29.8075030000001,-95.0958329999999,0
			29.8072220000001,-95.0958329999999,0
			29.8069440000002,-95.095558,0
			29.80611,-95.095558,0
			29.8058340000001,-95.095276,0
			29.8055550000001,-95.095276,0
			29.805277,-95.0950009999999,0
			29.8047220000001,-95.0950009999999,0
			29.8044450000002,-95.0947189999999,0
			29.8041670000001,-95.0950009999999,0
			29.8038880000001,-95.0950009999999,0
			29.8038880000001,-95.0947189999999,0
			29.8036120000002,-95.094444,0
			29.8033330000002,-95.094444,0
			29.8030550000001,-95.0941699999999,0
			29.802778,-95.0941699999999,0
			29.8002780000002,-95.0916669999999,0
			29.7999990000002,-95.0916669999999,0
			29.7997230000001,-95.091393,0
			29.7992670000002,-95.0906299999999,0
			29.7988890000001,-95.0897219999999,0
			29.7988890000001,-95.089447,0
			29.7986110000001,-95.0891649999999,0
			29.7986110000001,-95.0888899999999,0
			29.7983340000001,-95.088608,0
			29.7983340000001,-95.0880579999999,0
			29.7980560000001,-95.087776,0
			29.7980560000001,-95.0872189999999,0
			29.7977750000002,-95.086945,0
			29.7977750000002,-95.0863879999999,0
			29.7976670000001,-95.085449,0
			29.7980560000001,-95.084442,0
			29.7980730000002,-95.0840909999999,0
			29.798269,-95.0838849999999,0
			29.7983040000001,-95.0832599999999,0
			29.7983040000001,-95.082779,0
			29.7986110000001,-95.082497,0
			29.7986110000001,-95.081665,0
			29.7988890000001,-95.0813899999999,0
			29.7988890000001,-95.0800019999999,0
			29.7989250000001,-95.0795209999999,0
			29.7989250000001,-95.0791699999999,0
			29.7988890000001,-95.078613,0
			29.7988890000001,-95.078331,0
			29.7986110000001,-95.0780559999999,0
			29.7986110000001,-95.077774,0
			29.7983340000001,-95.077499,0
			29.7983340000001,-95.0755539999999,0
			29.7986110000001,-95.075279,0
			29.7988890000001,-95.075279,0
			29.7991680000002,-95.0749969999999,0
			29.7994440000001,-95.0749969999999,0
			29.7997230000001,-95.0747219999999,0
			29.7999990000002,-95.0747219999999,0
			29.8004260000001,-95.074448,0
			29.8005090000001,-95.0741649999999,0
			29.7997230000001,-95.073479,0
			29.7991680000002,-95.0738909999999,0
			29.7983800000001,-95.0742569999999,0
			29.7979720000001,-95.0743869999999,0
			29.7977750000002,-95.074448,0
			29.7975010000001,-95.0741649999999,0
			29.7975010000001,-95.073334,0
			29.7977750000002,-95.0730589999999,0
			29.7977750000002,-95.072502,0
			29.7980560000001,-95.0722199999999,0
			29.7980560000001,-95.0716629999998,0
			29.7977750000002,-95.0713879999999,0
			29.7977750000002,-95.071114,0
			29.7980560000001,-95.071114,0
			29.7983340000001,-95.0713879999999,0
			29.7986110000001,-95.071114,0
			29.7986110000001,-95.0708309999998,0
			29.7983340000001,-95.0705569999999,0
			29.7983340000001,-95.069443,0
			29.7986110000001,-95.069168,0
			29.7986110000001,-95.068336,0
			29.7983340000001,-95.0680539999999,0
			29.7983340000001,-95.0672229999999,0
			29.7980560000001,-95.066948,0
			29.7983340000001,-95.0666659999998,0
			29.7983340000001,-95.0658339999999,0
			29.7977750000002,-95.065277,0
			29.7975010000001,-95.0655519999999,0
			29.7969460000002,-95.0655519999999,0
			29.7963890000001,-95.0661089999999,0
			29.795553,-95.0661089999999,0
			29.7952790000001,-95.0658339999999,0
			29.7952790000001,-95.0655519999999,0
			29.794722,-95.0650019999999,0
			29.794722,-95.064445,0
			29.7958350000001,-95.0633319999999,0
			29.7958350000001,-95.0627749999999,0
			29.795553,-95.0624999999998,0
			29.7950000000001,-95.0624999999998,0
			29.794722,-95.0627749999999,0
			29.7944430000002,-95.0627749999999,0
			29.7941670000001,-95.0624999999998,0
			29.7938880000001,-95.0624999999998,0
			29.793331,-95.0619429999999,0
			29.793331,-95.0616679999998,0
			29.793056,-95.0613859999999,0
			29.792221,-95.0622249999999,0
			29.7919450000001,-95.0622249999999,0
			29.7913890000001,-95.0627749999999,0
			29.7908330000001,-95.0627749999999,0
			29.7891670000001,-95.064445,0
			29.788889,-95.064445,0
			29.7886100000002,-95.0647199999999,0
			29.7886100000002,-95.0650019999999,0
			29.7880550000001,-95.0650019999999,0
			29.7861120000001,-95.066948,0
			29.7861120000001,-95.0672229999999,0
			29.786388,-95.0672229999999,0
			29.7866690000002,-95.0674969999999,0
			29.7866690000002,-95.06778,0
			29.7869450000001,-95.0680539999999,0
			29.7869450000001,-95.068336,0
			29.7880550000001,-95.069443,0
			29.7880550000001,-95.0697249999999,0
			29.7883340000001,-95.0699999999999,0
			29.7883340000001,-95.0702739999999,0
			29.7891670000001,-95.071114,0
			29.7891670000001,-95.0713879999999,0
			29.7894440000001,-95.0716629999998,0
			29.7905560000001,-95.0716629999998,0
			29.7905560000001,-95.071945,0
			29.7908330000001,-95.0722199999999,0
			29.7908330000001,-95.072502,0
			29.7911090000002,-95.072777,0
			29.7911090000002,-95.0730589999999,0
			29.7908330000001,-95.073334,0
			29.7908330000001,-95.073608,0
			29.7905560000001,-95.0738909999999,0
			29.7908330000001,-95.0741649999999,0
			29.7905560000001,-95.074448,0
			29.7913890000001,-95.075279,0
			29.7908330000001,-95.075836,0
			29.7905560000001,-95.075836,0
			29.7902770000001,-95.076111,0
			29.789722,-95.076111,0
			29.7891670000001,-95.076668,0
			29.788889,-95.076668,0
			29.7886100000002,-95.076942,0
			29.78867,-95.077072,0
			29.7886240000001,-95.077354,0
			29.7886180000002,-95.0776749999999,0
			29.788668,-95.0780179999999,0
			29.7888470000001,-95.078316,0
			29.7889980000002,-95.0786359999999,0
			29.7890760000002,-95.0789719999999,0
			29.7889440000001,-95.0793379999999,0
			29.7886540000001,-95.079697,0
			29.788359,-95.0801089999999,0
			29.7880970000001,-95.080566,0
			29.7879310000001,-95.0810929999999,0
			29.787745,-95.081619,0
			29.787468,-95.082115,0
			29.7871280000002,-95.082565,0
			29.7867850000002,-95.082977,0
			29.786779,-95.0834119999998,0
			29.7869700000001,-95.083855,0
			29.7868060000001,-95.084396,0
			29.7864380000001,-95.084862,0
			29.7859100000001,-95.0852199999999,0
			29.7854860000002,-95.085686,0
			29.7853430000001,-95.086243,0
			29.7854080000001,-95.086853,0
			29.7856120000001,-95.0874179999999,0
			29.7857820000002,-95.0879669999999,0
			29.7857950000002,-95.088516,0
			29.785686,-95.0890499999999,0
			29.7855720000002,-95.089569,0
			29.785465,-95.090073,0
			29.7852570000001,-95.0904619999999,0
			29.785025,-95.0908359999999,0
			29.7848570000002,-95.091263,0
			29.7847400000001,-95.0917429999999,0
			29.7846930000001,-95.0922549999999,0
			29.7846280000001,-95.092743,0
			29.7847560000002,-95.093147,0
			29.7849920000002,-95.093491,0
			29.7852060000001,-95.0938639999999,0
			29.785263,-95.0943759999999,0
			29.785233,-95.0949249999999,0
			29.7851140000001,-95.0954669999999,0
			29.785175,-95.0960689999998,0
			29.785044,-95.0966569999999,0
			29.784924,-95.0972599999999,0
			29.7847080000001,-95.0978239999999,0
			29.784456,-95.0983659999999,0
			29.7843070000001,-95.098923,0
			29.7841070000001,-95.099388,0
			29.783752,-95.0997159999999,0
			29.7833460000001,-95.0999979999999,0
			29.782904,-95.10022,0
			29.7823330000001,-95.1002809999999,0
			29.7817420000002,-95.1003269999999,0
			29.7811740000001,-95.100487,0
			29.7805750000001,-95.1005479999999,0
			29.7799820000001,-95.100609,0
			29.7794400000001,-95.1007999999999,0
			29.778913,-95.101028,0
			29.778423,-95.101303,0
			29.7779240000001,-95.10157,0
			29.7773550000001,-95.10173,0
			29.776798,-95.1018979999999,0
			29.7762280000001,-95.1019439999998,0
			29.7756540000001,-95.1019439999998,0
			29.7750840000002,-95.101906,0
			29.7745490000001,-95.1017839999999,0
			29.7739910000001,-95.101692,0
			29.7734220000002,-95.1016769999999,0
			29.7728630000001,-95.101715,0
			29.7723460000001,-95.1018679999999,0
			29.7717910000002,-95.1018979999999,0
			29.7712360000001,-95.101822,0
			29.7707210000001,-95.1018369999999,0
			29.7702600000002,-95.1020129999999,0
			29.7697810000001,-95.1021729999999,0
			29.7692550000002,-95.102188,0
			29.7687530000002,-95.1020429999999,0
			29.7683320000002,-95.1017379999998,0
			29.7679230000001,-95.1014019999998,0
			29.7677780000001,-95.1013869999999,0
			29.7669450000001,-95.100555,0
			29.7666660000002,-95.100555,0
			29.7663880000001,-95.1002809999999,0
			29.7661110000001,-95.1002809999999,0
			29.7658330000002,-95.0999979999999,0
			29.7655560000002,-95.0999979999999,0
			29.764071,-95.098923,0
			29.7635270000001,-95.098061,0
			29.7633340000002,-95.0969469999999,0
			29.7636110000001,-95.096107,0
			29.764166,-95.0936129999998,0
			29.7644440000001,-95.0930559999999,0
			29.7627770000001,-95.089996,0
			29.7625010000002,-95.090279,0
			29.7625010000002,-95.0905529999999,0
			29.7619440000001,-95.09111,0
			29.7619440000001,-95.0916669999999,0
			29.761667,-95.091942,0
			29.761667,-95.0927809999998,0
			29.7613890000002,-95.0930559999999,0
			29.7613890000002,-95.0933299999999,0
			29.7600000000002,-95.0947189999999,0
			29.7600000000002,-95.0950009999999,0
			29.7591670000002,-95.0958329999999,0
			29.7588880000002,-95.095558,0
			29.7586120000001,-95.095558,0
			29.757778,-95.0947189999999,0
			29.757778,-95.094444,0
			29.7575000000001,-95.0941699999999,0
			29.7575000000001,-95.0924989999999,0
			29.7586120000001,-95.091393,0
			29.7586120000001,-95.089996,0
			29.7591670000002,-95.089447,0
			29.7583330000001,-95.088608,0
			29.7583330000001,-95.0883329999999,0
			29.7580570000002,-95.0880579999999,0
			29.7580570000002,-95.087776,0
			29.7583330000001,-95.0875019999999,0
			29.7583330000001,-95.0872189999999,0
			29.7586120000001,-95.086945,0
			29.7586120000001,-95.0866699999999,0
			29.7597220000001,-95.0855559999999,0
			29.7597220000001,-95.084999,0
			29.7594450000001,-95.0847239999999,0
			29.7594450000001,-95.0833359999999,0
			29.7600000000002,-95.082779,0
			29.7602790000001,-95.082779,0
			29.7605550000001,-95.082497,0
			29.760834,-95.082497,0
			29.7611470000001,-95.082573,0
			29.7614570000001,-95.0823359999999,0
			29.761765,-95.0820919999999,0
			29.7619900000001,-95.081787,0
			29.7622150000001,-95.0815049999999,0
			29.7623810000002,-95.081184,0
			29.7623670000001,-95.0807649999999,0
			29.761986,-95.080238,0
			29.7613030000002,-95.0799639999999,0
			29.760565,-95.0796589999998,0
			29.7599050000001,-95.079193,0
			29.759464,-95.078522,0
			29.7590890000001,-95.07782,0
			29.7586400000001,-95.0772629999999,0
			29.7581960000001,-95.076736,0
			29.7578960000002,-95.0760879999999,0
			29.7576520000001,-95.0754239999999,0
			29.757465,-95.0747909999999,0
			29.7572170000001,-95.074211,0
			29.7569270000001,-95.0736689999999,0
			29.756565,-95.0731809999999,0
			29.7560920000001,-95.0727689999999,0
			29.7555770000001,-95.0723949999999,0
			29.7550870000001,-95.071991,0
			29.7546540000001,-95.0715029999999,0
			29.7541790000001,-95.07103,0
			29.7537160000002,-95.0705489999999,0
			29.7532390000001,-95.070076,0
			29.7526800000001,-95.0696719999999,0
			29.7520290000001,-95.0694119999999,0
			29.7513560000001,-95.069153,0
			29.750685,-95.0688709999999,0
			29.750013,-95.0685579999999,0
			29.7493360000001,-95.0682299999999,0
			29.7486480000001,-95.067871,0
			29.747995,-95.067444,0
			29.747454,-95.0669329999999,0
			29.7469460000001,-95.0664289999999,0
			29.7464310000001,-95.066086,0
			29.7461010000002,-95.066231,0
			29.7458020000001,-95.06649,0
			29.7454800000001,-95.0667569999999,0
			29.7451520000002,-95.067039,0
			29.7447470000001,-95.0672759999999,0
			29.7443220000001,-95.067505,0
			29.7438760000001,-95.067711,0
			29.743368,-95.0677719999999,0
			29.742836,-95.067787,0
			29.7422940000001,-95.06778,0
			29.7417580000002,-95.067749,0
			29.7412430000001,-95.0676119999999,0
			29.7407930000001,-95.0673449999999,0
			29.7405030000001,-95.0668559999999,0
			29.740322,-95.0662839999999,0
			29.7402110000001,-95.065689,0
			29.7399940000001,-95.065117,0
			29.7397460000001,-95.064552,0
			29.739534,-95.0639719999999,0
			29.7393490000002,-95.0633929999999,0
			29.7391220000001,-95.062843,0
			29.7388550000002,-95.062332,0
			29.7385220000002,-95.061874,0
			29.7381440000001,-95.0614699999999,0
			29.737778,-95.0610579999999,0
			29.7374800000001,-95.060593,0
			29.7371480000002,-95.0601579999999,0
			29.7367440000001,-95.059792,0
			29.736273,-95.0595629999999,0
			29.7357540000001,-95.059448,0
			29.7352520000001,-95.0593489999999,0
			29.7348290000001,-95.0592119999998,0
			29.7344380000001,-95.05909,0
			29.7341380000001,-95.058884,0
			29.7338890000001,-95.0586699999998,0
			29.733673,-95.0584639999998,0
			29.7335030000002,-95.058235,0
			29.7333370000001,-95.0580519999999,0
			29.7331710000001,-95.0579069999999,0
			29.7329200000001,-95.057831,0
			29.733055,-95.0575029999998,0
			29.7327790000001,-95.0572199999999,0
			29.7325000000001,-95.0569459999999,0
			29.7325000000001,-95.056664,0
			29.731947,-95.056114,0
			29.7311120000001,-95.056114,0
			29.7308330000001,-95.055832,0
			29.7302780000002,-95.055832,0
			29.7300000000001,-95.056114,0
			29.729725,-95.056114,0
			29.7294430000002,-95.0563889999999,0
			29.7294430000002,-95.056664,0
			29.7288890000002,-95.0572199999999,0
			29.7288890000002,-95.0577769999999,0
			29.7286130000001,-95.0580519999999,0
			29.7286130000001,-95.0583339999999,0
			29.72846,-95.0583189999999,0
			29.728325,-95.0581049999999,0
			29.7281650000001,-95.0578989999999,0
			29.7279510000002,-95.0577319999999,0
			29.727739,-95.0574799999999,0
			29.7275090000002,-95.0572279999999,0
			29.7273500000002,-95.0569459999999,0
			29.7275100000001,-95.056526,0
			29.7277740000001,-95.0560609999999,0
			29.728048,-95.05558,0
			29.728308,-95.0550689999999,0
			29.7285180000002,-95.0545199999999,0
			29.7286950000001,-95.053963,0
			29.7289140000001,-95.053421,0
			29.7291890000001,-95.0529249999998,0
			29.7294790000001,-95.052452,0
			29.7296960000001,-95.051949,0
			29.7297670000002,-95.0514219999998,0
			29.7294900000001,-95.050919,0
			29.7290170000001,-95.0505139999999,0
			29.7284660000001,-95.0502699999999,0
			29.7279700000001,-95.0501479999999,0
			29.7276290000001,-95.0502699999999,0
			29.727335,-95.050461,0
			29.7270870000001,-95.0506899999999,0
			29.7268730000001,-95.050911,0
			29.7266860000001,-95.0511469999999,0
			29.7265400000001,-95.0514069999999,0
			29.7264180000001,-95.051666,0
			29.7262650000001,-95.051926,0
			29.726389,-95.0522229999999,0
			29.7255550000002,-95.0530549999999,0
			29.7255550000002,-95.0533369999998,0
			29.7252770000001,-95.0536119999999,0
			29.7252770000001,-95.0544429999999,0
			29.7255550000002,-95.0547259999999,0
			29.7255550000002,-95.0549999999999,0
			29.7252770000001,-95.0552749999999,0
			29.7252770000001,-95.0555569999999,0
			29.7250000000001,-95.0555569999999,0
			29.7241670000001,-95.0547259999999,0
			29.7241670000001,-95.0544429999999,0
			29.7238880000001,-95.0541689999999,0
			29.7238880000001,-95.0536119999999,0
			29.7236120000002,-95.0533369999998,0
			29.7238880000001,-95.0530549999999,0
			29.7238880000001,-95.0527799999999,0
			29.7241670000001,-95.052498,0
			29.7241670000001,-95.0519409999999,0
			29.7240810000001,-95.05172,0
			29.7238860000001,-95.051544,0
			29.7236980000002,-95.051369,0
			29.7234950000001,-95.0512159999998,0
			29.7232460000001,-95.051163,0
			29.7229560000001,-95.0512619999999,0
			29.7226450000001,-95.0515209999999,0
			29.7223280000001,-95.0518189999999,0
			29.7219940000001,-95.0521469999999,0
			29.7217120000001,-95.0525209999999,0
			29.721481,-95.0529399999999,0
			29.7211040000001,-95.0533519999999,0
			29.7206590000001,-95.0537409999999,0
			29.7201400000001,-95.054047,0
			29.7196100000002,-95.0543899999999,0
			29.7190420000001,-95.0547259999999,0
			29.7184810000002,-95.0550609999999,0
			29.717966,-95.05542,0
			29.7177770000002,-95.0555569999999,0
			29.7169460000002,-95.0563889999999,0
			29.716667,-95.0563889999999,0
			29.7163890000001,-95.056114,0
			29.7161100000001,-95.055832,0
			29.715836,-95.0555569999999,0
			29.7156790000001,-95.05574,0
			29.715424,-95.0560379999999,0
			29.7150900000001,-95.0562669999999,0
			29.7146590000001,-95.0564039999999,0
			29.7141970000001,-95.0564419999999,0
			29.7137170000001,-95.0560379999999,0
			29.7131000000001,-95.0558549999999,0
			29.712479,-95.0557629999999,0
			29.7119220000001,-95.055573,0
			29.7113060000001,-95.055412,0
			29.7106860000002,-95.0552979999999,0
			29.7101290000001,-95.055504,0
			29.7095660000001,-95.0553969999999,0
			29.7091850000002,-95.0551379999999,0
			29.7088930000002,-95.0547639999999,0
			29.7086300000001,-95.0543439999999,0
			29.7083440000001,-95.0539399999999,0
			29.7078700000001,-95.0537259999999,0
			29.7070670000001,-95.053749,0
			29.7067240000001,-95.05349,0
			29.7066140000001,-95.0530549999999,0
			29.7064570000001,-95.0527339999999,0
			29.706287,-95.052422,0
			29.7060720000002,-95.052177,0
			29.7058730000001,-95.05191,0
			29.7057840000002,-95.051498,0
			29.7056060000002,-95.051117,0
			29.7055300000001,-95.050621,0
			29.7054080000001,-95.050125,0
			29.7053050000001,-95.0495989999999,0
			29.7052780000002,-95.0490339999999,0
			29.7052590000001,-95.048447,0
			29.7051810000002,-95.0478439999999,0
			29.705048,-95.0472409999999,0
			29.7050040000001,-95.046593,0
			29.704971,-95.0459369999999,0
			29.7048740000002,-95.0453109999999,0
			29.7047390000002,-95.044701,0
			29.704645,-95.0440669999999,0
			29.704645,-95.043419,0
			29.7047020000002,-95.0427319999999,0
			29.7047270000001,-95.04203,0
			29.7047880000002,-95.0413669999999,0
			29.7049810000001,-95.0408549999999,0
			29.7051720000001,-95.040421,0
			29.7050080000001,-95.0396039999999,0
			29.704817,-95.0392299999999,0
			29.7046990000001,-95.0388259999999,0
			29.7045940000001,-95.0384289999998,0
			29.7046850000002,-95.038086,0
			29.7048150000001,-95.03775,0
			29.7050670000002,-95.03743,0
			29.7052730000001,-95.0370639999999,0
			29.705143,-95.036491,0
			29.705029,-95.035851,0
			29.704956,-95.0352019999999,0
			29.7047210000001,-95.0345989999998,0
			29.704432,-95.034035,0
			29.7040770000002,-95.033539,0
			29.7036710000001,-95.033127,0
			29.7032050000001,-95.032799,0
			29.7027190000001,-95.0325089999999,0
			29.702234,-95.0322339999999,0
			29.7018030000001,-95.0318979999999,0
			29.7014810000001,-95.0314099999999,0
			29.701315,-95.030647,0
			29.7011800000001,-95.029961,0
			29.7009750000001,-95.029503,0
			29.7007350000002,-95.0291139999999,0
			29.7005080000001,-95.0287089999999,0
			29.7002580000001,-95.0283129999999,0
			29.700003,-95.0279159999999,0
			29.6997340000001,-95.027519,0
			29.6994510000002,-95.0271299999999,0
			29.6991670000001,-95.0266649999999,0
			29.6988890000001,-95.0263899999998,0
			29.6988890000001,-95.0252759999999,0
			29.6997200000001,-95.0244449999999,0
			29.700003,-95.0244449999999,0
			29.7013890000001,-95.0230559999999,0
			29.7013890000001,-95.0227809999999,0
			29.7024990000001,-95.0216669999999,0
			29.7030350000001,-95.021385,0
			29.703522,-95.020966,0
			29.7038880000001,-95.0205539999999,0
			29.7038880000001,-95.0202789999999,0
			29.704166,-95.0199969999999,0
			29.704166,-95.0191649999999,0
			29.7038880000001,-95.0188899999999,0
			29.703335,-95.0188899999999,0
			29.703056,-95.0191649999999,0
			29.7027800000001,-95.0193559999998,0
			29.702429,-95.0192949999999,0
			29.7019880000001,-95.018974,0
			29.7014960000001,-95.0185849999999,0
			29.7011620000002,-95.0180359999999,0
			29.7008610000001,-95.017525,0
			29.7005960000001,-95.017014,0
			29.700428,-95.016441,0
			29.7004220000001,-95.015816,0
			29.700207,-95.0152439999999,0
			29.6998810000001,-95.0147399999999,0
			29.6995470000001,-95.0142519999999,0
			29.6993690000002,-95.0136869999999,0
			29.6993470000001,-95.0130839999999,0
			29.6992030000001,-95.0124969999999,0
			29.6991000000001,-95.0119019999998,0
			29.6990010000001,-95.011314,0
			29.6990600000001,-95.0107499999999,0
			29.6988720000001,-95.010185,0
			29.6986240000002,-95.0096209999999,0
			29.6984460000002,-95.009018,0
			29.698601,-95.0082859999999,0
			29.6987720000001,-95.00753,0
			29.6987630000001,-95.0067979999999,0
			29.69861,-95.00618,0
			29.698341,-95.005684,0
			29.6980590000001,-95.0052029999999,0
			29.6978,-95.0047299999999,0
			29.6975990000001,-95.0042109999999,0
			29.6974720000001,-95.0036239999999,0
			29.6973080000001,-95.0030359999999,0
			29.6971400000001,-95.0024339999999,0
			29.69692,-95.0018389999999,0
			29.6969450000001,-95.0016629999999,0
			29.6969450000001,-95.001389,0
			29.696667,-95.001114,0
			29.696667,-95.0008319999999,0
			29.6963880000001,-95.000557,0
			29.6951100000002,-95.000275,0
			29.695278,-94.9999999999999,0
			29.6948780000002,-94.9996639999999,0
			29.694599,-94.9993899999999,0
			29.694599,-94.999107,0
			29.6943230000001,-94.9988329999999,0
			29.6943230000001,-94.9985579999999,0
			29.6940440000001,-94.998276,0
			29.6940440000001,-94.9980009999999,0
			29.6937680000001,-94.997719,0
			29.6937680000001,-94.997444,0
			29.6926560000002,-94.9963299999999,0
			29.6926560000002,-94.9954989999999,0
			29.6921010000001,-94.994942,0
			29.6921010000001,-94.993553,0
			29.6915450000001,-94.993553,0
			29.6912690000001,-94.993279,0
			29.6909890000001,-94.993553,0
			29.6907120000001,-94.993279,0
			29.6901570000002,-94.993279,0
			29.6898780000002,-94.9929959999999,0
			29.6896000000001,-94.9929959999999,0
			29.6882110000001,-94.991608,0
			29.6882110000001,-94.9913329999999,0
			29.6876540000002,-94.990776,0
			29.6876540000002,-94.9905009999999,0
			29.6868250000002,-94.9896699999999,0
			29.6862680000001,-94.9896699999999,0
			29.6859890000001,-94.989388,0
			29.6843220000002,-94.989388,0
			29.683933,-94.9900129999999,0
			29.6840440000001,-94.99189,0
			29.6840440000001,-94.992722,0
			29.6837670000001,-94.9929959999999,0
			29.6837670000001,-94.993553,0
			29.6836170000001,-94.9944529999999,0
			29.6837670000001,-94.996056,0
			29.683435,-94.9966659999999,0
			29.6832350000001,-94.997986,0
			29.6830620000001,-94.9983369999999,0
			29.68321,-94.9988329999999,0
			29.6830560000001,-94.998947,0
			29.68309,-94.9994659999999,0
			29.6833320000002,-94.9999999999999,0
			29.6836110000002,-95.000275,0
			29.6841200000002,-95.001099,0
			29.6845470000002,-95.0013959999999,0
			29.6849310000001,-95.0017619999999,0
			29.6852340000002,-95.0022129999999,0
			29.685419,-95.0027689999999,0
			29.685595,-95.003349,0
			29.6858580000001,-95.003891,0
			29.6862130000002,-95.004402,0
			29.686604,-95.0049209999999,0
			29.6868500000001,-95.0055619999999,0
			29.6869130000002,-95.0063019999999,0
			29.6869430000002,-95.0066679999999,0
			29.6869430000002,-95.008057,0
			29.6866660000002,-95.0083309999999,0
			29.6866660000002,-95.0086139999999,0
			29.6863880000001,-95.008888,0
			29.6863880000001,-95.0091629999999,0
			29.6861110000001,-95.0091629999999,0
			29.6855560000001,-95.00972,0
			29.6852780000001,-95.009445,0
			29.6836110000002,-95.009445,0
			29.6833320000002,-95.0091629999999,0
			29.6825010000002,-95.0091629999999,0
			29.6819440000001,-95.0086139999999,0
			29.6816670000001,-95.008888,0
			29.681389,-95.008888,0
			29.6805550000001,-95.008057,0
			29.6802790000002,-95.007774,0
			29.6802790000002,-95.006943,0
			29.6805550000001,-95.0066679999999,0
			29.6797220000001,-95.0058359999999,0
			29.6797220000001,-95.00528,0
			29.6800000000002,-95.0049969999999,0
			29.6800000000002,-95.0044479999999,0
			29.6802790000002,-95.0041659999999,0
			29.6802790000002,-95.003891,0
			29.6808340000001,-95.0033339999999,0
			29.6808340000001,-95.003052,0
			29.6811100000002,-95.002777,0
			29.6811430000001,-95.002281,0
			29.6812650000001,-95.00177,0
			29.681389,-95.001389,0
			29.6816670000001,-94.9999999999999,0
			29.6814610000001,-94.9993739999999,0
			29.6815150000001,-94.998802,0
			29.6818220000001,-94.997719,0
			29.6816670000001,-94.9974979999999,0
			29.6816670000001,-94.9955519999999,0
			29.6819440000001,-94.995277,0
			29.6819440000001,-94.992226,0
			29.682222,-94.991943,0
			29.682222,-94.9916689999999,0
			29.6825010000002,-94.9913859999999,0
			29.6825010000002,-94.9908369999999,0
			29.6830560000001,-94.99028,0
			29.6830560000001,-94.9899979999999,0
			29.6827770000001,-94.989723,0
			29.6827770000001,-94.988892,0
			29.6825010000002,-94.9886089999999,0
			29.6825010000002,-94.9883349999999,0
			29.6816670000001,-94.9875029999999,0
			29.6815620000001,-94.987366,0
			29.681389,-94.9872209999999,0
			29.6813390000001,-94.986641,0
			29.681389,-94.986115,0
			29.681389,-94.9858319999999,0
			29.6816670000001,-94.985558,0
			29.6819440000001,-94.985558,0
			29.6825010000002,-94.9850009999999,0
			29.6825010000002,-94.9844439999999,0
			29.682375,-94.984055,0
			29.6823140000001,-94.983864,0
			29.6822990000002,-94.983414,0
			29.6819440000001,-94.9830549999999,0
			29.6818220000001,-94.9827189999999,0
			29.6815450000001,-94.9827189999999,0
			29.681267,-94.982445,0
			29.680988,-94.982445,0
			29.680653,-94.9822999999999,0
			29.6796000000001,-94.982162,0
			29.6791230000001,-94.982231,0
			29.678745,-94.982285,0
			29.6782110000001,-94.9818879999999,0
			29.6779330000001,-94.9818879999999,0
			29.677656,-94.981613,0
			29.6773780000001,-94.981613,0
			29.6771010000001,-94.9813309999998,0
			29.676456,-94.9810409999999,0
			29.6759890000001,-94.9827189999999,0
			29.675711,-94.9830019999999,0
			29.675711,-94.983559,0
			29.6748790000001,-94.98439,0
			29.6748790000001,-94.9846649999999,0
			29.6746010000001,-94.984947,0
			29.6740440000002,-94.9854969999999,0
			29.6740440000002,-94.985779,0
			29.6737650000001,-94.9860529999999,0
			29.6736890000001,-94.9866329999999,0
			29.673489,-94.987442,0
			29.673216,-94.9875869999999,0
			29.6729350000001,-94.988274,0
			29.6726230000002,-94.9883799999999,0
			29.6715430000002,-94.989944,0
			29.6713500000002,-94.9901579999998,0
			29.6712670000001,-94.9905009999999,0
			29.6711500000001,-94.9905549999999,0
			29.6707120000002,-94.9912489999999,0
			29.6704310000002,-94.9921649999999,0
			29.6703170000001,-94.992355,0
			29.6700970000001,-94.9925229999999,0
			29.669878,-94.992722,0
			29.6687680000001,-94.9938349999999,0
			29.6687680000001,-94.99411,0
			29.6679340000001,-94.994942,0
			29.667377,-94.996056,0
			29.6671090000001,-94.9968949999999,0
			29.6657120000002,-94.9985579999999,0
			29.6657120000002,-94.9988329999999,0
			29.6651550000001,-94.999725,0
			29.6645930000001,-94.9999999999999,0
			29.6650010000001,-95.000557,0
			29.664446,-95.001114,0
			29.6641670000002,-95.001114,0
			29.6638010000001,-95.001343,0
			29.663622,-95.0015109999999,0
			29.6633950000001,-95.0016709999999,0
			29.663143,-95.0018459999999,0
			29.662855,-95.0020069999999,0
			29.6625820000002,-95.002235,0
			29.6622960000001,-95.0024949999999,0
			29.6619850000001,-95.0027469999999,0
			29.6616880000001,-95.003029,0
			29.6613600000001,-95.0032879999999,0
			29.6609860000001,-95.003525,0
			29.6605550000002,-95.0036699999999,0
			29.660105,-95.003937,0
			29.6597460000002,-95.004265,0
			29.6594390000002,-95.0046619999999,0
			29.6591010000001,-95.005058,0
			29.6588130000001,-95.005524,0
			29.6584380000001,-95.00589,0
			29.6580680000001,-95.0062479999999,0
			29.657694,-95.006607,0
			29.6572700000001,-95.0069119999999,0
			29.6567690000001,-95.007149,0
			29.6561450000001,-95.0072479999999,0
			29.655867,-95.0073319999999,0
			29.655575,-95.007423,0
			29.655043,-95.0076519999998,0
			29.6545750000001,-95.0079499999999,0
			29.6541770000002,-95.0083079999999,0
			29.6537930000002,-95.0086439999999,0
			29.653439,-95.008987,0
			29.6531140000001,-95.009392,0
			29.6527400000001,-95.0096659999999,0
			29.6525000000001,-95.0100019999999,0
			29.6519370000001,-95.0102689999999,0
			29.6518170000001,-95.0102689999999,0
			29.6516670000001,-95.010277,0
			29.6494240000002,-95.0105739999999,0
			29.6491360000002,-95.0108799999999,0
			29.648855,-95.0112079999999,0
			29.6485270000001,-95.0114899999999,0
			29.6481670000001,-95.0117869999999,0
			29.6477410000001,-95.011971,0
			29.6473390000002,-95.0121539999999,0
			29.6468850000001,-95.012276,0
			29.6464860000001,-95.012512,0
			29.6461160000001,-95.0127789999999,0
			29.6457520000001,-95.013054,0
			29.645388,-95.013344,0
			29.644974,-95.0135419999999,0
			29.64448,-95.0136569999999,0
			29.643986,-95.0138779999999,0
			29.643469,-95.0140759999999,0
			29.6428680000001,-95.0141529999999,0
			29.6422410000001,-95.0142139999999,0
			29.6416170000001,-95.0143889999999,0
			29.6409800000002,-95.0145649999998,0
			29.6403270000001,-95.014717,0
			29.6399690000002,-95.014877,0
			29.6397380000001,-95.014984,0
			29.6391540000001,-95.0152659999999,0
			29.6385210000001,-95.0154649999999,0
			29.6378290000001,-95.0155329999999,0
			29.6371210000001,-95.0155109999999,0
			29.636427,-95.015404,0
			29.6357500000001,-95.01548,0
			29.6352560000001,-95.0154109999999,0
			29.6350990000001,-95.015388,0
			29.634441,-95.0152509999999,0
			29.6338040000001,-95.0150759999999,0
			29.6331670000001,-95.0151209999999,0
			29.6325630000001,-95.0150599999999,0
			29.6320080000002,-95.0149539999999,0
			29.6315710000001,-95.014717,0
			29.6311650000001,-95.014442,0
			29.6307580000001,-95.0141679999999,0
			29.6303540000001,-95.0138929999999,0
			29.6299500000001,-95.0136109999999,0
			29.6295600000001,-95.0133059999999,0
			29.6292060000001,-95.0129549999999,0
			29.6288950000002,-95.01255,0
			29.628593,-95.012131,0
			29.6282480000001,-95.0117419999999,0
			29.6278320000001,-95.0114359999999,0
			29.6274070000002,-95.0111309999999,0
			29.6269680000001,-95.010849,0
			29.626551,-95.0105439999999,0
			29.626156,-95.0102079999999,0
			29.6257840000002,-95.0098339999999,0
			29.6253450000001,-95.009529,0
			29.624849,-95.00927,0
			29.6243820000001,-95.0089569999999,0
			29.6238940000001,-95.008682,0
			29.623423,-95.0083999999999,0
			29.6230410000001,-95.008026,0
			29.622721,-95.007599,0
			29.6223660000002,-95.007195,0
			29.6220470000001,-95.0067519999999,0
			29.6217630000002,-95.006256,0
			29.6213440000001,-95.0057979999999,0
			29.620937,-95.0052869999999,0
			29.6205350000002,-95.0047449999999,0
			29.620125,-95.004196,0
			29.6197110000001,-95.0036319999999,0
			29.6192950000001,-95.003059,0
			29.6189190000001,-95.00248,0
			29.618769,-95.0018389999999,0
			29.6189840000001,-95.001266,0
			29.6192250000001,-95.0010379999999,0
			29.6194400000002,-95.0008319999999,0
			29.6207410000002,-94.9999999999999,0
			29.6209430000002,-94.9995039999999,0
			29.6211380000001,-94.999092,0
			29.6214770000001,-94.9987409999999,0
			29.6217120000001,-94.9982449999999,0
			29.6217940000001,-94.9977869999999,0
			29.6217750000001,-94.9975359999999,0
			29.6215340000001,-94.997414,0
			29.6213490000002,-94.997101,0
			29.6209510000001,-94.9970549999999,0
			29.6207120000001,-94.996887,0
			29.6204360000002,-94.996887,0
			29.6201530000002,-94.9971689999999,0
			29.6196000000001,-94.9971689999999,0
			29.6193220000002,-94.997444,0
			29.6187880000001,-94.997574,0
			29.6184880000001,-94.997719,0
			29.618273,-94.99781,0
			29.6177920000001,-94.998322,0
			29.61771,-94.9987559999999,0
			29.6174960000001,-94.99881,0
			29.617109,-94.9989089999999,0
			29.6163440000001,-94.9981229999999,0
			29.6159900000002,-94.9980009999999,0
			29.615711,-94.997719,0
			29.615711,-94.997444,0
			29.6152190000001,-94.997314,0
			29.6148200000002,-94.997688,0
			29.614878,-94.9985579999999,0
			29.6145990000002,-94.9988329999999,0
			29.6145990000002,-94.9996639999999,0
			29.6147380000002,-94.9999999999999,0
			29.6147310000001,-95.0008389999999,0
			29.6146790000001,-95.0012819999999,0
			29.614496,-95.0017089999999,0
			29.6144500000001,-95.0022129999999,0
			29.6144430000001,-95.0027239999999,0
			29.6144430000001,-95.0032499999999,0
			29.614445,-95.003777,0
			29.614445,-95.004318,0
			29.614445,-95.0048599999998,0
			29.614445,-95.0054169999999,0
			29.614445,-95.005981,0
			29.614445,-95.0065539999999,0
			29.6144500000001,-95.007133,0
			29.6144620000001,-95.0077129999999,0
			29.6144710000001,-95.008301,0
			29.6144500000001,-95.0088729999999,0
			29.614445,-95.0094529999999,0
			29.6144430000001,-95.010025,0
			29.614445,-95.010597,0
			29.6144710000001,-95.011154,0
			29.6145920000001,-95.011673,0
			29.6146970000001,-95.012192,0
			29.6147210000001,-95.0127789999999,0
			29.614445,-95.014442,0
			29.614445,-95.0163879999999,0
			29.6141660000001,-95.0177759999999,0
			29.6138900000001,-95.0224989999999,0
			29.6138900000001,-95.0227809999999,0
			29.6130560000001,-95.0236129999999,0
			29.6116680000001,-95.0247189999999,0
			29.6113890000001,-95.0244449999999,0
			29.6100010000001,-95.0233309999999,0
			29.6097220000001,-95.0230559999999,0
			29.6094460000002,-95.0222239999998,0
			29.6094460000002,-95.0219419999999,0
			29.6091670000002,-95.0216669999999,0
			29.6091670000002,-95.0199969999999,0
			29.6094460000002,-95.0197219999999,0
			29.6094460000002,-95.0191649999999,0
			29.6081750000001,-95.017639,0
			29.6084330000002,-95.0171809999999,0
			29.6099400000002,-95.018478,0
			29.6108340000001,-95.0177759999999,0
			29.6111110000001,-95.0177759999999,0
			29.6113890000001,-95.0175019999999,0
			29.6116680000001,-95.0175019999999,0
			29.6116680000001,-95.01722,0
			29.6122230000001,-95.0166699999999,0
			29.6122230000001,-95.0155559999999,0
			29.6124990000002,-95.015274,0
			29.6124990000002,-95.013885,0
			29.6122230000001,-95.0136109999999,0
			29.6123290000001,-95.010437,0
			29.612379,-95.0096819999999,0
			29.6121580000002,-95.008942,0
			29.612354,-95.0081629999999,0
			29.6123120000001,-95.0073779999999,0
			29.612268,-95.0066219999999,0
			29.6122300000001,-95.0058669999999,0
			29.6122230000001,-95.0051189999999,0
			29.6122570000001,-95.004387,0
			29.6124130000002,-95.003723,0
			29.6126610000001,-95.0031659999999,0
			29.612869,-95.0026249999999,0
			29.612974,-95.0020289999999,0
			29.6127740000002,-95.0015559999999,0
			29.6124990000002,-95.001114,0
			29.6124990000002,-95.0008319999999,0
			29.6122230000001,-95.000557,0
			29.612553,-94.9999999999999,0
			29.612665,-94.999649,0
			29.6124990000002,-94.9991679999999,0
			29.6124990000002,-94.9983369999999,0
			29.6122230000001,-94.998055,0
			29.6122230000001,-94.9955519999999,0
			29.6124990000002,-94.995277,0
			29.6124990000002,-94.9950029999999,0
			29.6123410000001,-94.994728,0
			29.6121440000001,-94.9932479999999,0
			29.6119800000002,-94.992317,0
			29.611952,-94.9921419999999,0
			29.6114310000001,-94.990662,0
			29.6106530000002,-94.9895549999999,0
			29.6100010000001,-94.988892,0
			29.6088890000001,-94.987778,0
			29.6086120000001,-94.987778,0
			29.6083350000001,-94.9875029999999,0
			29.608053,-94.9875029999999,0
			29.6074410000002,-94.9869999999999,0
			29.6072220000001,-94.986946,0
			29.6066670000001,-94.9863889999999,0
			29.6063880000001,-94.9863889999999,0
			29.605831,-94.9858319999999,0
			29.6055560000001,-94.9858319999999,0
			29.6052780000001,-94.985558,0
			29.6051560000001,-94.9852219999999,0
			29.6048770000001,-94.984947,0
			29.6048770000001,-94.98439,0
			29.604601,-94.984108,0
			29.604322,-94.9838329999999,0
			29.6040420000001,-94.9838329999999,0
			29.6037670000001,-94.983559,0
			29.603489,-94.983559,0
			29.6029340000001,-94.9830019999999,0
			29.6026550000001,-94.9830019999999,0
			29.6025300000001,-94.9826889999999,0
			29.6025010000002,-94.9824979999999,0
			29.602222,-94.9822239999999,0
			29.6019440000001,-94.9822239999999,0
			29.6016670000001,-94.9824979999999,0
			29.6011140000002,-94.9825439999999,0
			29.6002790000002,-94.98333,0
			29.5997220000001,-94.98333,0
			29.5986120000001,-94.9844439999999,0
			29.5986120000001,-94.984726,0
			29.5983330000001,-94.984726,0
			29.5977780000002,-94.9852749999999,0
			29.5975000000001,-94.9852749999999,0
			29.5975000000001,-94.985558,0
			29.5971010000001,-94.985779,0
			29.5971010000001,-94.9860529999999,0
			29.5965440000001,-94.98661,0
			29.5962680000001,-94.9868849999999,0
			29.5959890000001,-94.9871669999999,0
			29.5959890000001,-94.987442,0
			29.5957110000001,-94.987442,0
			29.5952550000002,-94.987823,0
			29.5949130000001,-94.987724,0
			29.5943280000002,-94.987946,0
			29.594341,-94.98848,0
			29.594322,-94.9888309999999,0
			29.594322,-94.989113,0
			29.5940460000001,-94.989388,0
			29.5940460000001,-94.9896699999999,0
			29.5937650000001,-94.9896699999999,0
			29.593489,-94.989944,0
			29.593489,-94.9902189999999,0
			29.5932120000001,-94.989944,0
			29.5926530000002,-94.9905009999999,0
			29.5926530000002,-94.990776,0
			29.5918220000001,-94.991608,0
			29.5918220000001,-94.99189,0
			29.5915430000002,-94.9921649999999,0
			29.59099,-94.992722,0
			29.59099,-94.9929959999999,0
			29.590431,-94.993553,0
			29.590431,-94.9938349999999,0
			29.590157,-94.99411,0
			29.5898780000001,-94.9943849999999,0
			29.5893210000002,-94.9943849999999,0
			29.5890450000001,-94.9946669999999,0
			29.5887660000001,-94.9943849999999,0
			29.5884900000001,-94.99411,0
			29.587656,-94.994942,0
			29.587656,-94.995224,0
			29.5865440000001,-94.9963299999999,0
			29.5865440000001,-94.996613,0
			29.5859910000001,-94.9971689999999,0
			29.5854340000001,-94.9971689999999,0
			29.5851550000001,-94.997444,0
			29.5848790000002,-94.997444,0
			29.5846,-94.997719,0
			29.5846,-94.9988329999999,0
			29.5840450000001,-94.9993899999999,0
			29.5837690000001,-94.9993899999999,0
			29.5834880000002,-94.9996639999999,0
			29.5833970000001,-94.9999999999999,0
			29.5825000000002,-95.000557,0
			29.5822240000001,-95.0008319999999,0
			29.581114,-95.001945,0
			29.5801050000001,-95.0029299999999,0
			29.5799690000002,-95.003181,0
			29.5797350000001,-95.0033799999999,0
			29.5794730000001,-95.0035859999999,0
			29.579197,-95.003815,0
			29.5789110000002,-95.0040739999999,0
			29.5786170000002,-95.004387,0
			29.5781540000001,-95.0045779999999,0
			29.577799,-95.00489,0
			29.5774960000002,-95.00528,0
			29.577164,-95.0056529999999,0
			29.5767330000001,-95.0059509999999,0
			29.5763210000001,-95.0062939999999,0
			29.5758360000002,-95.006592,0
			29.5753330000001,-95.006882,0
			29.5747930000002,-95.0071559999999,0
			29.5742680000001,-95.007423,0
			29.5738090000001,-95.007729,0
			29.5733740000002,-95.008049,0
			29.5728950000001,-95.0083309999999,0
			29.5724090000001,-95.0086139999999,0
			29.571917,-95.008904,0
			29.5714050000001,-95.009178,0
			29.5709340000001,-95.0095059999999,0
			29.5705180000001,-95.0099179999999,0
			29.5700860000001,-95.010315,0
			29.5696770000002,-95.0107349999998,0
			29.5692210000001,-95.011093,0
			29.56872,-95.0113909999999,0
			29.568224,-95.0116959999999,0
			29.567797,-95.012062,0
			29.5673920000001,-95.0124439999998,0
			29.566376,-95.0129549999999,0
			29.5657390000001,-95.0129169999999,0
			29.5651800000001,-95.013145,0
			29.5646130000001,-95.0134199999999,0
			29.5638890000002,-95.013885,0
			29.5627780000001,-95.0141679999999,0
			29.5619450000001,-95.0147249999999,0
			29.5608330000001,-95.015274,0
			29.5594440000001,-95.0158309999999,0
			29.5591680000002,-95.0161129999999,0
			29.5575010000001,-95.0163879999999,0
			29.5572220000001,-95.0166699999999,0
			29.556946,-95.0166699999999,0
			29.5566670000002,-95.0169449999999,0
			29.555553,-95.0177759999999,0
			29.555553,-95.0180589999998,0
			29.5549090000001,-95.0188669999999,0
			29.554445,-95.0194469999999,0
			29.5541670000001,-95.0199969999999,0
			29.5530550000001,-95.0211109999999,0
			29.5525,-95.0211109999999,0
			29.5519830000001,-95.020752,0
			29.5516700000001,-95.020226,0
			29.5513690000001,-95.019669,0
			29.5509910000001,-95.0191799999999,0
			29.5505870000002,-95.0187069999999,0
			29.55022,-95.0182039999999,0
			29.54981,-95.0178379999999,0
			29.5493010000002,-95.025963,0
			29.5518510000002,-95.0315779999999,0
			29.5552100000001,-95.038039,0
			29.5568810000001,-95.041252,0
			29.5591910000001,-95.0516129999999,0
			29.5594770000002,-95.054264,0
			29.5599800000001,-95.0589219999999,0
			29.5572290000002,-95.065081,0
			29.5554030000001,-95.069168,0
			29.5493510000001,-95.0774,0
			29.54207,-95.0788799999999,0
			29.5375480000001,-95.0802,0
			29.5349200000001,-95.082977,0
			29.5360450000001,-95.089524,0
			29.5361690000001,-95.0902479999999,0
			29.5358430000001,-95.0912889999999,0
			29.534161,-95.0966569999999,0
			29.5312930000001,-95.096017,0
			29.524891,-95.0945889999999,0
			29.5212730000002,-95.0958629999998,0
			29.519951,-95.096977,0
			29.522383,-95.099983,0
			29.5234130000001,-95.102547,0
			29.5208050000002,-95.1047589999999,0
			29.52076,-95.104797,0
			29.5180140000002,-95.1047019999999,0
			29.515249,-95.104607,0
			29.5136960000002,-95.1049979999999,0
			29.5125200000002,-95.1052929999999,0
			29.5090200000001,-95.119133,0
			29.5095350000001,-95.120176,0
			29.5105300000002,-95.122192,0
			29.5116100000002,-95.125801,0
			29.5114100000002,-95.1263249999999,0
			29.5103800000001,-95.1290209999999,0
			29.5071740000001,-95.1306149999999,0
			29.50679,-95.1308059999998,0
			29.5063990000002,-95.1324079999999,0
			29.5083500000001,-95.134918,0
			29.50769,-95.1407169999998,0
			29.50246,-95.1467969999998,0
			29.50059,-95.1503959999999,0
			29.499922,-95.1516799999999,0
			29.4994320000001,-95.1611479999999,0
			29.5019,-95.165199,0
			29.5081290000001,-95.1711269999999,0
			29.5117700000001,-95.1703869999999,0
			29.5148830000001,-95.1717639999999,0
			29.5159800000001,-95.172249,0
			29.5169260000001,-95.1735499999999,0
			29.5189110000002,-95.176277,0
			29.521415,-95.1832439999999,0
			29.5220510000001,-95.1850129999999,0
			29.5291520000002,-95.18985,0
			29.534672,-95.190056,0
			29.53651,-95.191272,0
			29.5427000000001,-95.195366,0
			29.5475820000001,-95.1985309999999,0
			29.547901,-95.198738,0
			29.5499360000002,-95.1990039999999,0
			29.553438,-95.1994629999999,0
			29.55607,-95.1966859999999,0
			29.5597310000001,-95.19648,0
			29.5608340000002,-95.197808,0
			29.5626390000002,-95.199982,0
			29.560581,-95.2053529999999,0
			29.5586910000001,-95.214386,0
			29.5584410000001,-95.2191159999999,0
			29.5600890000002,-95.2253269999999,0
		</coordinates>
	</polygon>
</kml>
