<?xml version="1.0" encoding="UTF-8"?>
<kml xmlns="http://earth.google.com/kml/2.2">
	<polygon id="USA_CA_Solano" samplingProbability="1">
		<coordinates>
			38.1563142840002,-122.298702491,0
			38.156040192,-122.292709351,0
			38.156360627,-122.29258728,0
			38.1562390000001,-122.196571,0
			38.15765,-122.194283,0
			38.1629376500002,-122.193794372,0
			38.1667401110001,-122.193443327,0
			38.17057,-122.204697,0
			38.1740636410001,-122.20948223,0
			38.17717,-122.213737,0
			38.1826020000001,-122.214523,0
			38.189392,-122.214767,0
			38.1950110000001,-122.206779,0
			38.2014010000001,-122.204666,0
			38.2064090000001,-122.203682,0
			38.212021,-122.196266,0
			38.213511157,-122.195587905,0
			38.217972,-122.193558,0
			38.2202610000001,-122.192467,0
			38.2297287040001,-122.195159916,0
			38.2326079650002,-122.197851184,0
			38.2408290000001,-122.205536,0
			38.2439800000001,-122.206818,0
			38.2463074340001,-122.208432972,0
			38.2466620000001,-122.208679,0
			38.2492999180001,-122.209573943,0
			38.2525100000001,-122.210663,0
			38.2500190000001,-122.199997,0
			38.2519910000001,-122.193047,0
			38.254269852,-122.192329752,0
			38.257011112,-122.191467379,0
			38.2586311680001,-122.196938715,0
			38.2591210000002,-122.198593,0
			38.2589420000001,-122.206787,0
			38.2593391140001,-122.20848686,0
			38.2597690000001,-122.210327,0
			38.2673990000001,-122.214127,0
			38.2697326500002,-122.211276741,0
			38.2715910000001,-122.209007,0
			38.2717700000001,-122.200813,0
			38.2709857890002,-122.196634826,0
			38.2705500000001,-122.194313,0
			38.2711843690001,-122.191731073,0
			38.2715491000001,-122.190247091,0
			38.2721802980001,-122.190825216,0
			38.272881,-122.191467,0
			38.2782710000001,-122.194008,0
			38.2822800000002,-122.19709,0
			38.2834479950001,-122.198230946,0
			38.2853890000001,-122.200127,0
			38.2872428370001,-122.201242143,0
			38.288521,-122.202011,0
			38.2911478710002,-122.203088059,0
			38.2948110000002,-122.20459,0
			38.2963067790002,-122.2043223,0
			38.3002700800001,-122.203613281,0
			38.3034706130002,-122.202560424,0
			38.3154454020002,-122.208040844,0
			38.31604,-122.208313,0
			38.3164100640001,-122.063957214,0
			38.3178291160001,-122.061080967,0
			38.3181863890001,-122.060979392,0
			38.3214797970001,-122.060043336,0
			38.3247986560002,-122.060695881,0
			38.3250890000002,-122.060753,0
			38.3304900000001,-122.062698,0
			38.3340610000002,-122.06517,0
			38.3418478330001,-122.065870013,0
			38.344929,-122.066147,0
			38.3552890000001,-122.069443,0
			38.3664400000001,-122.078049,0
			38.375389,-122.083649,0
			38.37809,-122.084923,0
			38.3820891420002,-122.087355997,0
			38.385250092,-122.089279175,0
			38.392791748,-122.097183228,0
			38.3998718270001,-122.105072021,0
			38.4004489760001,-122.10566651,0
			38.4016490000001,-122.106903,0
			38.4069900000001,-122.111786,0
			38.4096274090001,-122.11420614,0
			38.4123190000001,-122.116676,0
			38.4156464580001,-122.118808751,0
			38.4181400000002,-122.120407,0
			38.4187312400001,-122.120687015,0
			38.4208297720002,-122.121681214,0
			38.4217426750001,-122.122933985,0
			38.4225920000001,-122.1241,0
			38.425418278,-122.125341006,0
			38.4284290000001,-122.126663,0
			38.434494481,-122.125640862,0
			38.4457210000002,-122.123749,0
			38.449005115,-122.122691051,0
			38.4539413460001,-122.121101379,0
			38.4603309630001,-122.118980408,0
			38.4624222960002,-122.118386005,0
			38.4639820000001,-122.117943,0
			38.468552,-122.116333,0
			38.4823300000002,-122.108002,0
			38.490551,-122.105347,0
			38.5091400000001,-122.105431,0
			38.510867176,-122.098500635,0
			38.5116120000002,-122.095512,0
			38.5117341010001,-122.094893315,0
			38.5141487120001,-122.08265686,0
			38.5111389160001,-122.074913025,0
			38.5146408080001,-122.059143066,0
			38.5063563140002,-122.044165494,0
			38.5063400260001,-122.044136048,0
			38.5033539990002,-122.042293274,0
			38.4982799640002,-122.039161925,0
			38.4926300040001,-122.027206422,0
			38.4891510010001,-122.020027161,0
			38.4891083950001,-122.019779127,0
			38.4883384710002,-122.015296936,0
			38.4893493650001,-122.010032655,0
			38.4903504280001,-122.008577103,0
			38.4944915770002,-122.002555847,0
			38.4982299810001,-121.996810913,0
			38.4987813200001,-121.995801606,0
			38.500122,-121.993347,0
			38.501541,-121.990463,0
			38.5022015020001,-121.988850443,0
			38.5039215080001,-121.984649658,0
			38.5053975200001,-121.982109769,0
			38.506271,-121.980606,0
			38.5095100000001,-121.977203,0
			38.515949,-121.972702,0
			38.5220410000001,-121.962898,0
			38.5236663910001,-121.957812859,0
			38.524459838,-121.955329894,0
			38.525888423,-121.950213777,0
			38.5269011980001,-121.946586778,0
			38.528515993,-121.944773346,0
			38.5319900000001,-121.940872,0
			38.531928742,-121.940591503,0
			38.5299186710001,-121.931388855,0
			38.528923054,-121.922768919,0
			38.5287590070001,-121.921348618,0
			38.5289497380001,-121.911346435,0
			38.5289977350001,-121.908952213,0
			38.5290794370001,-121.90487671,0
			38.5305213920001,-121.900810242,0
			38.5319213880002,-121.898506164,0
			38.5336006710001,-121.894727776,0
			38.5347595210001,-121.892120362,0
			38.5385208120001,-121.88519287,0
			38.5365486150001,-121.869819642,0
			38.5385398880001,-121.860466004,0
			38.5368919380002,-121.852172852,0
			38.5343399060001,-121.843269348,0
			38.5334109760001,-121.840529056,0
			38.5309104930001,-121.833152771,0
			38.5257301330001,-121.819458007,0
			38.5260433830001,-121.816180608,0
			38.5262908940001,-121.813591004,0
			38.5268516550001,-121.807716369,0
			38.527060969,-121.806300415,0
			38.5273704520002,-121.804206848,0
			38.5284004210001,-121.797767638,0
			38.5258293150001,-121.789451599,0
			38.5227584840002,-121.784057618,0
			38.5235311430001,-121.783342429,0
			38.5264511110001,-121.780639648,0
			38.5292205810001,-121.777786254,0
			38.5297698970001,-121.772506714,0
			38.5288965380001,-121.76880155,0
			38.528511048,-121.767166137,0
			38.5281410350001,-121.762458956,0
			38.5293526650001,-121.76095989,0
			38.5313910000002,-121.758438,0
			38.534698,-121.750893,0
			38.5366060060002,-121.746229813,0
			38.538028717,-121.742752075,0
			38.535060882,-121.730895997,0
			38.5361595160002,-121.720329285,0
			38.5390319480002,-121.712165932,0
			38.5349897940002,-121.706856688,0
			38.5257417560001,-121.694710012,0
			38.499008871,-121.696069449,0
			38.4894409170001,-121.696556091,0
			38.4890289990001,-121.694199,0
			38.3158420000001,-121.694893,0
			38.3144136290002,-121.616999978,0
			38.3139800000001,-121.593353,0
			38.2943000000001,-121.604507,0
			38.2852590000001,-121.603081,0
			38.2757610000001,-121.601639,0
			38.268982,-121.600273,0
			38.2599110000002,-121.600601,0
			38.2494700000001,-121.601471,0
			38.238129,-121.602318,0
			38.2322200000002,-121.602737,0
			38.2199590000001,-121.604149,0
			38.213081,-121.608627,0
			38.2071500000001,-121.610809,0
			38.1975710000002,-121.614632,0
			38.1961400000001,-121.618103,0
			38.1919520000001,-121.625023,0
			38.1921690000001,-121.638489,0
			38.1842800000002,-121.648796,0
			38.1837120000001,-121.655228,0
			38.1826900000001,-121.661636,0
			38.179001,-121.665047,0
			38.1772120000002,-121.663246,0
			38.17852,-121.667297,0
			38.1777920000002,-121.670502,0
			38.1743200000001,-121.673691,0
			38.1701200000001,-121.680603,0
			38.166439,-121.683411,0
			38.1641390000001,-121.685097,0
			38.1604500000001,-121.688507,0
			38.1558690000001,-121.691292,0
			38.1503910000002,-121.693466,0
			38.1449090000001,-121.695648,0
			38.1376000000002,-121.698936,0
			38.1275600000001,-121.702736,0
			38.1229710000002,-121.705528,0
			38.1165500000001,-121.710007,0
			38.0905610000002,-121.743156,0
			38.0904810000001,-121.747253,0
			38.0900000000001,-121.748993,0
			38.0876690000002,-121.752426,0
			38.0839390000001,-121.758171,0
			38.0825310000001,-121.761047,0
			38.0806310000001,-121.765671,0
			38.0768810000002,-121.771988,0
			38.0754200000001,-121.777206,0
			38.0735510000002,-121.780647,0
			38.0735320000002,-121.781822,0
			38.070282,-121.78582,0
			38.0660710000001,-121.792702,0
			38.0627710000001,-121.799606,0
			38.0621800000001,-121.806618,0
			38.0643620000001,-121.811363,0
			38.0656010000002,-121.817833,0
			38.068161,-121.826103,0
			38.0694690000001,-121.829063,0
			38.0711590000001,-121.835548,0
			38.0736810000001,-121.845573,0
			38.0740010000001,-121.8526,0
			38.07341,-121.859596,0
			38.0723990000001,-121.86541,0
			38.070091,-121.867683,0
			38.0664410000001,-121.868729,0
			38.0637020000001,-121.869812,0
			38.0604290000002,-121.874382,0
			38.058521,-121.879593,0
			38.0547790000001,-121.885307,0
			38.0542300000001,-121.890549,0
			38.05368,-121.89521,0
			38.0518190000001,-121.897491,0
			38.0494690000002,-121.902092,0
			38.0493320000002,-121.909103,0
			38.0509490000001,-121.91909,0
			38.0507390000001,-121.929611,0
			38.051571,-121.933136,0
			38.0524290000001,-121.935509,0
			38.054691,-121.936157,0
			38.055161,-121.935013,0
			38.055691,-121.931526,0
			38.0561490000001,-121.930313,0
			38.05611,-121.929443,0
			38.0558320000001,-121.929169,0
			38.0558320000001,-121.92778,0
			38.05611,-121.927498,0
			38.05611,-121.926941,0
			38.056389,-121.926666,0
			38.056389,-121.925003,0
			38.0566670000001,-121.924721,0
			38.0566670000001,-121.924446,0
			38.0569460000001,-121.924164,0
			38.0569460000001,-121.923615,0
			38.05722,-121.923332,0
			38.05722,-121.922775,0
			38.0574990000002,-121.922501,0
			38.0574990000002,-121.921944,0
			38.0577770000001,-121.921669,0
			38.0577770000001,-121.92083,0
			38.058613,-121.919998,0
			38.058613,-121.919724,0
			38.058792,-121.919426,0
			38.0591660000001,-121.919441,0
			38.059444,-121.919167,0
			38.0598750000001,-121.919037,0
			38.0602760000001,-121.918892,0
			38.0604930000001,-121.918648,0
			38.0608330000002,-121.91861,0
			38.0613900000001,-121.91861,0
			38.0617290000001,-121.918579,0
			38.062778,-121.918503,0
			38.0630570000002,-121.91861,0
			38.0647240000001,-121.918304,0
			38.0650600000002,-121.918579,0
			38.0666660000002,-121.918579,0
			38.0670660000001,-121.918701,0
			38.0675010000002,-121.919167,0
			38.0677800000001,-121.919441,0
			38.0680540000001,-121.919441,0
			38.0683330000001,-121.919167,0
			38.0694430000001,-121.919167,0
			38.0701710000001,-121.918442,0
			38.0702780000001,-121.918335,0
			38.070271,-121.917778,0
			38.0705570000001,-121.917503,0
			38.0705570000001,-121.916664,0
			38.0711100000001,-121.916115,0
			38.0711100000001,-121.915833,0
			38.0713880000001,-121.915558,0
			38.0713880000001,-121.915001,0
			38.071667,-121.914719,0
			38.071667,-121.914169,0
			38.0719450000001,-121.913887,0
			38.0719450000001,-121.91333,0
			38.0719150000002,-121.913162,0
			38.0718500000001,-121.912827,0
			38.0715450000001,-121.912224,0
			38.0713880000001,-121.911942,0
			38.0703740000002,-121.911667,0
			38.070499,-121.911232,0
			38.071667,-121.910835,0
			38.0719450000001,-121.910835,0
			38.0722240000001,-121.910553,0
			38.0733340000002,-121.910248,0
			38.0736120000001,-121.910278,0
			38.075001,-121.90889,0
			38.075001,-121.908607,0
			38.0750920000001,-121.907944,0
			38.075153,-121.907234,0
			38.075832,-121.906837,0
			38.0766940000001,-121.906754,0
			38.077435,-121.907387,0
			38.0771290000001,-121.907898,0
			38.0774990000002,-121.908607,0
			38.0777780000001,-121.90889,0
			38.078148,-121.908501,0
			38.0787350000001,-121.908546,0
			38.0788880000001,-121.908546,0
			38.07935,-121.90844,0
			38.0797840000002,-121.909134,0
			38.0808330000002,-121.910088,0
			38.0811120000001,-121.910324,0
			38.081512,-121.910294,0
			38.0817300000001,-121.910645,0
			38.0829620000001,-121.911911,0
			38.083515,-121.912231,0
			38.0835460000001,-121.913055,0
			38.0830570000001,-121.915833,0
			38.0829620000001,-121.916115,0
			38.0832060000002,-121.917023,0
			38.0830540000001,-121.917374,0
			38.0825,-121.919167,0
			38.0822220000001,-121.919441,0
			38.0822220000001,-121.919724,0
			38.081944,-121.919998,0
			38.081944,-121.92083,0
			38.0818520000001,-121.921112,0
			38.0819740000001,-121.921158,0
			38.0821880000001,-121.921593,0
			38.0817180000002,-121.922127,0
			38.0813900000001,-121.922501,0
			38.0814780000001,-121.922775,0
			38.0811120000001,-121.923615,0
			38.0810170000001,-121.923889,0
			38.0810090000001,-121.92601,0
			38.0810470000001,-121.926392,0
			38.0807990000002,-121.926804,0
			38.0812000000001,-121.927155,0
			38.0809400000001,-121.928726,0
			38.0815390000001,-121.929138,0
			38.0811120000001,-121.93,0
			38.0812000000001,-121.930359,0
			38.0808330000002,-121.931114,0
			38.0805550000001,-121.931389,0
			38.0805550000001,-121.931664,0
			38.080585,-121.932098,0
			38.0802760000001,-121.932777,0
			38.0800130000001,-121.933044,0
			38.0800020000001,-121.934448,0
			38.0796890000001,-121.934715,0
			38.0797230000001,-121.935555,0
			38.0794750000001,-121.935829,0
			38.0796280000001,-121.936035,0
			38.0797230000001,-121.936386,0
			38.0797230000001,-121.936668,0
			38.0800020000001,-121.936943,0
			38.0804900000002,-121.93676,0
			38.080647,-121.937271,0
			38.0802760000001,-121.937775,0
			38.0800020000001,-121.938057,0
			38.0800020000001,-121.938889,0
			38.0797230000001,-121.939163,0
			38.0797230000001,-121.939445,0
			38.079445,-121.93972,0
			38.079445,-121.940002,0
			38.079166,-121.940277,0
			38.079166,-121.940552,0
			38.0786090000001,-121.941109,0
			38.0786090000001,-121.941391,0
			38.0780560000001,-121.941948,0
			38.0780560000001,-121.942223,0
			38.0780220000001,-121.942574,0
			38.0781440000001,-121.943535,0
			38.0780560000001,-121.943886,0
			38.0780560000001,-121.944443,0
			38.0777780000001,-121.944725,0
			38.0777780000001,-121.945,0
			38.0774990000002,-121.945274,0
			38.0774990000002,-121.945557,0
			38.077347,-121.945831,0
			38.0774080000001,-121.948334,0
			38.0777780000001,-121.948891,0
			38.078335,-121.948891,0
			38.0786090000001,-121.948608,0
			38.0786090000001,-121.948334,0
			38.0788880000001,-121.948059,0
			38.0788880000001,-121.947777,0
			38.079166,-121.947502,0
			38.079166,-121.94722,0
			38.079445,-121.946945,0
			38.0800020000001,-121.947502,0
			38.0802760000001,-121.947777,0
			38.0800020000001,-121.948059,0
			38.0800020000001,-121.948608,0
			38.079166,-121.949448,0
			38.079166,-121.949722,0
			38.0788880000001,-121.949997,0
			38.0786090000001,-121.950279,0
			38.078335,-121.950279,0
			38.0780560000001,-121.950554,0
			38.0774990000002,-121.951111,0
			38.0772210000001,-121.951385,0
			38.076946,-121.951111,0
			38.076946,-121.949997,0
			38.0766680000002,-121.949722,0
			38.0763890000001,-121.949722,0
			38.076057,-121.949982,0
			38.0755540000002,-121.950554,0
			38.0755540000002,-121.951111,0
			38.0757410000002,-121.951294,0
			38.075832,-121.951385,0
			38.0760800000002,-121.951714,0
			38.0761110000001,-121.952225,0
			38.076355,-121.952774,0
			38.0763890000001,-121.953056,0
			38.0766330000001,-121.953659,0
			38.0766680000002,-121.95417,0
			38.0767290000001,-121.954643,0
			38.077068,-121.954926,0
			38.0771290000001,-121.956108,0
			38.0772210000001,-121.95639,0
			38.0774990000002,-121.95639,0
			38.078423,-121.956245,0
			38.0785450000002,-121.956833,0
			38.0785180000001,-121.957497,0
			38.0783960000001,-121.958336,0
			38.0786090000001,-121.958611,0
			38.0786090000001,-121.958885,0
			38.0788880000001,-121.959167,0
			38.0794410000001,-121.959564,0
			38.078335,-121.960281,0
			38.0780560000001,-121.960281,0
			38.077839,-121.960495,0
			38.076946,-121.961388,0
			38.076946,-121.96167,0
			38.0766680000002,-121.961945,0
			38.0766680000002,-121.962219,0
			38.0761110000001,-121.962776,0
			38.0755540000002,-121.963333,0
			38.075001,-121.96389,0
			38.075001,-121.964722,0
			38.0747220000001,-121.964996,0
			38.0747220000001,-121.965836,0
			38.075001,-121.96611,0
			38.0753670000001,-121.966591,0
			38.0754510000002,-121.966698,0
			38.0756450000001,-121.966942,0
			38.0755230000001,-121.967651,0
			38.0750080000001,-121.967812,0
			38.074936,-121.967873,0
			38.0747220000001,-121.968056,0
			38.0744440000001,-121.96833,0
			38.0744440000001,-121.968613,0
			38.0741650000002,-121.968887,0
			38.0744670000001,-121.969147,0
			38.0744510000002,-121.969452,0
			38.0747220000001,-121.969719,0
			38.0747220000001,-121.970001,0
			38.0741420000001,-121.970551,0
			38.0741650000002,-121.970833,0
			38.0740200000001,-121.970978,0
			38.0738910000001,-121.971107,0
			38.0738720000001,-121.971375,0
			38.0736120000001,-121.971664,0
			38.0735510000002,-121.972145,0
			38.0735780000001,-121.972504,0
			38.0739480000001,-121.972542,0
			38.0739020000001,-121.972725,0
			38.073856,-121.9729,0
			38.0736120000001,-121.973335,0
			38.0738830000001,-121.973602,0
			38.0747220000001,-121.974442,0
			38.0748790000001,-121.974411,0
			38.0752790000001,-121.973976,0
			38.0761720000002,-121.975044,0
			38.0763890000001,-121.975281,0
			38.0765460000002,-121.975555,0
			38.0771290000001,-121.975914,0
			38.0772210000001,-121.97583,0
			38.0774990000002,-121.976112,0
			38.0780830000002,-121.976234,0
			38.0785450000002,-121.976669,0
			38.0784840000001,-121.976944,0
			38.078335,-121.977219,0
			38.0788880000001,-121.977776,0
			38.0792240000001,-121.977745,0
			38.079346,-121.97818,0
			38.0788880000001,-121.978615,0
			38.0791970000001,-121.979919,0
			38.079166,-121.980278,0
			38.079166,-121.980835,0
			38.0802760000001,-121.981941,0
			38.0805550000001,-121.981941,0
			38.0808330000002,-121.982224,0
			38.0811120000001,-121.982224,0
			38.0813900000001,-121.982498,0
			38.081944,-121.982498,0
			38.082684,-121.982742,0
			38.0830230000001,-121.982742,0
			38.0841330000002,-121.98378,0
			38.0842290000001,-121.984367,0
			38.0844120000002,-121.984337,0
			38.0846290000002,-121.984848,0
			38.0850300000001,-121.98497,0
			38.0852470000002,-121.985245,0
			38.085583,-121.98568,0
			38.0857700000001,-121.986115,0
			38.0858000000001,-121.986313,0
			38.0861700000001,-121.987343,0
			38.0860180000001,-121.987778,0
			38.0862620000001,-121.989609,0
			38.0861130000002,-121.99028,0
			38.0861130000002,-121.990555,0
			38.0855560000001,-121.991112,0
			38.0855560000001,-121.991386,0
			38.085278,-121.991669,0
			38.085278,-121.991943,0
			38.084999,-121.992226,0
			38.084999,-121.993057,0
			38.0852580000002,-121.993332,0
			38.0855560000001,-121.993614,0
			38.0855560000001,-121.993889,0
			38.0858350000001,-121.994164,0
			38.0858350000001,-121.994446,0
			38.0861130000002,-121.99472,0
			38.0861130000002,-121.996109,0
			38.0863880000001,-121.996391,0
			38.0863880000001,-121.996666,0
			38.0869450000001,-121.997223,0
			38.0872230000001,-121.997498,0
			38.0877760000001,-121.998055,0
			38.0877760000001,-121.998337,0
			38.0880550000001,-121.998611,0
			38.0880550000001,-121.998886,0
			38.088333,-121.998886,0
			38.0886120000002,-121.999168,0
			38.089443,-122,0
			38.0891690000001,-122.001389,0
			38.089443,-122.001663,0
			38.089443,-122.001945,0
			38.0897220000001,-122.00222,0
			38.0897220000001,-122.002777,0
			38.0900000000001,-122.003052,0
			38.0900000000001,-122.003609,0
			38.0902790000001,-122.003891,0
			38.0902790000001,-122.004166,0
			38.090832,-122.004723,0
			38.090832,-122.004997,0
			38.0911100000001,-122.00528,0
			38.0911100000001,-122.006386,0
			38.0913890000001,-122.006668,0
			38.0913890000001,-122.007225,0
			38.091667,-122.0075,0
			38.091667,-122.008057,0
			38.0919460000002,-122.008331,0
			38.0919460000002,-122.008614,0
			38.0924990000001,-122.009163,0
			38.0924990000001,-122.009445,0
			38.093056,-122.010002,0
			38.093056,-122.010834,0
			38.0933340000001,-122.011108,0
			38.0933340000001,-122.011665,0
			38.0936130000001,-122.011948,0
			38.0936130000001,-122.012497,0
			38.0938870000001,-122.012779,0
			38.0938870000001,-122.013054,0
			38.094166,-122.013336,0
			38.0938870000001,-122.013611,0
			38.0938870000001,-122.014168,0
			38.094166,-122.014442,0
			38.094166,-122.014999,0
			38.0944440000001,-122.015274,0
			38.0944440000001,-122.015556,0
			38.0947230000001,-122.015831,0
			38.0947230000001,-122.016388,0
			38.095001,-122.01667,0
			38.095001,-122.017502,0
			38.0952760000002,-122.017776,0
			38.0952760000002,-122.018059,0
			38.0958330000001,-122.018608,0
			38.0958330000001,-122.01889,0
			38.0961110000002,-122.019165,0
			38.0961530000001,-122.01944,0
			38.0966680000001,-122.019997,0
			38.0969430000001,-122.019997,0
			38.097221,-122.019722,0
			38.097221,-122.019447,0
			38.0975,-122.019165,0
			38.097221,-122.01889,0
			38.097221,-122.018059,0
			38.0975,-122.017776,0
			38.0975,-122.01722,0
			38.098331,-122.016388,0
			38.098331,-122.016113,0
			38.0986100000002,-122.015831,0
			38.0986100000002,-122.015556,0
			38.0988880000001,-122.015274,0
			38.0976560000001,-122.014046,0
			38.097221,-122.013611,0
			38.097221,-122.013336,0
			38.0975,-122.013054,0
			38.0977780000001,-122.013054,0
			38.0980570000001,-122.012779,0
			38.0980570000001,-122.012497,0
			38.098331,-122.012222,0
			38.098331,-122.011948,0
			38.0986100000002,-122.011665,0
			38.0986100000002,-122.011108,0
			38.0988880000001,-122.010834,0
			38.0988880000001,-122.010277,0
			38.0991670000001,-122.010002,0
			38.0988880000001,-122.00972,0
			38.0988880000001,-122.009445,0
			38.0994450000002,-122.008888,0
			38.0994450000002,-122.008614,0
			38.0997240000002,-122.008331,0
			38.0997240000002,-122.008057,0
			38.1002770000001,-122.0075,0
			38.1002770000001,-122.007225,0
			38.1004140000001,-122.007088,0
			38.1011120000001,-122.006386,0
			38.1011120000001,-122.006111,0
			38.1013870000001,-122.006111,0
			38.101665,-122.006386,0
			38.1019440000002,-122.006386,0
			38.1022220000001,-122.006111,0
			38.1022220000001,-122.005836,0
			38.1019440000002,-122.005554,0
			38.1019440000002,-122.004723,0
			38.101665,-122.004448,0
			38.101665,-122.003891,0
			38.1013870000001,-122.003609,0
			38.1013870000001,-122.003334,0
			38.1019440000002,-122.002777,0
			38.1019440000002,-122.002502,0
			38.1022220000001,-122.00222,0
			38.1022220000001,-122.001945,0
			38.1025010000001,-122.001663,0
			38.1025010000001,-122.001511,0
			38.1025010000001,-122.000832,0
			38.1027790000002,-122.000557,0
			38.1027790000002,-122.000275,0
			38.103054,-122,0
			38.1034050000001,-121.999763,0
			38.1038890000002,-121.999443,0
			38.1039470000002,-121.997498,0
			38.1041680000002,-121.997223,0
			38.1041260000001,-121.996895,0
			38.1047210000001,-121.996391,0
			38.1052780000002,-121.995834,0
			38.1052780000002,-121.995277,0
			38.1055560000001,-121.995003,0
			38.1055560000001,-121.994614,0
			38.1055560000001,-121.993057,0
			38.1058350000001,-121.992775,0
			38.1058350000001,-121.9925,0
			38.1063880000002,-121.991943,0
			38.1066670000002,-121.991943,0
			38.1069450000001,-121.991669,0
			38.1074980000002,-121.991669,0
			38.1088910000001,-121.993057,0
			38.1092150000001,-121.993095,0
			38.109467,-121.99279,0
			38.1094440000001,-121.9925,0
			38.1097220000001,-121.992226,0
			38.1097220000001,-121.991943,0
			38.110283,-121.991379,0
			38.1105540000001,-121.991112,0
			38.1108320000002,-121.990837,0
			38.1108320000002,-121.990555,0
			38.1111110000002,-121.99028,0
			38.1111110000002,-121.989998,0
			38.1113890000001,-121.989723,0
			38.1116680000001,-121.989441,0
			38.1116680000001,-121.988892,0
			38.1119460000002,-121.988609,0
			38.1119460000002,-121.988052,0
			38.1120680000001,-121.98793,0
			38.1122210000001,-121.987778,0
			38.1122210000001,-121.987221,0
			38.1124990000001,-121.986946,0
			38.1124990000001,-121.986115,0
			38.112778,-121.985832,0
			38.112778,-121.985558,0
			38.1133040000001,-121.985031,0
			38.1141660000001,-121.984169,0
			38.1150020000001,-121.984169,0
			38.1152760000002,-121.984444,0
			38.1155550000001,-121.984444,0
			38.116112,-121.985001,0
			38.1163900000001,-121.985001,0
			38.1166650000001,-121.985275,0
			38.1177790000002,-121.985275,0
			38.118057,-121.985558,0
			38.1183320000001,-121.985558,0
			38.1186100000002,-121.985832,0
			38.1188890000001,-121.985832,0
			38.1197200000001,-121.986664,0
			38.1199990000001,-121.986664,0
			38.1211130000001,-121.987778,0
			38.121387,-121.987778,0
			38.1216660000001,-121.988052,0
			38.1219440000002,-121.988052,0
			38.1222230000001,-121.988335,0
			38.1225010000001,-121.988335,0
			38.122776,-121.988609,0
			38.123055,-121.988609,0
			38.1233330000001,-121.988892,0
			38.123611,-121.988892,0
			38.1244430000002,-121.989723,0
			38.1247220000001,-121.989723,0
			38.1252780000001,-121.99028,0
			38.1255570000001,-121.99028,0
			38.12611,-121.990837,0
			38.1263890000002,-121.990837,0
			38.1272240000002,-121.991669,0
			38.1274990000001,-121.991669,0
			38.128334,-121.9925,0
			38.128613,-121.9925,0
			38.1311110000001,-121.995003,0
			38.1313900000001,-121.995003,0
			38.131943,-121.995552,0
			38.1322210000001,-121.995552,0
			38.132778,-121.996109,0
			38.1330570000002,-121.996109,0
			38.1358340000001,-121.998886,0
			38.1358340000001,-121.999168,0
			38.1363910000002,-121.999725,0
			38.1372220000002,-122,0
			38.1369440000001,-122.000557,0
			38.1375010000002,-122.001114,0
			38.1375010000002,-122.001389,0
			38.1380540000001,-122.001945,0
			38.1380540000001,-122.00222,0
			38.138332,-122.002502,0
			38.138332,-122.002777,0
			38.138611,-122.003052,0
			38.138611,-122.003334,0
			38.1394460000002,-122.004166,0
			38.1394460000002,-122.004723,0
			38.1397210000002,-122.004997,0
			38.1397210000002,-122.00528,0
			38.1399990000001,-122.005554,0
			38.1399990000001,-122.005836,0
			38.1402590000001,-122.006348,0
			38.1403430000001,-122.006516,0
			38.1405560000002,-122.006943,0
			38.1405560000002,-122.007225,0
			38.1408350000002,-122.0075,0
			38.1408350000002,-122.011108,0
			38.1405560000002,-122.011391,0
			38.1405560000002,-122.011665,0
			38.1402780000001,-122.011948,0
			38.1402780000001,-122.012497,0
			38.1399990000001,-122.012779,0
			38.1399990000001,-122.013054,0
			38.1397210000002,-122.013336,0
			38.1397210000002,-122.013885,0
			38.1394460000002,-122.014168,0
			38.1394460000002,-122.014442,0
			38.1391940000001,-122.014694,0
			38.1388890000001,-122.014999,0
			38.138611,-122.016113,0
			38.138611,-122.016388,0
			38.138332,-122.01667,0
			38.138332,-122.01722,0
			38.1380540000001,-122.017502,0
			38.1380540000001,-122.018059,0
			38.1377790000001,-122.018333,0
			38.1377790000001,-122.01889,0
			38.1375010000002,-122.019165,0
			38.1375010000002,-122.019722,0
			38.1378060000002,-122.020004,0
			38.1377370000002,-122.020271,0
			38.1380540000001,-122.020554,0
			38.1380540000001,-122.021385,0
			38.1388890000001,-122.022224,0
			38.1388890000001,-122.022499,0
			38.138611,-122.022781,0
			38.138611,-122.023331,0
			38.138332,-122.023613,0
			38.138332,-122.02417,0
			38.1380540000001,-122.024445,0
			38.1380540000001,-122.025276,0
			38.1375010000002,-122.025833,0
			38.1375010000002,-122.026665,0
			38.1372220000002,-122.026947,0
			38.1372220000002,-122.028336,0
			38.1375010000002,-122.02861,0
			38.1375010000002,-122.028893,0
			38.1377790000001,-122.029167,0
			38.1377790000001,-122.029442,0
			38.1380540000001,-122.029724,0
			38.1380540000001,-122.030281,0
			38.1377790000001,-122.030556,0
			38.1377790000001,-122.031113,0
			38.1375010000002,-122.031387,0
			38.1375010000002,-122.03167,0
			38.1377790000001,-122.031944,0
			38.1377790000001,-122.033333,0
			38.1380540000001,-122.033607,0
			38.1380540000001,-122.03389,0
			38.1377790000001,-122.034164,0
			38.1377790000001,-122.034447,0
			38.1372220000002,-122.035004,0
			38.1372220000002,-122.035278,0
			38.1370160000002,-122.035484,0
			38.1366650000001,-122.035835,0
			38.1366650000001,-122.036392,0
			38.1363910000002,-122.036667,0
			38.136402,-122.036957,0
			38.1366650000001,-122.037224,0
			38.1366650000001,-122.038055,0
			38.1369440000001,-122.03833,0
			38.1369440000001,-122.039444,0
			38.1366650000001,-122.039719,0
			38.1366650000001,-122.041389,0
			38.1369440000001,-122.041664,0
			38.1369440000001,-122.042778,0
			38.1372220000002,-122.043053,0
			38.1372220000002,-122.043892,0
			38.1369440000001,-122.044167,0
			38.1372220000002,-122.044441,0
			38.1372220000002,-122.044724,0
			38.1375010000002,-122.044998,0
			38.1380540000001,-122.044998,0
			38.138332,-122.04528,0
			38.1380540000001,-122.045555,0
			38.1380540000001,-122.04583,0
			38.1377790000001,-122.046112,0
			38.1375010000002,-122.046112,0
			38.1372220000002,-122.046387,0
			38.1369440000001,-122.046387,0
			38.1358340000001,-122.047501,0
			38.136112,-122.047775,0
			38.136112,-122.048058,0
			38.1358340000001,-122.048332,0
			38.1358340000001,-122.048615,0
			38.1355550000001,-122.048889,0
			38.1355550000001,-122.049164,0
			38.135277,-122.049446,0
			38.135277,-122.049721,0
			38.1350400000001,-122.049957,0
			38.1347240000001,-122.050278,0
			38.1347240000001,-122.050552,0
			38.1344450000001,-122.050835,0
			38.1344450000001,-122.051109,0
			38.1338880000002,-122.051666,0
			38.1338880000002,-122.051941,0
			38.1336100000001,-122.052223,0
			38.1336100000001,-122.053688,0
			38.1336100000001,-122.053886,0
			38.1334300000001,-122.05407,0
			38.1333350000001,-122.054169,0
			38.1333960000002,-122.054718,0
			38.1334040000001,-122.054794,0
			38.1336100000001,-122.055,0
			38.1336100000001,-122.055557,0
			38.1338880000002,-122.055832,0
			38.1338880000002,-122.056114,0
			38.134167,-122.056389,0
			38.134167,-122.056664,0
			38.134998,-122.057503,0
			38.135277,-122.057503,0
			38.1372220000002,-122.059448,0
			38.1375010000002,-122.059448,0
			38.1377790000001,-122.059723,0
			38.1380540000001,-122.059723,0
			38.13818,-122.059753,0
			38.1385650000001,-122.059814,0
			38.1386800000002,-122.059891,0
			38.1384810000001,-122.059937,0
			38.138332,-122.059998,0
			38.138298,-122.060112,0
			38.138332,-122.06028,0
			38.1385350000001,-122.060295,0
			38.1387630000002,-122.060463,0
			38.1387410000001,-122.060768,0
			38.1386450000002,-122.061089,0
			38.1387480000001,-122.06131,0
			38.1385960000002,-122.061661,0
			38.1384470000001,-122.061821,0
			38.138332,-122.061943,0
			38.138176,-122.062088,0
			38.1379620000001,-122.062317,0
			38.137703,-122.062492,0
			38.1375010000002,-122.062225,0
			38.135277,-122.062225,0
			38.134998,-122.0625,0
			38.1336100000001,-122.0625,0
			38.1333350000001,-122.062225,0
			38.1330570000002,-122.062225,0
			38.1325000000001,-122.061668,0
			38.1322210000001,-122.061943,0
			38.131943,-122.061668,0
			38.1313900000001,-122.061668,0
			38.1311110000001,-122.061943,0
			38.130833,-122.061943,0
			38.1305540000002,-122.061668,0
			38.128613,-122.061668,0
			38.128334,-122.061386,0
			38.1272240000002,-122.061386,0
			38.126945,-122.061668,0
			38.1263890000002,-122.061668,0
			38.12611,-122.061943,0
			38.1255570000001,-122.061943,0
			38.1250000000001,-122.0625,0
			38.1247220000001,-122.0625,0
			38.1238900000002,-122.063332,0
			38.1238900000002,-122.063889,0
			38.123611,-122.064163,0
			38.123611,-122.064445,0
			38.1233330000001,-122.06472,0
			38.123055,-122.064445,0
			38.1211130000001,-122.064445,0
			38.1199990000001,-122.065552,0
			38.1197200000001,-122.065552,0
			38.1191670000001,-122.065002,0
			38.1188890000001,-122.065002,0
			38.118057,-122.064163,0
			38.116943,-122.064163,0
			38.1166650000001,-122.063889,0
			38.116112,-122.063889,0
			38.1158330000001,-122.064163,0
			38.1152760000002,-122.064163,0
			38.1150020000001,-122.064445,0
			38.1141660000001,-122.064445,0
			38.1136090000001,-122.06472,0
			38.112778,-122.06472,0
			38.1124990000001,-122.065002,0
			38.1119460000002,-122.065002,0
			38.1116680000001,-122.065277,0
			38.110279,-122.065834,0
			38.1097220000001,-122.065834,0
			38.1094440000001,-122.066109,0
			38.1091650000001,-122.066109,0
			38.1088910000001,-122.066391,0
			38.1086120000002,-122.066391,0
			38.1074980000002,-122.067497,0
			38.1072240000001,-122.067497,0
			38.1066670000002,-122.068054,0
			38.1063880000002,-122.068054,0
			38.1050000000001,-122.069443,0
			38.1047210000001,-122.069443,0
			38.0994450000002,-122.074722,0
			38.0994450000002,-122.074997,0
			38.0975,-122.076942,0
			38.0975,-122.077225,0
			38.0969430000001,-122.077774,0
			38.0969430000001,-122.078056,0
			38.09639,-122.078613,0
			38.09639,-122.078888,0
			38.0958330000001,-122.079445,0
			38.0958330000001,-122.07972,0
			38.0944440000001,-122.081108,0
			38.0944440000001,-122.08139,0
			38.093056,-122.082779,0
			38.093056,-122.083054,0
			38.0919460000002,-122.084167,0
			38.0919460000002,-122.084442,0
			38.091667,-122.084724,0
			38.091667,-122.084999,0
			38.0897220000001,-122.086945,0
			38.0897220000001,-122.087219,0
			38.089443,-122.087502,0
			38.089443,-122.087776,0
			38.088333,-122.08889,0
			38.088333,-122.089165,0
			38.0872230000001,-122.090279,0
			38.0872230000001,-122.090553,0
			38.0866660000002,-122.09111,0
			38.0866660000002,-122.091393,0
			38.0861130000002,-122.091942,0
			38.0858350000001,-122.091942,0
			38.0847210000001,-122.093056,0
			38.0847210000001,-122.093613,0
			38.0836110000001,-122.094719,0
			38.0836110000001,-122.095276,0
			38.0822220000001,-122.096664,0
			38.0822220000001,-122.096947,0
			38.081944,-122.097221,0
			38.081665,-122.097221,0
			38.0813900000001,-122.097504,0
			38.0811120000001,-122.097504,0
			38.079166,-122.099442,0
			38.079166,-122.099724,0
			38.078335,-122.100555,0
			38.078335,-122.10083,0
			38.0777780000001,-122.101387,0
			38.0777780000001,-122.101944,0
			38.0772210000001,-122.102501,0
			38.0772210000001,-122.102776,0
			38.0733340000002,-122.106667,0
			38.0733340000002,-122.106941,0
			38.0719450000001,-122.10833,0
			38.0719450000001,-122.108612,0
			38.0713880000001,-122.109169,0
			38.0711100000001,-122.109169,0
			38.0649990000001,-122.11528,0
			38.0649990000001,-122.115555,0
			38.0638890000001,-122.116669,0
			38.0636100000001,-122.116386,0
			38.0616680000002,-122.118332,0
			38.0613900000001,-122.118332,0
			38.0605550000001,-122.119164,0
			38.0602760000001,-122.119164,0
			38.05722,-122.122223,0
			38.0566670000001,-122.122223,0
			38.0555570000001,-122.123337,0
			38.055279,-122.123337,0
			38.05389,-122.124725,0
			38.0536120000001,-122.124443,0
			38.051945,-122.126114,0
			38.0513880000001,-122.126114,0
			38.0508350000002,-122.126663,0
			38.050556,-122.126663,0
			38.0502780000001,-122.126945,0
			38.049721,-122.126945,0
			38.0488890000001,-122.127777,0
			38.0486110000001,-122.127777,0
			38.048332,-122.127502,0
			38.0480540000001,-122.127502,0
			38.047501,-122.126945,0
			38.047222,-122.126945,0
			38.0458340000001,-122.127777,0
			38.0455550000001,-122.128334,0
			38.0447240000001,-122.129166,0
			38.0444450000001,-122.129723,0
			38.0436100000001,-122.130554,0
			38.0433350000001,-122.131111,0
			38.0425000000001,-122.131943,0
			38.0425000000001,-122.1325,0
			38.0422210000002,-122.132774,0
			38.0422210000002,-122.133614,0
			38.0419430000001,-122.133888,0
			38.0419430000001,-122.134445,0
			38.0430560000001,-122.136406,0
			38.0430560000001,-122.137222,0
			38.0427250000001,-122.137482,0
			38.0430560000001,-122.137779,0
			38.0430560000001,-122.138336,0
			38.0427780000001,-122.138611,0
			38.0427780000001,-122.139999,0
			38.0430560000001,-122.140274,0
			38.0430560000001,-122.140556,0
			38.0433350000001,-122.140831,0
			38.0433350000001,-122.14222,0
			38.0430560000001,-122.142502,0
			38.0430560000001,-122.144722,0
			38.0427780000001,-122.144997,0
			38.0427780000001,-122.145279,0
			38.0425000000001,-122.145554,0
			38.0425000000001,-122.145836,0
			38.0422210000002,-122.146111,0
			38.0422210000002,-122.147781,0
			38.0419430000001,-122.148056,0
			38.0419430000001,-122.148613,0
			38.0422210000002,-122.148888,0
			38.0422210000002,-122.14917,0
			38.0425000000001,-122.149445,0
			38.0422210000002,-122.149719,0
			38.0422210000002,-122.151108,0
			38.0425000000001,-122.15139,0
			38.0425000000001,-122.151947,0
			38.0422210000002,-122.152222,0
			38.0422210000002,-122.152496,0
			38.041908,-122.152786,0
			38.0419500000001,-122.153061,0
			38.0436100000001,-122.154724,0
			38.0436100000001,-122.154999,0
			38.0433350000001,-122.155281,0
			38.0433350000001,-122.15583,0
			38.04348,-122.15667,0
			38.0436100000001,-122.157776,0
			38.0431440000002,-122.158768,0
			38.0433010000002,-122.15889,0
			38.0433010000002,-122.159164,0
			38.0433350000001,-122.159447,0
			38.0433350000001,-122.16111,0
			38.0436100000001,-122.161392,0
			38.0436100000001,-122.162498,0
			38.044167,-122.163055,0
			38.0449980000001,-122.163055,0
			38.0452770000001,-122.162781,0
			38.0455550000001,-122.162781,0
			38.0458340000001,-122.162498,0
			38.0461120000001,-122.162498,0
			38.046391,-122.162781,0
			38.0466650000001,-122.162781,0
			38.0469440000001,-122.163055,0
			38.047222,-122.163055,0
			38.0480540000001,-122.162224,0
			38.0480540000001,-122.161942,0
			38.048332,-122.161667,0
			38.0486110000001,-122.161667,0
			38.0488890000001,-122.161392,0
			38.0491680000001,-122.161392,0
			38.049446,-122.161667,0
			38.049721,-122.161667,0
			38.0499990000001,-122.161942,0
			38.0502780000001,-122.161942,0
			38.0511090000001,-122.162781,0
			38.0511090000001,-122.163055,0
			38.0513880000001,-122.16333,0
			38.0513880000001,-122.163612,0
			38.051945,-122.164169,0
			38.0527760000001,-122.164169,0
			38.053055,-122.164444,0
			38.053055,-122.164719,0
			38.0533330000001,-122.165001,0
			38.0533330000001,-122.165276,0
			38.0536120000001,-122.165558,0
			38.0536120000001,-122.166389,0
			38.0533330000001,-122.166664,0
			38.0533330000001,-122.168053,0
			38.0536120000001,-122.168335,0
			38.0536120000001,-122.16861,0
			38.05389,-122.168892,0
			38.05389,-122.169167,0
			38.0555570000001,-122.17083,0
			38.0555570000001,-122.171387,0
			38.0558320000001,-122.171669,0
			38.0558320000001,-122.171944,0
			38.056389,-122.172501,0
			38.0569460000001,-122.173332,0
			38.0569460000001,-122.173889,0
			38.0583340000002,-122.175552,0
			38.0588870000001,-122.175003,0
			38.059444,-122.175003,0
			38.0602760000001,-122.175835,0
			38.0602760000001,-122.176109,0
			38.0605550000001,-122.176392,0
			38.0605550000001,-122.176941,0
			38.0611110000001,-122.177498,0
			38.0611110000001,-122.17778,0
			38.0616680000002,-122.178337,0
			38.0616680000002,-122.178886,0
			38.061943,-122.179169,0
			38.061943,-122.179443,0
			38.0622220000002,-122.179726,0
			38.0622220000002,-122.180275,0
			38.0630570000002,-122.181114,0
			38.0633320000002,-122.181664,0
			38.0641670000002,-122.182503,0
			38.0644450000001,-122.183052,0
			38.0647240000001,-122.183052,0
			38.0655560000002,-122.183334,0
			38.0669440000001,-122.183609,0
			38.0672230000001,-122.183891,0
			38.0675010000002,-122.183891,0
			38.0683330000001,-122.184723,0
			38.0683330000001,-122.18528,0
			38.0686110000001,-122.185555,0
			38.069168,-122.187225,0
			38.0697210000002,-122.187775,0
			38.0697210000002,-122.188057,0
			38.0700000000002,-122.188332,0
			38.0700000000002,-122.189445,0
			38.0697210000002,-122.18972,0
			38.0697210000002,-122.190002,0
			38.0694430000001,-122.190277,0
			38.0694430000001,-122.190552,0
			38.069168,-122.190552,0
			38.06868,-122.19104,0
			38.0686000000001,-122.191055,0
			38.0683330000001,-122.191109,0
			38.0680540000001,-122.191391,0
			38.0677800000001,-122.191391,0
			38.0672230000001,-122.191948,0
			38.0669440000001,-122.191948,0
			38.0666660000002,-122.192223,0
			38.0663870000002,-122.192223,0
			38.0661130000001,-122.192497,0
			38.0644450000001,-122.192497,0
			38.0641670000002,-122.19278,0
			38.0636100000001,-122.19278,0
			38.0633320000002,-122.192497,0
			38.0613900000001,-122.192497,0
			38.0611110000001,-122.19278,0
			38.0608330000002,-122.19278,0
			38.0600010000001,-122.193611,0
			38.0600010000001,-122.195557,0
			38.0602760000001,-122.195831,0
			38.0602760000001,-122.197777,0
			38.0605550000001,-122.198059,0
			38.0605550000001,-122.198418,0
			38.0605550000001,-122.198891,0
			38.0608330000002,-122.199165,0
			38.0608330000002,-122.199722,0
			38.0611110000001,-122.199997,0
			38.0611110000001,-122.200279,0
			38.0622220000002,-122.201385,0
			38.0625000000001,-122.201385,0
			38.062778,-122.201668,0
			38.0630570000002,-122.201668,0
			38.0638890000001,-122.202499,0
			38.0638890000001,-122.202774,0
			38.0655560000002,-122.204445,0
			38.0658340000001,-122.204445,0
			38.0666660000002,-122.205276,0
			38.0669440000001,-122.205276,0
			38.0672230000001,-122.205559,0
			38.0672230000001,-122.205833,0
			38.0675010000002,-122.206108,0
			38.0675010000002,-122.206665,0
			38.0672230000001,-122.206947,0
			38.0672230000001,-122.207222,0
			38.0669440000001,-122.207497,0
			38.0669440000001,-122.207779,0
			38.0666660000002,-122.208054,0
			38.0666660000002,-122.208336,0
			38.0658340000001,-122.209167,0
			38.0658340000001,-122.211662,0
			38.0658340000001,-122.215836,0
			38.0655560000002,-122.21611,0
			38.0655560000002,-122.21833,0
			38.065277,-122.218613,0
			38.065277,-122.220833,0
			38.0649990000001,-122.221107,0
			38.0649990000001,-122.221947,0
			38.065277,-122.222221,0
			38.065155,-122.224442,0
			38.0649680000002,-122.224998,0
			38.065434,-122.22583,0
			38.0655560000002,-122.227219,0
			38.0654980000002,-122.227654,0
			38.0657770000001,-122.227936,0
			38.0655560000002,-122.228889,0
			38.065277,-122.229164,0
			38.0652200000001,-122.231087,0
			38.0663870000002,-122.231667,0
			38.0669440000001,-122.23111,0
			38.0672230000001,-122.231392,0
			38.0675010000002,-122.231392,0
			38.0686110000001,-122.232498,0
			38.0686110000001,-122.23278,0
			38.0688900000002,-122.233055,0
			38.0688900000002,-122.233887,0
			38.069168,-122.234169,0
			38.069168,-122.234444,0
			38.0694430000001,-122.234726,0
			38.0694430000001,-122.235001,0
			38.0700000000002,-122.235558,0
			38.0700000000002,-122.235832,0
			38.0702780000001,-122.236389,0
			38.0711100000001,-122.237221,0
			38.0713880000001,-122.237778,0
			38.071667,-122.237778,0
			38.0738910000001,-122.239998,0
			38.0738910000001,-122.24028,0
			38.0744440000001,-122.24028,0
			38.0747220000001,-122.239998,0
			38.0752790000001,-122.239998,0
			38.0755540000002,-122.24028,0
			38.075832,-122.24028,0
			38.0774990000002,-122.241943,0
			38.0777780000001,-122.241943,0
			38.0786090000001,-122.242775,0
			38.0786090000001,-122.243057,0
			38.0788880000001,-122.243332,0
			38.0788880000001,-122.243614,0
			38.079166,-122.243889,0
			38.079166,-122.244446,0
			38.079445,-122.24472,0
			38.079445,-122.245552,0
			38.078354,-122.246651,0
			38.0780560000001,-122.246666,0
			38.0772210000001,-122.247498,0
			38.0766680000002,-122.247658,0
			38.075001,-122.249168,0
			38.0730550000002,-122.250832,0
			38.0724980000001,-122.251389,0
			38.0719450000001,-122.251389,0
			38.071667,-122.251663,0
			38.0713880000001,-122.251663,0
			38.0711100000001,-122.251389,0
			38.0705570000001,-122.251389,0
			38.0702780000001,-122.251114,0
			38.0697210000002,-122.251114,0
			38.0694430000001,-122.251389,0
			38.069168,-122.251389,0
			38.069168,-122.251945,0
			38.0694430000001,-122.25222,0
			38.0697210000002,-122.25222,0
			38.0702780000001,-122.252777,0
			38.0708350000002,-122.252777,0
			38.0711100000001,-122.253052,0
			38.0713880000001,-122.253052,0
			38.0718380000002,-122.253502,0
			38.0724980000001,-122.254166,0
			38.0724980000001,-122.254997,0
			38.0722240000001,-122.25528,0
			38.0722240000001,-122.255554,0
			38.0719450000001,-122.255836,0
			38.0713880000001,-122.255836,0
			38.0711100000001,-122.256111,0
			38.0708350000002,-122.256111,0
			38.0705570000001,-122.256386,0
			38.0702780000001,-122.256386,0
			38.0700000000002,-122.256668,0
			38.0697630000001,-122.256668,0
			38.0688900000002,-122.2575,0
			38.0688900000002,-122.257774,0
			38.0686110000001,-122.258057,0
			38.0686110000001,-122.258614,0
			38.0683330000001,-122.258888,0
			38.0683330000001,-122.260002,0
			38.0680540000001,-122.260277,0
			38.0680540000001,-122.261024,0
			38.0680540000001,-122.261665,0
			38.0677800000001,-122.261948,0
			38.0677800000001,-122.263336,0
			38.0675010000002,-122.263611,0
			38.0675010000002,-122.265274,0
			38.0672230000001,-122.265556,0
			38.0672230000001,-122.268608,0
			38.0669440000001,-122.26889,0
			38.0669440000001,-122.269997,0
			38.0666660000002,-122.270279,0
			38.0666660000002,-122.270859,0
			38.0666660000002,-122.271667,0
			38.0663870000002,-122.271942,0
			38.0663870000002,-122.272781,0
			38.0661130000001,-122.273056,0
			38.0661130000001,-122.27417,0
			38.0666660000002,-122.274719,0
			38.0669440000001,-122.275276,0
			38.0677800000001,-122.275276,0
			38.0680540000001,-122.275558,0
			38.0686110000001,-122.275558,0
			38.0688900000002,-122.275833,0
			38.0694430000001,-122.275833,0
			38.0697210000002,-122.276108,0
			38.0702780000001,-122.276108,0
			38.0705570000001,-122.27639,0
			38.0708350000002,-122.27639,0
			38.0711100000001,-122.276665,0
			38.0713880000001,-122.276665,0
			38.071667,-122.276947,0
			38.0719450000001,-122.276947,0
			38.0724980000001,-122.277496,0
			38.0727770000001,-122.277496,0
			38.0730550000002,-122.277779,0
			38.0733340000002,-122.277779,0
			38.0736120000001,-122.278053,0
			38.0738910000001,-122.278053,0
			38.0744440000001,-122.27861,0
			38.0747220000001,-122.27861,0
			38.075001,-122.278893,0
			38.0752790000001,-122.278893,0
			38.0755540000002,-122.279167,0
			38.075832,-122.279167,0
			38.0763890000001,-122.279724,0
			38.0766680000002,-122.279724,0
			38.076946,-122.279999,0
			38.0772210000001,-122.279999,0
			38.0774990000002,-122.280281,0
			38.0777780000001,-122.280281,0
			38.0783000000002,-122.280861,0
			38.0786090000001,-122.28083,0
			38.0797230000001,-122.281944,0
			38.0800020000001,-122.281944,0
			38.0811120000001,-122.283058,0
			38.0813900000001,-122.283058,0
			38.082779,-122.284447,0
			38.0830570000001,-122.284447,0
			38.0841670000001,-122.285553,0
			38.0844460000001,-122.285553,0
			38.0858350000001,-122.286942,0
			38.0861130000002,-122.286942,0
			38.0872230000001,-122.288055,0
			38.087502,-122.288055,0
			38.0877760000001,-122.28833,0
			38.0880550000001,-122.28833,0
			38.0886120000002,-122.288887,0
			38.0888900000001,-122.288887,0
			38.089443,-122.289444,0
			38.0897220000001,-122.289444,0
			38.0911100000001,-122.290833,0
			38.0913890000001,-122.290833,0
			38.095001,-122.294441,0
			38.095001,-122.294724,0
			38.09639,-122.296112,0
			38.09639,-122.296387,0
			38.0969430000001,-122.296944,0
			38.0966680000001,-122.297226,0
			38.0966680000001,-122.297775,0
			38.0969430000001,-122.298058,0
			38.0969430000001,-122.298332,0
			38.0972520000001,-122.298576,0
			38.098331,-122.299446,0
			38.0988880000001,-122.300003,0
			38.0994450000002,-122.300003,0
			38.1008340000002,-122.301392,0
			38.1033330000002,-122.305275,0
			38.1033330000002,-122.305557,0
			38.1047210000001,-122.30722,0
			38.1050000000001,-122.307503,0
			38.1050000000001,-122.308052,0
			38.1047210000001,-122.308334,0
			38.1050000000001,-122.308609,0
			38.1050000000001,-122.309166,0
			38.1058350000001,-122.309998,0
			38.1058350000001,-122.310555,0
			38.1063880000002,-122.311111,0
			38.1069450000001,-122.311111,0
			38.1074980000002,-122.311668,0
			38.1074980000002,-122.311943,0
			38.1077770000002,-122.312225,0
			38.1077770000002,-122.3125,0
			38.1091650000001,-122.313889,0
			38.1091650000001,-122.314163,0
			38.1094440000001,-122.314445,0
			38.1094440000001,-122.315002,0
			38.1100010000001,-122.315552,0
			38.1100010000001,-122.315834,0
			38.110279,-122.316109,0
			38.1100010000001,-122.316391,0
			38.1100010000001,-122.316948,0
			38.1119460000002,-122.318886,0
			38.1119460000002,-122.319168,0
			38.1124990000001,-122.319725,0
			38.1124990000001,-122.32,0
			38.112778,-122.320274,0
			38.112778,-122.320557,0
			38.1130560000001,-122.320831,0
			38.1130560000001,-122.321114,0
			38.1136090000001,-122.321663,0
			38.1136090000001,-122.321945,0
			38.1138880000001,-122.32222,0
			38.1138880000001,-122.322777,0
			38.1144450000002,-122.323334,0
			38.1144450000002,-122.324165,0
			38.114723,-122.324448,0
			38.114723,-122.324722,0
			38.116112,-122.326111,0
			38.116112,-122.326668,0
			38.1166650000001,-122.327225,0
			38.1166650000001,-122.327499,0
			38.116943,-122.327774,0
			38.116943,-122.328613,0
			38.1175000000001,-122.32917,0
			38.1175000000001,-122.329445,0
			38.1186100000002,-122.330559,0
			38.1186100000002,-122.330833,0
			38.1188890000001,-122.331108,0
			38.1188890000001,-122.33139,0
			38.1191670000001,-122.331665,0
			38.1191670000001,-122.332222,0
			38.119446,-122.332497,0
			38.119446,-122.333054,0
			38.1197200000001,-122.333336,0
			38.1197200000001,-122.333611,0
			38.1199990000001,-122.333885,0
			38.1199990000001,-122.334167,0
			38.120277,-122.334442,0
			38.120277,-122.334999,0
			38.120556,-122.335281,0
			38.120556,-122.335831,0
			38.121387,-122.33667,0
			38.121387,-122.336945,0
			38.1216660000001,-122.337219,0
			38.1216660000001,-122.337502,0
			38.121387,-122.337502,0
			38.121387,-122.337776,0
			38.1219440000002,-122.338333,0
			38.1219440000002,-122.338608,0
			38.1222230000001,-122.33889,0
			38.1222230000001,-122.339447,0
			38.1225010000001,-122.339722,0
			38.1225010000001,-122.340279,0
			38.122776,-122.340553,0
			38.122776,-122.340836,0
			38.123055,-122.34111,0
			38.123055,-122.341393,0
			38.1241680000001,-122.342499,0
			38.1241680000001,-122.342781,0
			38.1250000000001,-122.343613,0
			38.1250000000001,-122.344444,0
			38.1252780000001,-122.344719,0
			38.1252780000001,-122.345276,0
			38.1255570000001,-122.345558,0
			38.1255570000001,-122.346107,0
			38.12611,-122.346664,0
			38.12611,-122.346947,0
			38.1263890000002,-122.346947,0
			38.1263890000002,-122.347504,0
			38.126945,-122.348053,0
			38.126945,-122.34861,0
			38.1272240000002,-122.348892,0
			38.1272240000002,-122.349167,0
			38.1274990000001,-122.349442,0
			38.1274990000001,-122.349724,0
			38.1277770000001,-122.349998,0
			38.1277770000001,-122.350555,0
			38.1280560000001,-122.35083,0
			38.1280560000001,-122.351669,0
			38.128334,-122.351944,0
			38.128334,-122.353058,0
			38.128613,-122.353333,0
			38.128613,-122.353889,0
			38.1288870000001,-122.354164,0
			38.1288870000001,-122.354721,0
			38.1291660000001,-122.355003,0
			38.1291660000001,-122.355278,0
			38.129444,-122.355553,0
			38.129444,-122.35611,0
			38.1297230000002,-122.356392,0
			38.1297230000002,-122.357224,0
			38.1300010000001,-122.357498,0
			38.1300010000001,-122.35778,0
			38.129444,-122.35833,0
			38.1302800000001,-122.359169,0
			38.1305540000002,-122.359169,0
			38.131668,-122.360275,0
			38.131943,-122.360275,0
			38.131943,-122.360558,0
			38.132778,-122.361389,0
			38.132778,-122.361664,0
			38.1330570000002,-122.361946,0
			38.1330570000002,-122.362221,0
			38.1333350000001,-122.362503,0
			38.1333350000001,-122.362778,0
			38.1330570000002,-122.363052,0
			38.1333350000001,-122.363052,0
			38.1336100000001,-122.363335,0
			38.1336100000001,-122.363609,0
			38.1338880000002,-122.363892,0
			38.1338880000002,-122.364166,0
			38.134167,-122.364441,0
			38.134167,-122.364723,0
			38.1344450000001,-122.364998,0
			38.1344450000001,-122.365555,0
			38.134998,-122.366112,0
			38.134998,-122.366386,0
			38.135277,-122.366669,0
			38.135277,-122.367226,0
			38.1355550000001,-122.3675,0
			38.1355550000001,-122.368057,0
			38.1358340000001,-122.368332,0
			38.1358340000001,-122.369446,0
			38.136112,-122.36972,0
			38.136112,-122.370277,0
			38.1363910000002,-122.370552,0
			38.1363910000002,-122.371109,0
			38.1366650000001,-122.371391,0
			38.1366650000001,-122.371666,0
			38.1369440000001,-122.371948,0
			38.1369440000001,-122.372223,0
			38.1372220000002,-122.372498,0
			38.1372220000002,-122.373055,0
			38.1375010000002,-122.373337,0
			38.1375010000002,-122.373611,0
			38.1380540000001,-122.374168,0
			38.1380540000001,-122.374725,0
			38.138332,-122.375,0
			38.138332,-122.375832,0
			38.138611,-122.376114,0
			38.138611,-122.376663,0
			38.1388890000001,-122.376945,0
			38.1388890000001,-122.377502,0
			38.1391680000001,-122.377777,0
			38.1391680000001,-122.378334,0
			38.1394460000002,-122.378609,0
			38.1394460000002,-122.379723,0
			38.1397210000002,-122.379997,0
			38.1397210000002,-122.380836,0
			38.1399990000001,-122.381111,0
			38.1399990000001,-122.381386,0
			38.1402780000001,-122.381668,0
			38.1402780000001,-122.381943,0
			38.1405560000002,-122.382225,0
			38.1405560000002,-122.383888,0
			38.1408350000002,-122.383888,0
			38.1411090000001,-122.384163,0
			38.1411090000001,-122.385002,0
			38.1416660000002,-122.385559,0
			38.1416660000002,-122.387497,0
			38.1419450000002,-122.387779,0
			38.1419450000002,-122.388336,0
			38.1422230000001,-122.388611,0
			38.1422230000001,-122.390274,0
			38.1430550000002,-122.391113,0
			38.1430550000002,-122.391388,0
			38.142776,-122.39167,0
			38.142776,-122.393333,0
			38.1430550000002,-122.393608,0
			38.1430550000002,-122.394447,0
			38.1433330000001,-122.394722,0
			38.1433330000001,-122.395836,0
			38.1436120000001,-122.396111,0
			38.1436120000001,-122.396385,0
			38.1438900000002,-122.396667,0
			38.1438900000002,-122.396942,0
			38.1444440000002,-122.396942,0
			38.1452790000001,-122.397781,0
			38.1448290000001,-122.398224,0
			38.1508710000001,-122.403297,0
			38.1509350000001,-122.403627,0
			38.1510510000001,-122.404221,0
			38.157341,-122.406807,0
			38.158064,-122.406126,0
			38.1615100000002,-122.402878,0
			38.1622310000001,-122.391777,0
			38.161057,-122.381713,0
			38.1607210000001,-122.378838,0
			38.1564100000001,-122.369301,0
			38.1566200000001,-122.301392,0
			38.1564369990001,-122.301383988,0
			38.1563142840002,-122.298702491,0
		</coordinates>
	</polygon>
</kml>
