<?xml version="1.0" encoding="UTF-8"?>
<kml xmlns="http://earth.google.com/kml/2.2">
	<polygon id="USA_AR_Prairie" samplingProbability="1">
		<coordinates>
			34.56327057,-91.377906799,0
			34.5647010820001,-91.4844894409999,0
			34.5665016180001,-91.595542907,0
			34.5237998970002,-91.5957565319999,0
			34.5110816970002,-91.5958328249999,0
			34.5056304940001,-91.5958633419999,0
			34.4851913460002,-91.595962524,0
			34.4797401430001,-91.5959930429999,0
			34.4798011780001,-91.6160583499999,0
			34.481811523,-91.6779327399999,0
			34.485900879,-91.6784667969999,0
			34.4886207590002,-91.6795730589998,0
			34.4904403690001,-91.6806716909999,0
			34.4931793210001,-91.6817779549999,0
			34.4968109130002,-91.6812133789999,0
			34.4981689460001,-91.6795272819999,0
			34.499069214,-91.6784133899999,0
			34.5022506710001,-91.6767196659999,0
			34.5049705500002,-91.6761627199999,0
			34.5095100410002,-91.6750183109999,0
			34.51222992,-91.6733322139999,0
			34.5153999340001,-91.6710891719999,0
			34.5190391550001,-91.669403076,0
			34.5217590340001,-91.6671600349999,0
			34.5244712840002,-91.6643600459999,0
			34.5276412970001,-91.6610031119999,0
			34.529449463,-91.657646179,0
			34.5339698790002,-91.6498107919999,0
			34.5380516050002,-91.6458892809999,0
			34.5416603090002,-91.6408462519998,0
			34.5461921690002,-91.6358108509999,0
			34.5484619140001,-91.634117127,0
			34.5511817930002,-91.6341094969999,0
			34.5561790470001,-91.6335296639999,0
			34.5579910280001,-91.632408142,0
			34.5616188050001,-91.630157471,0
			34.5629806510001,-91.630706787,0
			34.5661697380002,-91.634040833,0
			34.5675506600002,-91.6368331909999,0
			34.5693817140001,-91.6412811279999,0
			34.5698394780002,-91.6451873779999,0
			34.5671386710001,-91.651885987,0
			34.568511963,-91.6557998649999,0
			34.5712394710001,-91.6568984989999,0
			34.5748786940001,-91.656883239,0
			34.576690674,-91.6585464469999,0
			34.5780715940001,-91.661338805,0
			34.5803489680001,-91.664115905,0
			34.5839805600002,-91.6641006469999,0
			34.5871505740001,-91.661849976,0
			34.5903320310001,-91.6601562499999,0
			34.5939598080002,-91.6595916749999,0
			34.5984992980001,-91.6578979489999,0
			34.6016693120002,-91.6556472779999,0
			34.6034889220001,-91.654533386,0
			34.608921051,-91.649482727,0
			34.612098695,-91.6477813719999,0
			34.6157302860001,-91.6466522219999,0
			34.6193618780002,-91.6466369629999,0
			34.6220817560002,-91.6449432369999,0
			34.624340057,-91.6427001959999,0
			34.6284294130002,-91.642677308,0
			34.6320610060002,-91.642112732,0
			34.635700226,-91.642646789,0
			34.6397895810001,-91.6431884769999,0
			34.6425209060002,-91.645408631,0
			34.6434402470002,-91.6470870969998,0
			34.644802093,-91.648750305,0
			34.647079467,-91.6520919789999,0
			34.649372102,-91.658226014,0
			34.6511993400001,-91.6604461679999,0
			34.6511993400001,-91.6632461539999,0
			34.6553001400001,-91.6660232539999,0
			34.6571311950001,-91.669372559,0
			34.6575889590002,-91.673278809,0
			34.662590026,-91.675491333,0
			34.6635093690001,-91.6777267449999,0
			34.663520813,-91.6805191039999,0
			34.6649017340001,-91.686660767,0
			34.6680793760002,-91.689437867,0
			34.6685409550001,-91.691116333,0
			34.6689987190001,-91.693336487,0
			34.6690101620001,-91.698379516,0
			34.6726493830002,-91.701156616,0
			34.6767387390001,-91.701141358,0
			34.6935501100002,-91.701072692,0
			34.7117118830001,-91.700447083,0
			34.7444114680001,-91.6986389149999,0
			34.7789192200001,-91.696838379,0
			34.8052597040002,-91.6950530999999,0
			34.8138809210001,-91.6950073249999,0
			34.9187812810002,-91.6918029779999,0
			34.9208297720001,-91.803359985,0
			34.982131957,-91.8020782469999,0
			35.0084609990001,-91.801437377,0
			35.0420608530002,-91.801361084,0
			35.0420608530002,-91.8007965099999,0
			35.042049408,-91.7979888909999,0
			35.04114151,-91.795188904,0
			35.0397720330002,-91.790138245,0
			35.0370292670001,-91.7822875979999,0
			35.0379295350002,-91.778923035,0
			35.040649414,-91.776657104,0
			35.0424613950001,-91.7738418569999,0
			35.0429115300001,-91.7699127199999,0
			35.044712067,-91.7631683339999,0
			35.0456199650001,-91.760917664,0
			35.0474205020002,-91.7553024279999,0
			35.0478591920001,-91.749679565,0
			35.049221039,-91.7474288939999,0
			35.0505790720001,-91.7451782229999,0
			35.0496597290001,-91.741806031,0
			35.0514602660001,-91.736190795,0
			35.0519104000001,-91.7316970819999,0
			35.053718567,-91.729446411,0
			35.0559806830001,-91.7271881109999,0
			35.0582389840002,-91.7193222049999,0
			35.0613899240001,-91.709762574,0
			35.0613899240001,-91.709197998,0
			35.0609321600001,-91.7063903809999,0
			35.0613708500002,-91.7024612419999,0
			35.0613594050002,-91.697967529,0
			35.0599899300001,-91.693481446,0
			35.0595207210001,-91.6895523069999,0
			35.0577087410001,-91.688430787,0
			35.0554313670002,-91.687316895,0
			35.0513305670002,-91.680603028,0
			35.0499496450001,-91.6766662599999,0
			35.0513114940001,-91.673858642,0
			35.0526618950001,-91.6704864509999,0
			35.053100585,-91.6654281619999,0
			35.050819398,-91.6598205559999,0
			35.049438476,-91.6564559939999,0
			35.0476188660001,-91.6519699089999,0
			35.0453300490001,-91.64805603,0
			35.0412406920001,-91.6463928219999,0
			35.038059235,-91.646400452,0
			35.0312500010001,-91.6441879259999,0
			35.0289688120001,-91.6430664059999,0
			35.0262413020002,-91.640838622,0
			35.0262413020002,-91.640281678,0
			35.025772095,-91.6363525389999,0
			35.0253105160001,-91.632987976,0
			35.0253105160001,-91.6324157719999,0
			35.0229988100001,-91.622329712,0
			35.0216102600002,-91.612792968,0
			35.0211486830001,-91.6105499269999,0
			35.0220489500001,-91.6077270499999,0
			35.0224990840002,-91.606613158,0
			35.0252113340001,-91.6032333369999,0
			35.026111603,-91.6009674059999,0
			35.0261001600001,-91.5976028439999,0
			35.02653122,-91.5903091439999,0
			35.0251502980001,-91.5858230589999,0
			35.0455818180001,-91.5851516719999,0
			35.0487594620001,-91.5856933599999,0
			35.0678291330001,-91.585586548,0
			35.0746421820001,-91.585556031,0
			35.0918922430001,-91.5848999029999,0
			35.0913505550001,-91.561866761,0
			35.0913391120001,-91.5573730459999,0
			35.0908088700002,-91.5399627679999,0
			35.0900497440001,-91.4657897939999,0
			35.087329864,-91.466377259,0
			35.085960388,-91.466377259,0
			35.0836791980001,-91.4624633779999,0
			35.0813903810001,-91.4591064459999,0
			35.0754699710001,-91.4541015619999,0
			35.0713615410002,-91.450202941,0
			35.0690803540002,-91.4485168449999,0
			35.0663604740002,-91.4496688839999,0
			35.0636596680002,-91.454742432,0
			35.063220977,-91.456993102,0
			35.0627784740001,-91.4603729249999,0
			35.0646095270002,-91.4637222299999,0
			35.0664520260001,-91.4682006839998,0
			35.0660209660002,-91.474937438,0
			35.063770295,-91.478332519,0
			35.0615119940001,-91.480026246,0
			35.0583190920001,-91.4778137199999,0
			35.0564994820002,-91.475006104,0
			35.0519104000001,-91.4643707279999,0
			35.0523414620002,-91.4593200679998,0
			35.0536804200001,-91.4548110969999,0
			35.0563621530001,-91.44580841,0
			35.0595092780001,-91.4407272349999,0
			35.0595092780001,-91.4384765619999,0
			35.0576820380001,-91.43737793,0
			35.0536117570001,-91.440216064,0
			35.0535888680002,-91.43460083,0
			35.0519104000001,-91.3728332509999,0
			35.050949097,-91.3638458249999,0
			35.0069122310001,-91.3647766109999,0
			35.0028305050002,-91.3648071299999,0
			34.9111213700001,-91.367256164,0
			34.911128998,-91.368927003,0
			34.902950287,-91.3695602419999,0
			34.9020690930001,-91.372932433,0
			34.90253067,-91.375183106,0
			34.9066505430001,-91.38130188,0
			34.9066619880001,-91.3829879769999,0
			34.9034996030002,-91.387496948,0
			34.8998603820001,-91.3852767939999,0
			34.8984794620001,-91.3824920659999,0
			34.8966217050001,-91.3729782099999,0
			34.8947792060001,-91.3701858519999,0
			34.891601563,-91.36908722,0
			34.8875007630002,-91.367446899,0
			34.8797492970001,-91.3602294929999,0
			34.8746986380001,-91.3513030999999,0
			34.8769416810001,-91.3456802359999,0
			34.8760185250001,-91.3440093999999,0
			34.8723907470002,-91.3440399169999,0
			34.8692321770001,-91.3468704219999,0
			34.8674507140001,-91.3524932849999,0
			34.8693008430001,-91.3608779909999,0
			34.8684196470001,-91.3648071299999,0
			34.8670501720002,-91.3648071299999,0
			34.8629302990001,-91.3581161509999,0
			34.8570098890002,-91.3548126219999,0
			34.8543014520001,-91.357078552,0
			34.8506813050002,-91.359909058,0
			34.8447799690001,-91.3605194089998,0
			34.842529298,-91.3638992319999,0
			34.843479157,-91.3711700429999,0
			34.833518983,-91.377410888,0
			34.8276100160001,-91.375778199,0
			34.8244018560002,-91.370773315,0
			34.8194122320002,-91.3707962029999,0
			34.7381210330001,-91.3720321659999,0
			34.710418702,-91.373931885,0
			34.666820527,-91.3748474129999,0
			34.6659202570002,-91.375968933,0
			34.6670990000001,-91.429595948,0
			34.6671905520001,-91.447486877,0
			34.653560638,-91.4475860589998,0
			34.6526489260001,-91.4470291129999,0
			34.6476593020001,-91.447067262,0
			34.6108703620001,-91.4478912349999,0
			34.6097908020001,-91.412719727,0
			34.5947990420001,-91.413391114,0
			34.5941505440002,-91.3759765629999,0
			34.56327057,-91.377906799,0
		</coordinates>
	</polygon>
</kml>
