<?xml version="1.0" encoding="UTF-8"?>
<kml xmlns="http://earth.google.com/kml/2.2">
	<polygon id="USA_MN_Rice" samplingProbability="1">
		<coordinates>
			44.5459785470001,-93.279792785,0
			44.4730186460002,-93.2825927729999,0
			44.4728698740001,-93.0406188969999,0
			44.1984405520002,-93.0405578619999,0
			44.1984596250001,-93.046302796,0
			44.197830201,-93.404586792,0
			44.198310853,-93.525093079,0
			44.546611787,-93.525856017,0
			44.5459785470001,-93.279792785,0
		</coordinates>
	</polygon>
</kml>
