<?xml version="1.0" encoding="UTF-8"?>
<kml xmlns="http://earth.google.com/kml/2.2">
	<polygon id="USA_NY_Cortland" samplingProbability="1">
		<coordinates>
			42.4139404290001,-75.863647462,0
			42.4075012220002,-76.0195159909999,0
			42.4129486100001,-76.019561768,0
			42.4106712330002,-76.125762939,0
			42.4081611630002,-76.2549362179999,0
			42.4144783020001,-76.255264283,0
			42.6221389770002,-76.2659988409999,0
			42.7711791990002,-76.274513245,0
			42.7812309270002,-76.0910263069998,0
			42.7872390740002,-75.953666687,0
			42.7897109990001,-75.8949813849999,0
			42.7238121040001,-75.8896102909999,0
			42.5016098020001,-75.8728179939999,0
			42.4144783020001,-75.863700867,0
			42.4139404290001,-75.863647462,0
		</coordinates>
	</polygon>
</kml>
