<?xml version="1.0" encoding="UTF-8"?>
<kml xmlns="http://earth.google.com/kml/2.2">
	<polygon id="USA_TN_Humphreys" samplingProbability="1">
		<coordinates>
			35.8414001470002,-87.9628829959999,0
			35.858940124,-87.9451599119999,0
			35.867198944,-87.9396972659999,0
			35.9114189150001,-87.927192688,0
			35.932769776,-87.925460815,0
			35.939460755,-87.932449342,0
			35.9416008000001,-87.940460205,0
			35.9375419620002,-87.9664993279998,0
			35.9368591300001,-87.9806823719999,0
			35.9393692030001,-87.9932479859999,0
			35.9467506410001,-88.0127716059998,0
			35.9520988470002,-88.0185928339999,0
			35.9674186720002,-88.025253296,0
			35.9778709420001,-88.0243988029999,0
			35.982448579,-88.021682739,0
			35.9922714240002,-88.004310607,0
			35.9954910280002,-88.0015487669999,0
			36.00461197,-87.998947143,0
			36.0249786370001,-88.0017623899998,0
			36.029090882,-88.0007324219999,0
			36.049732209,-87.9870529179998,0
			36.066799164,-87.9704208369999,0
			36.0797119140001,-87.957656861,0
			36.0916404730001,-87.949432373,0
			36.1099891660001,-87.9373702999999,0
			36.1224784860001,-87.9223098749999,0
			36.1416015620001,-87.9182357779998,0
			36.1656684870001,-87.916572571,0
			36.1817588810001,-87.931800842,0
			36.1862487790002,-87.9347610479999,0
			36.1952514660001,-87.9389877309999,0
			36.2209091180001,-87.9516220099999,0
			36.2431602480002,-87.9499130249999,0
			36.2407798770001,-87.92930603,0
			36.2364501960001,-87.887557983,0
			36.232620239,-87.842376709,0
			36.2446403500001,-87.798179627,0
			36.244441986,-87.7810592649999,0
			36.237369537,-87.73752594,0
			36.2251815800001,-87.701889038,0
			36.2136917120001,-87.680526734,0
			36.2016906750001,-87.662567138,0
			36.1962890620002,-87.592330932,0
			36.1858596810001,-87.5926818849999,0
			36.182498933,-87.57208252,0
			36.178039551,-87.5662918089999,0
			36.135108948,-87.5534362789999,0
			36.104358674,-87.5459671019998,0
			36.093040466,-87.5446090699999,0
			36.0621299750002,-87.549102784,0
			36.0544204710002,-87.5483703619999,0
			36.0357704170002,-87.551971436,0
			36.0235900890001,-87.5471725459998,0
			36.0163002020001,-87.5493011479999,0
			36.0063896180001,-87.5434112549999,0
			36.0000495910001,-87.5427093509999,0
			35.9937820430001,-87.536331177,0
			35.9851989750001,-87.5338821409999,0
			35.9720306410001,-87.5341796869999,0
			35.9604911800001,-87.5498733519999,0
			35.9512596130002,-87.561607362,0
			35.9474906930001,-87.57232666,0
			35.950500489,-87.584892273,0
			35.9544906610001,-87.5917968739999,0
			35.9501304620001,-87.612739563,0
			35.9460601810002,-87.611518861,0
			35.935890197,-87.624938965,0
			35.9266014100002,-87.641220093,0
			35.921859742,-87.6558761589999,0
			35.9172019960001,-87.6643066399999,0
			35.916511536,-87.6813430779999,0
			35.9123115550001,-87.6891860949999,0
			35.911708832,-87.6994018559999,0
			35.9056892400001,-87.70778656,0
			35.838859558,-87.7164993279999,0
			35.8382720950001,-87.8174972529999,0
			35.8278121950001,-87.818946838,0
			35.8259315500001,-87.8234481819999,0
			35.8239021300002,-87.8370132449999,0
			35.8201713570001,-87.843727112,0
			35.8110389720001,-87.846916199,0
			35.8046607980001,-87.8484573359999,0
			35.8036994930001,-87.851837157,0
			35.810340882,-87.8627929679999,0
			35.818302155,-87.8760375979999,0
			35.8222122200002,-87.8869094849999,0
			35.825130462,-87.9028701779999,0
			35.8305015560002,-87.9081115719999,0
			35.8326797480001,-87.9132766729999,0
			35.838539123,-87.9157028199999,0
			35.8394508360001,-87.9435272209999,0
			35.8394203190001,-87.945228576,0
			35.8398284910002,-87.948066711,0
			35.8410186770002,-87.9588928209999,0
			35.8414001470002,-87.9628829959999,0
		</coordinates>
	</polygon>
</kml>
