<?xml version="1.0" encoding="UTF-8"?>
<kml xmlns="http://earth.google.com/kml/2.2">
	<polygon id="USA_VA_Suffolk" samplingProbability="1">
		<coordinates>
			36.5499307850002,-76.491027807,0
			36.5498240520001,-76.510771463,0
			36.549660329,-76.541057444,0
			36.5496600000001,-76.541118462,0
			36.549659734,-76.5411677959999,0
			36.5496597300001,-76.542037963,0
			36.5497703560002,-76.5460662839999,0
			36.549789429,-76.5526199339999,0
			36.5498199460002,-76.5749816889999,0
			36.5499191280001,-76.6268386839999,0
			36.550830841,-76.8434066779999,0
			36.5511398320002,-76.916175842,0
			36.5544319160001,-76.921218871,0
			36.5559616080001,-76.929176331,0
			36.5601120000002,-76.9324798589999,0
			36.5663795470001,-76.928253174,0
			36.5717887880002,-76.926933289,0
			36.5731086740001,-76.9251632689999,0
			36.5788192750002,-76.916366577,0
			36.5828399650001,-76.9133605959999,0
			36.5873603820002,-76.9126358039999,0
			36.5918998720001,-76.913063049,0
			36.5969009390002,-76.9134521479999,0
			36.6009712220001,-76.9127426139999,0
			36.6054801940002,-76.911437988,0
			36.6099891670001,-76.910133362,0
			36.614551544,-76.9111328129999,0
			36.6182289130001,-76.9138565059999,0
			36.6212615960001,-76.9068832399999,0
			36.6220397950001,-76.9011230469999,0
			36.6255722050001,-76.8964080809999,0
			36.6295890810002,-76.8934020999999,0
			36.6341094980002,-76.8926696779999,0
			36.6378288270001,-76.897132873,0
			36.6415214550001,-76.8998718259999,0
			36.6438293460001,-76.901512146,0
			36.6618118280001,-76.873336792,0
			36.6723594670001,-76.8580627439998,0
			36.6846885680002,-76.8409729009999,0
			36.6895408630001,-76.8350601189999,0
			36.6930694580001,-76.8303527829999,0
			36.697479247,-76.824447632,0
			36.7054290770002,-76.8149795529999,0
			36.726039886,-76.783226013,0
			36.7291221620001,-76.7790908809999,0
			36.7322006220001,-76.7749633779999,0
			36.7502288820002,-76.7501831039999,0
			36.750679017,-76.749588014,0
			36.8185005180002,-76.6619873039999,0
			36.836540223,-76.6382904059999,0
			36.8427009590001,-76.6305770869999,0
			36.8585395820001,-76.6098327629999,0
			36.8708419810001,-76.5932388299999,0
			36.8818206780001,-76.578422546,0
			36.8976402290001,-76.557083131,0
			36.9055595400001,-76.5469818119999,0
			36.912208557,-76.5409622199999,0
			36.9165916450002,-76.534446717,0
			36.9187507630001,-76.5303268439999,0
			36.9177894590002,-76.5280761719999,0
			36.9127807610001,-76.5271224969999,0
			36.9100189220002,-76.525497436,0
			36.9094810490001,-76.522071838,0
			36.909954071,-76.520767212,0
			36.9094810490001,-76.5208816519999,0
			36.9090423580002,-76.521095277,0
			36.9086647030001,-76.521347046,0
			36.9084472660002,-76.5217132559999,0
			36.9083518980001,-76.522117615,0
			36.9083328250002,-76.5225372319999,0
			36.9083290100002,-76.52293396,0
			36.9082832330002,-76.5233077999999,0
			36.908103942,-76.523635864,0
			36.9080085750002,-76.5239562979999,0
			36.9078636180002,-76.5242233279999,0
			36.9077301020001,-76.524467468,0
			36.9075164790002,-76.5246582039999,0
			36.9071769710001,-76.5247421249999,0
			36.9068183890001,-76.524856568,0
			36.9064674380001,-76.524971008,0
			36.906116486,-76.524986267,0
			36.9057846080001,-76.524902343,0
			36.9054985050001,-76.5246658319999,0
			36.9052085890002,-76.5243835459999,0
			36.904888154,-76.5240936269999,0
			36.904624939,-76.5237426759999,0
			36.9042739870001,-76.5234909059999,0
			36.9038391120001,-76.523429871,0
			36.903377533,-76.523590089,0
			36.9029388430001,-76.523902893,0
			36.9025115970001,-76.5242614749999,0
			36.902072907,-76.524612427,0
			36.901546479,-76.524841308,0
			36.90102768,-76.52506256,0
			36.900562286,-76.5254440309998,0
			36.900142669,-76.5258789059999,0
			36.8998184210002,-76.5263748169999,0
			36.8996658320001,-76.5269317629999,0
			36.8994445810002,-76.5274276739999,0
			36.8992156980001,-76.5278930659999,0
			36.8990173340001,-76.528350829,0
			36.898811341,-76.5287857049999,0
			36.8984527600001,-76.529144287,0
			36.8980293270001,-76.529457091,0
			36.8976097100002,-76.5297851559999,0
			36.897228242,-76.5301437379999,0
			36.8968658450001,-76.5305023199999,0
			36.8964881900001,-76.5308380129999,0
			36.8961143500001,-76.5311584479999,0
			36.8957176210002,-76.531448364,0
			36.8951988220002,-76.531639099,0
			36.8946418760001,-76.5317840579999,0
			36.894100188,-76.5319747919999,0
			36.89360428,-76.5322113029999,0
			36.8931312560002,-76.532447814,0
			36.8927001950001,-76.532730102,0
			36.8923034670001,-76.53301239,0
			36.8920021050001,-76.5333404529999,0
			36.8917808540002,-76.5336761469999,0
			36.8915061940002,-76.5339202879999,0
			36.8912315360002,-76.5341339099999,0
			36.8909645090002,-76.5343246469999,0
			36.8907279980001,-76.534523011,0
			36.8905220030002,-76.5347290029999,0
			36.8902778620001,-76.535003661,0
			36.8894462580001,-76.535003661,0
			36.889167787,-76.5347213749999,0
			36.8893051160001,-76.5345382689999,0
			36.889324189,-76.5343246469999,0
			36.8894577030001,-76.5340728749999,0
			36.889633179,-76.533782959,0
			36.88981247,-76.533454896,0
			36.890068054,-76.533103942,0
			36.8903961190001,-76.5327606209999,0
			36.8908576960002,-76.5324783329999,0
			36.8913764960001,-76.5322036749999,0
			36.891902923,-76.531898498,0
			36.8924293520002,-76.5315704349999,0
			36.8929290780001,-76.5311889649999,0
			36.8933792120001,-76.530754089,0
			36.8938980110001,-76.5303497309999,0
			36.894527436,-76.5300140369999,0
			36.895202637,-76.529724121,0
			36.895870209,-76.5294113159999,0
			36.8964729320001,-76.529037476,0
			36.896903992,-76.528518677,0
			36.8972206120001,-76.527900696,0
			36.8974914550001,-76.527244568,0
			36.8977127080001,-76.526565551,0
			36.8978462210001,-76.5258712759999,0
			36.8981132510002,-76.5252761849999,0
			36.8985557570002,-76.5248031609999,0
			36.8991241460001,-76.5244140619999,0
			36.89963913,-76.5239562979999,0
			36.8999900820001,-76.523399352,0
			36.9002799980001,-76.5228118899999,0
			36.9005851750001,-76.5222473139999,0
			36.901000977,-76.5217437749999,0
			36.901546479,-76.521347046,0
			36.9021492000001,-76.5209960939999,0
			36.9028968810002,-76.520912171,0
			36.9036445630001,-76.520889282,0
			36.9040908810001,-76.520500184,0
			36.904304504,-76.5199127189999,0
			36.9044685370002,-76.5192794789999,0
			36.9046669010001,-76.51865387,0
			36.904808045,-76.5180053719999,0
			36.9050827030001,-76.517425537,0
			36.9053764340001,-76.5168685909999,0
			36.9055252080001,-76.5162429819999,0
			36.90556717,-76.5155868539999,0
			36.905647279,-76.5149307249999,0
			36.9058456410001,-76.5142974859999,0
			36.9061126710002,-76.513694763,0
			36.9064445490001,-76.5131301879999,0
			36.906929017,-76.512702941,0
			36.907459259,-76.5123367309999,0
			36.908058167,-76.5121536249999,0
			36.9085083010002,-76.5117950439999,0
			36.908725739,-76.511291505,0
			36.9085807790001,-76.5107650749999,0
			36.908287048,-76.5102462759999,0
			36.9080390940001,-76.509681702,0
			36.9078407290002,-76.509132386,0
			36.9079437270001,-76.5085830679999,0
			36.9085197440001,-76.5082092279999,0
			36.9091300970001,-76.508087157,0
			36.9092979430001,-76.508049011,0
			36.9100914000001,-76.507873535,0
			36.9107513430001,-76.5074462899999,0
			36.9112243660001,-76.506935121,0
			36.9111824040002,-76.5064544679999,0
			36.9108543410001,-76.5060272209999,0
			36.9104385390002,-76.5056152339999,0
			36.9099349980002,-76.5052642819999,0
			36.909744264,-76.5051269529999,0
			36.9094276440001,-76.504890442,0
			36.9089126600001,-76.504516602,0
			36.9084625240002,-76.504089355,0
			36.9081649770002,-76.503593444,0
			36.9081611640001,-76.503089905,0
			36.908401489,-76.5027236939999,0
			36.9088096620001,-76.5024948129999,0
			36.9092521680001,-76.502304076,0
			36.9097175600001,-76.502182008,0
			36.9100952150002,-76.501960755,0
			36.9104690550002,-76.5017700189999,0
			36.910842895,-76.5016937249999,0
			36.911220551,-76.501754761,0
			36.911586762,-76.501960755,0
			36.9117736810001,-76.5020294189999,0
			36.911979676,-76.502113342,0
			36.9124984750001,-76.5022201549999,0
			36.9127769480001,-76.5022201549999,0
			36.9130554190002,-76.501945495,0
			36.9130554190002,-76.501663209,0
			36.9130401610001,-76.5014114369999,0
			36.913452148,-76.5008544929999,0
			36.9137954710001,-76.5002899169999,0
			36.913921357,-76.499656677,0
			36.9139747620001,-76.4995498649999,0
			36.9142417920002,-76.4990158069999,0
			36.914546966,-76.498428345,0
			36.914855958,-76.4979400639999,0
			36.9149818420001,-76.497398376,0
			36.9150543220001,-76.496849061,0
			36.9153022770001,-76.49634552,0
			36.9156608580001,-76.4959106439999,0
			36.9160919190001,-76.495574951,0
			36.916515351,-76.4952239989999,0
			36.9168395990001,-76.494804382,0
			36.917064667,-76.494300841,0
			36.9172248840001,-76.4937438969999,0
			36.917388917,-76.4931869509999,0
			36.9176330560001,-76.4926834109999,0
			36.9180068960001,-76.4923400869999,0
			36.9184761050001,-76.492248535,0
			36.9189414970001,-76.4923172009999,0
			36.9193572990002,-76.492515565,0
			36.9197235110001,-76.4930572509999,0
			36.919845582,-76.4931793209999,0
			36.9199981690001,-76.4933319089999,0
			36.9199981690001,-76.4938888549999,0
			36.9197235110001,-76.494163513,0
			36.9197235110001,-76.494445801,0
			36.9199981690001,-76.4947204589999,0
			36.9205551150002,-76.4947204589999,0
			36.9211120610001,-76.494163513,0
			36.9211120610001,-76.4936141969999,0
			36.9213905340001,-76.4933319089999,0
			36.9213905340001,-76.492500305,0
			36.9216651920001,-76.4919433589999,0
			36.9215850840001,-76.491744994,0
			36.9217147820002,-76.491241455,0
			36.9218330380002,-76.490737914,0
			36.9218559260001,-76.4902191149999,0
			36.9217224130001,-76.4897003179999,0
			36.921627045,-76.48915863,0
			36.9214744560001,-76.488647461,0
			36.92124176,-76.4881668089999,0
			36.9210548410002,-76.487922668,0
			36.9208946240001,-76.4877166749999,0
			36.9205245970002,-76.487258911,0
			36.9201126100001,-76.4868316659999,0
			36.919761658,-76.48638916,0
			36.9194259650002,-76.4859313969999,0
			36.919082641,-76.485488891,0
			36.91873169,-76.4850692739999,0
			36.9184455870001,-76.4845886239999,0
			36.9181976320001,-76.48425293,0
			36.9181098930002,-76.4841308599999,0
			36.917762757,-76.483673096,0
			36.917373657,-76.4832229619999,0
			36.916946411,-76.4827804559999,0
			36.9165077210001,-76.4823303229999,0
			36.9160919190001,-76.4818420399999,0
			36.915779114,-76.481300354,0
			36.9154205320002,-76.4808349599999,0
			36.9149703990001,-76.480552674,0
			36.91450882,-76.4803085329999,0
			36.9140739440001,-76.4800796499999,0
			36.9136390690001,-76.4799652099999,0
			36.9132041930002,-76.480194093,0
			36.9126968390001,-76.4804306039999,0
			36.9121742250001,-76.4806671149999,0
			36.9117088310001,-76.4810104359999,0
			36.9112663270001,-76.4813537599999,0
			36.9106903080001,-76.48147583,0
			36.9100761420001,-76.4812774659999,0
			36.9094886790001,-76.4809188839999,0
			36.908851624,-76.4806060789999,0
			36.9081687930001,-76.480422974,0
			36.9074859630001,-76.4804687499999,0
			36.906810761,-76.4805831909999,0
			36.9061584480002,-76.4807434079999,0
			36.9054756160001,-76.4808120719999,0
			36.9047775260001,-76.4808044439998,0
			36.9040946960001,-76.48072052,0
			36.9034729000002,-76.4806213379999,0
			36.9029922500002,-76.4808425909999,0
			36.9025611870001,-76.4811706539999,0
			36.9021606460001,-76.4815292349999,0
			36.9017372140001,-76.4818191539999,0
			36.9012832650001,-76.481994629,0
			36.9008331310001,-76.4822006219999,0
			36.9003791800001,-76.4823837279999,0
			36.8999214180001,-76.482528687,0
			36.8994789130002,-76.482688904,0
			36.8989830020001,-76.482765198,0
			36.8984680180001,-76.4828033449999,0
			36.8979530340001,-76.4828643799999,0
			36.897453308,-76.4829406739999,0
			36.8969764710001,-76.4830932609999,0
			36.896533967,-76.483345033,0
			36.8961219780002,-76.483650207,0
			36.8957481380002,-76.4840011589999,0
			36.8954315180001,-76.4843826289999,0
			36.8950881970002,-76.484741211,0
			36.8947525040002,-76.485107423,0
			36.8944435120002,-76.485488891,0
			36.894168854,-76.48588562,0
			36.894001008,-76.486312867,0
			36.8939285280001,-76.486747742,0
			36.89377594,-76.48712921,0
			36.8937644950001,-76.487503053,0
			36.8940162670001,-76.487884521,0
			36.8942413330001,-76.4881896969999,0
			36.8943099980002,-76.488281249,0
			36.894420623,-76.488700866,0
			36.8941764840001,-76.489097595,0
			36.8938522340001,-76.489509582,0
			36.8935394290001,-76.4899520869999,0
			36.8931694020001,-76.490379333,0
			36.892921448,-76.490867615,0
			36.892810823,-76.491058349,0
			36.8926429750002,-76.4913482659999,0
			36.892337798,-76.491798401,0
			36.8920021050001,-76.4921951299999,0
			36.8917121890001,-76.4926376339999,0
			36.8914871210001,-76.4931259159999,0
			36.8913955690002,-76.493675232,0
			36.8913230900001,-76.4942474359999,0
			36.891174316,-76.4948196409999,0
			36.8911170960001,-76.495414734,0
			36.8910789490001,-76.4960174569999,0
			36.8909873970001,-76.4966201779999,0
			36.890869142,-76.497222901,0
			36.8908386230001,-76.4977340699999,0
			36.8908309950002,-76.4978408819999,0
			36.8908119210002,-76.4980621349999,0
			36.8907814030002,-76.498466492,0
			36.890605927,-76.4990768429999,0
			36.890556335,-76.499710082,0
			36.8905525220001,-76.5003356939999,0
			36.8905677800001,-76.5009613029999,0
			36.8906593320001,-76.501594543,0
			36.8908462530002,-76.502128601,0
			36.891109466,-76.50265503,0
			36.8913764960001,-76.5031890879999,0
			36.8915901180002,-76.503746034,0
			36.8916549690001,-76.5043563849999,0
			36.8915977480001,-76.5049591059999,0
			36.891349792,-76.5054321279999,0
			36.8910217290002,-76.5058441169999,0
			36.8907127390002,-76.506256104,0
			36.8904876710002,-76.5067367559999,0
			36.8902778620001,-76.507225037,0
			36.8900871280002,-76.507720948,0
			36.8899612420001,-76.5082550049999,0
			36.8897552500001,-76.5087585439999,0
			36.8895912170001,-76.509254455,0
			36.8893051160001,-76.509658813,0
			36.8888969420001,-76.50996399,0
			36.888401031,-76.5101776129999,0
			36.8882179250002,-76.5102310179999,0
			36.887859346,-76.510345458,0
			36.887321473,-76.5108642579999,0
			36.8867645270001,-76.511169434,0
			36.88628769,-76.5110321049999,0
			36.8858833310001,-76.510681152,0
			36.885520936,-76.5102462759999,0
			36.8851432810001,-76.5098190309999,0
			36.8846626280001,-76.5095214839998,0
			36.8841362010001,-76.509300232,0
			36.8835983280001,-76.5091171259999,0
			36.8831405650001,-76.508842468,0
			36.8827133170001,-76.5085372929998,0
			36.8821945200001,-76.508346557,0
			36.8816185010002,-76.50830841,0
			36.881023408,-76.50857544,0
			36.8804130570001,-76.508918761,0
			36.87979126,-76.509300232,0
			36.8791084280001,-76.509567261,0
			36.8783416750001,-76.5096511829999,0
			36.8779029840001,-76.509834289,0
			36.8777999870001,-76.510055542,0
			36.877845764,-76.5103073109999,0
			36.8780021660002,-76.5105972299999,0
			36.8780632020001,-76.510917663,0
			36.8781394950001,-76.511260986,0
			36.8782730110001,-76.511619568,0
			36.878314971,-76.512008666,0
			36.8782424930001,-76.512397767,0
			36.8779449460001,-76.5127258299999,0
			36.877475739,-76.512977599,0
			36.876895905,-76.513122558,0
			36.8763618470001,-76.513381958,0
			36.875919341,-76.51374054,0
			36.8755645750002,-76.514175415,0
			36.8751869200001,-76.5145950319999,0
			36.8745231630002,-76.514900207,0
			36.8738822930001,-76.5152664189999,0
			36.873249054,-76.515640259,0
			36.8726425180001,-76.5160064709999,0
			36.8721542350001,-76.516448974,0
			36.8717193600001,-76.5169296269999,0
			36.871433258,-76.5174865729999,0
			36.871307373,-76.5181198119999,0
			36.871356965,-76.518791199,0
			36.8713607800001,-76.5194549549999,0
			36.8713150030001,-76.5201110829999,0
			36.8713455200001,-76.520767212,0
			36.8714294430002,-76.52142334,0
			36.8715095520001,-76.5220413209998,0
			36.8713150030001,-76.52256012,0
			36.87097168,-76.522994996,0
			36.8705825810001,-76.5233840939999,0
			36.8702812200001,-76.5238494879999,0
			36.8699951180001,-76.5243072499999,0
			36.8696670530002,-76.524719239,0
			36.8691978460002,-76.5250244139999,0
			36.868469239,-76.5251007069999,0
			36.867713929,-76.5250244139999,0
			36.866966247,-76.5249176029999,0
			36.8662643440001,-76.524795533,0
			36.8657417290001,-76.5250244139999,0
			36.8653106690002,-76.5253982539999,0
			36.8649444590001,-76.525817871,0
			36.8645820620002,-76.5262298579999,0
			36.8641738890001,-76.5265808109999,0
			36.8637504580001,-76.526885986,0
			36.8632736210002,-76.5270919799999,0
			36.862758637,-76.5272064209999,0
			36.8622360230002,-76.5273284909999,0
			36.8616905220001,-76.527679443,0
			36.8610801710001,-76.527969361,0
			36.8604354860001,-76.528175354,0
			36.8597259520002,-76.528137207,0
			36.8590087890001,-76.5280075079999,0
			36.8583259590001,-76.5278091439999,0
			36.8576507580001,-76.5277328479999,0
			36.8570709230002,-76.5279617309999,0
			36.856582642,-76.528343201,0
			36.8561477670002,-76.528808593,0
			36.8557701120001,-76.529312134,0
			36.855323791,-76.5297622679999,0
			36.8548622140001,-76.5302047739999,0
			36.8543205270001,-76.530548095,0
			36.8537635810001,-76.53086853,0
			36.8532218930002,-76.5311737059999,0
			36.8526153570001,-76.5313415519999,0
			36.8519859320002,-76.5313262939999,0
			36.8513870240002,-76.5311584479999,0
			36.8507385260002,-76.531150818,0
			36.850078583,-76.5314407339999,0
			36.849590302,-76.5318679809999,0
			36.8494567860001,-76.53237152,0
			36.8494339000001,-76.5329055779999,0
			36.849384308,-76.5334167489999,0
			36.8492431640001,-76.5338973989999,0
			36.8492851260002,-76.534378052,0
			36.8494606020001,-76.534851074,0
			36.849693298,-76.5353088379999,0
			36.849853515,-76.5358123789999,0
			36.8500213630001,-76.5363159179999,0
			36.8501739500002,-76.5368041999999,0
			36.8500328060001,-76.5373229969999,0
			36.8498916620001,-76.537849427,0
			36.8496513380001,-76.538299561,0
			36.8493690500002,-76.5387039189999,0
			36.8491325380002,-76.5391235339999,0
			36.8488922120002,-76.5395355229999,0
			36.848674775,-76.5399551379999,0
			36.8484878540001,-76.5403747549999,0
			36.8482170110001,-76.5407104489999,0
			36.8478012090001,-76.540931701,0
			36.8473663330001,-76.5411453239999,0
			36.8469581610001,-76.541397095,0
			36.8465614330001,-76.5416564949999,0
			36.846126557,-76.5418701179999,0
			36.8455734250001,-76.5419311529999,0
			36.844993592,-76.5419692999999,0
			36.844722747,-76.5416641229999,0
			36.844444276,-76.5416641229999,0
			36.8441658030002,-76.5419464109999,0
			36.8438873300001,-76.5422210689999,0
			36.8436126700001,-76.542503357,0
			36.8439826970001,-76.5427322379999,0
			36.8438911430002,-76.5433654779999,0
			36.8438797,-76.544013978,0
			36.8438377380001,-76.5446395879999,0
			36.8436698920001,-76.5452041619999,0
			36.8435668950002,-76.5458068849999,0
			36.8433341990001,-76.5463409419999,0
			36.843051911,-76.546852111,0
			36.8427238460001,-76.5473251339999,0
			36.8422889710001,-76.5477066039999,0
			36.84180832,-76.5480346689999,0
			36.8412857060002,-76.5482711799999,0
			36.8406867980001,-76.548309327,0
			36.8400726320002,-76.548248292,0
			36.8394851690001,-76.548202515,0
			36.8389625550001,-76.5485458379999,0
			36.8384361270002,-76.5489883419999,0
			36.8376884470002,-76.549346923,0
			36.836936952,-76.5496902469999,0
			36.8366508490001,-76.5503234859999,0
			36.8370246890001,-76.5507812499999,0
			36.8375663760001,-76.5511779789999,0
			36.8380088800001,-76.5517044059999,0
			36.8382759100002,-76.552330018,0
			36.8383369450002,-76.5530242929999,0
			36.8383789070001,-76.5537109379999,0
			36.8385238640001,-76.554374694,0
			36.83864975,-76.5550231939999,0
			36.8388938910001,-76.555648804,0
			36.8391494760002,-76.5562667849999,0
			36.839443207,-76.556388856,0
			36.8400001530001,-76.5569458019999,0
			36.8402786260002,-76.5572204599999,0
			36.8405570990002,-76.5575027459998,0
			36.8402786260002,-76.5577774059999,0
			36.8402786260002,-76.5580520629999,0
			36.8400001530001,-76.5583343499999,0
			36.839443207,-76.5583343499999,0
			36.8391723640001,-76.5584182729999,0
			36.8393020630001,-76.5591201789998,0
			36.839153291,-76.559791565,0
			36.8390846250001,-76.559959411,0
			36.838890076,-76.5604248049999,0
			36.8385963450002,-76.561012267,0
			36.8382720950001,-76.5615234369999,0
			36.8379096980001,-76.5619354249999,0
			36.8375434880002,-76.562301635,0
			36.8371734630002,-76.5626525869999,0
			36.8367156990001,-76.562950133,0
			36.8360900880002,-76.5631713859999,0
			36.8353843690001,-76.5633697499999,0
			36.8347320560001,-76.563644408,0
			36.8341064450001,-76.563934327,0
			36.8334999090002,-76.5642089849999,0
			36.8329620360001,-76.5645523079999,0
			36.8324928290002,-76.5649414059999,0
			36.8320350650001,-76.565330505,0
			36.83160782,-76.565734864,0
			36.8311233520001,-76.566070557,0
			36.8305587780001,-76.5663070679999,0
			36.8299789430001,-76.5665130619999,0
			36.8293762200001,-76.5666275029999,0
			36.8287658690002,-76.566581726,0
			36.8282051080002,-76.566352845,0
			36.8277091970001,-76.5660247799999,0
			36.827293395,-76.5656051629999,0
			36.8269538890002,-76.5651168819999,0
			36.8266258240001,-76.5646133409999,0
			36.8262214670001,-76.5641708379998,0
			36.8257789620002,-76.5637664789999,0
			36.825263978,-76.5634536739999,0
			36.8247146620001,-76.5631942749999,0
			36.8241310120001,-76.562957764,0
			36.8235015870001,-76.562774658,0
			36.822864533,-76.562568665,0
			36.8222389230001,-76.562301635,0
			36.8216514580001,-76.5619735719999,0
			36.821079254,-76.5616226189999,0
			36.8205490120002,-76.561225892,0
			36.8200378430001,-76.5608062749999,0
			36.8196144100001,-76.5603027339999,0
			36.819206239,-76.559791565,0
			36.8188934340001,-76.5592041019999,0
			36.818637847,-76.558586121,0
			36.8185157790001,-76.558113099,0
			36.8184700020001,-76.5579299929999,0
			36.8182563790001,-76.5572967529999,0
			36.8179321290001,-76.5567550649999,0
			36.8174400330001,-76.5563507089999,0
			36.8168563840002,-76.556091309,0
			36.816261291,-76.556121826,0
			36.8157043470002,-76.5562820429999,0
			36.8152771000001,-76.5565872199999,0
			36.8148841860001,-76.556938171,0
			36.8144989010001,-76.5572967529999,0
			36.8141441340001,-76.557685852,0
			36.8137817390001,-76.5580749519999,0
			36.8134422310001,-76.558486939,0
			36.8130531310002,-76.5588760369999,0
			36.812610627,-76.5592117309999,0
			36.8121719370001,-76.5595703119999,0
			36.8116531370002,-76.5598449699999,0
			36.8110961910001,-76.560089112,0
			36.810504913,-76.5602722169999,0
			36.809879304,-76.5603790279999,0
			36.8091964720001,-76.560310364,0
			36.8084945690001,-76.560279846,0
			36.8078079220001,-76.5602188099999,0
			36.8072128290002,-76.5600051879999,0
			36.8066291820001,-76.5597610459999,0
			36.8060226440002,-76.559555054,0
			36.8053627020001,-76.5594634999999,0
			36.804683686,-76.5594634999999,0
			36.8040466310002,-76.559555054,0
			36.8035354620001,-76.559806823,0
			36.8030548090002,-76.5601348879999,0
			36.8025817870001,-76.56047821,0
			36.8021202080002,-76.5608444219999,0
			36.8016815200002,-76.56123352,0
			36.8012504570001,-76.5616378789999,0
			36.800777435,-76.5619964609999,0
			36.800262451,-76.562332154,0
			36.799720763,-76.5626296999999,0
			36.799156189,-76.5629119869999,0
			36.7985649110001,-76.563163758,0
			36.7981376640002,-76.563301087,0
			36.798007965,-76.5633468619999,0
			36.7979164130001,-76.5633773809999,0
			36.7972679130001,-76.5636138919999,0
			36.7966079720001,-76.5638351439999,0
			36.7958984370001,-76.5639114379999,0
			36.795188903,-76.563995362,0
			36.7945060740001,-76.5640792839999,0
			36.7938232420001,-76.563941955,0
			36.7931365970001,-76.5638885499999,0
			36.792453765,-76.5638275139999,0
			36.7918128970001,-76.5636215219999,0
			36.7911567690002,-76.563415527,0
			36.790451051,-76.563293457,0
			36.7897720340001,-76.563095092,0
			36.7890777590001,-76.562950133,0
			36.7884521480001,-76.562736511,0
			36.788005829,-76.5623855589999,0
			36.7879142770001,-76.56186676,0
			36.7883186340001,-76.5612792969999,0
			36.7888641370002,-76.561080933,0
			36.7894210830001,-76.5608901969999,0
			36.7899131780001,-76.5606002809999,0
			36.790267945,-76.560165405,0
			36.790557861,-76.559654236,0
			36.7908325190002,-76.5591201789998,0
			36.7911148070001,-76.5585708629999,0
			36.7914276120001,-76.558036805,0
			36.7918472290001,-76.557609558,0
			36.7923355100001,-76.557250976,0
			36.7928771970001,-76.5569458019999,0
			36.7934494020001,-76.5566635129999,0
			36.7940406800001,-76.556404114,0
			36.794670104,-76.556198119,0
			36.795368194,-76.5560684209999,0
			36.796035768,-76.555885315,0
			36.796710967,-76.555892945,0
			36.7968673720001,-76.55595398,0
			36.7973289490002,-76.556121826,0
			36.797908783,-76.5564346309999,0
			36.7984428410001,-76.556777954,0
			36.7990722650002,-76.556968688,0
			36.7996940620002,-76.557174683,0
			36.8003616330001,-76.5573043809999,0
			36.8009605410001,-76.5575103759999,0
			36.8015480040001,-76.5577163699999,0
			36.802154542,-76.5577239979999,0
			36.802753448,-76.5575866689999,0
			36.8033485410002,-76.5576553349999,0
			36.8039474490001,-76.5577316289999,0
			36.8045501720002,-76.5576629629999,0
			36.8051567080001,-76.5575408939999,0
			36.8058052060001,-76.5575103759999,0
			36.8064651490001,-76.557548523,0
			36.8071174620001,-76.5577163699999,0
			36.807804107,-76.557830811,0
			36.8084564200001,-76.5580062859999,0
			36.8091392520001,-76.5580520629999,0
			36.8098258970002,-76.558021545,0
			36.810489655,-76.557861327,0
			36.8110504140001,-76.557518006,0
			36.8114700310001,-76.557037354,0
			36.811920167,-76.5565872199999,0
			36.8123741160001,-76.5561447139999,0
			36.8128662120001,-76.5557403559999,0
			36.8133506770001,-76.5553131099999,0
			36.813812256,-76.5548706049999,0
			36.8141593940002,-76.554344177,0
			36.8143920910001,-76.553764343,0
			36.8143920910001,-76.553138733,0
			36.8142128000001,-76.552497863,0
			36.814281463,-76.5519104009999,0
			36.814781189,-76.5513992319999,0
			36.8154563910001,-76.551139832,0
			36.8156776430001,-76.551200867,0
			36.8160820000001,-76.5513076779999,0
			36.8166351330001,-76.5516586309999,0
			36.8171043400001,-76.5521011349999,0
			36.8175582890001,-76.552497863,0
			36.8180618280001,-76.552642823,0
			36.818523407,-76.5523757929999,0
			36.8189201350002,-76.551918029,0
			36.8193550110001,-76.5514602669999,0
			36.8199310300002,-76.551124574,0
			36.8205757150002,-76.550910949,0
			36.821273803,-76.5509490959999,0
			36.821922303,-76.5511627209999,0
			36.8225517280002,-76.551429748,0
			36.8231773370001,-76.5516738899999,0
			36.8237724300001,-76.551940917,0
			36.8243370060001,-76.552230836,0
			36.8248443600002,-76.5525512689999,0
			36.825244904,-76.5529556269999,0
			36.8255615240001,-76.55343628,0
			36.8258590700001,-76.55392456,0
			36.8261070250001,-76.554435729,0
			36.8263359080001,-76.5549468999999,0
			36.8265762340001,-76.5554351809999,0
			36.8269195550001,-76.5558013909999,0
			36.827316284,-76.556106567,0
			36.8277397160001,-76.5563812249999,0
			36.8282051080002,-76.5565872199999,0
			36.8287620540001,-76.5566635129999,0
			36.8293380740001,-76.5566635129999,0
			36.82989502,-76.556610108,0
			36.8303451530001,-76.5563964839999,0
			36.8307647700001,-76.5561599729999,0
			36.8311004640001,-76.555839538,0
			36.8313903820002,-76.555480958,0
			36.8316650400001,-76.555114746,0
			36.8318939210001,-76.5547103869999,0
			36.8319740300001,-76.554222107,0
			36.8320808420001,-76.5537185679999,0
			36.8320732120001,-76.553215027,0
			36.8319740300001,-76.5526962279999,0
			36.831947326,-76.5521621699999,0
			36.8319892880002,-76.551643371,0
			36.8321723940002,-76.551139832,0
			36.8323707580001,-76.5506668099998,0
			36.832401277,-76.5505981439999,0
			36.832645416,-76.5502777089999,0
			36.832916261,-76.549858092,0
			36.833015443,-76.54927063,0
			36.832820892,-76.5486831669999,0
			36.832645416,-76.5480499269999,0
			36.8324661250001,-76.5474090569999,0
			36.8322181710001,-76.546813965,0
			36.8319969180001,-76.5462112439999,0
			36.8319435130002,-76.5455551149999,0
			36.8319435130002,-76.5448989869999,0
			36.8320007330001,-76.5442810059999,0
			36.832267761,-76.5437698369999,0
			36.832656861,-76.543373108,0
			36.8331031800001,-76.5430221569999,0
			36.8334922780002,-76.542617798,0
			36.8338165280002,-76.542175292,0
			36.833889007,-76.541610718,0
			36.8338737490002,-76.5410232529999,0
			36.8337478650001,-76.5404739379999,0
			36.8334465030002,-76.540008545,0
			36.8331108100001,-76.53955841,0
			36.8328628540001,-76.5390243519998,0
			36.8327331550001,-76.5383911129999,0
			36.8325691220002,-76.5377502449999,0
			36.8326225280001,-76.5371093749999,0
			36.832752228,-76.5364532469998,0
			36.832847595,-76.535804749,0
			36.8330612180002,-76.5352325439999,0
			36.8333587640001,-76.5347213749999,0
			36.8337821970001,-76.5343475349999,0
			36.8344116210001,-76.534233093,0
			36.8351135260002,-76.534271239,0
			36.8358383180001,-76.5341262819999,0
			36.8364868160001,-76.5338287359999,0
			36.8370437620002,-76.5334320069999,0
			36.8375587460002,-76.533210755,0
			36.83769226,-76.5331497189999,0
			36.8384399420001,-76.5330734259999,0
			36.8391952530001,-76.5331268309999,0
			36.839878082,-76.533203124,0
			36.8404083250001,-76.5329055779999,0
			36.8408355720001,-76.532463074,0
			36.8411140450001,-76.5319061279999,0
			36.8413352960002,-76.531311035,0
			36.841400146,-76.5306320189999,0
			36.8414764400001,-76.529945374,0
			36.841625214,-76.529251099,0
			36.8416976930001,-76.5285491939999,0
			36.8418655400002,-76.527885437,0
			36.8421592720001,-76.5272827139999,0
			36.8424644460002,-76.52670288,0
			36.8427467340001,-76.5261230469999,0
			36.8429031370001,-76.5255050659998,0
			36.8427505490001,-76.5248489379999,0
			36.842502595,-76.524208068,0
			36.8422775270001,-76.5235519419999,0
			36.8422241220002,-76.522865295,0
			36.8422241220002,-76.5221710199999,0
			36.8422355650001,-76.5219955439999,0
			36.8422737120002,-76.5214843749999,0
			36.8424491880002,-76.5208282469999,0
			36.84254837,-76.520141602,0
			36.8427734380002,-76.5195159909999,0
			36.8430480960001,-76.5189285279999,0
			36.8434562680002,-76.5184555059999,0
			36.8440361020002,-76.518157959,0
			36.8447265620001,-76.518035889,0
			36.8451995840002,-76.5179290759999,0
			36.845417022,-76.517883301,0
			36.8460121150002,-76.5176086429999,0
			36.8464164740001,-76.5171508789999,0
			36.8466186530001,-76.5165710449999,0
			36.8466148380001,-76.5159301749999,0
			36.8465652460002,-76.515716552,0
			36.8464660640001,-76.515304565,0
			36.846458436,-76.514671326,0
			36.8466186530001,-76.514038086,0
			36.8467102050002,-76.513404846,0
			36.8469276430001,-76.5128021229999,0
			36.8472175590001,-76.512245177,0
			36.847599029,-76.5117568969999,0
			36.8481063850001,-76.5113754269999,0
			36.8487281800001,-76.5111007689999,0
			36.8493766780001,-76.510848999,0
			36.850044251,-76.510681152,0
			36.8506965640001,-76.510665893,0
			36.8512382500001,-76.5109558109999,0
			36.8515510570002,-76.511482239,0
			36.8517074590001,-76.512107848,0
			36.8518829350001,-76.5127105709999,0
			36.8518867500001,-76.513320923,0
			36.8516654970001,-76.513885499,0
			36.8514442440001,-76.5142974859999,0
			36.8513755810002,-76.514427185,0
			36.8510246270001,-76.514915467,0
			36.8506393440001,-76.5153579709998,0
			36.8503990180001,-76.5158538809999,0
			36.8505783090001,-76.516441346,0
			36.8509140020001,-76.517021179,0
			36.851306915,-76.517570496,0
			36.8516426090001,-76.518157959,0
			36.8519477850001,-76.5187530519999,0
			36.8522682180001,-76.5193328869999,0
			36.8526458730001,-76.5198516839999,0
			36.8530921940001,-76.5203247079999,0
			36.8535385130001,-76.5207748419999,0
			36.8541030890001,-76.5211029049999,0
			36.8547134400001,-76.5213088989999,0
			36.8553390500001,-76.5212478639999,0
			36.8557930000001,-76.5209045409999,0
			36.8561058050001,-76.5204162599999,0
			36.8563499440001,-76.5198669439999,0
			36.8564910890001,-76.5192642209999,0
			36.8567047130001,-76.5187072749999,0
			36.8569526670001,-76.518165589,0
			36.857181548,-76.5176239019999,0
			36.8572349560001,-76.5170516969998,0
			36.8569374090001,-76.51651764,0
			36.8569068910001,-76.516448974,0
			36.8566703790001,-76.5159149169999,0
			36.8563690180001,-76.515304565,0
			36.8560829170002,-76.514678956,0
			36.8558807370001,-76.5140304559999,0
			36.8558654790001,-76.513328553,0
			36.8559837350001,-76.5126190189999,0
			36.8561401370001,-76.511901856,0
			36.8563880910002,-76.5112228389999,0
			36.8566741940001,-76.510559083,0
			36.8570404060001,-76.5099563599999,0
			36.8575706490001,-76.5095214839998,0
			36.8581810000001,-76.5091857909999,0
			36.858512878,-76.5090332039999,0
			36.8588294980001,-76.5088882449999,0
			36.859458923,-76.508552552,0
			36.859985352,-76.508049011,0
			36.8604393010002,-76.5074768059999,0
			36.8608741760002,-76.506881713,0
			36.8613891600002,-76.5063705439999,0
			36.8619270330001,-76.506004334,0
			36.8624534600001,-76.506103517,0
			36.8629302980001,-76.506446838,0
			36.863391877,-76.5068740849999,0
			36.8640098580001,-76.5072097779999,0
			36.864688873,-76.507484436,0
			36.8653526310001,-76.5077972409999,0
			36.8659782410002,-76.5080184939999,0
			36.86656189,-76.507789611,0
			36.8668937680001,-76.507240295,0
			36.8670387270001,-76.5065612789999,0
			36.867134095,-76.506095886,0
			36.867183685,-76.505851745,0
			36.8672180180001,-76.505096435,0
			36.8672332770001,-76.504325866,0
			36.867305755,-76.503562928,0
			36.867458345,-76.5027999869999,0
			36.8675498970002,-76.502037049,0
			36.867759704,-76.501327515,0
			36.8679695140002,-76.50062561,0
			36.8681411740001,-76.4999313349999,0
			36.8683204650001,-76.4992675789999,0
			36.86863327,-76.4986419669999,0
			36.8689270010001,-76.498039246,0
			36.8691749580001,-76.4974212649999,0
			36.869445801,-76.4968261719999,0
			36.869724274,-76.496238709,0
			36.8699989310001,-76.495651245,0
			36.8702278140001,-76.495056152,0
			36.870319366,-76.494400024,0
			36.8705139160002,-76.493759156,0
			36.870693207,-76.4931106559999,0
			36.8709793100002,-76.4925231929999,0
			36.8713607800001,-76.492012024,0
			36.8718681340001,-76.4916229259999,0
			36.8724060070002,-76.4913177489999,0
			36.8730545050001,-76.491363526,0
			36.8737258910001,-76.4914703359999,0
			36.8743019100001,-76.491744994,0
			36.8747634890001,-76.492156983,0
			36.8752021800001,-76.4925918589999,0
			36.8755836480001,-76.4930877689999,0
			36.8759689340002,-76.4935760499999,0
			36.8764152520001,-76.4940185549999,0
			36.8769149780001,-76.4943847649998,0
			36.877449036,-76.494682312,0
			36.8779411310002,-76.4950180049999,0
			36.8783798220002,-76.4953918449999,0
			36.8787002570001,-76.495857239,0
			36.8790855420001,-76.496154786,0
			36.8795242300002,-76.4960937499999,0
			36.8799552930002,-76.4958648669999,0
			36.8803253180002,-76.495468139,0
			36.8805809020002,-76.4949111949999,0
			36.8808250430001,-76.4943161019999,0
			36.881011963,-76.493682862,0
			36.8810424810001,-76.4929809569999,0
			36.8809585570001,-76.4922409049999,0
			36.880989074,-76.491516113,0
			36.8811302180002,-76.490791322,0
			36.881313324,-76.490081786,0
			36.881458283,-76.4894256599999,0
			36.8813514710001,-76.4888458259999,0
			36.8811111450001,-76.4883346569998,0
			36.880844117,-76.487823485,0
			36.8806114210001,-76.487258911,0
			36.8804359430002,-76.4866561879999,0
			36.8802452090001,-76.486030579,0
			36.8799552930002,-76.4854202279999,0
			36.8795776380001,-76.484832763,0
			36.8791999820002,-76.4842300419999,0
			36.8787307730001,-76.4837036119999,0
			36.8781623840001,-76.4832992559998,0
			36.877639772,-76.4828720079999,0
			36.8773384100002,-76.482353211,0
			36.8775024410001,-76.4819717409999,0
			36.8778533940001,-76.4816513059999,0
			36.8782234190001,-76.4813156129999,0
			36.878543854,-76.480926514,0
			36.8789405830001,-76.4805908209999,0
			36.8793830880001,-76.480285645,0
			36.8798446650001,-76.4799957279999,0
			36.8802947990001,-76.4796829219999,0
			36.8806953430002,-76.4793090809998,0
			36.8810653700002,-76.4789123529999,0
			36.8813705440002,-76.4784393309999,0
			36.8816032400001,-76.4779052729999,0
			36.8817138680001,-76.4773330689999,0
			36.8818931590001,-76.4767837529999,0
			36.8821487430001,-76.47629547,0
			36.8822135930002,-76.4757919309999,0
			36.8822288520001,-76.4752731319999,0
			36.882270814,-76.4747390749999,0
			36.882427216,-76.4741973869998,0
			36.8824920670002,-76.473609924,0
			36.882522583,-76.4730072009999,0
			36.8826141350001,-76.47240448,0
			36.8827400210001,-76.4717941289999,0
			36.88277054,-76.471138001,0
			36.8827323910001,-76.4704895029999,0
			36.8825988770001,-76.469848633,0
			36.8826522820002,-76.469207763,0
			36.8828277600001,-76.468559265,0
			36.8830223090001,-76.467910767,0
			36.8831787110001,-76.4672317499999,0
			36.8833007820002,-76.466545106,0
			36.8833084100001,-76.4658584589999,0
			36.8832511900002,-76.4651718139999,0
			36.8832855240001,-76.4644927969999,0
			36.8833770760001,-76.4638214109999,0
			36.8836021440001,-76.4631729129998,0
			36.8837890630002,-76.4625167839999,0
			36.8837547310002,-76.4618148809999,0
			36.8838768010002,-76.461135865,0
			36.8840599050002,-76.4604721059999,0
			36.8841400140001,-76.4597778309999,0
			36.884094239,-76.4590835559999,0
			36.883888245,-76.458435058,0
			36.883674622,-76.45779419,0
			36.8836174020001,-76.457099915,0
			36.8836364750002,-76.45639801,0
			36.8837814320001,-76.4557113649999,0
			36.8841247560001,-76.4551162719999,0
			36.88464737,-76.4547348019998,0
			36.8852272030001,-76.4544448859999,0
			36.8858146670001,-76.4541625979999,0
			36.8863983150001,-76.45388794,0
			36.8869667060001,-76.453605652,0
			36.887523652,-76.453323364,0
			36.8880920420001,-76.453124999,0
			36.888679504,-76.4531860349999,0
			36.8891716000001,-76.453475953,0
			36.8896522520001,-76.4538116459998,0
			36.89013672,-76.454124451,0
			36.8906745900001,-76.4543457039999,0
			36.8912734980001,-76.4543914789999,0
			36.891868591,-76.454269408,0
			36.8924560560001,-76.454124451,0
			36.8929634100001,-76.4538574209999,0
			36.893424989,-76.4535217279999,0
			36.8938751230002,-76.4531784069999,0
			36.8943138130001,-76.4528198249999,0
			36.894802094,-76.452514648,0
			36.8953132630001,-76.45223236,0
			36.8958129880002,-76.4519424439999,0
			36.8962516790002,-76.4515991199999,0
			36.8966293340001,-76.4511795049999,0
			36.8970756530001,-76.45085144,0
			36.8975601200002,-76.4505538939999,0
			36.8980522160002,-76.450279236,0
			36.8985481270001,-76.449996948,0
			36.8990402220001,-76.44971466,0
			36.8995361330001,-76.4494628899999,0
			36.9000511170001,-76.4493103029999,0
			36.9005546580001,-76.449378966,0
			36.9010200500001,-76.449287414,0
			36.9013824470001,-76.448997498,0
			36.9017181400001,-76.4486694329999,0
			36.9020652770001,-76.448348998,0
			36.9024276730001,-76.4480590819999,0
			36.9027748120001,-76.4477539049999,0
			36.9030685430002,-76.4473953259999,0
			36.9033699030001,-76.447029114,0
			36.9036979680001,-76.4466857899999,0
			36.9040298460001,-76.4463348389999,0
			36.9043312080001,-76.44594574,0
			36.9046058660001,-76.445541382,0
			36.904857635,-76.4451217639999,0
			36.9050559990001,-76.444679261,0
			36.9052658090001,-76.4442443849999,0
			36.9052772520001,-76.4438858039999,0
			36.904998779,-76.443611146,0
			36.904998779,-76.443336486,0
			36.9052772520001,-76.4430541999999,0
			36.9055557250001,-76.442779542,0
			36.905792236,-76.442733765,0
			36.9063873290002,-76.4422225959999,0
			36.9063873290002,-76.4419479379999,0
			36.9061126710002,-76.4416656499999,0
			36.9060287470002,-76.4414825439999,0
			36.905971527,-76.441352845,0
			36.9059600840001,-76.44076538,0
			36.906089783,-76.4401702869999,0
			36.906246185,-76.4395904549999,0
			36.906490326,-76.439033509,0
			36.9064407340001,-76.4386138919999,0
			36.9062881470001,-76.4382400519999,0
			36.906150818,-76.437850951,0
			36.9061698910001,-76.4374542229999,0
			36.906280519,-76.437255858,0
			36.906379701,-76.437080383,0
			36.90663147,-76.436714173,0
			36.9069023130002,-76.4363708489999,0
			36.9070892340001,-76.4359817509999,0
			36.9072456370001,-76.4356231689999,0
			36.9072837830001,-76.435272218,0
			36.9068450930002,-76.4349060059999,0
			36.9060745240001,-76.4346008309999,0
			36.905956269,-76.434501649,0
			36.9055175780001,-76.434135437,0
			36.9050102240002,-76.4336242679998,0
			36.9045600890001,-76.4330673219999,0
			36.9043350230002,-76.432365417,0
			36.9043769850001,-76.43157959,0
			36.9045829770001,-76.430824279,0
			36.9045486450001,-76.4301376349999,0
			36.9044303900001,-76.4294891369999,0
			36.9041709900002,-76.4289398189999,0
			36.9039001470001,-76.4284133909999,0
			36.9036827100001,-76.4278717039999,0
			36.903560639,-76.427299499,0
			36.9033050540001,-76.426765442,0
			36.9029769890001,-76.426246642,0
			36.9027557370001,-76.4255981439999,0
			36.9025421140001,-76.4249343879999,0
			36.9024086,-76.424255371,0
			36.902252198,-76.423591613,0
			36.9021186840002,-76.422935485,0
			36.9019355780001,-76.422302245,0
			36.9017143250001,-76.421699524,0
			36.9014663710001,-76.421134948,0
			36.9013938900001,-76.42049408,0
			36.9013366700001,-76.4198532099999,0
			36.9011383060001,-76.419250489,0
			36.9009399410001,-76.4186477659999,0
			36.900680542,-76.41809082,0
			36.9003906250001,-76.4175643929999,0
			36.9002189650001,-76.4169692999999,0
			36.900093079,-76.4163589489999,0
			36.9000854490001,-76.415740967,0
			36.8998947150001,-76.415145875,0
			36.8997306820002,-76.414527893,0
			36.899589538,-76.413887023,0
			36.8994674690001,-76.4132537839999,0
			36.8994026190001,-76.4126129159999,0
			36.8992309560002,-76.412002563,0
			36.8990631110001,-76.411407472,0
			36.8988609310001,-76.4108200069999,0
			36.8986091620001,-76.410263061,0
			36.8983345040001,-76.4097213749999,0
			36.8980636590002,-76.4091720569999,0
			36.8978080750001,-76.408622742,0
			36.8975334170001,-76.4080886839999,0
			36.8973046660001,-76.407532053,0
			36.8966672110001,-76.40763305,0
			36.8945910000002,-76.4079619999999,0
			36.8934590000001,-76.4081419999999,0
			36.8934393790001,-76.4081411229999,0
			36.8899222520002,-76.407983832,0
			36.886638641,-76.407836915,0
			36.8825798030001,-76.4085769649999,0
			36.8808917460001,-76.409841033,0
			36.8798935040002,-76.410588547,0
			36.8776893620001,-76.4122390759999,0
			36.8707008370001,-76.4228973379999,0
			36.8667359340001,-76.4272854959999,0
			36.8659086620002,-76.4282010809999,0
			36.8658409570002,-76.4282760129999,0
			36.858741761,-76.4343185429999,0
			36.8149490370002,-76.4608383179999,0
			36.7687416090001,-76.4632873529999,0
			36.7502098080002,-76.4657669069999,0
			36.7085990910001,-76.470886231,0
			36.6995620720002,-76.4723968499999,0
			36.5987091060002,-76.4850692739999,0
			36.5499307850002,-76.491027807,0
		</coordinates>
	</polygon>
</kml>
