<?xml version="1.0" encoding="UTF-8"?>
<kml xmlns="http://earth.google.com/kml/2.2">
	<polygon id="USA_MN_Cass" samplingProbability="1">
		<coordinates>
			47.0304298390002,-93.7749404919999,0
			46.9771804810001,-93.775382995,0
			46.8037109380002,-93.775993346,0
			46.8059921270001,-94.342796326,0
			46.630760193,-94.345191956,0
			46.6308593750001,-94.329986573,0
			46.480949401,-94.3300933829998,0
			46.4342002880001,-94.3301620489999,0
			46.3086509700001,-94.330558777,0
			46.2953987130001,-94.3251266479999,0
			46.283020019,-94.328269958,0
			46.278869629,-94.3308486939999,0
			46.2797698990001,-94.334136963,0
			46.2811317450002,-94.3361358639999,0
			46.2811088560001,-94.340080261,0
			46.2797203060002,-94.3426971439999,0
			46.2769699100002,-94.3426589969998,0
			46.2778816230002,-94.343986512,0
			46.2819900510001,-94.345352173,0
			46.2893218990001,-94.346107484,0
			46.2925109860001,-94.347457887,0
			46.2938690190001,-94.3501129139999,0
			46.2961387630002,-94.3547363279999,0
			46.297039033,-94.3573760989999,0
			46.2978897100002,-94.366607667,0
			46.298320771,-94.370559692,0
			46.2983016970001,-94.3744964589998,0
			46.2996215820001,-94.383071899,0
			46.3018913280002,-94.3863906859999,0
			46.3059692390001,-94.393676758,0
			46.310989379,-94.395729064,0
			46.3114395150001,-94.3963928219999,0
			46.3178291320001,-94.4004287719999,0
			46.3232688900001,-94.40838623,0
			46.325500489,-94.4176406859999,0
			46.3268699660001,-94.4196319589999,0
			46.3295898430002,-94.4236221309999,0
			46.331809997,-94.4335174569999,0
			46.3289718620001,-94.4466476449999,0
			46.3266105660001,-94.45715332,0
			46.3237991340001,-94.4649963369999,0
			46.3187103280002,-94.4728164659999,0
			46.314048767,-94.4839401249999,0
			46.3144493110001,-94.4925079339999,0
			46.3148498530001,-94.4990921019999,0
			46.3147850040001,-94.4999999999999,0
			46.3143386840001,-94.506317139,0
			46.312919617,-94.5122222899999,0
			46.3106002810002,-94.5174484249999,0
			46.3096389780001,-94.5226974489999,0
			46.3091697690001,-94.524665833,0
			46.3086509700001,-94.532546998,0
			46.3072509770001,-94.535820008,0
			46.305408478,-94.536453248,0
			46.3040504460001,-94.535110473,0
			46.3021621710001,-94.5423202509999,0
			46.3035011280001,-94.5469360349999,0
			46.3048210150002,-94.5535430909999,0
			46.3079910290001,-94.5588607779998,0
			46.3115921020001,-94.566810608,0
			46.3174591070001,-94.5774383539999,0
			46.3228721610002,-94.5893707279999,0
			46.325550079,-94.5973129269999,0
			46.3236694330001,-94.603202821,0
			46.32226181,-94.6084365839999,0
			46.3217620840001,-94.6130371089999,0
			46.3221893310002,-94.616340637,0
			46.3235397350002,-94.6190032959999,0
			46.3267211910002,-94.623001099,0
			46.3285293580001,-94.6249999999999,0
			46.3317298890001,-94.62702942,0
			46.338130951,-94.6284561169999,0
			46.341320038,-94.630493165,0
			46.3449707040001,-94.6318664539999,0
			46.3463096620001,-94.6358413699999,0
			46.345352172,-94.6417465219999,0
			46.3453292860002,-94.6443786629999,0
			46.3457298270001,-94.650306701,0
			46.3461799630001,-94.6509780869998,0
			46.3475303660002,-94.6542968749999,0
			46.3511619570002,-94.658966064,0
			46.3538894650001,-94.660987854,0
			46.3560791020001,-94.6728668209999,0
			46.3532905590001,-94.6774368289999,0
			46.3527908330001,-94.6826858529998,0
			46.3504600530002,-94.6872558599999,0
			46.350830079,-94.6971359249999,0
			46.35213852,-94.704406738,0
			46.3565216080002,-94.7268829339999,0
			46.3633499150002,-94.731620789,0
			46.3688392650001,-94.733039855,0
			46.3697509770001,-94.7330627439998,0
			46.3748092650001,-94.731178283,0
			46.3816490180002,-94.7352523809999,0
			46.3834190380001,-94.741218566,0
			46.3829193120001,-94.7458190909999,0
			46.3819389340002,-94.7530364989999,0
			46.3832588200002,-94.758987426,0
			46.3878097540001,-94.763038636,0
			46.3919219970001,-94.7644271859999,0
			46.393730164,-94.766441345,0
			46.3945999150001,-94.7710723869999,0
			46.395050048,-94.772399902,0
			46.394088746,-94.776992797,0
			46.3972511290002,-94.782333375,0
			46.4004516610001,-94.7830429079999,0
			46.4045791620001,-94.7824630739999,0
			46.4110221870002,-94.7799530029999,0
			46.4137916560001,-94.7773666369999,0
			46.4155693050002,-94.7833404549999,0
			46.6301422120001,-94.78024292,0
			46.630111695,-94.7835388189999,0
			46.8057708740001,-94.785636902,0
			46.8041419980001,-94.6596527109999,0
			46.977199555,-94.655403137,0
			46.9771194460001,-94.6640396119999,0
			47.1429100050001,-94.6623077379999,0
			47.149799348,-94.6624298089999,0
			47.3220901490001,-94.662818909,0
			47.3224792490001,-94.670837403,0
			47.4102706910002,-94.671081542,0
			47.4104385380001,-94.5941314709999,0
			47.4103927610001,-94.4999999999999,0
			47.4103507990001,-94.4161529539999,0
			47.4453010570001,-94.4159622189999,0
			47.443511963,-94.4079132079999,0
			47.4379997250001,-94.4064865109999,0
			47.4343299860002,-94.405113221,0
			47.4320716870001,-94.399719238,0
			47.4289093020002,-94.390296937,0
			47.42850113,-94.3836059559999,0
			47.4317207330002,-94.3829803469999,0
			47.4321899430001,-94.3809814449999,0
			47.429931642,-94.374916076,0
			47.4258499150001,-94.3668365479999,0
			47.4259109510002,-94.3567962649999,0
			47.424129485,-94.3467407229999,0
			47.4205093380001,-94.33731842,0
			47.415969848,-94.327217101,0
			47.4164695740001,-94.321876526,0
			47.4174194330001,-94.315200805,0
			47.418838502,-94.3085174569999,0
			47.4791603090001,-94.112350465,0
			47.4796600350001,-94.104316711,0
			47.4778594980001,-94.0942611699999,0
			47.4733009340002,-94.084838868,0
			47.4572601320001,-94.0719833379999,0
			47.4458007810001,-94.0651931749999,0
			47.4407501220001,-94.0617904659999,0
			47.4343299860002,-94.0570526119999,0
			47.4320487980001,-94.053688049,0
			47.4283790590001,-94.0509796139999,0
			47.4260902420002,-94.0482864379999,0
			47.4210700990002,-94.0408782959999,0
			47.4151191710001,-94.03414154,0
			47.4151191710001,-94.0321273809999,0
			47.4105300900001,-94.031433106,0
			47.4068489080001,-94.033401488,0
			47.401771545,-94.037376404,0
			47.3838386540002,-94.0379028319999,0
			47.3700714120002,-94.0331115719999,0
			47.3576812740002,-94.028999329,0
			47.3476104740002,-94.0162200929999,0
			47.3449096680002,-94.0021514889999,0
			47.3417205810001,-93.992767334,0
			47.339000701,-93.982063293,0
			47.332618714,-93.9673080439998,0
			47.3271408080001,-93.9585876469999,0
			47.3243904110002,-93.9552230839999,0
			47.3184394850001,-93.949172974,0
			47.3133888260001,-93.9477996819999,0
			47.3092613220001,-93.945098878,0
			47.3065299990001,-93.93773651,0
			47.3056106560001,-93.9350585949999,0
			47.3042488100002,-93.9323730469999,0
			47.3024215700001,-93.9283523559999,0
			47.29965973,-93.9263305659999,0
			47.2978401200002,-93.9223175049999,0
			47.2960205070002,-93.916961669,0
			47.2969512930001,-93.9136276249999,0
			47.2992591860001,-93.9076309199999,0
			47.3029518120001,-93.902313233,0
			47.3061790480002,-93.8976516719999,0
			47.3098602300001,-93.897010804,0
			47.3204498290001,-93.889053344,0
			47.3236808780002,-93.8870697009999,0
			47.3246116640001,-93.881729126,0
			47.3241691590002,-93.872383118,0
			47.3196105950001,-93.862327576,0
			47.312740326,-93.8529357909999,0
			47.3086204530001,-93.844902038,0
			47.3054313660001,-93.8361968999999,0
			47.3041000380001,-93.8154830939999,0
			47.305030824,-93.8068084719999,0
			47.307369232,-93.7887802129999,0
			47.3069305430001,-93.7807617189999,0
			47.30601883,-93.7754211419999,0
			47.305568695,-93.7720794679999,0
			47.3037300110001,-93.7693862909999,0
			47.2982215880001,-93.770706176,0
			47.2968292250001,-93.774711609,0
			47.296371461,-93.775382995,0
			47.2917594920001,-93.780700684,0
			47.2894592290001,-93.781356812,0
			47.2834892270001,-93.7806625369999,0
			47.2807388310001,-93.7779769889999,0
			47.275680542,-93.7786331169999,0
			47.278430938,-93.783981323,0
			47.2761192320001,-93.7886428839998,0
			47.2683105460001,-93.7879409789999,0
			47.2646408090001,-93.7879333499999,0
			47.2614288330001,-93.7865829469999,0
			47.2586708070001,-93.786567689,0
			47.2595710760001,-93.7952499389999,0
			47.2568092350001,-93.7992401129999,0
			47.2531204220002,-93.8025588989999,0
			47.2508201590002,-93.805892945,0
			47.246681213,-93.807868957,0
			47.2384109500001,-93.807159424,0
			47.2315216070002,-93.804458618,0
			47.223720551,-93.8010864269999,0
			47.2168388370002,-93.7977218619999,0
			47.2163810730002,-93.7963867189999,0
			47.2154693600001,-93.794380188,0
			47.2150192260002,-93.7890396119999,0
			47.2118186960002,-93.7830276479999,0
			47.2095298770001,-93.7763366699999,0
			47.0304298390002,-93.7749404919999,0
		</coordinates>
	</polygon>
</kml>
