<?xml version="1.0" encoding="UTF-8"?>
<kml xmlns="http://earth.google.com/kml/2.2">
	<polygon id="USA_NY_Tioga" samplingProbability="1">
		<coordinates>
			42.4106712330002,-76.125762939,0
			42.3825111390001,-76.1230163579999,0
			42.3820304860002,-76.1267471309999,0
			42.3652305610001,-76.1247329709998,0
			42.3652687080001,-76.1172866819999,0
			42.357551574,-76.117218017,0
			42.3571090710001,-76.1128692629999,0
			42.34803009,-76.112167358,0
			42.3475914000002,-76.1084365849999,0
			42.3376007090001,-76.1071090699999,0
			42.3375396740001,-76.1195220939999,0
			42.3275489810002,-76.119430542,0
			42.3275794990002,-76.1138534539999,0
			42.318489076,-76.114387512,0
			42.3180694590001,-76.106941223,0
			42.3094406120001,-76.1068573009999,0
			42.3090019240001,-76.1025161749999,0
			42.3026390080001,-76.103080749,0
			42.3022117610002,-76.0981216439999,0
			42.29265976,-76.0992660529999,0
			42.2930793760002,-76.107337951,0
			42.2876205450002,-76.107910155,0
			42.2876510610002,-76.101722718,0
			42.2808303840001,-76.102272034,0
			42.2804489140001,-76.088012695,0
			42.2749900830001,-76.0892028809999,0
			42.2745590200001,-76.084236146,0
			42.2663803090001,-76.084182739,0
			42.2659492490001,-76.0798263539999,0
			42.2586822510001,-76.07914734,0
			42.2595100400001,-76.0965118409999,0
			42.2499694830001,-76.096427917,0
			42.2499999990001,-76.090850831,0
			42.2459106450002,-76.0920562749999,0
			42.245929718,-76.0858612069999,0
			42.2413902280001,-76.0858230599999,0
			42.2413597120001,-76.0920181279999,0
			42.2336502080001,-76.0913314809999,0
			42.2341308600001,-76.0845184319999,0
			42.228221894,-76.0857162479999,0
			42.227329254,-76.0819931029999,0
			42.2182502740001,-76.0800628659999,0
			42.2177696240001,-76.0862426749999,0
			42.2118721000001,-76.084953307,0
			42.212299347,-76.091156005,0
			42.2063903810001,-76.0898666369999,0
			42.2068786630001,-76.0830459599999,0
			42.1927986140001,-76.0823211659999,0
			42.1927795410002,-76.0885086059999,0
			42.186870576,-76.088462829,0
			42.1858406080001,-76.1150665279999,0
			42.1508712770001,-76.1122894279999,0
			41.9990615850001,-76.1060333249999,0
			41.9991607670001,-76.116516114,0
			41.9991302490001,-76.1466979979999,0
			41.9989204410002,-76.3826065069999,0
			41.9998512270001,-76.4660491949999,0
			42.000492095,-76.5228729249999,0
			42.0008316040001,-76.553138733,0
			42.0009193420001,-76.561843871,0
			42.0121116640001,-76.5675125119999,0
			42.0153198250001,-76.563240052,0
			42.0536308300001,-76.544036865,0
			42.0885200500002,-76.553840636,0
			42.1239204410001,-76.5580902099999,0
			42.1311798090001,-76.559432983,0
			42.131221771,-76.5538711549999,0
			42.1506996160001,-76.55973053,0
			42.1557006830002,-76.559806823,0
			42.1568107600002,-76.534446717,0
			42.2503700260001,-76.5376968379999,0
			42.2817115780002,-76.5381698619999,0
			42.2808494570002,-76.4730529779999,0
			42.2631301870001,-76.473426818,0
			42.26309204,-76.417022705,0
			42.3194389350001,-76.415267945,0
			42.3180618290002,-76.350738526,0
			42.3085289000002,-76.349998474,0
			42.3079986570001,-76.28983307,0
			42.2961921690001,-76.289077759,0
			42.2964210520001,-76.250007629,0
			42.3073196400001,-76.2513732909999,0
			42.3241310130002,-76.2496871939999,0
			42.3359603870001,-76.2473297109999,0
			42.344619751,-76.242462158,0
			42.354190827,-76.2382202139999,0
			42.3623504640001,-76.24017334,0
			42.3664321900001,-76.2433166499999,0
			42.3794097910002,-76.276359559,0
			42.3815689090001,-76.294403077,0
			42.3865585330001,-76.2956924439999,0
			42.4074707030001,-76.294692993,0
			42.4081611630002,-76.2549362179999,0
			42.4106712330002,-76.125762939,0
		</coordinates>
	</polygon>
</kml>
