<?xml version="1.0" encoding="UTF-8"?>
<kml xmlns="http://earth.google.com/kml/2.2">
	<polygon id="USA_TX_Potter" samplingProbability="1">
		<coordinates>
			35.6185913090001,-101.624259948,0
			35.1823616030001,-101.624031067,0
			35.1817588810001,-101.730346679,0
			35.1832809450001,-102.16027832,0
			35.183151245,-102.16758728,0
			35.620319367,-102.162460327,0
			35.6197090160001,-101.768020629,0
			35.6189918520001,-101.692726136,0
			35.6185989390002,-101.655952453,0
			35.618671418,-101.651420593,0
			35.6187400810001,-101.646331787,0
			35.6184310910002,-101.635566712,0
			35.6185913090001,-101.624259948,0
		</coordinates>
	</polygon>
</kml>
