<?xml version="1.0" encoding="UTF-8"?>
<kml xmlns="http://earth.google.com/kml/2.2">
	<polygon id="USA_TX_Chambers" samplingProbability="1">
		<coordinates>
			29.5977100000001,-94.3810959999999,0
			29.5973350000001,-94.3846769999999,0
			29.5971010000001,-94.386917,0
			29.597652,-94.391768,0
			29.5979310000001,-94.3942259999999,0
			29.5979100000001,-94.4026259999999,0
			29.5960810000001,-94.41169,0
			29.5931100000001,-94.416062,0
			29.5930900000001,-94.4160919999999,0
			29.5872310000001,-94.4180679999998,0
			29.5767610000001,-94.4198229999999,0
			29.5728860000001,-94.420766,0
			29.570869,-94.421257,0
			29.5674230000002,-94.4256969999999,0
			29.5671320000001,-94.426933,0
			29.5655380000002,-94.4337009999999,0
			29.5650480000002,-94.4421389999998,0
			29.5649330000001,-94.4468289999999,0
			29.5647510000001,-94.4542389999999,0
			29.5615400000002,-94.4616369999999,0
			29.5598200000001,-94.4655989999999,0
			29.559662,-94.4660209999999,0
			29.55942,-94.466667,0
			29.5584710000001,-94.4688629999999,0
			29.557781,-94.4704589999999,0
			29.5579470000001,-94.4738849999999,0
			29.5581740000002,-94.4740219999999,0
			29.557983,-94.474617,0
			29.5577870000001,-94.4752269999999,0
			29.557249,-94.476166,0
			29.5571000000002,-94.4766079999999,0
			29.556545,-94.477165,0
			29.556545,-94.477448,0
			29.5562690000001,-94.4777219999999,0
			29.5562690000001,-94.477997,0
			29.5559880000001,-94.478279,0
			29.5559880000001,-94.4785539999999,0
			29.555712,-94.4788359999999,0
			29.555712,-94.4791109999999,0
			29.5554330000001,-94.4793849999999,0
			29.5554330000001,-94.4796679999998,0
			29.5548780000001,-94.4802249999999,0
			29.5548780000001,-94.480499,0
			29.5546000000001,-94.4807739999999,0
			29.5546000000001,-94.4810559999999,0
			29.5543230000001,-94.481331,0
			29.5543230000001,-94.4818879999999,0
			29.5540470000001,-94.482162,0
			29.5540470000001,-94.482445,0
			29.5537640000002,-94.4827189999999,0
			29.5537640000002,-94.4835589999999,0
			29.5534900000001,-94.4838329999998,0
			29.5534900000001,-94.4843899999999,0
			29.5537640000002,-94.4846649999998,0
			29.5537640000002,-94.4863359999999,0
			29.5534900000001,-94.48661,0
			29.5534900000001,-94.487442,0
			29.553211,-94.4877239999999,0
			29.553211,-94.4882739999999,0
			29.5529330000002,-94.4885559999999,0
			29.5529330000002,-94.4888309999998,0
			29.552378,-94.4893879999999,0
			29.552378,-94.489944,0
			29.5521010000001,-94.4902189999999,0
			29.5521010000001,-94.490776,0
			29.5518250000001,-94.491058,0
			29.5518250000001,-94.4913329999999,0
			29.5515420000002,-94.491608,0
			29.5515420000002,-94.49189,0
			29.5509890000001,-94.492447,0
			29.5509890000001,-94.4927219999999,0
			29.5507110000001,-94.4929959999998,0
			29.5507110000001,-94.4935529999999,0
			29.549879,-94.4943849999999,0
			29.549879,-94.494942,0
			29.54932,-94.4954989999999,0
			29.54932,-94.4957429999998,0
			29.54932,-94.4963299999999,0
			29.549046,-94.4963299999999,0
			29.5484890000001,-94.4968869999999,0
			29.5482100000002,-94.4968869999999,0
			29.5479340000001,-94.4971689999999,0
			29.5476550000001,-94.497444,0
			29.5473790000001,-94.497444,0
			29.5471000000002,-94.4977189999999,0
			29.5468240000001,-94.4977189999999,0
			29.5465450000001,-94.498001,0
			29.5462670000002,-94.498001,0
			29.5459880000002,-94.498276,0
			29.545166,-94.498276,0
			29.5443230000001,-94.499107,0
			29.5443230000001,-94.4999999999999,0
			29.5443230000001,-94.5004959999999,0
			29.5440440000001,-94.500778,0
			29.5440440000001,-94.5018919999999,0
			29.5437680000002,-94.5021669999999,0
			29.5437680000002,-94.504944,0
			29.5434890000002,-94.505219,0
			29.5434890000002,-94.5080029999999,0
			29.5432110000001,-94.508278,0
			29.5432110000001,-94.5088349999999,0
			29.5429340000001,-94.509109,0
			29.5429340000001,-94.5110549999999,0
			29.5426580000001,-94.5113299999999,0
			29.5426580000001,-94.512444,0
			29.5423770000002,-94.5127179999999,0
			29.5423770000002,-94.513275,0
			29.5421010000001,-94.513557,0
			29.5421010000001,-94.5143889999999,0
			29.5418300000001,-94.5146559999999,0
			29.5418220000001,-94.5157779999998,0
			29.541637,-94.5159609999999,0
			29.5415760000001,-94.516022,0
			29.5415460000002,-94.516609,0
			29.5412670000002,-94.516891,0
			29.5412670000002,-94.517441,0
			29.5409890000001,-94.517723,0
			29.5409890000001,-94.5182799999999,0
			29.5412600000001,-94.5185549999999,0
			29.5412670000002,-94.5193859999999,0
			29.541117,-94.5195389999999,0
			29.5409890000001,-94.5196689999999,0
			29.5409890000001,-94.5204009999999,0
			29.5409890000001,-94.5213319999999,0
			29.5408310000001,-94.5214919999999,0
			29.5407120000001,-94.5216139999999,0
			29.5407220000002,-94.522476,0
			29.5409950000001,-94.522713,0
			29.5409890000001,-94.5232769999999,0
			29.5415460000002,-94.5238339999999,0
			29.5423770000002,-94.5238339999999,0
			29.5425590000002,-94.523651,0
			29.5426580000001,-94.5235519999999,0
			29.5432110000001,-94.5235519999999,0
			29.5434890000002,-94.5238339999999,0
			29.5443230000001,-94.5238339999999,0
			29.5446000000001,-94.5235519999999,0
			29.5451560000001,-94.5235519999999,0
			29.5454330000001,-94.5238339999999,0
			29.5473790000001,-94.5238339999999,0
			29.5476550000001,-94.5241089999998,0
			29.5484890000001,-94.5241089999998,0
			29.5487670000001,-94.524391,0
			29.5496010000002,-94.524391,0
			29.5499,-94.524689,0
			29.5516340000001,-94.5253749999999,0
			29.552412,-94.5260389999999,0
			29.5529330000002,-94.5263289999999,0
			29.553322,-94.526627,0
			29.5542960000001,-94.5276639999999,0
			29.5553360000002,-94.5285489999999,0
			29.5559220000002,-94.529137,0
			29.5565050000001,-94.5298079999999,0
			29.556957,-94.530472,0
			29.5575450000002,-94.5312809999999,0
			29.5581950000001,-94.5325389999999,0
			29.5581950000001,-94.5329819999999,0
			29.5584890000001,-94.5332789999999,0
			29.5584890000001,-94.533554,0
			29.558767,-94.533836,0
			29.558767,-94.5341109999999,0
			29.559044,-94.534386,0
			29.559044,-94.534668,0
			29.5593220000001,-94.5349429999999,0
			29.5593220000001,-94.535225,0
			29.5596310000001,-94.5355069999999,0
			29.5599020000001,-94.535759,0
			29.559877,-94.536057,0
			29.5601560000001,-94.536331,0
			29.5601560000001,-94.5366129999999,0
			29.5609890000001,-94.5374449999999,0
			29.5611100000001,-94.537506,0
			29.5618340000001,-94.5378649999999,0
			29.5626790000001,-94.538673,0
			29.562874,-94.5395659999999,0
			29.563913,-94.539932,0
			29.565199,-94.5401989999999,0
			29.566317,-94.5407489999999,0
			29.5683960000001,-94.542,0
			29.5695020000001,-94.5430369999999,0
			29.571266,-94.544662,0
			29.571266,-94.5449449999999,0
			29.5723780000002,-94.5460589999998,0
			29.5723780000002,-94.5463329999999,0
			29.5726570000002,-94.5466079999999,0
			29.5726570000002,-94.547997,0
			29.5732120000001,-94.548553,0
			29.5732120000001,-94.5491099999999,0
			29.5734900000002,-94.549385,0
			29.573767,-94.5496669999999,0
			29.573767,-94.5504989999999,0
			29.5743220000001,-94.5510559999998,0
			29.5740450000001,-94.5513309999999,0
			29.5740450000001,-94.5524439999999,0
			29.5744780000001,-94.5537639999999,0
			29.5745740000002,-94.5570299999999,0
			29.5744440000001,-94.561386,0
			29.5746,-94.5616069999999,0
			29.5746,-94.5621639999999,0
			29.5743220000001,-94.5621639999999,0
			29.5743220000001,-94.5627209999999,0
			29.5740450000001,-94.5629959999999,0
			29.5740450000001,-94.5632779999999,0
			29.5743220000001,-94.5635529999999,0
			29.5743220000001,-94.5641099999999,0
			29.5740450000001,-94.5643919999999,0
			29.5740450000001,-94.5649409999999,0
			29.573767,-94.5652239999999,0
			29.573767,-94.565498,0
			29.5732120000001,-94.5660549999999,0
			29.5732120000001,-94.5668869999999,0
			29.5731930000001,-94.567238,0
			29.5733240000001,-94.567871,0
			29.5731110000001,-94.5688859999999,0
			29.5726570000002,-94.569946,0
			29.5723780000002,-94.5702209999999,0
			29.5723780000002,-94.570503,0
			29.5707340000001,-94.5737229999999,0
			29.5682660000001,-94.5777439999999,0
			29.566822,-94.580498,0
			29.566822,-94.581329,0
			29.5665440000001,-94.581612,0
			29.5665440000001,-94.5818859999999,0
			29.5662650000001,-94.5821689999999,0
			29.5662650000001,-94.5827179999999,0
			29.565989,-94.583,0
			29.565989,-94.583832,0
			29.5657140000002,-94.5841139999999,0
			29.5657140000002,-94.5849459999999,0
			29.565435,-94.5852199999999,0
			29.565435,-94.5855029999999,0
			29.5651530000001,-94.585777,0
			29.5651530000001,-94.5860519999999,0
			29.5648780000001,-94.5863339999999,0
			29.5648780000001,-94.5868909999999,0
			29.5646,-94.587166,0
			29.5646,-94.58744,0
			29.5643220000001,-94.5877229999999,0
			29.5643220000001,-94.5885539999999,0
			29.5637660000001,-94.5891109999999,0
			29.5637660000001,-94.5896679999999,0
			29.56349,-94.5899429999999,0
			29.56349,-94.5902249999999,0
			29.563211,-94.5904999999998,0
			29.563211,-94.590775,0
			29.5629310000002,-94.5910569999999,0
			29.5629310000002,-94.5916139999999,0
			29.5626560000001,-94.5918879999999,0
			29.5626560000001,-94.5930019999999,0
			29.562378,-94.5932769999999,0
			29.562378,-94.5938339999999,0
			29.562099,-94.5941089999999,0
			29.562099,-94.5943909999999,0
			29.5618230000001,-94.5946659999999,0
			29.5618230000001,-94.5952219999999,0
			29.562099,-94.5954969999999,0
			29.562099,-94.5960539999999,0
			29.5618230000001,-94.5963359999999,0
			29.5618230000001,-94.5979999999999,0
			29.561268,-94.598557,0
			29.561268,-94.599113,0
			29.5609890000001,-94.5993879999999,0
			29.5607110000001,-94.5993879999999,0
			29.5607110000001,-94.5996629999999,0
			29.5604340000001,-94.599945,0
			29.5604340000001,-94.6002199999999,0
			29.5601560000001,-94.6005019999999,0
			29.5601560000001,-94.6007769999999,0
			29.559877,-94.6010509999999,0
			29.5596010000001,-94.6013339999999,0
			29.5596010000001,-94.6016079999999,0
			29.5593220000001,-94.601891,0
			29.5593220000001,-94.602722,0
			29.559044,-94.6029969999999,0
			29.559044,-94.6035539999999,0
			29.558767,-94.6038359999999,0
			29.558767,-94.604111,0
			29.5584890000001,-94.6043849999999,0
			29.5584890000001,-94.6046679999999,0
			29.5582120000001,-94.6049419999999,0
			29.5582120000001,-94.6063309999999,0
			29.557934,-94.606613,0
			29.557934,-94.6071619999999,0
			29.5576550000001,-94.607445,0
			29.5576550000001,-94.608276,0
			29.5573790000001,-94.608559,0
			29.5573790000001,-94.6088329999999,0
			29.5571000000002,-94.609108,0
			29.5571000000002,-94.609947,0
			29.5568220000001,-94.610222,0
			29.5568220000001,-94.6104969999999,0
			29.556545,-94.610779,0
			29.556545,-94.61161,0
			29.5562690000001,-94.611885,0
			29.5562690000001,-94.612724,0
			29.5559880000001,-94.6129989999999,0
			29.5559880000001,-94.613274,0
			29.555712,-94.613556,0
			29.555712,-94.614944,0
			29.5554330000001,-94.615219,0
			29.5554330000001,-94.615776,0
			29.5551570000001,-94.616058,0
			29.5551570000001,-94.6163329999999,0
			29.5548780000001,-94.616608,0
			29.5548780000001,-94.6174469999999,0
			29.5546000000001,-94.617722,0
			29.5546000000001,-94.620224,0
			29.5543230000001,-94.6204989999999,0
			29.5543230000001,-94.6207809999999,0
			29.5540470000001,-94.621056,0
			29.5540470000001,-94.6216129999999,0
			29.5537640000002,-94.621887,0
			29.5537640000002,-94.6235579999999,0
			29.5534900000001,-94.6238329999999,0
			29.5534900000001,-94.625221,0
			29.553211,-94.6254959999999,0
			29.553211,-94.6277239999999,0
			29.5529330000002,-94.6279979999999,0
			29.5529330000002,-94.6285549999999,0
			29.552378,-94.6291119999999,0
			29.552378,-94.630219,0
			29.5521010000001,-94.6305009999999,0
			29.5521010000001,-94.6321639999999,0
			29.5519450000001,-94.6324999999999,0
			29.5519450000001,-94.632774,0
			29.5516660000001,-94.633057,0
			29.5516660000001,-94.6333309999999,0
			29.5513920000002,-94.6336139999999,0
			29.5513920000002,-94.633888,0
			29.551615,-94.6344449999999,0
			29.5512240000002,-94.6350169999998,0
			29.5510770000001,-94.635521,0
			29.5505560000001,-94.6363909999998,0
			29.550278,-94.6366649999999,0
			29.550278,-94.637222,0
			29.549999,-94.6374969999999,0
			29.549999,-94.6377789999999,0
			29.5497230000001,-94.638054,0
			29.549999,-94.638336,0
			29.550278,-94.6394419999999,0
			29.550278,-94.6402739999999,0
			29.549999,-94.6405559999998,0
			29.549999,-94.64167,0
			29.5497230000001,-94.6419449999999,0
			29.5497230000001,-94.6427759999999,0
			29.549046,-94.6432799999999,0
			29.549046,-94.6441119999999,0
			29.54932,-94.6443859999998,0
			29.54932,-94.646057,0
			29.549046,-94.646332,0
			29.549046,-94.647163,0
			29.5487670000001,-94.6474459999999,0
			29.5487670000001,-94.6485519999998,0
			29.5484890000001,-94.648834,0
			29.5484890000001,-94.6491089999999,0
			29.5482100000002,-94.649391,0
			29.5482100000002,-94.651886,0
			29.5479340000001,-94.652168,0
			29.548056,-94.652779,0
			29.5477770000001,-94.652779,0
			29.5478080000001,-94.653557,0
			29.547695,-94.6536099999999,0
			29.54776,-94.654259,0
			29.5475010000001,-94.6552809999999,0
			29.5475460000001,-94.6557769999999,0
			29.5472220000001,-94.656944,0
			29.5469440000001,-94.6572189999999,0
			29.5469440000001,-94.657501,0
			29.5461120000001,-94.658333,0
			29.5461120000001,-94.6594469999999,0
			29.545834,-94.659721,0
			29.545834,-94.660004,0
			29.5461120000001,-94.6602779999999,0
			29.5459880000002,-94.661331,0
			29.5462670000002,-94.6616129999999,0
			29.5462670000002,-94.6630019999999,0
			29.5459880000002,-94.6632769999999,0
			29.5459880000002,-94.663551,0
			29.5457120000001,-94.663834,0
			29.5457120000001,-94.6641079999999,0
			29.5446000000001,-94.6652219999999,0
			29.5446000000001,-94.6657789999999,0
			29.5443230000001,-94.6657789999999,0
			29.5443230000001,-94.6660539999999,0
			29.5440440000001,-94.6663359999998,0
			29.5440440000001,-94.6666109999999,0
			29.5434820000001,-94.6671679999999,0
			29.5434890000002,-94.6677249999999,0
			29.5432570000002,-94.667953,0
			29.5432110000001,-94.669113,0
			29.5428960000002,-94.6693339999998,0
			29.5429340000001,-94.6716079999999,0
			29.5426580000001,-94.6718899999999,0
			29.5426580000001,-94.672997,0
			29.5423770000002,-94.673279,0
			29.5423770000002,-94.6743849999999,0
			29.5421010000001,-94.6746669999998,0
			29.5421010000001,-94.6749419999999,0
			29.5418220000001,-94.6752239999999,0
			29.5418220000001,-94.6754989999998,0
			29.5415460000002,-94.6757739999999,0
			29.5415460000002,-94.6777189999999,0
			29.5412670000002,-94.6780009999999,0
			29.5412670000002,-94.6788329999999,0
			29.5409890000001,-94.6791079999999,0
			29.5409890000001,-94.6793899999999,0
			29.5407120000001,-94.6796649999998,0
			29.5407120000001,-94.679947,0
			29.5404360000002,-94.6802219999999,0
			29.5405540000002,-94.6808319999998,0
			29.5402770000002,-94.6808319999998,0
			29.540003,-94.681114,0
			29.540003,-94.681946,0
			29.5397210000002,-94.6822199999999,0
			29.5397210000002,-94.682777,0
			29.5394420000002,-94.6830519999999,0
			29.539322,-94.684113,0
			29.539043,-94.6843869999999,0
			29.539043,-94.684669,0
			29.538595,-94.6851119999999,0
			29.5385190000002,-94.6851879999999,0
			29.5384880000001,-94.686333,0
			29.5382480000001,-94.686569,0
			29.5382140000002,-94.6868899999999,0
			29.5379330000002,-94.6871639999999,0
			29.5380740000001,-94.6873089999999,0
			29.5382140000002,-94.687447,0
			29.5382140000002,-94.688835,0
			29.5384880000001,-94.68911,0
			29.5384880000001,-94.689941,0
			29.5382140000002,-94.6902239999999,0
			29.5382140000002,-94.6930009999999,0
			29.5384880000001,-94.693275,0
			29.5384880000001,-94.6943889999999,0
			29.5382140000002,-94.694664,0
			29.5382140000002,-94.6960529999999,0
			29.5379330000002,-94.6963349999999,0
			29.5379330000002,-94.69828,0
			29.5382140000002,-94.6985549999999,0
			29.5382140000002,-94.69883,0
			29.5379330000002,-94.699112,0
			29.5379330000002,-94.7002179999999,0
			29.5382140000002,-94.7004999999999,0
			29.5382140000002,-94.7010569999999,0
			29.5384880000001,-94.7013319999999,0
			29.5384880000001,-94.7030029999999,0
			29.5382140000002,-94.703278,0
			29.5382140000002,-94.7038349999999,0
			29.5384880000001,-94.704109,0
			29.5384880000001,-94.704391,0
			29.5382140000002,-94.7046659999999,0
			29.5382140000002,-94.7052229999999,0
			29.5379330000002,-94.7054979999999,0
			29.5379330000002,-94.7060549999999,0
			29.5376570000001,-94.7063289999999,0
			29.5376570000001,-94.7068859999999,0
			29.5371000000002,-94.707443,0
			29.5371000000002,-94.7088319999999,0
			29.536821,-94.7091139999999,0
			29.536821,-94.7102199999999,0
			29.5365450000001,-94.7105029999999,0
			29.536821,-94.7105029999999,0
			29.536821,-94.7110519999999,0
			29.5371000000002,-94.7113339999999,0
			29.5371000000002,-94.711609,0
			29.536821,-94.711891,0
			29.5365450000001,-94.711891,0
			29.5362660000001,-94.7121659999999,0
			29.5362660000001,-94.712723,0
			29.5359630000001,-94.7130279999998,0
			29.535711,-94.7132799999999,0
			29.53599,-94.713554,0
			29.53599,-94.713928,0
			29.53599,-94.7141109999999,0
			29.5357570000001,-94.714394,0
			29.535711,-94.7149429999998,0
			29.535404,-94.7152099999999,0
			29.5354330000001,-94.7154999999999,0
			29.5351850000002,-94.715752,0
			29.5343230000001,-94.7166139999999,0
			29.5343230000001,-94.716888,0
			29.5340440000001,-94.7171629999999,0
			29.5340440000001,-94.7174449999999,0
			29.534369,-94.7177349999999,0
			29.534363,-94.7178499999999,0
			29.5343230000001,-94.7188339999999,0
			29.5345990000002,-94.7191089999999,0
			29.5345990000002,-94.7196659999999,0
			29.5343230000001,-94.7199399999998,0
			29.5343230000001,-94.7204969999999,0
			29.5340440000001,-94.7207789999999,0
			29.5340440000001,-94.721336,0
			29.5337680000002,-94.7216109999999,0
			29.5337680000002,-94.721886,0
			29.533489,-94.722168,0
			29.533489,-94.722725,0
			29.5332110000001,-94.723,0
			29.5332110000001,-94.723557,0
			29.5329340000001,-94.7238309999999,0
			29.5329340000001,-94.724113,0
			29.5321010000001,-94.724945,0
			29.5321010000001,-94.72522,0
			29.5318220000001,-94.7255019999999,0
			29.5318220000001,-94.726051,0
			29.531546,-94.726334,0
			29.5318220000001,-94.7266079999999,0
			29.5318220000001,-94.726891,0
			29.531546,-94.727165,0
			29.531546,-94.7279969999999,0
			29.5312670000002,-94.7282789999999,0
			29.5312670000002,-94.728554,0
			29.5309890000001,-94.7288359999999,0
			29.5309890000001,-94.729111,0
			29.5307120000001,-94.729385,0
			29.5307120000001,-94.730225,0
			29.5304340000002,-94.730499,0
			29.5304340000002,-94.7307739999999,0
			29.530155,-94.731056,0
			29.530155,-94.731331,0
			29.5298790000001,-94.7316129999999,0
			29.5298790000001,-94.7321619999999,0
			29.5296000000001,-94.7324449999999,0
			29.5296000000001,-94.734108,0
			29.529322,-94.73439,0
			29.529322,-94.7349469999999,0
			29.5287670000001,-94.735497,0
			29.5287670000001,-94.7363359999999,0
			29.5284900000001,-94.7366099999999,0
			29.5284900000001,-94.7374419999999,0
			29.528212,-94.737724,0
			29.528212,-94.7379989999999,0
			29.5279330000002,-94.738274,0
			29.5279330000002,-94.738556,0
			29.5276570000001,-94.7388309999999,0
			29.5276570000001,-94.739388,0
			29.5273780000001,-94.73967,0
			29.5273780000001,-94.7399439999999,0
			29.5271000000002,-94.740219,0
			29.5271000000002,-94.7405009999999,0
			29.526546,-94.7410579999998,0
			29.526546,-94.7416079999999,0
			29.5273780000001,-94.7424469999999,0
			29.5273780000001,-94.742722,0
			29.5271000000002,-94.7429959999999,0
			29.5271000000002,-94.7432789999999,0
			29.526825,-94.743553,0
			29.526825,-94.7441099999999,0
			29.5273780000001,-94.7446669999999,0
			29.5271000000002,-94.7449419999999,0
			29.5271000000002,-94.7452239999999,0
			29.5273780000001,-94.7454989999999,0
			29.5273780000001,-94.7460559999998,0
			29.5276570000001,-94.7463299999999,0
			29.5276570000001,-94.747169,0
			29.5273780000001,-94.7474439999999,0
			29.5273780000001,-94.747719,0
			29.5271000000002,-94.748001,0
			29.5271000000002,-94.7482759999999,0
			29.526825,-94.7485579999999,0
			29.526825,-94.748833,0
			29.526546,-94.7491069999999,0
			29.526546,-94.7502209999998,0
			29.5262640000001,-94.7504959999999,0
			29.5262640000001,-94.7507779999999,0
			29.52599,-94.7510529999998,0
			29.52599,-94.751335,0
			29.5257110000001,-94.7516099999999,0
			29.5257110000001,-94.7518919999999,0
			29.5254330000001,-94.752167,0
			29.5254330000001,-94.7527239999999,0
			29.5251540000002,-94.752998,0
			29.5251540000002,-94.7535549999999,0
			29.5254330000001,-94.7538299999999,0
			29.5251540000002,-94.7541119999999,0
			29.5251540000002,-94.7543869999999,0
			29.5248430000001,-94.754623,0
			29.5248780000001,-94.7552189999998,0
			29.5247290000001,-94.755371,0
			29.5246030000002,-94.755501,0
			29.5246050000002,-94.7561109999999,0
			29.5246070000002,-94.756332,0
			29.5243230000001,-94.7566069999999,0
			29.5243230000001,-94.7573389999998,0
			29.5243230000001,-94.763832,0
			29.5246030000002,-94.7641069999999,0
			29.5246030000002,-94.764946,0
			29.5248780000001,-94.7652209999999,0
			29.5248780000001,-94.7660519999999,0
			29.5251540000002,-94.766335,0
			29.5251540000002,-94.767441,0
			29.5254330000001,-94.7677229999999,0
			29.5254330000001,-94.7682799999999,0
			29.5257110000001,-94.7685549999999,0
			29.5254330000001,-94.768829,0
			29.5257110000001,-94.769112,0
			29.5257110000001,-94.7693859999999,0
			29.52599,-94.769669,0
			29.52599,-94.7702179999999,0
			29.5262640000001,-94.7705,0
			29.5262640000001,-94.7710569999999,0
			29.526546,-94.771332,0
			29.526546,-94.7716139999999,0
			29.526825,-94.7718889999999,0
			29.526825,-94.772163,0
			29.5273780000001,-94.7727199999999,0
			29.5273780000001,-94.773277,0
			29.5276570000001,-94.7735519999999,0
			29.5276570000001,-94.773834,0
			29.5279330000002,-94.774109,0
			29.5279330000002,-94.774666,0
			29.528212,-94.77494,0
			29.528212,-94.7760539999999,0
			29.5284900000001,-94.776329,0
			29.5284900000001,-94.7766109999999,0
			29.5287670000001,-94.7768859999999,0
			29.5287670000001,-94.7771679999998,0
			29.5296000000001,-94.778,0
			29.5296000000001,-94.778275,0
			29.5298790000001,-94.7785569999999,0
			29.5298790000001,-94.778831,0
			29.530155,-94.7791139999999,0
			29.530155,-94.7793879999999,0
			29.5304340000002,-94.779663,0
			29.5307120000001,-94.7799449999999,0
			29.5307120000001,-94.7802199999999,0
			29.5321010000001,-94.7816089999999,0
			29.532377,-94.7816089999999,0
			29.532656,-94.7818909999999,0
			29.5329340000001,-94.7818909999999,0
			29.5332110000001,-94.7821659999998,0
			29.533489,-94.7821659999998,0
			29.5337680000002,-94.78244,0
			29.5340440000001,-94.78244,0
			29.5354330000001,-94.7838359999999,0
			29.53599,-94.7838359999999,0
			29.5365450000001,-94.7843859999999,0
			29.5382270000002,-94.7838749999999,0
			29.5389610000001,-94.784149,0
			29.5393700000001,-94.78437,0
			29.5401540000001,-94.785332,0
			29.540546,-94.7858349999999,0
			29.5407300000002,-94.7863009999999,0
			29.5414260000002,-94.7864299999999,0
			29.542826,-94.7864989999999,0
			29.5433160000001,-94.78698,0
			29.5438880000002,-94.787498,0
			29.544722,-94.78833,0
			29.5450000000001,-94.78833,0
			29.5456200000001,-94.7885209999999,0
			29.5457120000001,-94.7888339999999,0
			29.5461120000001,-94.7891689999999,0
			29.5463890000001,-94.7891689999999,0
			29.5465970000001,-94.7893749999999,0
			29.5469440000001,-94.7897189999999,0
			29.5473630000001,-94.7899859999999,0
			29.547689,-94.789909,0
			29.5476860000002,-94.7896499999999,0
			29.5477710000001,-94.7892989999999,0
			29.5478150000002,-94.7891309999999,0
			29.5476190000001,-94.7889249999999,0
			29.54747,-94.7887949999999,0
			29.5472770000001,-94.7882919999999,0
			29.5473210000001,-94.787651,0
			29.5471290000001,-94.7867969999999,0
			29.5473960000002,-94.7861789999999,0
			29.547897,-94.7859649999999,0
			29.5483510000001,-94.785614,0
			29.548376,-94.7854229999999,0
			29.5485080000001,-94.7843319999999,0
			29.5487190000002,-94.783318,0
			29.549046,-94.78244,0
			29.5494520000001,-94.7807619999999,0
			29.5493510000001,-94.7799609999999,0
			29.549475,-94.779266,0
			29.5491560000001,-94.7790219999999,0
			29.5484560000001,-94.7790679999999,0
			29.5473790000001,-94.7793879999999,0
			29.5470350000001,-94.7796249999998,0
			29.54648,-94.7796249999998,0
			29.5462670000002,-94.7793879999999,0
			29.5462670000002,-94.7785569999999,0
			29.5459880000002,-94.778275,0
			29.5459880000002,-94.7771679999998,0
			29.5457120000001,-94.7768859999999,0
			29.5457120000001,-94.7760539999999,0
			29.5443230000001,-94.774666,0
			29.5434890000002,-94.774666,0
			29.5434890000002,-94.775497,0
			29.5440440000001,-94.7760539999999,0
			29.5440440000001,-94.776329,0
			29.5437680000002,-94.7766109999999,0
			29.5437680000002,-94.7771679999998,0
			29.5434890000002,-94.7774429999999,0
			29.5434890000002,-94.7771679999998,0
			29.5432110000001,-94.7768859999999,0
			29.5432110000001,-94.7766109999999,0
			29.5426580000001,-94.7760539999999,0
			29.5426580000001,-94.7757799999999,0
			29.5421010000001,-94.7752229999999,0
			29.5421010000001,-94.77494,0
			29.5418220000001,-94.774666,0
			29.5411070000001,-94.7733919999999,0
			29.5406440000002,-94.773026,0
			29.5398500000002,-94.772835,0
			29.5394610000001,-94.7721409999999,0
			29.5395550000001,-94.7712939999998,0
			29.539833,-94.770439,0
			29.5398670000001,-94.769669,0
			29.5402570000001,-94.7690049999999,0
			29.540651,-94.766991,0
			29.5412670000002,-94.7658919999999,0
			29.5412670000002,-94.764488,0
			29.5411380000002,-94.7634199999998,0
			29.5412670000002,-94.7627179999999,0
			29.5398790000001,-94.7627179999999,0
			29.5396000000001,-94.762444,0
			29.5396000000001,-94.762169,0
			29.5414510000001,-94.7613529999999,0
			29.543034,-94.760925,0
			29.5437680000002,-94.760498,0
			29.5447730000002,-94.758545,0
			29.5459880000002,-94.7568889999999,0
			29.5459880000002,-94.756332,0
			29.5465450000001,-94.7557749999999,0
			29.5465450000001,-94.7552189999998,0
			29.5471710000002,-94.7546009999999,0
			29.5476490000001,-94.753883,0
			29.5482370000001,-94.7531429999999,0
			29.5486910000002,-94.7524799999999,0
			29.54908,-94.7519609999999,0
			29.5496010000002,-94.751335,0
			29.549879,-94.751335,0
			29.5501560000001,-94.7510529999998,0
			29.5504320000002,-94.7507779999999,0
			29.5507110000001,-94.7507779999999,0
			29.5509890000001,-94.7504959999999,0
			29.5512620000001,-94.7504879999999,0
			29.5518630000001,-94.7502819999999,0
			29.5526430000002,-94.7499849999999,0
			29.553099,-94.7496109999999,0
			29.553614,-94.7494429999999,0
			29.5541610000001,-94.7493969999999,0
			29.554445,-94.7491679999999,0
			29.5550000000001,-94.7491679999999,0
			29.5552770000001,-94.748886,0
			29.555553,-94.748886,0
			29.5558360000002,-94.7486109999999,0
			29.5563890000001,-94.7486109999999,0
			29.556545,-94.7485579999999,0
			29.5568220000001,-94.7485579999999,0
			29.5576550000001,-94.7493899999999,0
			29.5576550000001,-94.7496639999999,0
			29.5573790000001,-94.7496639999999,0
			29.5568220000001,-94.7502209999998,0
			29.556545,-94.7502209999998,0
			29.5562690000001,-94.7504959999999,0
			29.5559880000001,-94.7504959999999,0
			29.555733,-94.750755,0
			29.555712,-94.7510529999998,0
			29.5551570000001,-94.7516099999999,0
			29.5551570000001,-94.7520289999999,0
			29.5555460000002,-94.7523959999999,0
			29.55756,-94.753136,0
			29.5579010000001,-94.75325,0
			29.5584700000002,-94.7534329999999,0
			29.5595070000002,-94.7535779999999,0
			29.5618460000001,-94.7527689999999,0
			29.5626280000001,-94.751808,0
			29.5632760000001,-94.751221,0
			29.5637380000001,-94.75071,0
			29.5652770000001,-94.7491679999999,0
			29.5652770000001,-94.748886,0
			29.566668,-94.747498,0
			29.566668,-94.7472229999998,0
			29.566942,-94.7469479999999,0
			29.566942,-94.7466659999999,0
			29.5674990000001,-94.7461089999999,0
			29.5674990000001,-94.7458339999999,0
			29.5677780000001,-94.745552,0
			29.5677780000001,-94.7452769999999,0
			29.5683350000002,-94.74472,0
			29.5683350000002,-94.7444459999999,0
			29.570036,-94.7427979999999,0
			29.5700000000001,-94.7424999999999,0
			29.5705760000001,-94.741959,0
			29.5705570000002,-94.7416689999999,0
			29.5727790000001,-94.7394409999999,0
			29.5727790000001,-94.739166,0
			29.5730550000001,-94.739166,0
			29.5744440000001,-94.7377779999999,0
			29.574663,-94.737717,0
			29.575815,-94.7366489999999,0
			29.5761110000001,-94.736664,0
			29.576666,-94.7361149999999,0
			29.5767350000001,-94.735626,0
			29.5769440000001,-94.7352749999999,0
			29.5771270000002,-94.7352289999999,0
			29.5780560000001,-94.735001,0
			29.5789890000001,-94.7342609999999,0
			29.579933,-94.7340769999999,0
			29.5808320000002,-94.733887,0
			29.5808320000002,-94.7336119999999,0
			29.581114,-94.7333299999999,0
			29.5813880000001,-94.7333299999999,0
			29.5816670000002,-94.733055,0
			29.5822870000001,-94.7326889999999,0
			29.582943,-94.7319409999999,0
			29.583336,-94.731667,0
			29.5835320000001,-94.730995,0
			29.5847230000001,-94.730553,0
			29.5852780000001,-94.730003,0
			29.585833,-94.730003,0
			29.5861110000001,-94.729721,0
			29.5863900000001,-94.730003,0
			29.587099,-94.7299419999999,0
			29.5873780000002,-94.7296679999999,0
			29.5879340000001,-94.7296679999999,0
			29.5884900000001,-94.729111,0
			29.5884900000001,-94.7288359999999,0
			29.5887660000001,-94.728554,0
			29.5893210000002,-94.728554,0
			29.5896000000001,-94.7282789999999,0
			29.5896850000001,-94.7279819999999,0
			29.5898490000001,-94.727501,0
			29.5904520000001,-94.7271269999999,0
			29.59099,-94.726891,0
			29.5916580000001,-94.7269819999999,0
			29.5923370000001,-94.7263719999999,0
			29.5933590000001,-94.726189,0
			29.5946010000001,-94.7257769999999,0
			29.5949610000002,-94.7254099999999,0
			29.5962120000001,-94.724609,0
			29.5972190000001,-94.723877,0
			29.5987010000002,-94.7231829999999,0
			29.59906,-94.7227779999999,0
			29.599592,-94.7225569999999,0
			29.5997220000001,-94.722504,0
			29.5999740000001,-94.721962,0
			29.6002290000001,-94.72139,0
			29.6007210000001,-94.7207569999999,0
			29.6010000000002,-94.7205349999999,0
			29.601276,-94.7203369999999,0
			29.6017490000001,-94.7201159999999,0
			29.602158,-94.7202449999999,0
			29.602566,-94.7203369999999,0
			29.6031020000001,-94.7203369999999,0
			29.60351,-94.7202449999999,0
			29.6055560000001,-94.7183299999999,0
			29.605831,-94.7183299999999,0
			29.6069430000002,-94.717224,0
			29.6072220000001,-94.717224,0
			29.608053,-94.716393,0
			29.608459,-94.7163159999998,0
			29.6089310000002,-94.7158429999999,0
			29.6094420000002,-94.7153699999999,0
			29.6098790000001,-94.7149429999998,0
			29.6098790000001,-94.7146679999999,0
			29.6096000000001,-94.7143859999999,0
			29.6096000000001,-94.7141109999999,0
			29.609676,-94.7134929999999,0
			29.610516,-94.7132029999999,0
			29.6116940000002,-94.7132419999999,0
			29.6125130000001,-94.7132419999999,0
			29.6137390000001,-94.7132109999999,0
			29.6139300000001,-94.71331,0
			29.6150320000002,-94.713882,0
			29.6155550000001,-94.7144469999999,0
			29.6161120000002,-94.7144469999999,0
			29.6160810000001,-94.713814,0
			29.616014,-94.7134629999999,0
			29.6161120000002,-94.713058,0
			29.6172220000001,-94.7119449999998,0
			29.6174640000001,-94.711517,0
			29.617807,-94.7109149999999,0
			29.6183340000001,-94.7108309999999,0
			29.61861,-94.7108309999999,0
			29.618889,-94.7105559999999,0
			29.619947,-94.710258,0
			29.6202770000002,-94.7102809999999,0
			29.6205220000002,-94.7100369999999,0
			29.621113,-94.709442,0
			29.6213890000001,-94.709442,0
			29.6219430000002,-94.708885,0
			29.6224990000001,-94.708885,0
			29.623056,-94.7083359999999,0
			29.6233350000001,-94.7083359999999,0
			29.6236110000002,-94.7080539999999,0
			29.6238880000001,-94.7079619999999,0
			29.624447,-94.707779,0
			29.6250170000001,-94.7074049999999,0
			29.6253130000001,-94.7070009999999,0
			29.6258340000001,-94.7069469999998,0
			29.6263890000001,-94.7069469999998,0
			29.626669,-94.7066649999999,0
			29.626944,-94.7066649999999,0
			29.6272220000001,-94.7063899999999,0
			29.6275010000001,-94.7063899999999,0
			29.6282220000001,-94.706093,0
			29.6286470000001,-94.7060549999999,0
			29.6292320000002,-94.7057799999998,0
			29.630278,-94.7055589999999,0
			29.6305560000001,-94.7055589999999,0
			29.6308330000001,-94.705276,0
			29.631109,-94.705276,0
			29.6313900000002,-94.7050019999999,0
			29.6316660000001,-94.7050019999999,0
			29.6325,-94.7041699999999,0
			29.6327780000001,-94.7041699999999,0
			29.6330550000001,-94.7038879999999,0
			29.6330550000001,-94.703613,0
			29.6333310000001,-94.703331,0
			29.634443,-94.703331,0
			29.6347240000002,-94.703613,0
			29.6350000000001,-94.703331,0
			29.6352790000001,-94.703331,0
			29.6355530000002,-94.7030559999999,0
			29.6361100000001,-94.7030559999999,0
			29.6363890000001,-94.702774,0
			29.636738,-94.702553,0
			29.637732,-94.702278,0
			29.6380730000002,-94.702057,0
			29.6386300000001,-94.701721,0
			29.6391010000002,-94.7016299999999,0
			29.6394440000001,-94.7014999999999,0
			29.639935,-94.7014999999999,0
			29.640278,-94.7016679999999,0
			29.6408160000001,-94.7012019999999,0
			29.6413650000001,-94.7007599999999,0
			29.6429270000002,-94.6999509999999,0
			29.6445730000001,-94.700073,0
			29.6467610000001,-94.6996839999999,0
			29.646835,-94.699646,0
			29.6477780000001,-94.699181,0
			29.6490460000002,-94.699944,0
			29.6496010000001,-94.699944,0
			29.6498780000001,-94.7002179999999,0
			29.650158,-94.7002179999999,0
			29.6508330000001,-94.700279,0
			29.6525000000001,-94.698608,0
			29.6524520000001,-94.6982419999999,0
			29.6530550000001,-94.697853,0
			29.653351,-94.6983719999999,0
			29.6539730000002,-94.69841,0
			29.6542020000001,-94.698112,0
			29.6546290000001,-94.6982959999999,0
			29.6552120000002,-94.6982419999999,0
			29.655556,-94.6983339999999,0
			29.6565530000001,-94.6981509999999,0
			29.657091,-94.698097,0
			29.6577950000002,-94.6977999999999,0
			29.6582010000001,-94.6980359999999,0
			29.6590190000001,-94.697739,0
			29.659721,-94.698608,0
			29.6605550000002,-94.697777,0
			29.6608790000001,-94.697868,0
			29.6614070000001,-94.698021,0
			29.661816,-94.697662,0
			29.662224,-94.6975019999999,0
			29.6627770000001,-94.6975019999999,0
			29.6630540000002,-94.697777,0
			29.6637210000001,-94.697479,0
			29.664066,-94.697762,0
			29.6644630000002,-94.6978299999999,0
			29.6650830000002,-94.697426,0
			29.6652770000001,-94.69722,0
			29.6658610000001,-94.696907,0
			29.6675000000001,-94.6966629999999,0
			29.6691670000002,-94.6966629999999,0
			29.6694450000001,-94.696945,0
			29.6697220000001,-94.696945,0
			29.6699980000002,-94.6966629999999,0
			29.6705550000001,-94.6966629999999,0
			29.6708340000001,-94.696945,0
			29.671389,-94.696945,0
			29.6719440000001,-94.696388,0
			29.673731,-94.6965709999999,0
			29.675556,-94.696114,0
			29.6763900000001,-94.696114,0
			29.6766640000002,-94.6958309999999,0
			29.6786120000001,-94.6958309999999,0
			29.678888,-94.696114,0
			29.6794450000001,-94.696114,0
			29.6797220000001,-94.696388,0
			29.679878,-94.696609,0
			29.6804330000001,-94.696609,0
			29.6809250000002,-94.6965709999999,0
			29.681267,-94.6963349999999,0
			29.6818410000001,-94.6958689999998,0
			29.6825330000001,-94.695557,0
			29.6831210000001,-94.695145,0
			29.6835460000001,-94.6950379999999,0
			29.6838890000001,-94.6949619999999,0
			29.6843620000001,-94.694687,0
			29.6849990000001,-94.694168,0
			29.6852780000001,-94.6938859999999,0
			29.6858310000002,-94.6938859999999,0
			29.6861110000001,-94.693611,0
			29.6866660000002,-94.693611,0
			29.6869430000002,-94.6933359999999,0
			29.6872220000001,-94.6933359999999,0
			29.6875000000001,-94.6930539999999,0
			29.6877780000002,-94.6930539999999,0
			29.688053,-94.69278,0
			29.6883350000001,-94.69278,0
			29.6888890000001,-94.692223,0
			29.6891670000002,-94.692223,0
			29.689445,-94.691948,0
			29.6897220000001,-94.691948,0
			29.6900010000001,-94.6916659999999,0
			29.6902750000002,-94.6916659999999,0
			29.690836,-94.691109,0
			29.691111,-94.691109,0
			29.6913890000001,-94.6908339999999,0
			29.6916680000002,-94.6908339999999,0
			29.691944,-94.6905519999999,0
			29.6922230000001,-94.6905519999999,0
			29.6930560000001,-94.6897199999999,0
			29.6950000000002,-94.6897199999999,0
			29.695278,-94.689445,0
			29.6961120000001,-94.689445,0
			29.6963880000001,-94.6891629999998,0
			29.69861,-94.6891629999998,0
			29.6988890000001,-94.689445,0
			29.6991670000001,-94.689445,0
			29.6994440000001,-94.6897199999999,0
			29.6997200000001,-94.6897199999999,0
			29.7002770000001,-94.690277,0
			29.700832,-94.690277,0
			29.7013890000001,-94.6897199999999,0
			29.701942,-94.6897199999999,0
			29.702225,-94.689445,0
			29.7027780000001,-94.6900019999999,0
			29.7044470000002,-94.6900019999999,0
			29.7047210000001,-94.690277,0
			29.7058330000001,-94.690277,0
			29.7061120000001,-94.6900019999999,0
			29.706388,-94.6900019999999,0
			29.706669,-94.6897199999999,0
			29.7086110000001,-94.6897199999999,0
			29.708887,-94.6900019999999,0
			29.709999,-94.6900019999999,0
			29.7105560000001,-94.689445,0
			29.7108330000001,-94.6897199999999,0
			29.7116660000001,-94.6897199999999,0
			29.7119450000001,-94.6900019999999,0
			29.7125,-94.6900019999999,0
			29.7127780000001,-94.6899109999999,0
			29.713331,-94.690277,0
			29.7140010000001,-94.6901859999999,0
			29.7150520000001,-94.6905819999999,0
			29.715813,-94.6910169999999,0
			29.7164710000001,-94.6910859999999,0
			29.7183340000001,-94.6916659999999,0
			29.719999,-94.6916659999999,0
			29.7202780000002,-94.691948,0
			29.7211110000002,-94.691948,0
			29.723692,-94.692368,0
			29.724379,-94.6928329999999,0
			29.724787,-94.6929629999999,0
			29.725195,-94.693115,0
			29.72562,-94.6933749999999,0
			29.7259640000001,-94.69352,0
			29.7262310000002,-94.693787,0
			29.7265340000002,-94.6937789999999,0
			29.726923,-94.693932,0
			29.7277010000001,-94.694374,0
			29.7282220000002,-94.69474,0
			29.7291320000002,-94.6951829999999,0
			29.7292610000002,-94.695274,0
			29.729652,-94.695557,0
			29.7302970000001,-94.695557,0
			29.733055,-94.695557,0
			29.7333340000001,-94.695274,0
			29.7338890000001,-94.695274,0
			29.7341670000001,-94.695557,0
			29.7350010000001,-94.695557,0
			29.7352770000001,-94.695274,0
			29.7361110000001,-94.695274,0
			29.736389,-94.6949999999999,0
			29.7366660000001,-94.6949999999999,0
			29.7369440000001,-94.6947249999999,0
			29.7372230000001,-94.6947249999999,0
			29.737778,-94.694168,0
			29.7380560000001,-94.694168,0
			29.7383330000001,-94.6938859999999,0
			29.738907,-94.69352,0
			29.7391200000001,-94.69339,0
			29.7395100000002,-94.693115,0
			29.741114,-94.6916659999999,0
			29.7413880000001,-94.691391,0
			29.7416670000001,-94.691391,0
			29.741943,-94.691109,0
			29.7422240000002,-94.691109,0
			29.7425000000001,-94.6908339999999,0
			29.743053,-94.6908339999999,0
			29.7433360000002,-94.6905519999999,0
			29.744167,-94.6905519999999,0
			29.744446,-94.690277,0
			29.7470820000001,-94.6901319999999,0
			29.748074,-94.6896289999999,0
			29.7489890000001,-94.68956,0
			29.7497860000001,-94.689354,0
			29.7501950000001,-94.689201,0
			29.750408,-94.689148,0
			29.75111,-94.689148,0
			29.7513890000002,-94.6891629999998,0
			29.7517700000001,-94.6891629999998,0
			29.7522200000002,-94.6891629999998,0
			29.7524930000001,-94.688866,0
			29.7533320000002,-94.6888889999999,0
			29.753611,-94.6890179999999,0
			29.7538890000001,-94.6891629999998,0
			29.7553750000001,-94.689575,0
			29.7561090000001,-94.6903149999999,0
			29.7555540000002,-94.6908339999999,0
			29.7549650000001,-94.6910549999999,0
			29.754442,-94.691109,0
			29.7541680000001,-94.691391,0
			29.753611,-94.691391,0
			29.7533320000002,-94.6916659999999,0
			29.7527770000001,-94.6916659999999,0
			29.7525010000002,-94.691948,0
			29.7519440000001,-94.691948,0
			29.7516670000001,-94.692223,0
			29.75111,-94.692223,0
			29.7508340000001,-94.6924969999999,0
			29.748611,-94.6924969999999,0
			29.7483330000001,-94.69278,0
			29.7480560000001,-94.69278,0
			29.74778,-94.6930539999999,0
			29.7472230000001,-94.6930539999999,0
			29.7469440000001,-94.6933359999999,0
			29.7461110000001,-94.6933359999999,0
			29.7458320000001,-94.693611,0
			29.7455580000002,-94.693611,0
			29.745277,-94.6938859999999,0
			29.744425,-94.694107,0
			29.7436100000001,-94.694168,0
			29.7433360000002,-94.694443,0
			29.7427430000001,-94.694519,0
			29.7425000000001,-94.6947249999999,0
			29.7410580000002,-94.6950839999999,0
			29.7404560000001,-94.695236,0
			29.739534,-94.695274,0
			29.7394450000001,-94.695274,0
			29.7391740000001,-94.6953119999999,0
			29.73889,-94.695557,0
			29.7380560000001,-94.695557,0
			29.737778,-94.6958309999999,0
			29.7372230000001,-94.6958309999999,0
			29.7369440000001,-94.696114,0
			29.7361110000001,-94.696114,0
			29.7358340000001,-94.696388,0
			29.7352770000001,-94.696388,0
			29.7350010000001,-94.6966629999999,0
			29.732222,-94.6966629999999,0
			29.731947,-94.696388,0
			29.7299770000001,-94.696388,0
			29.7298470000002,-94.696365,0
			29.7294080000001,-94.6966629999999,0
			29.729725,-94.6966629999999,0
			29.7297760000002,-94.6968919999999,0
			29.7298760000001,-94.6968919999999,0
			29.730244,-94.6975399999999,0
			29.7309890000002,-94.697441,0
			29.7312700000002,-94.697441,0
			29.7315440000001,-94.6977229999999,0
			29.732222,-94.697777,0
			29.7325000000001,-94.697777,0
			29.733295,-94.697998,0
			29.7346530000001,-94.697998,0
			29.7366660000001,-94.697777,0
			29.7369440000001,-94.6975019999999,0
			29.7372230000001,-94.6975019999999,0
			29.7374990000001,-94.697777,0
			29.7380560000001,-94.69722,0
			29.7383330000001,-94.69722,0
			29.7386090000001,-94.6975019999999,0
			29.7391660000001,-94.6975019999999,0
			29.739721,-94.696945,0
			29.74,-94.696945,0
			29.7402780000001,-94.6966629999999,0
			29.7408310000001,-94.6966629999999,0
			29.741114,-94.696388,0
			29.7416670000001,-94.696388,0
			29.741943,-94.696114,0
			29.7427770000001,-94.696114,0
			29.743053,-94.6958309999999,0
			29.7437060000001,-94.6953119999999,0
			29.7442610000002,-94.6951979999999,0
			29.7449020000001,-94.6950529999999,0
			29.746288,-94.695114,0
			29.746634,-94.6953349999999,0
			29.746992,-94.6955949999999,0
			29.746992,-94.696022,0
			29.7469440000001,-94.6966629999999,0
			29.7472230000001,-94.6966629999999,0
			29.74778,-94.69722,0
			29.7480560000001,-94.696945,0
			29.7483330000001,-94.69722,0
			29.748768,-94.6968919999999,0
			29.7490440000001,-94.6968919999999,0
			29.7493230000001,-94.696609,0
			29.749878,-94.696609,0
			29.7501560000001,-94.6968919999999,0
			29.7501560000001,-94.6971659999999,0
			29.749878,-94.697441,0
			29.749878,-94.6977229999999,0
			29.7490440000001,-94.6985549999999,0
			29.748768,-94.6985549999999,0
			29.7482110000001,-94.699112,0
			29.7479340000002,-94.699112,0
			29.7476560000001,-94.6993869999999,0
			29.747377,-94.6993869999999,0
			29.7471010000002,-94.6996689999999,0
			29.7468220000001,-94.6996689999999,0
			29.746544,-94.699944,0
			29.746267,-94.699944,0
			29.7451550000001,-94.7010569999999,0
			29.7450010000001,-94.701111,0
			29.7441600000001,-94.7018889999999,0
			29.7435590000002,-94.7016829999999,0
			29.7430590000002,-94.701645,0
			29.7420670000002,-94.7013699999999,0
			29.7417130000002,-94.701591,0
			29.7413370000002,-94.7025379999999,0
			29.7414070000001,-94.7035749999999,0
			29.7407570000001,-94.7040789999999,0
			29.7403700000001,-94.704391,0
			29.74,-94.704445,0
			29.7390420000002,-94.7052229999999,0
			29.7390420000002,-94.7054979999999,0
			29.7384890000001,-94.7060549999999,0
			29.7384890000001,-94.7068859999999,0
			29.7387680000001,-94.7071689999999,0
			29.7373790000001,-94.708557,0
			29.7373790000001,-94.7091139999999,0
			29.7372230000001,-94.709442,0
			29.7369440000001,-94.7097239999999,0
			29.7374990000001,-94.7102809999999,0
			29.737778,-94.7099989999999,0
			29.7380560000001,-94.7099989999999,0
			29.7383330000001,-94.7097239999999,0
			29.7386090000001,-94.7097239999999,0
			29.7394450000001,-94.708885,0
			29.7394450000001,-94.708611,0
			29.739721,-94.7083359999999,0
			29.74,-94.7083359999999,0
			29.7405550000001,-94.707779,0
			29.7405550000001,-94.7074969999999,0
			29.7413880000001,-94.7066649999999,0
			29.7427770000001,-94.7066649999999,0
			29.7436100000001,-94.7058329999999,0
			29.7436100000001,-94.7055589999999,0
			29.7447220000001,-94.704445,0
			29.7450010000001,-94.704445,0
			29.745277,-94.7041699999999,0
			29.7455580000002,-94.7041699999999,0
			29.7466680000002,-94.705276,0
			29.7468220000001,-94.7052229999999,0
			29.747284,-94.704262,0
			29.7475320000001,-94.702774,0
			29.7478580000001,-94.701721,0
			29.7489130000001,-94.7020799999999,0
			29.7494350000002,-94.7004619999999,0
			29.7502780000001,-94.700554,0
			29.7505550000001,-94.7008359999999,0
			29.75111,-94.700279,0
			29.7509160000001,-94.6999969999999,0
			29.7510810000001,-94.6992949999999,0
			29.7522700000001,-94.6989969999999,0
			29.7528420000002,-94.698318,0
			29.7533320000002,-94.698608,0
			29.753611,-94.6983339999999,0
			29.7538890000001,-94.6983339999999,0
			29.7543600000001,-94.6975859999999,0
			29.7554130000001,-94.696739,0
			29.7558350000002,-94.696388,0
			29.7561110000001,-94.696388,0
			29.7563900000001,-94.696114,0
			29.7566640000002,-94.696114,0
			29.7577970000002,-94.696388,0
			29.7579020000001,-94.6967089999999,0
			29.7586900000001,-94.696983,0
			29.758566,-94.6973799999999,0
			29.7574880000001,-94.6985779999999,0
			29.7569960000001,-94.6995469999999,0
			29.7562680000001,-94.700775,0
			29.7561110000001,-94.7008359999999,0
			29.7559450000001,-94.7010569999999,0
			29.7556670000001,-94.7017059999999,0
			29.7551120000001,-94.701981,0
			29.7542500000001,-94.7018359999999,0
			29.7540020000002,-94.7023699999999,0
			29.7538050000001,-94.7030329999999,0
			29.754442,-94.7030559999999,0
			29.7554190000002,-94.7030489999999,0
			29.7554780000001,-94.704399,0
			29.7562600000002,-94.7046589999999,0
			29.7571030000001,-94.7040709999998,0
			29.7585240000001,-94.704399,0
			29.7597220000001,-94.7055589999999,0
			29.7605550000001,-94.7063899999999,0
			29.761383,-94.706642,0
			29.7619530000001,-94.7071229999999,0
			29.7613890000002,-94.708611,0
			29.760157,-94.7096629999999,0
			29.7598780000002,-94.7096629999999,0
			29.7596000000001,-94.7099459999999,0
			29.7596000000001,-94.7102199999999,0
			29.7604330000001,-94.7110519999999,0
			29.7604330000001,-94.7113339999999,0
			29.7607120000001,-94.711609,0
			29.7610860000001,-94.711609,0
			29.7615450000001,-94.711609,0
			29.7618220000001,-94.7113339999999,0
			29.761808,-94.7110289999999,0
			29.7623390000001,-94.7104569999999,0
			29.7629340000001,-94.7105029999999,0
			29.763489,-94.7099459999999,0
			29.7637670000001,-94.7099459999999,0
			29.7640460000001,-94.7096629999999,0
			29.764322,-94.7096629999999,0
			29.764601,-94.709389,0
			29.7673780000001,-94.709389,0
			29.767654,-94.7096629999999,0
			29.767933,-94.7096629999999,0
			29.7684900000001,-94.7102199999999,0
			29.7690470000002,-94.7102199999999,0
			29.7693230000001,-94.7099459999999,0
			29.7712690000001,-94.7099459999999,0
			29.7715450000001,-94.7096629999999,0
			29.7718220000001,-94.7096629999999,0
			29.7721,-94.709389,0
			29.7723810000002,-94.709389,0
			29.7729340000001,-94.7088319999999,0
			29.7732110000001,-94.7088319999999,0
			29.7734910000001,-94.708557,0
			29.7737670000001,-94.708557,0
			29.7743230000001,-94.7079999999999,0
			29.774599,-94.708275,0
			29.7765450000001,-94.708275,0
			29.7768210000002,-94.708557,0
			29.777657,-94.708557,0
			29.77849,-94.709389,0
			29.77861,-94.7097239999999,0
			29.7783340000001,-94.7097239999999,0
			29.7780550000001,-94.7099989999999,0
			29.777779,-94.7099989999999,0
			29.7775,-94.7102809999999,0
			29.7769450000001,-94.7102809999999,0
			29.776667,-94.7105559999999,0
			29.7761120000001,-94.7105559999999,0
			29.7758330000001,-94.7102809999999,0
			29.7758330000001,-94.7099989999999,0
			29.7750000000001,-94.7091669999999,0
			29.774445,-94.7091669999999,0
			29.774166,-94.709442,0
			29.774166,-94.7099989999999,0
			29.7738900000001,-94.7102809999999,0
			29.7738900000001,-94.7105559999999,0
			29.774166,-94.7108309999999,0
			29.7734910000001,-94.7113339999999,0
			29.7732110000001,-94.7113339999999,0
			29.7723810000002,-94.7121659999999,0
			29.7721,-94.7121659999999,0
			29.7718220000001,-94.71244,0
			29.7684900000001,-94.71244,0
			29.7682110000001,-94.712723,0
			29.767654,-94.712723,0
			29.7673780000001,-94.7129969999999,0
			29.7671010000001,-94.7129969999999,0
			29.7668250000002,-94.7132799999999,0
			29.7662680000001,-94.7132799999999,0
			29.7648770000001,-94.7146679999999,0
			29.764601,-94.7146679999999,0
			29.7640460000001,-94.715225,0
			29.761267,-94.715225,0
			29.76099,-94.7149429999998,0
			29.760157,-94.7149429999998,0
			29.7596000000001,-94.7154999999999,0
			29.7596000000001,-94.7166139999999,0
			29.7593230000001,-94.716888,0
			29.7602790000001,-94.7177809999999,0
			29.7605550000001,-94.7174989999999,0
			29.760834,-94.7177809999999,0
			29.76111,-94.7174989999999,0
			29.7625010000002,-94.7174989999999,0
			29.7636110000001,-94.7186129999999,0
			29.7638890000001,-94.7186129999999,0
			29.764166,-94.7183299999999,0
			29.7644440000001,-94.7186129999999,0
			29.764999,-94.7186129999999,0
			29.7652780000001,-94.7188869999999,0
			29.7658330000002,-94.7188869999999,0
			29.7661110000001,-94.71917,0
			29.7672210000001,-94.71917,0
			29.7675,-94.7188869999999,0
			29.7677780000001,-94.7188869999999,0
			29.768614,-94.719429,0
			29.7684900000001,-94.720222,0
			29.767933,-94.7207789999999,0
			29.7665440000002,-94.7207789999999,0
			29.7648770000001,-94.7224429999999,0
			29.764601,-94.722725,0
			29.764601,-94.723,0
			29.764322,-94.7232739999999,0
			29.76432,-94.7240749999999,0
			29.7647230000002,-94.7241669999999,0
			29.764999,-94.7244419999999,0
			29.7652780000001,-94.7244419999999,0
			29.766115,-94.7236179999999,0
			29.7658330000002,-94.723335,0
			29.7658330000002,-94.7230529999999,0
			29.7661110000001,-94.7227779999999,0
			29.7661110000001,-94.722504,0
			29.7663880000001,-94.722221,0
			29.7666660000002,-94.722221,0
			29.7672210000001,-94.7227779999999,0
			29.7672210000001,-94.7230529999999,0
			29.7677590000002,-94.7230379999999,0
			29.7680530000002,-94.7227779999999,0
			29.7683320000002,-94.722504,0
			29.7686770000001,-94.7221299999999,0
			29.768517,-94.7212069999999,0
			29.7686390000002,-94.7209549999999,0
			29.7691670000002,-94.7208329999999,0
			29.769114,-94.720299,0
			29.7693750000001,-94.7197419999999,0
			29.7693250000001,-94.719147,0
			29.7694450000001,-94.7186129999999,0
			29.7694450000001,-94.7183299999999,0
			29.7697240000001,-94.718056,0
			29.7696090000001,-94.7176129999999,0
			29.7698310000002,-94.7173539999999,0
			29.7704140000001,-94.7170719999999,0
			29.7712690000001,-94.7170719999999,0
			29.7718220000001,-94.718002,0
			29.7723810000002,-94.718002,0
			29.7726550000001,-94.7182769999999,0
			29.7723810000002,-94.7182769999999,0
			29.7721,-94.718552,0
			29.7712690000001,-94.718552,0
			29.7707120000001,-94.7191089999999,0
			29.7707120000001,-94.7196659999999,0
			29.7709880000002,-94.7196659999999,0
			29.7712690000001,-94.7199399999998,0
			29.7720830000002,-94.7196499999999,0
			29.7727830000002,-94.719933,0
			29.7723810000002,-94.7204969999999,0
			29.7723810000002,-94.7207789999999,0
			29.7721,-94.721054,0
			29.7721,-94.721336,0
			29.7729340000001,-94.722168,0
			29.7729340000001,-94.7232739999999,0
			29.7734910000001,-94.7238309999999,0
			29.7734910000001,-94.724113,0
			29.7737670000001,-94.724113,0
			29.7740440000001,-94.724388,0
			29.7743150000001,-94.724434,0
			29.774599,-94.7246629999999,0
			29.7748780000002,-94.7246629999999,0
			29.7751560000001,-94.724945,0
			29.7754340000001,-94.724945,0
			29.7759900000001,-94.7255019999999,0
			29.7762660000001,-94.7257769999999,0
			29.7762660000001,-94.726051,0
			29.7765450000001,-94.726334,0
			29.7773780000001,-94.7255019999999,0
			29.777657,-94.7255019999999,0
			29.7785910000001,-94.724564,0
			29.7793220000001,-94.7238309999999,0
			29.7793220000001,-94.723557,0
			29.7796000000001,-94.7232739999999,0
			29.7798790000001,-94.7232739999999,0
			29.7801530000002,-94.723557,0
			29.7804360000001,-94.723557,0
			29.7804360000001,-94.7238309999999,0
			29.7801530000002,-94.724113,0
			29.7801530000002,-94.7246629999999,0
			29.7800520000002,-94.72477,0
			29.7798790000001,-94.724945,0
			29.7798790000001,-94.72522,0
			29.7796000000001,-94.7255019999999,0
			29.7796000000001,-94.7257769999999,0
			29.7793220000001,-94.726051,0
			29.7790430000002,-94.726051,0
			29.77849,-94.7266079999999,0
			29.7782120000002,-94.726891,0
			29.777931,-94.726891,0
			29.777657,-94.727165,0
			29.7771000000001,-94.727722,0
			29.7768210000002,-94.727722,0
			29.7765450000001,-94.7279969999999,0
			29.7762660000001,-94.727722,0
			29.7759900000001,-94.7279969999999,0
			29.7759900000001,-94.7282789999999,0
			29.7757110000002,-94.728554,0
			29.7757110000002,-94.7288359999999,0
			29.7755550000001,-94.7291639999999,0
			29.7755550000001,-94.7294459999999,0
			29.776667,-94.730553,0
			29.7775,-94.729721,0
			29.7775,-94.7294459999999,0
			29.777779,-94.7291639999999,0
			29.7780550000001,-94.7294459999999,0
			29.778889,-94.7286149999999,0
			29.7791670000001,-94.7286149999999,0
			29.7794440000001,-94.728333,0
			29.780832,-94.728333,0
			29.7813890000001,-94.7277759999999,0
			29.7813890000001,-94.727501,0
			29.7814810000001,-94.726509,0
			29.782028,-94.7262949999999,0
			29.7823070000001,-94.7263719999999,0
			29.7824990000001,-94.726387,0
			29.7827780000001,-94.7261119999999,0
			29.783056,-94.7261119999999,0
			29.7838710000001,-94.725296,0
			29.7847210000001,-94.7244419999999,0
			29.7850000000001,-94.7244419999999,0
			29.785557,-94.723892,0
			29.785557,-94.7236099999999,0
			29.7861120000001,-94.7230529999999,0
			29.786388,-94.7230529999999,0
			29.7869450000001,-94.722504,0
			29.7872220000001,-94.722504,0
			29.788458,-94.7223659999999,0
			29.7887190000001,-94.7228699999999,0
			29.7887190000001,-94.723473,0
			29.7883340000001,-94.725555,0
			29.7883340000001,-94.727501,0
			29.7880550000001,-94.7277759999999,0
			29.7880550000001,-94.728333,0
			29.7877790000002,-94.7286149999999,0
			29.7877790000002,-94.7291639999999,0
			29.7880550000001,-94.7294459999999,0
			29.7882120000001,-94.7296679999999,0
			29.7882120000001,-94.7299419999999,0
			29.7887670000001,-94.730499,0
			29.7894440000001,-94.730553,0
			29.788889,-94.7311099999999,0
			29.7883340000001,-94.7311099999999,0
			29.7880550000001,-94.731392,0
			29.7876240000002,-94.731392,0
			29.7875000000002,-94.731392,0
			29.7872220000001,-94.731667,0
			29.786545,-94.731056,0
			29.7862660000001,-94.731056,0
			29.7854330000001,-94.731888,0
			29.7854330000001,-94.7324449999999,0
			29.7848800000001,-94.7330019999999,0
			29.7848800000001,-94.733276,0
			29.7846010000001,-94.733559,0
			29.784323,-94.733276,0
			29.7834890000001,-94.733276,0
			29.7832110000001,-94.733559,0
			29.7829340000001,-94.733559,0
			29.7822110000001,-94.7337039999999,0
			29.7813680000002,-94.7337799999999,0
			29.780396,-94.734299,0
			29.779615,-94.7347409999999,0
			29.7790430000002,-94.735222,0
			29.7790430000002,-94.735497,0
			29.7786200000002,-94.735756,0
			29.7782120000002,-94.7363359999999,0
			29.7775670000001,-94.735962,0
			29.7763250000002,-94.737297,0
			29.7756100000001,-94.7379459999999,0
			29.7753330000002,-94.738144,0
			29.7748780000002,-94.73835,0
			29.7743230000001,-94.7388309999999,0
			29.7743230000001,-94.7391129999999,0
			29.7740440000001,-94.739388,0
			29.7740440000001,-94.73967,0
			29.7737670000001,-94.7399439999999,0
			29.7732110000001,-94.7399439999999,0
			29.7732110000001,-94.7405009999999,0
			29.7729340000001,-94.7407759999999,0
			29.7729340000001,-94.7410579999998,0
			29.7726550000001,-94.7413329999999,0
			29.7726550000001,-94.7416079999999,0
			29.7729340000001,-94.7418899999998,0
			29.7729340000001,-94.742722,0
			29.7732110000001,-94.7429959999999,0
			29.7737670000001,-94.7424469999999,0
			29.7737670000001,-94.7413329999999,0
			29.774599,-94.7405009999999,0
			29.7751560000001,-94.7405009999999,0
			29.7754340000001,-94.740219,0
			29.7759900000001,-94.740219,0
			29.7762660000001,-94.7399439999999,0
			29.7771000000001,-94.7391129999999,0
			29.7787670000001,-94.7391129999999,0
			29.7804360000001,-94.7374419999999,0
			29.780989,-94.7374419999999,0
			29.7812650000001,-94.737724,0
			29.781822,-94.737724,0
			29.781822,-94.7374419999999,0
			29.7821010000001,-94.7371669999999,0
			29.7826580000001,-94.737724,0
			29.7832110000001,-94.737724,0
			29.7832110000001,-94.738274,0
			29.7837700000001,-94.738838,0
			29.7844240000001,-94.7384719999998,0
			29.785263,-94.7382509999999,0
			29.785851,-94.738548,0
			29.786306,-94.7386929999999,0
			29.7867970000001,-94.7388989999999,0
			29.7869450000001,-94.7394409999999,0
			29.7879350000001,-94.7398609999999,0
			29.7869610000002,-94.741341,0
			29.7863100000001,-94.742599,0
			29.7857800000002,-94.7438739999999,0
			29.7857110000002,-94.7454989999999,0
			29.7853220000001,-94.745888,0
			29.785156,-94.7460559999998,0
			29.7852170000001,-94.746346,0
			29.7848800000001,-94.7466129999999,0
			29.7848800000001,-94.7474439999999,0
			29.7840440000001,-94.7482759999999,0
			29.7840440000001,-94.7485579999999,0
			29.7837680000001,-94.748833,0
			29.7837680000001,-94.7491069999999,0
			29.7834890000001,-94.7493899999999,0
			29.7834890000001,-94.7496639999999,0
			29.7831480000002,-94.75058,0
			29.7829340000001,-94.7510529999998,0
			29.7823750000002,-94.7516099999999,0
			29.7821010000001,-94.7516099999999,0
			29.7815480000001,-94.752167,0
			29.7815480000001,-94.7524409999999,0
			29.781822,-94.7527239999999,0
			29.781942,-94.753052,0
			29.781942,-94.7538909999999,0
			29.7816660000001,-94.7541659999999,0
			29.7816660000001,-94.7555539999998,0
			29.7813890000001,-94.755836,0
			29.7813890000001,-94.7574999999999,0
			29.7802770000001,-94.758614,0
			29.7802770000001,-94.7588879999999,0
			29.7805560000001,-94.7591629999999,0
			29.7801530000002,-94.7593919999999,0
			29.7801530000002,-94.7599409999999,0
			29.7798790000001,-94.7602229999999,0
			29.7798790000001,-94.7610549999999,0
			29.7793220000001,-94.761612,0
			29.7790430000002,-94.761612,0
			29.77849,-94.762169,0
			29.77849,-94.7627179999999,0
			29.7790430000002,-94.7632749999999,0
			29.7794760000001,-94.763672,0
			29.7790430000002,-94.7643889999999,0
			29.77849,-94.764946,0
			29.77849,-94.7652209999999,0
			29.777657,-94.7660519999999,0
			29.7773780000001,-94.766335,0
			29.7773780000001,-94.767166,0
			29.7771000000001,-94.767441,0
			29.7771000000001,-94.7685549999999,0
			29.7768210000002,-94.768829,0
			29.7768210000002,-94.7693859999999,0
			29.7765450000001,-94.769669,0
			29.7765450000001,-94.769943,0
			29.7762660000001,-94.7702179999999,0
			29.7757450000001,-94.770424,0
			29.7754340000001,-94.770744,0
			29.7751560000001,-94.771332,0
			29.774599,-94.7718889999999,0
			29.774599,-94.772163,0
			29.7743230000001,-94.7724459999999,0
			29.7743230000001,-94.774109,0
			29.7740440000001,-94.7743909999999,0
			29.7740440000001,-94.775497,0
			29.7737670000001,-94.7757799999999,0
			29.7737670000001,-94.7760539999999,0
			29.7732110000001,-94.7766109999999,0
			29.7732110000001,-94.7768859999999,0
			29.7726550000001,-94.7774429999999,0
			29.7726550000001,-94.7793879999999,0
			29.7721,-94.7799449999999,0
			29.7721,-94.7802199999999,0
			29.7718220000001,-94.7805019999999,0
			29.7718220000001,-94.7807769999999,0
			29.7715450000001,-94.7810519999999,0
			29.7715450000001,-94.7816089999999,0
			29.7709880000002,-94.7821659999998,0
			29.7709880000002,-94.78244,0
			29.7705540000002,-94.7830579999999,0
			29.7705540000002,-94.783333,0
			29.7702750000001,-94.783607,0
			29.770409,-94.784485,0
			29.7703320000001,-94.7853929999999,0
			29.7703440000002,-94.7858889999999,0
			29.7702750000001,-94.7863919999999,0
			29.7702120000001,-94.7865909999999,0
			29.7700000000002,-94.7866669999999,0
			29.7697850000001,-94.786705,0
			29.7693370000002,-94.786774,0
			29.7691670000002,-94.787498,0
			29.769058,-94.788429,0
			29.7690470000002,-94.7885509999999,0
			29.768764,-94.7888339999999,0
			29.768764,-94.7891239999999,0
			29.768764,-94.789948,0
			29.7684900000001,-94.7902219999999,0
			29.7684900000001,-94.7910539999999,0
			29.7682110000001,-94.7913359999999,0
			29.7684900000001,-94.791611,0
			29.7684900000001,-94.7924419999999,0
			29.7682110000001,-94.792725,0
			29.7682110000001,-94.7929989999999,0
			29.767654,-94.793556,0
			29.7669030000001,-94.793556,0
			29.7665440000002,-94.793556,0
			29.7659890000001,-94.794113,0
			29.7659890000001,-94.7943879999999,0
			29.7662680000001,-94.7946619999998,0
			29.766304,-94.7949829999999,0
			29.7665440000002,-94.7952189999999,0
			29.7665440000002,-94.795776,0
			29.7668250000002,-94.796059,0
			29.7668250000002,-94.797447,0
			29.7662680000001,-94.7979969999999,0
			29.7662680000001,-94.7985529999999,0
			29.7659890000001,-94.7988359999999,0
			29.7659890000001,-94.7993849999999,0
			29.7648770000001,-94.8004989999999,0
			29.7648770000001,-94.801056,0
			29.764601,-94.8013309999999,0
			29.764601,-94.801613,0
			29.764322,-94.801888,0
			29.764322,-94.802444,0
			29.7640460000001,-94.802719,0
			29.7640460000001,-94.803276,0
			29.7637670000001,-94.803558,0
			29.7637670000001,-94.8038329999999,0
			29.763489,-94.804108,0
			29.763489,-94.8046649999999,0
			29.7632100000002,-94.804947,0
			29.7632100000002,-94.8054959999999,0
			29.7626550000001,-94.806053,0
			29.7623790000002,-94.806053,0
			29.7621,-94.8063349999999,0
			29.7621,-94.80661,0
			29.7618220000001,-94.806885,0
			29.7618220000001,-94.8079989999999,0
			29.76099,-94.8088299999999,0
			29.76099,-94.8096689999999,0
			29.759554,-94.8110349999999,0
			29.759125,-94.8115309999999,0
			29.7591920000001,-94.8119049999999,0
			29.7593170000001,-94.8126369999999,0
			29.7586710000002,-94.8133769999999,0
			29.7576960000001,-94.8141169999999,0
			29.7569160000001,-94.815147,0
			29.7561400000002,-94.816109,0
			29.7557110000002,-94.816887,0
			29.755157,-94.8174439999999,0
			29.755157,-94.817719,0
			29.7548790000001,-94.8180009999999,0
			29.7548790000001,-94.818275,0
			29.7543220000001,-94.8188319999999,0
			29.7543220000001,-94.819107,0
			29.7534890000001,-94.8199459999999,0
			29.7534890000001,-94.8202209999999,0
			29.7521,-94.8216089999999,0
			29.7505420000001,-94.822975,0
			29.7495650000001,-94.8237919999999,0
			29.7483330000001,-94.824089,0
			29.748074,-94.8247529999999,0
			29.747377,-94.8252179999999,0
			29.7471010000002,-94.8254999999999,0
			29.7468220000001,-94.8254999999999,0
			29.7458320000001,-94.8266679999999,0
			29.7450680000001,-94.8268659999999,0
			29.7436100000001,-94.8288879999999,0
			29.7436100000001,-94.8294449999999,0
			29.7434860000002,-94.8296659999999,0
			29.7418230000001,-94.8313289999999,0
			29.7412640000002,-94.8313289999999,0
			29.7409900000001,-94.8310549999998,0
			29.7401540000002,-94.8310549999998,0
			29.7398780000001,-94.8313289999999,0
			29.7396010000001,-94.8313289999999,0
			29.7390350000001,-94.8327639999998,0
			29.7384510000001,-94.833717,0
			29.737604,-94.834389,0
			29.7366960000001,-94.8353499999998,0
			29.7356570000001,-94.835716,0
			29.7352030000001,-94.8361429999999,0
			29.7348790000001,-94.836891,0
			29.7343240000001,-94.8382799999999,0
			29.7334880000002,-94.8391109999999,0
			29.7315440000001,-94.8405,0
			29.7309890000002,-94.841057,0
			29.7306000000002,-94.8416439999999,0
			29.7302490000001,-94.842255,0
			29.7293220000001,-94.8434369999999,0
			29.7287710000002,-94.8436129999999,0
			29.7282980000001,-94.8439329999999,0
			29.7279050000001,-94.8441539999999,0
			29.727627,-94.8443219999999,0
			29.7273480000002,-94.844704,0
			29.7269420000002,-94.845558,0
			29.7266670000001,-94.845558,0
			29.7259880000001,-94.846054,0
			29.7259880000001,-94.846336,0
			29.725712,-94.8466109999999,0
			29.725712,-94.846886,0
			29.7252770000001,-94.847504,0
			29.7250000000001,-94.847504,0
			29.7241670000001,-94.848335,0
			29.723602,-94.848587,0
			29.7225,-94.8494419999999,0
			29.7211110000002,-94.85083,0
			29.7208330000001,-94.85083,0
			29.7202780000002,-94.851387,0
			29.719999,-94.851387,0
			29.7197230000001,-94.851669,0
			29.7194440000001,-94.851669,0
			29.719168,-94.8519439999999,0
			29.7188890000002,-94.8519439999999,0
			29.7186110000001,-94.852219,0
			29.7184890000001,-94.8525089999999,0
			29.7182850000001,-94.8527759999999,0
			29.7177770000002,-94.853333,0
			29.7165720000002,-94.8541559999999,0
			29.7161100000001,-94.8544459999999,0
			29.7157550000001,-94.8543929999999,0
			29.7151570000001,-94.8541109999999,0
			29.7146,-94.8541109999999,0
			29.714325,-94.8538359999999,0
			29.7140460000001,-94.8538359999999,0
			29.7137640000001,-94.853554,0
			29.7129330000001,-94.853554,0
			29.7125,-94.854164,0
			29.712221,-94.854164,0
			29.7116660000001,-94.854721,0
			29.7116660000001,-94.855003,0
			29.7109640000001,-94.855331,0
			29.7105690000001,-94.855331,0
			29.7101310000001,-94.8557739999999,0
			29.7097230000001,-94.855835,0
			29.7094440000001,-94.8561099999999,0
			29.7094440000001,-94.8563919999999,0
			29.7086110000001,-94.8572239999999,0
			29.7080550000001,-94.8572239999999,0
			29.7077790000002,-94.857498,0
			29.7075,-94.857498,0
			29.7072220000001,-94.8577799999999,0
			29.7069110000002,-94.857903,0
			29.7066210000001,-94.8580249999999,0
			29.7061860000002,-94.8584979999999,0
			29.7058730000001,-94.8586579999999,0
			29.70575,-94.858841,0
			29.7048800000001,-94.8591079999999,0
			29.704323,-94.8596649999999,0
			29.7040440000001,-94.8596649999999,0
			29.7029340000001,-94.8607789999999,0
			29.7023750000002,-94.8607789999999,0
			29.701942,-94.8613889999999,0
			29.701111,-94.8613889999999,0
			29.7005560000001,-94.8619459999999,0
			29.700003,-94.862366,0
			29.6991670000001,-94.8627779999999,0
			29.698631,-94.8630909999999,0
			29.6980550000001,-94.8633349999999,0
			29.6975880000001,-94.863777,0
			29.696686,-94.864334,0
			29.6938900000001,-94.8644409999999,0
			29.6934170000001,-94.8643419999999,0
			29.6929990000002,-94.8642809999999,0
			29.6924110000002,-94.864456,0
			29.6917250000001,-94.864296,0
			29.6905560000001,-94.8647229999999,0
			29.6902750000002,-94.8647229999999,0
			29.6900010000001,-94.864998,0
			29.688951,-94.865379,0
			29.6875000000001,-94.8655549999999,0
			29.6863440000002,-94.865753,0
			29.6859700000001,-94.865822,0
			29.6855560000001,-94.8658369999999,0
			29.6847230000001,-94.8658369999999,0
			29.6844440000002,-94.8661119999999,0
			29.6837840000001,-94.8663559999999,0
			29.6833320000002,-94.8663859999999,0
			29.6827770000001,-94.8663859999999,0
			29.6825220000001,-94.8665539999999,0
			29.682222,-94.866531,0
			29.6816670000001,-94.8666689999998,0
			29.6805550000001,-94.8666689999998,0
			29.6802790000002,-94.8669429999999,0
			29.6791670000002,-94.8669429999999,0
			29.678888,-94.8666689999998,0
			29.6786120000001,-94.8666689999998,0
			29.6783330000001,-94.8669429999999,0
			29.677914,-94.8674319999999,0
			29.6771980000001,-94.867867,0
			29.6769470000002,-94.868332,0
			29.6762100000001,-94.8688889999999,0
			29.6756340000001,-94.8693239999999,0
			29.674725,-94.8697199999999,0
			29.6741660000001,-94.8702769999999,0
			29.6728950000001,-94.8710169999999,0
			29.6719440000001,-94.871948,0
			29.6711410000001,-94.8727569999999,0
			29.6708340000001,-94.873611,0
			29.6707120000002,-94.8741069999999,0
			29.6701560000001,-94.8746639999998,0
			29.6701560000001,-94.874947,0
			29.6693210000001,-94.875778,0
			29.6693210000001,-94.8760529999999,0
			29.6690440000002,-94.876335,0
			29.6690440000002,-94.8768919999999,0
			29.6687680000001,-94.877167,0
			29.6687680000001,-94.877441,0
			29.6679340000001,-94.878281,0
			29.6679340000001,-94.8785549999999,0
			29.6668220000001,-94.879669,0
			29.6668220000001,-94.8810579999999,0
			29.6662670000001,-94.881607,0
			29.6662670000001,-94.8818889999999,0
			29.6654340000001,-94.8827209999999,0
			29.6654340000001,-94.8835529999999,0
			29.6651550000001,-94.8835529999999,0
			29.6651550000001,-94.8838349999999,0
			29.6648790000002,-94.884109,0
			29.6648790000002,-94.884666,0
			29.6646000000002,-94.884941,0
			29.6646000000002,-94.8852229999999,0
			29.664045,-94.88578,0
			29.664045,-94.886612,0
			29.6637690000001,-94.8868869999999,0
			29.6637690000001,-94.8871689999999,0
			29.6634880000001,-94.887444,0
			29.6634880000001,-94.8877179999999,0
			29.6623780000002,-94.888832,0
			29.6623780000002,-94.8893889999999,0
			29.6618230000001,-94.889946,0
			29.6618230000001,-94.8905029999999,0
			29.6612640000002,-94.8910519999999,0
			29.6612640000002,-94.8921659999999,0
			29.6609900000001,-94.892441,0
			29.6609900000001,-94.8929979999999,0
			29.660154,-94.893829,0
			29.6604330000002,-94.894112,0
			29.660154,-94.8943859999999,0
			29.660154,-94.894943,0
			29.6596010000001,-94.8954999999999,0
			29.6596010000001,-94.8960569999999,0
			29.6587680000001,-94.8968889999999,0
			29.6587680000001,-94.8971629999999,0
			29.6584890000001,-94.8974459999998,0
			29.6584890000001,-94.8988339999999,0
			29.6582110000002,-94.899109,0
			29.6582110000002,-94.899391,0
			29.6579320000002,-94.8996659999999,0
			29.6579320000002,-94.89994,0
			29.6575490000001,-94.9003299999999,0
			29.6571010000002,-94.9007799999999,0
			29.6573770000001,-94.9010539999999,0
			29.6573770000001,-94.9024429999999,0
			29.6571010000002,-94.902725,0
			29.6571010000002,-94.9029999999999,0
			29.656822,-94.903275,0
			29.656822,-94.9046629999999,0
			29.656546,-94.9049449999999,0
			29.656546,-94.9060519999999,0
			29.655989,-94.9066089999998,0
			29.655989,-94.90744,0
			29.6557100000002,-94.907722,0
			29.6557100000002,-94.9079969999999,0
			29.6554340000001,-94.9082789999999,0
			29.6554340000001,-94.908836,0
			29.6551550000001,-94.9091109999999,0
			29.6551550000001,-94.909386,0
			29.6548790000002,-94.9096679999999,0
			29.6551550000001,-94.9099429999999,0
			29.6551550000001,-94.910225,0
			29.6557100000002,-94.9107739999998,0
			29.6554340000001,-94.911057,0
			29.6554340000001,-94.911613,0
			29.6557100000002,-94.911888,0
			29.6557100000002,-94.9121629999999,0
			29.655989,-94.912445,0
			29.655989,-94.91272,0
			29.6557100000002,-94.9130019999999,0
			29.6557100000002,-94.913551,0
			29.655989,-94.913834,0
			29.655989,-94.915222,0
			29.6562670000001,-94.9154969999999,0
			29.6562670000001,-94.915779,0
			29.655989,-94.916054,0
			29.655989,-94.916611,0
			29.656546,-94.9171679999999,0
			29.656546,-94.9182739999999,0
			29.656822,-94.918556,0
			29.656822,-94.9191129999999,0
			29.656546,-94.919388,0
			29.656546,-94.9196619999999,0
			29.656822,-94.919945,0
			29.656822,-94.921608,0
			29.6571010000002,-94.92189,0
			29.6571010000002,-94.9224469999999,0
			29.6573770000001,-94.922722,0
			29.6573770000001,-94.922997,0
			29.6576560000001,-94.9232789999999,0
			29.6579480000001,-94.923553,0
			29.6583480000002,-94.923798,0
			29.6584890000001,-94.92411,0
			29.658993,-94.924355,0
			29.659796,-94.9247359999999,0
			29.660013,-94.9250639999998,0
			29.660154,-94.925468,0
			29.660831,-94.926102,0
			29.661331,-94.9258799999999,0
			29.6619660000002,-94.9253229999999,0
			29.6618330000002,-94.9249799999999,0
			29.6619450000001,-94.924721,0
			29.6615470000002,-94.924385,0
			29.6612640000002,-94.924385,0
			29.6609900000001,-94.92411,0
			29.660711,-94.92411,0
			29.6604330000002,-94.9238359999999,0
			29.6599080000001,-94.923393,0
			29.6599220000002,-94.922836,0
			29.6605700000001,-94.9222489999999,0
			29.661058,-94.9222789999999,0
			29.6616670000001,-94.922226,0
			29.6621000000001,-94.921059,0
			29.6621000000001,-94.9205019999999,0
			29.6626590000001,-94.919945,0
			29.6628110000001,-94.919975,0
			29.6634880000001,-94.9205019999999,0
			29.6634880000001,-94.920776,0
			29.6637690000001,-94.921059,0
			29.6637690000001,-94.9213329999999,0
			29.6643220000001,-94.92189,0
			29.6650050000001,-94.9222109999999,0
			29.6662670000001,-94.92411,0
			29.6662670000001,-94.924385,0
			29.6668220000001,-94.924942,0
			29.6668220000001,-94.9254989999999,0
			29.6671010000001,-94.925774,0
			29.6671010000001,-94.926056,0
			29.667377,-94.9263309999999,0
			29.667377,-94.926888,0
			29.6676560000001,-94.9271699999999,0
			29.6676560000001,-94.927719,0
			29.6676460000001,-94.928009,0
			29.6676650000001,-94.928467,0
			29.6677880000001,-94.9286959999999,0
			29.6679340000001,-94.928566,0
			29.6682090000002,-94.928558,0
			29.6687090000001,-94.9280699999999,0
			29.6689660000001,-94.927681,0
			29.669283,-94.927681,0
			29.6696400000001,-94.9281999999999,0
			29.669878,-94.928558,0
			29.6702980000002,-94.9292449999999,0
			29.6707120000002,-94.929886,0
			29.6708490000001,-94.930222,0
			29.6712530000001,-94.9312059999999,0
			29.6716670000001,-94.9311139999999,0
			29.6719740000001,-94.930786,0
			29.6720470000001,-94.930687,0
			29.6721880000001,-94.9304579999999,0
			29.672293,-94.9302829999999,0
			29.6724320000002,-94.930145,0
			29.6727260000001,-94.9306179999999,0
			29.6730560000001,-94.930832,0
			29.6733320000002,-94.9311139999999,0
			29.673611,-94.9311139999999,0
			29.6738890000001,-94.931389,0
			29.6743770000002,-94.9309009999999,0
			29.6745030000001,-94.930878,0
			29.675556,-94.931389,0
			29.6759260000001,-94.9318469999999,0
			29.6763900000001,-94.9325029999999,0
			29.6771110000001,-94.9327089999999,0
			29.6777670000001,-94.933304,0
			29.6805230000001,-94.926598,0
			29.6825650000001,-94.925266,0
			29.6840800000001,-94.9242779999999,0
			29.6868140000001,-94.9251989999999,0
			29.6920110000001,-94.9269489999999,0
			29.6957140000001,-94.9276849999999,0
			29.6980300000002,-94.928146,0
			29.700952,-94.9296099999999,0
			29.70554,-94.9319079999999,0
			29.7112010000002,-94.9352419999999,0
			29.71331,-94.938271,0
			29.71612,-94.942307,0
			29.718419,-94.9431999999999,0
			29.7207930000001,-94.9441219999999,0
			29.7219420000002,-94.94318,0
			29.7256510000001,-94.94014,0
			29.7353000000002,-94.9306109999999,0
			29.7393400000001,-94.9287799999999,0
			29.7467310000001,-94.9299089999999,0
			29.74991,-94.9291919999999,0
			29.7538300000002,-94.9247359999999,0
			29.7541210000001,-94.9242369999999,0
			29.7576500000001,-94.91819,0
			29.758403,-94.9176969999999,0
			29.7594300000001,-94.917023,0
			29.7662510000001,-94.915558,0
			29.7668110000001,-94.915899,0
			29.770969,-94.918427,0
			29.7752080000001,-94.9207919999999,0
			29.7811790000001,-94.9209519999999,0
			29.7851410000001,-94.917549,0
			29.7925400000001,-94.9186779999999,0
			29.7964900000001,-94.924751,0
			29.8005290000002,-94.922928,0
			29.8044530000001,-94.918472,0
			29.8084700000001,-94.9161069999998,0
			29.809538,-94.9159059999999,0
			29.8125610000002,-94.915337,0
			29.8135820000001,-94.9128789999999,0
			29.8150310000001,-94.909393,0
			29.8228610000002,-94.909973,0
			29.8279610000001,-94.911232,0
			29.8300820000001,-94.9174189999999,0
			29.8333900000002,-94.9333809999999,0
			29.8336410000002,-94.9345929999999,0
			29.8325900000001,-94.937349,0
			29.832411,-94.9378199999999,0
			29.8344010000002,-94.9385989999998,0
			29.8347510000002,-94.9387359999999,0
			29.8390310000001,-94.9421619999999,0
			29.8418500000001,-94.943573,0
			29.8428490000002,-94.9446019999999,0
			29.8447400000001,-94.946548,0
			29.8483080000001,-94.9479419999999,0
			29.8494090000001,-94.9483719999999,0
			29.8505910000002,-94.9494529999999,0
			29.8537200000001,-94.9523159999999,0
			29.8568500000001,-94.9605559999999,0
			29.8585610000001,-94.9678269999999,0
			29.8612900000001,-94.971581,0
			29.8629700000002,-94.9738919999999,0
			29.8695410000001,-94.9771799999999,0
			29.8793110000001,-94.98027,0
			29.8830360000001,-94.9827129999999,0
			29.885931,-94.984612,0
			29.8882540000002,-94.4999999999999,0
			29.8883424790001,-94.481601973,0
			29.8885330000002,-94.4419860849999,0
			29.8888397220001,-94.3586730949999,0
			29.8204170450002,-94.3582119869999,0
			29.6850610000001,-94.3573,0
			29.5613990000001,-94.354012,0
			29.5613420000001,-94.354134,0
			29.5613400000001,-94.354431,0
			29.5609890000001,-94.3549419999999,0
			29.560905,-94.3552089999999,0
			29.5608830000002,-94.3556899999999,0
			29.560572,-94.3561859999999,0
			29.5604320000002,-94.3567429999999,0
			29.5602970000002,-94.3572009999999,0
			29.5600800000001,-94.357872,0
			29.5598830000002,-94.3585129999998,0
			29.5595660000001,-94.359138,0
			29.5592350000001,-94.3596949999999,0
			29.5590720000001,-94.360374,0
			29.558743,-94.3609849999999,0
			29.55858,-94.361488,0
			29.5584640000002,-94.361885,0
			29.5583250000001,-94.362366,0
			29.5580670000001,-94.3629759999999,0
			29.5577070000001,-94.3638,0
			29.5573900000002,-94.364502,0
			29.5571670000002,-94.365448,0
			29.5569310000002,-94.365875,0
			29.5568080000002,-94.3663789999998,0
			29.5566860000002,-94.367004,0
			29.5565890000001,-94.3674389999999,0
			29.5564580000001,-94.367744,0
			29.5562820000001,-94.3679959999999,0
			29.5562550000002,-94.3685,0
			29.555712,-94.3693849999999,0
			29.5554330000001,-94.3696669999999,0
			29.5554330000001,-94.3702239999999,0
			29.5551570000001,-94.3704989999999,0
			29.5551570000001,-94.370781,0
			29.5549950000001,-94.3713459999999,0
			29.5549070000001,-94.3726039999999,0
			29.6019100000001,-94.3734659999999,0
			29.5977100000001,-94.3810959999999,0
		</coordinates>
	</polygon>
</kml>
