<?xml version="1.0" encoding="UTF-8"?>
<kml xmlns="http://earth.google.com/kml/2.2">
	<polygon id="USA_OR_Washington" samplingProbability="1">
		<coordinates>
			45.4317893980001,-122.744049073,0
			45.3321685800001,-122.742652892,0
			45.332530977,-122.802330016,0
			45.3453102110001,-122.80342102,0
			45.3454895020001,-122.846237183,0
			45.317588807,-122.847206116,0
			45.3172416680002,-122.867286682,0
			45.3164787300001,-122.910057067,0
			45.345741273,-122.909820556,0
			45.3460006710002,-122.971450806,0
			45.3601608290001,-122.971328735,0
			45.360698699,-122.992111207,0
			45.3757820130002,-122.992019653,0
			45.3762588510002,-123.015396118,0
			45.3881492610001,-123.015197754,0
			45.388690948,-123.035339355,0
			45.4037704470001,-123.035263061,0
			45.4045219430001,-123.11580658,0
			45.420059204,-123.115768433,0
			45.419689179,-123.135231018,0
			45.433830261,-123.136436462,0
			45.4337120060001,-123.279342651,0
			45.4341888430002,-123.300796509,0
			45.4342193600001,-123.32093811,0
			45.434242248,-123.34172821,0
			45.4342613220001,-123.362510681,0
			45.4338912970001,-123.42225647,0
			45.4338608900001,-123.465782,0
			45.4334110110001,-123.48590851,0
			45.4419542650002,-123.485945151,0
			45.4452270000002,-123.485959,0
			45.4494018790002,-123.485976918,0
			45.4494209670002,-123.485976999,0
			45.4498248430002,-123.467248302,0
			45.4498410000002,-123.466499,0
			45.4592840000001,-123.466081,0
			45.4644890000001,-123.465851,0
			45.4723220000001,-123.465668,0
			45.4933200000002,-123.465179,0
			45.4937590000001,-123.445038,0
			45.499869,-123.444843,0
			45.519321888,-123.444222821,0
			45.5193786720001,-123.44422101,0
			45.519809905,-123.424728254,0
			45.5349197460001,-123.423431022,0
			45.5350009050002,-123.419735476,0
			45.5351430000001,-123.413245,0
			45.5353619890002,-123.403282491,0
			45.5495489990002,-123.402603,0
			45.5495515940001,-123.402341939,0
			45.5496400000002,-123.393446,0
			45.5499500000001,-123.362267,0
			45.550012333,-123.362265372,0
			45.5638450000001,-123.361904,0
			45.5783310000002,-123.361526,0
			45.579231,-123.318596,0
			45.5792414370001,-123.318595948,0
			45.5838611100002,-123.31857271,0
			45.5929489560002,-123.318527,0
			45.592832743,-123.302486459,0
			45.5928310000002,-123.302246,0
			45.607471,-123.302223102,0
			45.6071090350002,-123.341277999,0
			45.6115615000001,-123.341273577,0
			45.6222110000001,-123.341263,0
			45.621878215,-123.374853535,0
			45.6218110050002,-123.381637568,0
			45.6325617870001,-123.381176162,0
			45.6347770000002,-123.381081,0
			45.6369210000001,-123.380989,0
			45.6371652090001,-123.388898502,0
			45.6382713270002,-123.424713014,0
			45.6413590000001,-123.424845,0
			45.651981,-123.425301,0
			45.6519866520001,-123.425538668,0
			45.652462002,-123.445526,0
			45.6526288930001,-123.445524906,0
			45.6652720000002,-123.445442,0
			45.665720375,-123.465877328,0
			45.6657300000001,-123.466316,0
			45.6754700000002,-123.466258,0
			45.6785390000001,-123.46624,0
			45.678914,-123.473629,0
			45.6795010000001,-123.485191,0
			45.6838400000001,-123.4853855,0
			45.6881789990001,-123.485579999,0
			45.6945800010001,-123.48587,0
			45.7087590000001,-123.485846999,0
			45.7095759690001,-123.366900741,0
			45.709609619,-123.362001464,0
			45.7096100000002,-123.361946,0
			45.7795495620002,-123.361734988,0
			45.78054,-123.361732,0
			45.7799110410002,-123.236991882,0
			45.7799116980001,-123.23644715,0
			45.7799157480001,-123.233088083,0
			45.779937809,-123.214787827,0
			45.7800598150002,-123.113586426,0
			45.779521942,-123.093978882,0
			45.7798995980002,-123.074401855,0
			45.779380798,-123.052841187,0
			45.7793456490001,-123.047028226,0
			45.7793281510001,-123.044134391,0
			45.7793211420001,-123.042975135,0
			45.779270173,-123.034545898,0
			45.7750666510001,-123.034587944,0
			45.765684143,-123.034681573,0
			45.7655410000002,-123.034683,0
			45.7580410000001,-123.034395,0
			45.7535408180001,-123.034222834,0
			45.7518200010001,-123.034156815,0
			45.751803436,-123.013676578,0
			45.7518010000002,-123.010666,0
			45.7517400000001,-123.001594994,0
			45.751735603,-123.000941898,0
			45.7517094330001,-122.997022879,0
			45.7516784680002,-122.992385865,0
			45.7485050500001,-122.992267436,0
			45.7401170520001,-122.991954405,0
			45.7381241850002,-122.991880007,0
			45.7379329170002,-122.991872869,0
			45.7361412050001,-122.991806008,0
			45.73651123,-122.971588135,0
			45.7364975700002,-122.967790762,0
			45.736490889,-122.965933358,0
			45.7364515580001,-122.954999336,0
			45.736358642,-122.929169002,0
			45.7212600000001,-122.929267884,0
			45.6352310190001,-122.930702209,0
			45.6351699830001,-122.908546448,0
			45.6210098270001,-122.908042907,0
			45.6204490660002,-122.887817382,0
			45.6062812800001,-122.887321472,0
			45.606170654,-122.867767335,0
			45.5924491890001,-122.867942811,0
			45.5919189460002,-122.845787048,0
			45.5786514280001,-122.845977784,0
			45.5785293590001,-122.826438904,0
			45.5648193370002,-122.825965881,0
			45.563362121,-122.80444336,0
			45.5491714480002,-122.805252076,0
			45.5485992440001,-122.785057067,0
			45.5339698790001,-122.784561156,0
			45.533882142,-122.76309204,0
			45.5192298900001,-122.763900758,0
			45.5191192630001,-122.74308014,0
			45.4317893980001,-122.744049073,0
		</coordinates>
	</polygon>
</kml>
