<?xml version="1.0" encoding="UTF-8"?>
<kml xmlns="http://earth.google.com/kml/2.2">
	<polygon id="USA_KY_Kenton" samplingProbability="1">
		<coordinates>
			38.802330017,-84.6154479969999,0
			38.879249573,-84.597969056,0
			38.9999389660001,-84.6142272949999,0
			39.02035141,-84.6169433599999,0
			39.0221710210002,-84.6175231939999,0
			39.0735511780002,-84.6236877429999,0
			39.072502136,-84.61593628,0
			39.0736312870001,-84.599693299,0
			39.0749588020001,-84.595336915,0
			39.0794792180002,-84.5794830319999,0
			39.0828094490001,-84.5705032339999,0
			39.0852394110001,-84.5640029909999,0
			39.0932502740001,-84.5552368159999,0
			39.0951309220001,-84.553192138,0
			39.0982399000001,-84.5448532109999,0
			39.0950317390001,-84.5329589839999,0
			39.0914497370001,-84.5196762089999,0
			39.09128952,-84.5185470589998,0
			39.093799592,-84.5051727299999,0
			39.0920219410002,-84.5034332279999,0
			39.0843086250002,-84.5035324099998,0
			39.0715408340001,-84.4936370839999,0
			39.0557098400001,-84.4974060059999,0
			39.0415611270001,-84.48575592,0
			39.031169892,-84.4900360109999,0
			39.0202789320001,-84.4884185799999,0
			39.005199433,-84.4744186409999,0
			39.0037498470002,-84.4626007079999,0
			39.000049591,-84.4543609609999,0
			38.997310638,-84.451438904,0
			38.992778778,-84.4515075679999,0
			38.9828987130001,-84.462303161,0
			38.974319458,-84.4665679929999,0
			38.9697685250001,-84.464859008,0
			38.9661102290002,-84.461357117,0
			38.96559906,-84.454261779,0
			38.977340698,-84.4487686169999,0
			38.9845199590001,-84.440383911,0
			38.9849205020001,-84.4338607779999,0
			38.979419709,-84.4268417369999,0
			38.9744491570002,-84.4286880489999,0
			38.9650115970002,-84.4382858279999,0
			38.951480866,-84.446182251,0
			38.950149536,-84.448570252,0
			38.94934082,-84.461006165,0
			38.9475517270001,-84.4634017949999,0
			38.93754959,-84.4593963619999,0
			38.9306907660001,-84.4530029299999,0
			38.919319153,-84.4478301999999,0
			38.9156608590002,-84.443748474,0
			38.9115791330001,-84.4443969719999,0
			38.905189514,-84.4391708369999,0
			38.8974914560001,-84.4392776489999,0
			38.8834800720001,-84.4442062379999,0
			38.8663291930002,-84.4527358999999,0
			38.860858917,-84.44985962,0
			38.8514595040001,-84.463577271,0
			38.846000673,-84.4612960809999,0
			38.8386802670001,-84.453132629,0
			38.8273506160002,-84.453887939,0
			38.8200798030001,-84.4510269169999,0
			38.8173294070001,-84.447532654,0
			38.8172988900002,-84.4439926149998,0
			38.8271903990001,-84.4349823009999,0
			38.8280296330001,-84.4266967769999,0
			38.8234519960002,-84.4214630119999,0
			38.8148117060001,-84.4180374139999,0
			38.8102798460001,-84.4181060799999,0
			38.8089485170001,-84.421081542,0
			38.8066596990001,-84.418159485,0
			38.8057594300002,-84.4187622079999,0
			38.789920807,-84.5317611679998,0
			38.7908592220001,-84.5972824089999,0
			38.792739869,-84.605529785,0
			38.802330017,-84.6154479969999,0
		</coordinates>
	</polygon>
</kml>
