<?xml version="1.0" encoding="UTF-8"?>
<kml xmlns="http://earth.google.com/kml/2.2">
	<polygon id="USA_NJ_Somerset" samplingProbability="1">
		<coordinates>
			40.4240989690002,-74.748397827,0
			40.4263610850001,-74.7490081779999,0
			40.4271812430001,-74.7497863769999,0
			40.4304389960001,-74.7514266969999,0
			40.4322509760001,-74.752647399,0
			40.433158876,-74.753257752,0
			40.4462890630001,-74.760551452,0
			40.450359344,-74.7629928589999,0
			40.455348968,-74.7654190069999,0
			40.4607887280002,-74.7684631349999,0
			40.4635009770001,-74.7696762089999,0
			40.4684906010002,-74.772720337,0
			40.470748902,-74.773941039,0
			40.4748306280001,-74.775756836,0
			40.476638793,-74.7769927969999,0
			40.4775505060001,-74.7769927969999,0
			40.479358673,-74.778198241,0
			40.481170655,-74.7794265739999,0
			40.4834289560001,-74.7806396479999,0
			40.4852485670001,-74.781249999,0
			40.4870605470001,-74.7824707039999,0
			40.4879608160001,-74.783065796,0
			40.4911308300001,-74.7848968499999,0
			40.496570587,-74.787345887,0
			40.500190735,-74.7891693119999,0
			40.5020103450001,-74.789779664,0
			40.5155906680002,-74.7976989749999,0
			40.5156021120001,-74.796485901,0
			40.5151405330001,-74.795883179,0
			40.5151519780001,-74.7952804559999,0
			40.5147018440002,-74.794067382,0
			40.5137901320001,-74.792251587,0
			40.513801575,-74.7910385129999,0
			40.5133399960001,-74.7904434199999,0
			40.5047607430002,-74.7770996089999,0
			40.5043106080001,-74.7746658329999,0
			40.5170288090001,-74.766860962,0
			40.5206604010002,-74.764457702,0
			40.5224685680001,-74.763252258,0
			40.533828736,-74.7554321289999,0
			40.5438194290002,-74.7494201649999,0
			40.5474510190001,-74.7470092769999,0
			40.5529022220001,-74.7434005729999,0
			40.5533599860001,-74.742797852,0
			40.5592803960002,-74.728286742,0
			40.5679092400001,-74.7222671499999,0
			40.582889557,-74.7102203379999,0
			40.588310241,-74.7235488899999,0
			40.5983009340001,-74.7187271119999,0
			40.5987510680002,-74.7199478139999,0
			40.5996589660002,-74.721763611,0
			40.6014709480002,-74.721168518,0
			40.6096496590002,-74.715141296,0
			40.611919403,-74.7133331289999,0
			40.611011505,-74.711509704,0
			40.6110191350002,-74.709091187,0
			40.6196403510001,-74.703063965,0
			40.621002198,-74.7036666859999,0
			40.622360229,-74.7060928349999,0
			40.6259803770001,-74.710342407,0
			40.6318702700001,-74.713386536,0
			40.632320404,-74.718238831,0
			40.6345710760001,-74.7261199959999,0
			40.6377487180001,-74.7273406979999,0
			40.642292023,-74.7212982169999,0
			40.6463699340001,-74.7231216429999,0
			40.6509094240001,-74.7195129389999,0
			40.6563491820001,-74.721336364,0
			40.659969329,-74.7261962889999,0
			40.6636009220001,-74.7280273429999,0
			40.6649589530001,-74.7280273429999,0
			40.672679902,-74.720787048,0
			40.6790313720001,-74.7195892339998,0
			40.6831207290001,-74.7171783439999,0
			40.6862907420002,-74.716583251,0
			40.6876487740001,-74.7202224739999,0
			40.6899108890001,-74.7226638789999,0
			40.6940002440002,-74.7214584349999,0
			40.6994514470001,-74.7160186769999,0
			40.7048912040001,-74.715431213,0
			40.7076110840001,-74.717857361,0
			40.7135009770001,-74.7209091189999,0
			40.717578888,-74.7233505259999,0
			40.7216491690002,-74.7276077279999,0
			40.7444801340001,-74.6191024779999,0
			40.7490310670001,-74.6027297959999,0
			40.749488831,-74.5972671499999,0
			40.7508506780002,-74.591201783,0
			40.7590408340001,-74.5572433469998,0
			40.7572288520001,-74.5554199219999,0
			40.7526893610001,-74.553596496,0
			40.7486114500002,-74.5517730709999,0
			40.7409019470001,-74.5487365709999,0
			40.7363586430001,-74.5499420169999,0
			40.7327308660002,-74.5487289429998,0
			40.7309188840002,-74.5408401489999,0
			40.7291107190001,-74.535392761,0
			40.7277488700001,-74.5317459099999,0
			40.7245788570001,-74.5329589839999,0
			40.7223091130001,-74.532348633,0
			40.7204895020002,-74.5335617069999,0
			40.719131469,-74.5329513539999,0
			40.7177696230002,-74.5305328379999,0
			40.714141845,-74.5268859869999,0
			40.7091522210002,-74.5256729129999,0
			40.7041702280001,-74.5202178949999,0
			40.6991806040001,-74.5159683229999,0
			40.6887512200001,-74.5183868409999,0
			40.687839508,-74.5244522099999,0
			40.684661866,-74.5286865239999,0
			40.6783103940001,-74.5286865239999,0
			40.6746788030001,-74.526870727,0
			40.6706008920001,-74.528076173,0
			40.668338776,-74.5311126699999,0
			40.6669693,-74.532928468,0
			40.6651611320002,-74.532333375,0
			40.6633491520001,-74.5298995979999,0
			40.6610794060001,-74.5286865239999,0
			40.6588096620001,-74.528076173,0
			40.656539918,-74.5274658199999,0
			40.651550292,-74.5262603749999,0
			40.6492805480001,-74.5214080809999,0
			40.648830414,-74.515350342,0
			40.6501998910001,-74.510513305,0
			40.6529197690001,-74.507469177,0
			40.6560897820001,-74.5056533819999,0
			40.6583595280001,-74.5044403079999,0
			40.6597213750001,-74.5026168819999,0
			40.6610794060001,-74.497169495,0
			40.6619911190002,-74.4953460689999,0
			40.6628990170001,-74.4929275509999,0
			40.6647109990001,-74.488082886,0
			40.6651611320002,-74.4838409429998,0
			40.6660690300001,-74.4789962779999,0
			40.6674308790001,-74.472930909,0
			40.6710508910002,-74.4620289119999,0
			40.6665191660001,-74.4583969129999,0
			40.6618617760002,-74.4567599189999,0
			40.6579020000001,-74.455368,0
			40.6568714600001,-74.4549457959999,0
			40.6520004280001,-74.452949525,0
			40.6606101990001,-74.4287109369999,0
			40.6599254890001,-74.425288818,0
			40.6592448310001,-74.421886957,0
			40.658790589,-74.419616698,0
			40.6655807500001,-74.4062881459999,0
			40.6649515730002,-74.4059539949999,0
			40.6644879780001,-74.405707783,0
			40.6633110050001,-74.4050827019999,0
			40.6550759960001,-74.4056367819999,0
			40.654340183,-74.405686289,0
			40.6542397580001,-74.405693046,0
			40.6524719790002,-74.4061876559999,0
			40.646893468,-74.407748544,0
			40.643360138,-74.408737183,0
			40.6358391680002,-74.4129952529998,0
			40.6328493660001,-74.4146879589999,0
			40.6315689080002,-74.4154129029999,0
			40.626798618,-74.42096939,0
			40.6256671170001,-74.422287376,0
			40.61751938,-74.4317779529999,0
			40.6133475480001,-74.438149844,0
			40.6126258990002,-74.4392520619999,0
			40.6048316950001,-74.4511566159999,0
			40.6016616820001,-74.4578170779998,0
			40.5975799890002,-74.468727025,0
			40.5948600780001,-74.4772033689999,0
			40.5894203180001,-74.4856719959999,0
			40.5853385920001,-74.4989929199999,0
			40.579891204,-74.513511658,0
			40.5730896000001,-74.5225982659999,0
			40.5631103530001,-74.5268325799999,0
			40.5581207290001,-74.5250167849999,0
			40.555850983,-74.5243988029999,0
			40.5445213320001,-74.5171432499999,0
			40.5395317080001,-74.5116958629999,0
			40.5322685250001,-74.5008087149999,0
			40.5259208680001,-74.4935531619999,0
			40.512771607,-74.4856872559999,0
			40.5114097600001,-74.4820632939999,0
			40.5082321160001,-74.4627227779999,0
			40.5009689330001,-74.4602966319998,0
			40.494171142,-74.45728302,0
			40.4910011290002,-74.458496095,0
			40.488281251,-74.465751648,0
			40.4841995250002,-74.4778366089999,0
			40.483749389,-74.479049683,0
			40.481479645,-74.4832763659999,0
			40.4801216140002,-74.4844894409999,0
			40.4783020010001,-74.486297608,0
			40.4769401550001,-74.4875106819999,0
			40.4719505310001,-74.4917373649999,0
			40.4687805180001,-74.495368958,0
			40.466960907,-74.497779846,0
			40.4656105040002,-74.500198364,0
			40.4538192740001,-74.516510011,0
			40.447921753,-74.5237579349999,0
			40.4465599060001,-74.5255660999999,0
			40.4388504030002,-74.5352325429999,0
			40.4379386900001,-74.537651062,0
			40.4252319340002,-74.5605926519999,0
			40.4243202220001,-74.5666427599999,0
			40.422050476,-74.576896668,0
			40.4216003420001,-74.578102112,0
			40.418418885,-74.584739686,0
			40.417510987,-74.5859527599999,0
			40.3966407770002,-74.5913467399999,0
			40.3798599240001,-74.6046066289999,0
			40.3794021620002,-74.605819701,0
			40.3762207030001,-74.613052368,0
			40.3753089900001,-74.6148605349999,0
			40.374401093,-74.6166687019999,0
			40.3734893800002,-74.620903015,0
			40.3771209720001,-74.620903015,0
			40.380290986,-74.6215133659999,0
			40.3825607300001,-74.6227188099999,0
			40.387088777,-74.624542236,0
			40.3916015630002,-74.6504974369999,0
			40.3911399840001,-74.6577529899999,0
			40.3738098150001,-74.7198562619999,0
			40.3765296950001,-74.722892762,0
			40.3855895990001,-74.727737426,0
			40.391929626,-74.7313766469999,0
			40.4019012460001,-74.7362365719999,0
			40.4050712590002,-74.7380676279998,0
			40.421379089,-74.7465667719999,0
			40.4240989690002,-74.748397827,0
		</coordinates>
	</polygon>
</kml>
