<?xml version="1.0" encoding="UTF-8"?>
<kml xmlns="http://earth.google.com/kml/2.2">
	<polygon id="USA_NC_New_Hanover" samplingProbability="1">
		<coordinates>
			34.1971700000001,-77.9573059999999,0
			34.2039910000001,-77.9576869999999,0
			34.2130700000001,-77.9568859999999,0
			34.22662,-77.9520869999999,0
			34.2343100000002,-77.950226,0
			34.2379910000001,-77.952347,0
			34.2416990000001,-77.9567029999999,0
			34.2435610000002,-77.9588699999999,0
			34.2435990000001,-77.9610979999999,0
			34.2423290000002,-77.9666899999999,0
			34.2442090000001,-77.9699709999999,0
			34.2497410000001,-77.9748309999998,0
			34.2547800000001,-77.9769209999999,0
			34.2588920000001,-77.9779279999999,0
			34.2602690000001,-77.9789959999998,0
			34.26075,-77.9806589999999,0
			34.2594720000002,-77.985153,0
			34.2604290000001,-77.9879,0
			34.2627110000001,-77.988953,0
			34.266319,-77.9871899999999,0
			34.2690700000001,-77.9882279999999,0
			34.2704510000002,-77.9892959999999,0
			34.271439,-77.9942929999999,0
			34.2710910000002,-78.000412,0
			34.2733920000001,-78.002022,0
			34.2761,-78.0008389999999,0
			34.2777790000002,-77.9930109999999,0
			34.2795410000002,-77.989616,0
			34.2822800000001,-77.990112,0
			34.2836800000001,-77.9923019999999,0
			34.28463,-77.9944989999999,0
			34.284679,-77.997284,0
			34.2834010000001,-78.0023189999999,0
			34.2857210000001,-78.0050429999999,0
			34.2893490000001,-78.004936,0
			34.2899090000002,-78.011047,0
			34.292271,-78.015991,0
			34.3000110000001,-78.0169069999999,0
			34.309959,-78.0138779999999,0
			34.3158300000001,-78.0114969999999,0
			34.321709,-78.0102389999999,0
			34.324081,-78.0157389999999,0
			34.3214,-78.018593,0
			34.3188020000002,-78.025887,0
			34.322922,-78.0280229999998,0
			34.3265110000002,-78.025139,0
			34.329281,-78.027847,0
			34.3317110000002,-78.0372469999999,0
			34.3377800000001,-77.9931259999999,0
			34.3405190000001,-77.9941709999999,0
			34.3441390000002,-77.9929729999999,0
			34.3468400000002,-77.9912259999999,0
			34.349522,-77.9889299999999,0
			34.3522300000001,-77.98774,0
			34.3544390000001,-77.984337,0
			34.3552700000001,-77.979866,0
			34.356609,-77.978157,0
			34.3593290000002,-77.9780959999999,0
			34.3611910000001,-77.98027,0
			34.3621790000001,-77.984703,0
			34.3631290000002,-77.9874569999999,0
			34.3676990000001,-77.9884639999999,0
			34.372211,-77.9866709999999,0
			34.3730390000002,-77.9821929999999,0
			34.3720400000001,-77.977203,0
			34.373791,-77.9732739999999,0
			34.3782810000001,-77.9698029999999,0
			34.379581,-77.9664309999999,0
			34.3822590000001,-77.963577,0
			34.3835790000001,-77.9613109999999,0
			34.3817290000001,-77.9591369999999,0
			34.37854,-77.9586639999999,0
			34.3763010000001,-77.960953,0
			34.3726920000001,-77.962158,0
			34.3703800000001,-77.9599909999999,0
			34.36758,-77.9556119999999,0
			34.3661690000002,-77.952873,0
			34.364769,-77.9512329999999,0
			34.3652110000002,-77.950096,0
			34.3670120000001,-77.9495009999999,0
			34.3702090000002,-77.949966,0
			34.3715520000001,-77.948822,0
			34.3710400000002,-77.9460529999999,0
			34.3700600000001,-77.941628,0
			34.3690990000001,-77.9388729999999,0
			34.3677520000001,-77.9394609999999,0
			34.3655090000001,-77.9411929999999,0
			34.3627820000001,-77.9412609999999,0
			34.359531,-77.9374469999999,0
			34.35767,-77.9352719999999,0
			34.359001,-77.933006,0
			34.362202,-77.9340359999999,0
			34.3649520000002,-77.935638,0
			34.3671800000002,-77.93335,0
			34.3680610000001,-77.9316559999999,0
			34.3666690000002,-77.9300229999999,0
			34.364422,-77.9311979999999,0
			34.3626020000001,-77.9312359999999,0
			34.3612210000001,-77.9301679999999,0
			34.3634300000001,-77.926773,0
			34.3687820000002,-77.921059,0
			34.3746490000001,-77.918671,0
			34.3759610000002,-77.9158629999999,0
			34.3754200000002,-77.910858,0
			34.3753400000001,-77.906403,0
			34.3770900000002,-77.903023,0
			34.3779720000001,-77.9013209999998,0
			34.3770290000001,-77.8996809999999,0
			34.3720320000002,-77.8992459999999,0
			34.367039,-77.8999479999999,0
			34.3647120000001,-77.8966669999999,0
			34.3641890000001,-77.892792,0
			34.3640590000001,-77.886108,0
			34.365772,-77.879944,0
			34.3715590000001,-77.873657,0
			34.3750990000001,-77.8685529999999,0
			34.3799290000001,-77.8589479999999,0
			34.3807790000002,-77.855583,0
			34.3806420000001,-77.848351,0
			34.38187,-77.841057,0
			34.3844800000002,-77.8348689999999,0
			34.386692,-77.831467,0
			34.3874890000001,-77.8258739999999,0
			34.3883590000002,-77.8236159999999,0
			34.3860090000001,-77.819237,0
			34.3823090000001,-77.815994,0
			34.38129,-77.809898,0
			34.3766400000001,-77.8044589999999,0
			34.3743820000001,-77.805077,0
			34.3726310000002,-77.8084719999999,0
			34.3690190000001,-77.8102419999999,0
			34.3681910000001,-77.8141629999999,0
			34.3581500000001,-77.8122329999998,0
			34.3331790000001,-77.7895509999999,0
			34.3084720000001,-77.756874,0
			34.3088490000002,-77.752968,0
			34.3059620000001,-77.7447129999999,0
			34.30904,-77.7396089999999,0
			34.3144300000001,-77.7361069999999,0
			34.3207090000001,-77.7320329999999,0
			34.324661,-77.7246929999999,0
			34.3277210000001,-77.7184829999999,0
			34.3298800000002,-77.7128369999999,0
			34.334217,-77.708939,0
			34.3338890000001,-77.708611,0
			34.3338890000001,-77.7083359999999,0
			34.3333320000002,-77.707779,0
			34.3330570000002,-77.707779,0
			34.3325000000001,-77.7072219999999,0
			34.3319440000001,-77.7072219999999,0
			34.3316650000001,-77.707497,0
			34.3313900000001,-77.707497,0
			34.3311120000002,-77.707779,0
			34.3302760000001,-77.707779,0
			34.3294450000001,-77.708611,0
			34.3294450000001,-77.708885,0
			34.3288880000002,-77.709442,0
			34.3288880000002,-77.7097239999999,0
			34.328609,-77.7099989999999,0
			34.328609,-77.7105559999999,0
			34.3284380000001,-77.7107469999999,0
			34.3281480000001,-77.7109369999999,0
			34.3279190000001,-77.7112429999999,0
			34.327686,-77.7115479999999,0
			34.3274000000002,-77.7118149999999,0
			34.327171,-77.712158,0
			34.3269230000001,-77.7125019999999,0
			34.3266410000001,-77.712822,0
			34.3263850000002,-77.7132029999999,0
			34.3261570000002,-77.7136149999999,0
			34.325996,-77.7141109999998,0
			34.3258020000001,-77.7145769999999,0
			34.32555,-77.7149889999999,0
			34.3252790000002,-77.715385,0
			34.3250010000001,-77.715775,0
			34.32473,-77.7161709999999,0
			34.3245010000001,-77.716599,0
			34.324348,-77.717094,0
			34.3242230000002,-77.717567,0
			34.3244210000001,-77.718155,0
			34.324871,-77.7187269999999,0
			34.325161,-77.7194439999998,0
			34.3252030000001,-77.7202149999999,0
			34.3251110000001,-77.7209319999999,0
			34.3248410000002,-77.7215419999999,0
			34.3243750000001,-77.7220149999999,0
			34.3238330000001,-77.722435,0
			34.3232190000001,-77.722694,0
			34.3227960000001,-77.723022,0
			34.3224680000001,-77.723396,0
			34.3221890000002,-77.723854,0
			34.321838,-77.7242199999999,0
			34.3213460000002,-77.724464,0
			34.3208430000001,-77.7247389999999,0
			34.3203770000001,-77.725067,0
			34.3199650000001,-77.725471,0
			34.3195500000001,-77.725899,0
			34.3191870000001,-77.726387,0
			34.3188740000001,-77.726936,0
			34.3185390000001,-77.7274549999999,0
			34.3181530000002,-77.7279209999999,0
			34.3176800000001,-77.72831,0
			34.3171540000001,-77.7286529999999,0
			34.3166500000002,-77.7290339999999,0
			34.3161350000001,-77.729416,0
			34.3156240000001,-77.729767,0
			34.3150940000002,-77.7301099999999,0
			34.3144570000001,-77.7303309999999,0
			34.3138660000002,-77.730553,0
			34.3132820000002,-77.73069,0
			34.3127170000001,-77.7306979999999,0
			34.3122900000001,-77.7309339999998,0
			34.3119660000002,-77.7313159999999,0
			34.3115730000002,-77.7316509999999,0
			34.311138,-77.7319489999999,0
			34.3106990000002,-77.7322389999999,0
			34.3102950000001,-77.7325669999999,0
			34.3099210000001,-77.7329099999999,0
			34.3095090000001,-77.7331999999999,0
			34.309128,-77.7335429999999,0
			34.3087390000002,-77.733887,0
			34.3083420000002,-77.7342149999999,0
			34.307941,-77.73455,0
			34.3075180000002,-77.7348709999999,0
			34.3070790000001,-77.735191,0
			34.3065720000001,-77.735428,0
			34.3061070000002,-77.7357859999999,0
			34.305618,-77.736069,0
			34.3051640000001,-77.7363819999999,0
			34.3047180000002,-77.7366939999999,0
			34.3043250000002,-77.737061,0
			34.3039170000001,-77.737427,0
			34.3034360000001,-77.737724,0
			34.3030400000001,-77.7381059999999,0
			34.3027460000001,-77.7385859999999,0
			34.302486,-77.7390749999999,0
			34.3022770000002,-77.739563,0
			34.3022770000002,-77.740089,0
			34.3024480000001,-77.740585,0
			34.302494,-77.741135,0
			34.3024520000001,-77.741676,0
			34.3022610000001,-77.7421649999999,0
			34.301945,-77.7424999999999,0
			34.302269,-77.7431949999999,0
			34.3017540000001,-77.744926,0
			34.301945,-77.7452769999999,0
			34.3022230000001,-77.745552,0
			34.3022230000001,-77.7458339999999,0
			34.3027760000001,-77.746391,0
			34.3030550000001,-77.746391,0
			34.3041650000001,-77.747498,0
			34.3041650000001,-77.748055,0
			34.3044430000002,-77.7483369999999,0
			34.3044430000002,-77.7486109999999,0
			34.3041650000001,-77.748886,0
			34.3040920000001,-77.7492289999999,0
			34.3040160000002,-77.7497249999999,0
			34.303978,-77.7499999999999,0
			34.3040390000001,-77.7504809999999,0
			34.3039400000001,-77.7508319999999,0
			34.3038750000001,-77.751411,0
			34.304295,-77.751923,0
			34.3047220000001,-77.7519449999999,0
			34.3050000000001,-77.7519449999999,0
			34.305279,-77.75222,0
			34.3050000000001,-77.7525019999999,0
			34.3049350000002,-77.752831,0
			34.3047220000001,-77.7533339999999,0
			34.3047220000001,-77.7538599999999,0
			34.3046340000001,-77.7545169999999,0
			34.3044430000002,-77.7547229999999,0
			34.3041650000001,-77.7547229999999,0
			34.3033330000001,-77.7538909999999,0
			34.3033330000001,-77.7536089999999,0
			34.3027760000001,-77.753052,0
			34.3028410000001,-77.74942,0
			34.3028140000002,-77.7492139999999,0
			34.3025020000001,-77.7483369999999,0
			34.3021970000001,-77.7479319999999,0
			34.3020060000001,-77.747498,0
			34.3011470000001,-77.746391,0
			34.301022,-77.7461089999999,0
			34.300594,-77.745552,0
			34.3002780000002,-77.7452769999999,0
			34.2999990000002,-77.7450029999999,0
			34.2999990000002,-77.74472,0
			34.3002780000002,-77.7444459999999,0
			34.3004680000001,-77.7442859999999,0
			34.3005560000001,-77.743889,0
			34.3008080000001,-77.7434079999999,0
			34.3008350000001,-77.743057,0
			34.3007430000001,-77.7427749999999,0
			34.3008350000001,-77.7424999999999,0
			34.3006290000001,-77.7421109999999,0
			34.3004150000001,-77.7414549999999,0
			34.2997930000002,-77.7416459999999,0
			34.29945,-77.7418979999999,0
			34.2989960000001,-77.7420729999999,0
			34.298576,-77.7423709999999,0
			34.2981300000001,-77.742676,0
			34.2976420000002,-77.74295,0
			34.2972150000001,-77.7432789999999,0
			34.2967910000001,-77.7436289999999,0
			34.2963680000001,-77.7439959999999,0
			34.2959250000001,-77.7443699999999,0
			34.2955020000001,-77.7447739999999,0
			34.2950820000001,-77.745186,0
			34.2947080000001,-77.7456589999999,0
			34.2942430000002,-77.7460249999999,0
			34.2937430000002,-77.746178,0
			34.2932550000001,-77.7464069999999,0
			34.2928090000001,-77.7466959999999,0
			34.2924310000001,-77.7470779999999,0
			34.291996,-77.747429,0
			34.291504,-77.747742,0
			34.2909770000001,-77.748001,0
			34.2904470000001,-77.7482379999999,0
			34.2900390000001,-77.7486109999999,0
			34.2897070000002,-77.749084,0
			34.2893410000001,-77.7495349999999,0
			34.2888340000001,-77.749893,0
			34.288269,-77.750175,0
			34.2877010000001,-77.7504269999999,0
			34.287251,-77.7508089999999,0
			34.286865,-77.7512439999999,0
			34.2864230000001,-77.751625,0
			34.2859150000002,-77.751953,0
			34.2854040000001,-77.7522959999999,0
			34.284924,-77.7527009999999,0
			34.284405,-77.753075,0
			34.2838670000002,-77.753418,0
			34.283421,-77.7539059999999,0
			34.283123,-77.754494,0
			34.2828940000001,-77.755035,0
			34.282524,-77.755302,0
			34.282131,-77.755547,0
			34.281727,-77.75576,0
			34.2813030000001,-77.7559359999999,0
			34.2808910000001,-77.7561419999999,0
			34.280495,-77.7563549999999,0
			34.2800900000001,-77.756538,0
			34.2797810000001,-77.75679,0
			34.2795330000002,-77.7570949999999,0
			34.2792430000002,-77.7573089999999,0
			34.2789920000002,-77.7575679999999,0
			34.2787900000002,-77.7578809999999,0
			34.2785450000002,-77.7581939999999,0
			34.2781370000001,-77.7584689999999,0
			34.2776260000002,-77.758743,0
			34.2772220000001,-77.7588879999999,0
			34.2769430000001,-77.7588879999999,0
			34.27639,-77.7594449999999,0
			34.276669,-77.7597199999998,0
			34.276669,-77.760002,0
			34.2769430000001,-77.7602769999999,0
			34.2769430000001,-77.7605589999999,0
			34.276669,-77.760834,0
			34.276669,-77.7613909999999,0
			34.27639,-77.7616649999999,0
			34.2758330000001,-77.7616649999999,0
			34.2755550000001,-77.7613909999999,0
			34.2755550000001,-77.7611079999999,0
			34.275276,-77.760834,0
			34.274445,-77.760834,0
			34.274166,-77.7611079999999,0
			34.274166,-77.7616649999999,0
			34.2742420000001,-77.761963,0
			34.2740400000001,-77.7622299999999,0
			34.2738840000002,-77.7624969999999,0
			34.2737270000001,-77.7627869999999,0
			34.273556,-77.7630999999999,0
			34.273354,-77.7634199999999,0
			34.2731320000001,-77.7637709999999,0
			34.2728420000001,-77.764099,0
			34.2725260000001,-77.76442,0
			34.272186,-77.7647319999999,0
			34.2717860000001,-77.765007,0
			34.2713580000001,-77.7652659999999,0
			34.2709080000001,-77.7655109999999,0
			34.2704390000001,-77.7657389999999,0
			34.2701420000001,-77.766083,0
			34.2701680000002,-77.7665179999999,0
			34.2704660000002,-77.766914,0
			34.2708400000002,-77.7672729999999,0
			34.271126,-77.7676999999999,0
			34.2712750000001,-77.7679369999999,0
			34.2714000000001,-77.768135,0
			34.2716980000001,-77.7685549999999,0
			34.2719960000001,-77.7689739999999,0
			34.2722440000002,-77.7695009999998,0
			34.2725110000001,-77.7700119999999,0
			34.2727780000001,-77.7705229999999,0
			34.27306,-77.771034,0
			34.2733690000002,-77.771507,0
			34.2737540000001,-77.7719039999999,0
			34.2742080000002,-77.7722319999999,0
			34.2746350000001,-77.7725829999999,0
			34.2749820000001,-77.7730179999999,0
			34.2753600000001,-77.7734149999999,0
			34.2757150000001,-77.7737959999999,0
			34.2759970000002,-77.7742459999999,0
			34.2762680000001,-77.774712,0
			34.2765620000001,-77.7751689999998,0
			34.2768630000001,-77.775627,0
			34.277092,-77.7761459999999,0
			34.2772830000002,-77.776695,0
			34.277584,-77.7771529999999,0
			34.277966,-77.777542,0
			34.2783430000001,-77.7779389999999,0
			34.2787510000002,-77.7782969999999,0
			34.2792320000001,-77.7785029999999,0
			34.2798080000001,-77.7783809999999,0
			34.2804180000001,-77.778336,0
			34.2810130000001,-77.778419,0
			34.2815090000001,-77.7788619999999,0
			34.2816350000001,-77.7795939999999,0
			34.2814060000001,-77.7801669999998,0
			34.2810520000001,-77.7803419999999,0
			34.2807500000002,-77.780586,0
			34.280514,-77.7808839999999,0
			34.2803690000001,-77.7812269999999,0
			34.280491,-77.7816389999999,0
			34.280602,-77.7820969999999,0
			34.280815,-77.782501,0
			34.280991,-77.7829669999999,0
			34.2810860000001,-77.7835079999999,0
			34.2810780000002,-77.784073,0
			34.280937,-77.7846069999999,0
			34.280716,-77.7851029999999,0
			34.2804640000001,-77.7855299999999,0
			34.2802470000001,-77.785919,0
			34.2802510000001,-77.7863009999999,0
			34.28043,-77.7867429999999,0
			34.2802700000001,-77.7873839999999,0
			34.280128,-77.788124,0
			34.280231,-77.7887499999999,0
			34.2805440000002,-77.7891769999999,0
			34.2808230000002,-77.7895889999999,0
			34.2809600000002,-77.789993,0
			34.2806660000002,-77.790375,0
			34.280319,-77.790779,0
			34.2799450000002,-77.7911679999999,0
			34.2795640000001,-77.791557,0
			34.2791860000001,-77.7919459999999,0
			34.2788350000002,-77.7923739999999,0
			34.2784420000002,-77.7927319999999,0
			34.2780000000002,-77.79303,0
			34.277584,-77.793327,0
			34.2773170000002,-77.7937999999999,0
			34.277096,-77.7942889999999,0
			34.2768940000001,-77.7947619999999,0
			34.2766910000001,-77.7952039999998,0
			34.2765390000001,-77.7956769999999,0
			34.2763980000001,-77.79615,0
			34.276283,-77.7966,0
			34.2761570000001,-77.7970049999999,0
			34.2761120000001,-77.7974549999999,0
			34.2760730000001,-77.7978819999999,0
			34.2759400000001,-77.7982249999999,0
			34.275787,-77.798485,0
			34.2756080000001,-77.7986759999999,0
			34.275467,-77.798866,0
			34.2753600000001,-77.7990799999999,0
			34.2750020000001,-77.799446,0
			34.274445,-77.799446,0
			34.2740400000001,-77.7990339999998,0
			34.2739260000001,-77.7987139999999,0
			34.2741550000002,-77.798264,0
			34.274372,-77.797668,0
			34.2744900000002,-77.796951,0
			34.274662,-77.796219,0
			34.2747380000001,-77.7954789999999,0
			34.274883,-77.794777,0
			34.2752610000001,-77.794205,0
			34.2757230000001,-77.7937159999999,0
			34.2761570000001,-77.7932589999999,0
			34.276512,-77.79277,0
			34.2767640000001,-77.792244,0
			34.2767030000002,-77.7916489999999,0
			34.2766150000002,-77.7910229999999,0
			34.2767260000001,-77.790398,0
			34.2771220000002,-77.789948,0
			34.2775310000001,-77.7896269999999,0
			34.2777400000002,-77.7891769999999,0
			34.2777820000001,-77.7886579999999,0
			34.2778210000001,-77.788124,0
			34.2779540000001,-77.7876209999998,0
			34.2781260000002,-77.787155,0
			34.2782440000001,-77.786667,0
			34.2781180000002,-77.786125,0
			34.2781260000002,-77.785538,0
			34.278305,-77.7849429999999,0
			34.2783660000001,-77.78434,0
			34.278172,-77.783745,0
			34.2779430000001,-77.783157,0
			34.2780950000001,-77.7824859999999,0
			34.2782970000001,-77.781822,0
			34.2780760000001,-77.7812189999999,0
			34.2777560000001,-77.7806319999999,0
			34.2773020000002,-77.7801669999998,0
			34.276714,-77.7799299999999,0
			34.2761990000002,-77.779488,0
			34.2758180000001,-77.778915,0
			34.2754250000001,-77.7783429999999,0
			34.2750130000001,-77.777779,0
			34.274593,-77.7772219999999,0
			34.2741580000001,-77.776695,0
			34.273666,-77.776283,0
			34.273232,-77.7758409999999,0
			34.2728160000001,-77.7753909999999,0
			34.272457,-77.7749019999999,0
			34.2720410000001,-77.7744749999999,0
			34.2716100000001,-77.7740939999999,0
			34.2713130000001,-77.773582,0
			34.2710800000002,-77.7730179999999,0
			34.270744,-77.772453,0
			34.2702870000001,-77.771942,0
			34.2697680000001,-77.7714769999999,0
			34.2691310000002,-77.7711869999999,0
			34.2684750000001,-77.7710649999999,0
			34.2683450000002,-77.7710269999999,0
			34.2678490000001,-77.7708889999999,0
			34.2672730000001,-77.7706679999999,0
			34.2667540000002,-77.7704319999999,0
			34.266312,-77.770409,0
			34.2659340000001,-77.7705919999999,0
			34.2656020000001,-77.770882,0
			34.2653050000002,-77.771217,0
			34.2650410000002,-77.7716139999999,0
			34.2648240000001,-77.7720869999999,0
			34.2622180000002,-77.7727579999999,0
			34.2618560000001,-77.7730099999999,0
			34.2614750000002,-77.773285,0
			34.2611390000001,-77.7736819999999,0
			34.2608180000001,-77.774117,0
			34.2604680000002,-77.774529,0
			34.2600980000001,-77.7748869999999,0
			34.2596630000002,-77.7751079999999,0
			34.259331,-77.775459,0
			34.259174,-77.7760619999999,0
			34.2590330000001,-77.7766879999999,0
			34.2586900000001,-77.7771529999999,0
			34.2583160000001,-77.7775649999999,0
			34.2579080000001,-77.777924,0
			34.2574310000001,-77.7782519999998,0
			34.256744,-77.7785029999999,0
			34.2561610000001,-77.7788159999999,0
			34.2556800000001,-77.779213,0
			34.2552600000002,-77.7796709999999,0
			34.2548680000001,-77.7801509999999,0
			34.2517850000001,-77.782112,0
			34.2512780000001,-77.782394,0
			34.2509270000002,-77.782906,0
			34.250683,-77.7834699999999,0
			34.2503430000002,-77.7839279999999,0
			34.2500530000002,-77.7844699999999,0
			34.2498820000002,-77.7851329999999,0
			34.249695,-77.7857509999999,0
			34.249378,-77.786255,0
			34.2490200000001,-77.78669,0
			34.2487790000001,-77.7871699999999,0
			34.2488940000002,-77.787743,0
			34.249172,-77.788269,0
			34.2495570000001,-77.788666,0
			34.2498860000002,-77.7890849999999,0
			34.2501370000002,-77.789543,0
			34.250526,-77.7899859999999,0
			34.2508050000002,-77.7902529999999,0
			34.2511440000002,-77.7905879999999,0
			34.251514,-77.790916,0
			34.2519570000001,-77.7911299999999,0
			34.2524530000001,-77.7914049999999,0
			34.2528650000001,-77.7917099999999,0
			34.2531810000001,-77.792099,0
			34.2533340000002,-77.7925029999999,0
			34.2536130000001,-77.792976,0
			34.2543830000001,-77.7931289999999,0
			34.2546350000002,-77.7932589999999,0
			34.2547230000002,-77.7936099999999,0
			34.254597,-77.7938159999999,0
			34.2543830000001,-77.7940899999999,0
			34.254444,-77.7944409999999,0
			34.2545320000002,-77.7947239999999,0
			34.2547840000001,-77.7955549999999,0
			34.255001,-77.79583,0
			34.255001,-77.7961119999999,0
			34.2552800000001,-77.7963869999999,0
			34.2552800000001,-77.7966689999999,0
			34.2563900000001,-77.7977749999999,0
			34.2563900000001,-77.7983319999999,0
			34.256542,-77.798988,0
			34.2566680000002,-77.7991639999999,0
			34.2568820000001,-77.7995989999999,0
			34.2571330000001,-77.800201,0
			34.2572210000001,-77.8005519999999,0
			34.257259,-77.800911,0
			34.257008,-77.801392,0
			34.256615,-77.8016659999999,0
			34.2566680000002,-77.8019409999999,0
			34.2563630000001,-77.8024979999999,0
			34.2561110000001,-77.80278,0
			34.2555540000002,-77.8033369999999,0
			34.2555540000002,-77.8044429999999,0
			34.2558330000002,-77.804726,0
			34.2560840000002,-77.805405,0
			34.256516,-77.8056559999999,0
			34.256767,-77.8060069999999,0
			34.2566680000002,-77.806389,0
			34.256943,-77.8066639999999,0
			34.256943,-77.806946,0
			34.2566680000002,-77.80722,0
			34.2566680000002,-77.8075029999999,0
			34.256516,-77.8079299999999,0
			34.2564510000001,-77.808609,0
			34.2566680000002,-77.809113,0
			34.2566680000002,-77.8108369999999,0
			34.256943,-77.811111,0
			34.256943,-77.811943,0
			34.2570340000001,-77.8123019999999,0
			34.2570340000001,-77.812775,0
			34.256542,-77.8132549999999,0
			34.2562640000001,-77.8133319999999,0
			34.2558330000002,-77.81263,0
			34.2558980000001,-77.812424,0
			34.2558710000001,-77.8119959999999,0
			34.2555540000002,-77.810555,0
			34.2556570000002,-77.81028,0
			34.2553410000002,-77.8098749999999,0
			34.255001,-77.809448,0
			34.255001,-77.8091659999999,0
			34.2547230000002,-77.808891,0
			34.2547230000002,-77.808609,0
			34.255001,-77.8083339999999,0
			34.2551880000001,-77.807777,0
			34.2552800000001,-77.8075029999999,0
			34.2551270000002,-77.80722,0
			34.2550390000002,-77.807022,0
			34.2547840000001,-77.8056789999999,0
			34.2546960000001,-77.805557,0
			34.2543180000001,-77.8052289999999,0
			34.2540400000001,-77.804947,0
			34.2538530000001,-77.8038409999999,0
			34.2540400000001,-77.803307,0
			34.2538530000001,-77.803055,0
			34.2541660000001,-77.80278,0
			34.2541920000001,-77.8024219999999,0
			34.254444,-77.802223,0
			34.2552800000001,-77.8014679999999,0
			34.2554050000001,-77.8011089999999,0
			34.2554930000001,-77.800529,0
			34.2555540000002,-77.8000029999999,0
			34.255001,-77.799446,0
			34.2549130000001,-77.7993699999999,0
			34.2546920000001,-77.798569,0
			34.2539520000001,-77.798309,0
			34.2536130000001,-77.7975009999999,0
			34.2536130000001,-77.7966689999999,0
			34.2528420000002,-77.7955929999999,0
			34.2524990000002,-77.7949979999999,0
			34.2522240000002,-77.7947239999999,0
			34.2522240000002,-77.7944409999999,0
			34.251945,-77.7941669999999,0
			34.251945,-77.793892,0
			34.2508320000001,-77.7927779999999,0
			34.2505570000001,-77.7927779999999,0
			34.2504730000001,-77.792694,0
			34.2502780000001,-77.7925029999999,0
			34.249962,-77.7923969999999,0
			34.2493550000001,-77.7919689999999,0
			34.2493550000001,-77.7914279999999,0
			34.2490270000001,-77.7911829999999,0
			34.24807,-77.79187,0
			34.2480930000002,-77.789978,0
			34.247776,-77.7897189999999,0
			34.2472230000001,-77.7891689999999,0
			34.2472230000001,-77.78833,0
			34.2469440000001,-77.7880549999999,0
			34.246387,-77.7880549999999,0
			34.2458340000001,-77.787498,0
			34.2455560000002,-77.787498,0
			34.2436100000001,-77.7894439999999,0
			34.2436100000001,-77.7897189999999,0
			34.2430570000002,-77.7897189999999,0
			34.2427790000001,-77.7900009999999,0
			34.242222,-77.7900009999999,0
			34.2416650000001,-77.7905579999999,0
			34.2413900000001,-77.7905579999999,0
			34.241112,-77.7908329999999,0
			34.241112,-77.791664,0
			34.240833,-77.791664,0
			34.2405550000001,-77.7919459999999,0
			34.2405550000001,-77.7922209999999,0
			34.2402760000001,-77.7925029999999,0
			34.2402760000001,-77.7927779999999,0
			34.2400020000002,-77.7930529999999,0
			34.2394450000001,-77.7930529999999,0
			34.2380560000001,-77.7944409999999,0
			34.237778,-77.7944409999999,0
			34.2369460000001,-77.7952799999999,0
			34.2369460000001,-77.7955549999999,0
			34.2367060000001,-77.796036,0
			34.236099,-77.795937,0
			34.2358210000001,-77.7961119999999,0
			34.2357710000001,-77.7964939999999,0
			34.2347220000001,-77.797226,0
			34.2346570000001,-77.7974239999999,0
			34.2344440000001,-77.7975009999999,0
			34.233334,-77.798615,0
			34.2327770000001,-77.798615,0
			34.2316670000001,-77.7997209999999,0
			34.2316670000001,-77.8000029999999,0
			34.2313880000002,-77.8002779999999,0
			34.2313880000002,-77.8005519999999,0
			34.2288890000002,-77.803055,0
			34.2288890000002,-77.8033369999999,0
			34.2286110000001,-77.8033369999999,0
			34.2269440000002,-77.8049999999999,0
			34.2266650000001,-77.8049999999999,0
			34.2252770000001,-77.806389,0
			34.2252770000001,-77.8066639999999,0
			34.2249980000001,-77.806946,0
			34.2252770000001,-77.80722,0
			34.2252770000001,-77.807777,0
			34.2249980000001,-77.8080519999999,0
			34.2247240000002,-77.8080519999999,0
			34.2244450000002,-77.8083339999999,0
			34.2241670000001,-77.8080519999999,0
			34.2236100000002,-77.8080519999999,0
			34.2233890000002,-77.808304,0
			34.223194,-77.808571,0
			34.2229650000001,-77.8088379999999,0
			34.2226750000001,-77.8090899999999,0
			34.2223170000001,-77.809319,0
			34.2219010000002,-77.809547,0
			34.2214890000002,-77.8099139999999,0
			34.2211270000001,-77.8103869999999,0
			34.220848,-77.81105,0
			34.2205350000001,-77.8116229999999,0
			34.2201390000002,-77.812134,0
			34.219673,-77.812645,0
			34.2194440000001,-77.8133319999999,0
			34.215832,-77.8158339999999,0
			34.2155570000002,-77.8158339999999,0
			34.2136120000002,-77.8174969999999,0
			34.2131200000001,-77.817863,0
			34.2126850000002,-77.8181299999999,0
			34.2121960000001,-77.8183979999999,0
			34.2116620000001,-77.8186489999999,0
			34.2111130000002,-77.8188929999999,0
			34.2105670000001,-77.8191679999999,0
			34.2100300000001,-77.819443,0
			34.2095220000002,-77.8197399999999,0
			34.2091180000001,-77.820099,0
			34.208973,-77.8205179999999,0
			34.2091670000001,-77.820938,0
			34.2094120000001,-77.821358,0
			34.2095380000001,-77.821815,0
			34.2094460000001,-77.8222429999999,0
			34.2093430000001,-77.822647,0
			34.209385,-77.8229979999999,0
			34.209469,-77.823349,0
			34.2096100000002,-77.823639,0
			34.2097360000001,-77.8239209999999,0
			34.209881,-77.8241579999999,0
			34.210003,-77.8243639999999,0
			34.2102780000002,-77.824722,0
			34.2105560000001,-77.8249969999999,0
			34.2105560000001,-77.8252789999999,0
			34.2116660000001,-77.826385,0
			34.2119450000001,-77.826385,0
			34.2122230000002,-77.8266679999999,0
			34.2127760000001,-77.8272249999999,0
			34.2127760000001,-77.8274989999999,0
			34.212502,-77.827774,0
			34.212502,-77.8288879999999,0
			34.2122230000002,-77.82917,0
			34.2122230000002,-77.82972,0
			34.2119450000001,-77.8300019999999,0
			34.2116660000001,-77.8300019999999,0
			34.2113880000002,-77.82972,0
			34.2112390000001,-77.82972,0
			34.2111130000002,-77.82972,0
			34.2108350000001,-77.8294449999999,0
			34.21027,-77.8294749999999,0
			34.2094460000001,-77.8286129999999,0
			34.2102780000002,-77.827774,0
			34.2102780000002,-77.8272249999999,0
			34.2097210000001,-77.8266679999999,0
			34.2094460000001,-77.826942,0
			34.2091670000001,-77.826942,0
			34.2088890000002,-77.8266679999999,0
			34.2088890000002,-77.826385,0
			34.2086110000001,-77.8261109999999,0
			34.2086180000002,-77.825844,0
			34.208344,-77.825813,0
			34.208153,-77.825638,0
			34.2079890000002,-77.8254009999999,0
			34.2077560000001,-77.8252029999999,0
			34.2074660000001,-77.8250199999998,0
			34.2071460000002,-77.824806,0
			34.2069130000001,-77.8244169999999,0
			34.20665,-77.8239899999999,0
			34.2063330000001,-77.8236009999999,0
			34.206169,-77.8234859999999,0
			34.205948,-77.8233259999999,0
			34.20554,-77.8231279999999,0
			34.2050860000001,-77.8231199999999,0
			34.2046240000001,-77.823273,0
			34.204151,-77.823357,0
			34.2037540000001,-77.8234629999999,0
			34.2032850000002,-77.8236919999999,0
			34.203056,-77.8238909999999,0
			34.2027780000001,-77.8241649999999,0
			34.2027780000001,-77.824722,0
			34.2024990000001,-77.8249969999999,0
			34.2027780000001,-77.8252789999999,0
			34.2027780000001,-77.825554,0
			34.202221,-77.8261109999999,0
			34.2013890000001,-77.8252789999999,0
			34.2013890000001,-77.8238909999999,0
			34.2010730000001,-77.823502,0
			34.2006030000001,-77.823189,0
			34.2001270000001,-77.8232189999999,0
			34.199638,-77.8234179999999,0
			34.199181,-77.8236619999999,0
			34.1988070000002,-77.823944,0
			34.198425,-77.824181,0
			34.1980510000001,-77.824379,0
			34.1976470000001,-77.8244929999999,0
			34.1972730000001,-77.8246839999999,0
			34.196922,-77.824898,0
			34.1965030000001,-77.8250809999999,0
			34.195808,-77.8251499999999,0
			34.1953090000001,-77.825569,0
			34.1948090000001,-77.826088,0
			34.1943590000002,-77.826721,0
			34.193848,-77.827255,0
			34.1932110000001,-77.8277049999999,0
			34.1924710000001,-77.8280559999999,0
			34.1917000000001,-77.8283619999999,0
			34.190971,-77.8287119999999,0
			34.1903310000002,-77.829193,0
			34.189713,-77.8296659999999,0
			34.189037,-77.8299939999999,0
			34.1883740000001,-77.8302919999999,0
			34.187759,-77.8306269999999,0
			34.1872100000001,-77.8310999999998,0
			34.1867100000001,-77.831604,0
			34.1862750000001,-77.8321079999999,0
			34.18581,-77.832481,0
			34.1853370000002,-77.8327789999999,0
			34.184891,-77.8330539999999,0
			34.1844440000002,-77.833336,0
			34.183708,-77.8340759999999,0
			34.1830560000001,-77.8347239999998,0
			34.1827770000001,-77.8347239999998,0
			34.1811100000002,-77.8363879999999,0
			34.1808320000001,-77.8363879999999,0
			34.1805570000001,-77.83667,0
			34.1800000000002,-77.83667,0
			34.1794430000001,-77.8372189999999,0
			34.17889,-77.8372189999999,0
			34.178055,-77.838058,0
			34.1777760000002,-77.838058,0
			34.1766660000002,-77.8391649999999,0
			34.1763880000001,-77.8391649999999,0
			34.1761090000001,-77.8394469999999,0
			34.1758350000002,-77.8394469999999,0
			34.175556,-77.8397219999998,0
			34.1752780000001,-77.8397219999998,0
			34.1749990000001,-77.8399959999999,0
			34.1749990000001,-77.8402789999999,0
			34.1741680000001,-77.8411099999999,0
			34.1741680000001,-77.841393,0
			34.1749990000001,-77.841393,0
			34.175556,-77.840836,0
			34.1763880000001,-77.840836,0
			34.1766660000002,-77.8411099999999,0
			34.1775020000001,-77.8411099999999,0
			34.1777760000002,-77.840836,0
			34.1786120000001,-77.840836,0
			34.17889,-77.8411099999999,0
			34.1794430000001,-77.8411099999999,0
			34.1797220000001,-77.841393,0
			34.1802790000002,-77.841393,0
			34.1833340000002,-77.838333,0
			34.1836130000002,-77.838333,0
			34.1838870000001,-77.838058,0
			34.1841660000001,-77.838333,0
			34.1841660000001,-77.8386079999999,0
			34.1844440000002,-77.8388899999999,0
			34.1845440000001,-77.8391189999999,0
			34.1848220000002,-77.839424,0
			34.1851310000002,-77.8396909999999,0
			34.1854630000001,-77.8399049999999,0
			34.1857830000001,-77.840088,0
			34.1860500000002,-77.8403239999999,0
			34.1862600000001,-77.840591,0
			34.1864130000002,-77.840897,0
			34.1866,-77.841171,0
			34.1866680000002,-77.841393,0
			34.1866680000002,-77.841667,0
			34.1869430000002,-77.8419419999999,0
			34.1872220000001,-77.8419419999999,0
			34.1877780000002,-77.842499,0
			34.1880570000001,-77.842499,0
			34.1883320000002,-77.8427809999999,0
			34.1883320000002,-77.8430559999999,0
			34.18861,-77.8433299999999,0
			34.1883320000002,-77.8436129999999,0
			34.1883320000002,-77.84417,0
			34.1877780000002,-77.8447189999999,0
			34.1877780000002,-77.845001,0
			34.1880570000001,-77.8452759999999,0
			34.1880570000001,-77.845833,0
			34.1883320000002,-77.8461069999999,0
			34.1883320000002,-77.84639,0
			34.18861,-77.846664,0
			34.18861,-77.8472209999999,0
			34.1888890000001,-77.847504,0
			34.1888890000001,-77.8477779999999,0
			34.1891670000002,-77.8480529999999,0
			34.1891670000002,-77.8486099999999,0
			34.189445,-77.848892,0
			34.189445,-77.8494419999999,0
			34.1899990000001,-77.849998,0
			34.1899990000001,-77.8502809999999,0
			34.1905560000001,-77.85083,0
			34.1905560000001,-77.8511119999999,0
			34.191113,-77.851669,0
			34.191113,-77.8519439999999,0
			34.1913870000001,-77.8522189999999,0
			34.1913870000001,-77.853058,0
			34.1916660000002,-77.853333,0
			34.1916660000002,-77.8536149999999,0
			34.1913870000001,-77.853889,0
			34.1916660000002,-77.854164,0
			34.1916660000002,-77.854721,0
			34.191944,-77.855003,0
			34.191944,-77.8561099999999,0
			34.1922230000001,-77.8563919999999,0
			34.1922230000001,-77.8569409999999,0
			34.1925010000001,-77.8572239999999,0
			34.1925010000001,-77.8577799999999,0
			34.1922230000001,-77.8577799999999,0
			34.191944,-77.858055,0
			34.1913870000001,-77.857498,0
			34.1913870000001,-77.8572239999999,0
			34.1897240000001,-77.855553,0
			34.189445,-77.855553,0
			34.1888890000001,-77.8561099999999,0
			34.1888890000001,-77.855553,0
			34.189445,-77.855003,0
			34.1891670000002,-77.854721,0
			34.189445,-77.8544459999999,0
			34.189445,-77.8536149999999,0
			34.1897240000001,-77.853333,0
			34.1897240000001,-77.853058,0
			34.189445,-77.8527759999999,0
			34.1891670000002,-77.8527759999999,0
			34.1877780000002,-77.851387,0
			34.1872220000001,-77.851387,0
			34.1866680000002,-77.85083,0
			34.1866680000002,-77.850555,0
			34.1863900000001,-77.8502809999999,0
			34.1863900000001,-77.849724,0
			34.186111,-77.8494419999999,0
			34.186111,-77.848892,0
			34.1858330000002,-77.8486099999999,0
			34.1858330000002,-77.847504,0
			34.1855550000001,-77.8472209999999,0
			34.1855550000001,-77.8469469999999,0
			34.1858330000002,-77.846664,0
			34.1855550000001,-77.84639,0
			34.1855550000001,-77.8461069999999,0
			34.1852760000001,-77.845833,0
			34.1852760000001,-77.845001,0
			34.1844440000002,-77.84417,0
			34.1844440000002,-77.8436129999999,0
			34.184086,-77.8437809999999,0
			34.18391,-77.8436199999999,0
			34.183792,-77.843384,0
			34.1836660000001,-77.8431399999998,0
			34.1836170000001,-77.8428189999999,0
			34.1835370000001,-77.8425139999999,0
			34.1832430000001,-77.8423079999999,0
			34.1827320000001,-77.8422389999999,0
			34.182175,-77.8422849999999,0
			34.1816480000001,-77.842499,0
			34.1811260000001,-77.8427279999999,0
			34.180546,-77.842911,0
			34.1799160000002,-77.8431399999998,0
			34.1793400000001,-77.8436049999999,0
			34.1787870000002,-77.8440859999999,0
			34.178139,-77.8444369999999,0
			34.1775020000001,-77.8447419999999,0
			34.1769100000001,-77.8450389999999,0
			34.176342,-77.8453139999999,0
			34.1757350000001,-77.845497,0
			34.1750870000001,-77.845634,0
			34.1744690000001,-77.8459469999999,0
			34.1738660000001,-77.8463129999999,0
			34.1732560000001,-77.846664,0
			34.172604,-77.8469539999999,0
			34.1718220000001,-77.846962,0
			34.1710780000002,-77.847092,0
			34.17049,-77.8473049999998,0
			34.1699870000002,-77.847214,0
			34.1695060000002,-77.8471149999999,0
			34.1690710000001,-77.847313,0
			34.1666680000002,-77.847504,0
			34.1661110000001,-77.8480529999999,0
			34.1658100000001,-77.8482279999999,0
			34.165352,-77.848511,0
			34.1648750000002,-77.848763,0
			34.1616860000001,-77.8523029999998,0
			34.161125,-77.852501,0
			34.1605830000001,-77.852676,0
			34.1600270000001,-77.852676,0
			34.1594700000001,-77.853043,0
			34.1589550000001,-77.8535159999999,0
			34.1585850000002,-77.8540729999999,0
			34.1582600000002,-77.8546219999999,0
			34.1579900000002,-77.855087,0
			34.1575620000001,-77.855537,0
			34.1570360000001,-77.855743,0
			34.156509,-77.856094,0
			34.1560250000001,-77.8566059999999,0
			34.1554070000001,-77.856995,0
			34.1547360000001,-77.8572159999999,0
			34.1541020000002,-77.8574369999999,0
			34.153671,-77.85788,0
			34.1533740000002,-77.858421,0
			34.1531220000001,-77.8589399999999,0
			34.1527060000001,-77.8592149999999,0
			34.1522330000001,-77.859367,0
			34.1517370000001,-77.859367,0
			34.151264,-77.8592679999999,0
			34.1508030000001,-77.8592829999999,0
			34.1503830000001,-77.859528,0
			34.1500050000001,-77.859879,0
			34.149639,-77.8602519999999,0
			34.1492690000002,-77.8606029999999,0
			34.1488840000001,-77.8608859999999,0
			34.1483310000002,-77.860802,0
			34.1477470000002,-77.860626,0
			34.1471600000001,-77.8605579999999,0
			34.1465910000001,-77.8604739999999,0
			34.1460720000001,-77.86026,0
			34.1455610000001,-77.860168,0
			34.1450500000001,-77.8604579999999,0
			34.1445430000001,-77.8607249999999,0
			34.1440810000001,-77.861,0
			34.1437380000001,-77.8613889999999,0
			34.1433750000001,-77.8617629999999,0
			34.142769,-77.861992,0
			34.142159,-77.8622669999999,0
			34.1415940000002,-77.862625,0
			34.1411210000001,-77.863052,0
			34.140667,-77.863487,0
			34.1401940000001,-77.863884,0
			34.1397170000001,-77.8642729999999,0
			34.1392400000001,-77.86467,0
			34.1387940000001,-77.8651049999999,0
			34.138363,-77.86554,0
			34.1378940000001,-77.865875,0
			34.1373180000001,-77.8658979999999,0
			34.1367910000001,-77.866028,0
			34.1362990000001,-77.866234,0
			34.135796,-77.866371,0
			34.1352880000001,-77.866463,0
			34.1347890000001,-77.8666079999999,0
			34.1341250000002,-77.866531,0
			34.1334720000002,-77.866364,0
			34.1328470000001,-77.866234,0
			34.1322250000002,-77.866409,0
			34.1316830000001,-77.8667139999999,0
			34.1313900000002,-77.8672259999999,0
			34.131111,-77.8672259999999,0
			34.1308330000001,-77.8674999999999,0
			34.1305540000001,-77.8674999999999,0
			34.13028,-77.8677749999999,0
			34.130001,-77.8677749999999,0
			34.1297230000001,-77.8680569999999,0
			34.1286130000001,-77.8680569999999,0
			34.1283340000001,-77.868332,0
			34.1280560000002,-77.868332,0
			34.127777,-77.8680569999999,0
			34.1269450000001,-77.8680569999999,0
			34.126667,-77.868332,0
			34.1263890000001,-77.868332,0
			34.1261100000001,-77.868614,0
			34.1258320000001,-77.868614,0
			34.1255570000002,-77.8688889999999,0
			34.1255570000002,-77.8697199999999,0
			34.1249200000001,-77.869835,0
			34.12429,-77.869675,0
			34.123569,-77.869545,0
			34.1229210000001,-77.8697279999999,0
			34.1222950000001,-77.869995,0
			34.1216770000001,-77.8702769999999,0
			34.1210590000002,-77.8705599999999,0
			34.1204610000001,-77.870872,0
			34.1198880000001,-77.8712229999999,0
			34.119316,-77.871567,0
			34.1187210000002,-77.8718489999999,0
			34.1181640000001,-77.8721389999999,0
			34.117779,-77.872498,0
			34.1174510000001,-77.872902,0
			34.1171760000001,-77.873497,0
			34.1168940000002,-77.8740919999999,0
			34.1165770000001,-77.8746489999999,0
			34.1162110000001,-77.8751449999999,0
			34.1157680000001,-77.8755569999999,0
			34.1152500000001,-77.8758769999999,0
			34.1150020000001,-77.876114,0
			34.1147230000001,-77.8763889999999,0
			34.1147230000001,-77.876663,0
			34.114445,-77.876945,0
			34.114445,-77.8772199999999,0
			34.1141660000001,-77.8775019999999,0
			34.1138880000001,-77.8775019999999,0
			34.1136090000002,-77.877777,0
			34.1133350000001,-77.8775019999999,0
			34.113056,-77.8775019999999,0
			34.1127780000002,-77.8772199999999,0
			34.1127780000002,-77.8763889999999,0
			34.113056,-77.876114,0
			34.113056,-77.8755569999999,0
			34.1133350000001,-77.8752749999999,0
			34.1133350000001,-77.8749999999998,0
			34.1136090000002,-77.8747249999999,0
			34.113056,-77.8741679999999,0
			34.1122210000001,-77.8741679999999,0
			34.1113890000001,-77.8749999999998,0
			34.1111110000001,-77.8749999999998,0
			34.1105540000001,-77.8755569999999,0
			34.1105540000001,-77.8758319999999,0
			34.1102790000002,-77.876114,0
			34.1102790000002,-77.8763889999999,0
			34.1102520000001,-77.8766329999999,0
			34.110031,-77.876862,0
			34.1097220000001,-77.876999,0
			34.1094440000002,-77.877213,0
			34.1091730000001,-77.8774339999999,0
			34.10891,-77.8776779999999,0
			34.1086770000001,-77.87796,0
			34.1084820000002,-77.8783109999999,0
			34.108253,-77.8786239999998,0
			34.1078680000002,-77.8787989999999,0
			34.107315,-77.8787989999999,0
			34.1066510000002,-77.878571,0
			34.1059570000001,-77.8782419999999,0
			34.1052740000001,-77.8779219999999,0
			34.1046640000001,-77.8779679999999,0
			34.1041490000001,-77.878319,0
			34.1036190000001,-77.8787,0
			34.1030350000001,-77.8790279999999,0
			34.1022990000001,-77.8790969999999,0
			34.1015470000001,-77.879066,0
			34.100784,-77.879288,0
			34.100372,-77.8798449999999,0
			34.100185,-77.880547,0
			34.0998540000002,-77.881233,0
			34.0993120000001,-77.881744,0
			34.0994450000001,-77.881943,0
			34.0991670000002,-77.8822249999999,0
			34.0991670000002,-77.8824999999999,0
			34.098888,-77.882774,0
			34.098888,-77.883057,0
			34.0986100000001,-77.8833309999999,0
			34.0977780000002,-77.8824999999999,0
			34.0977780000002,-77.8822249999999,0
			34.09763,-77.8819349999999,0
			34.0972210000001,-77.8817979999999,0
			34.096756,-77.8818209999999,0
			34.0962640000001,-77.881828,0
			34.095741,-77.881729,0
			34.0952220000001,-77.8816299999999,0
			34.0948330000001,-77.8817979999999,0
			34.0944330000002,-77.8819729999999,0
			34.0940360000002,-77.882164,0
			34.0936010000001,-77.882278,0
			34.0932390000002,-77.8824689999999,0
			34.0928760000001,-77.882622,0
			34.092495,-77.882614,0
			34.092113,-77.8825679999999,0
			34.0917430000002,-77.8825229999999,0
			34.0913390000001,-77.8821029999999,0
			34.088089,-77.881828,0
			34.0875660000001,-77.882355,0
			34.0869260000001,-77.8827209999999,0
			34.0862690000001,-77.882874,0
			34.085674,-77.882896,0
			34.0852780000001,-77.8831939999999,0
			34.0849270000001,-77.8835449999999,0
			34.0845380000002,-77.8838039999999,0
			34.0840720000002,-77.8839189999999,0
			34.0836560000002,-77.8840869999999,0
			34.0833210000002,-77.8843459999999,0
			34.0830040000001,-77.884605,0
			34.082703,-77.8848419999999,0
			34.0792240000001,-77.8855059999999,0
			34.0785640000001,-77.885643,0
			34.077885,-77.885864,0
			34.0772210000001,-77.8861239999999,0
			34.076576,-77.886452,0
			34.0759810000001,-77.886871,0
			34.0728260000001,-77.887321,0
			34.0712280000001,-77.887459,0
			34.0707780000001,-77.887955,0
			34.0688900000001,-77.889442,0
			34.0686110000001,-77.889442,0
			34.0680540000002,-77.8888849999999,0
			34.0669440000001,-77.8888849999999,0
			34.0663870000001,-77.889442,0
			34.0658340000002,-77.889442,0
			34.0655560000001,-77.889168,0
			34.0652770000001,-77.889168,0
			34.0649990000002,-77.889442,0
			34.0647240000002,-77.889442,0
			34.0645260000001,-77.8897249999999,0
			34.0641980000001,-77.8899,0
			34.0638350000002,-77.889854,0
			34.0605550000002,-77.890274,0
			34.060276,-77.890274,0
			34.0600010000002,-77.8905559999999,0
			34.0600010000002,-77.8908309999999,0
			34.0594440000001,-77.8913879999999,0
			34.0594440000001,-77.89222,0
			34.058887,-77.892776,0
			34.058887,-77.8930589999999,0
			34.0583340000001,-77.893608,0
			34.0583340000001,-77.8938899999999,0
			34.0580560000002,-77.894165,0
			34.0580560000002,-77.8947219999999,0
			34.057777,-77.894997,0
			34.057777,-77.895279,0
			34.0580560000002,-77.8955539999999,0
			34.0581250000002,-77.8963779999999,0
			34.0579990000001,-77.8966289999999,0
			34.057468,-77.897705,0
			34.0563890000001,-77.8991699999999,0
			34.0563890000001,-77.899445,0
			34.0561100000001,-77.8997189999999,0
			34.0561100000001,-77.9000019999999,0
			34.0555570000002,-77.901108,0
			34.0555570000002,-77.9016649999999,0
			34.0558320000002,-77.901947,0
			34.0558320000002,-77.902496,0
			34.0555570000002,-77.902779,0
			34.0555570000002,-77.90361,0
			34.0552790000001,-77.903893,0
			34.0552790000001,-77.9041669999999,0
			34.0550000000001,-77.904442,0
			34.0550000000001,-77.904724,0
			34.054722,-77.9049989999999,0
			34.054722,-77.9055559999999,0
			34.054443,-77.9058299999999,0
			34.054443,-77.9072189999999,0
			34.0541650000001,-77.9075009999999,0
			34.0541650000001,-77.907776,0
			34.0538900000001,-77.908058,0
			34.0541650000001,-77.9083329999999,0
			34.0538900000001,-77.9100039999999,0
			34.0538900000001,-77.9102779999998,0
			34.0533330000002,-77.9108349999999,0
			34.0533330000002,-77.91111,0
			34.0530550000001,-77.911392,0
			34.0530550000001,-77.9116669999999,0
			34.0530200000001,-77.912277,0
			34.0527760000001,-77.9166639999999,0
			34.0525470000002,-77.9178239999999,0
			34.052616,-77.917854,0
			34.0530550000001,-77.918053,0
			34.0532680000002,-77.9181819999999,0
			34.053612,-77.9181819999999,0
			34.0538900000001,-77.9186099999999,0
			34.054443,-77.9186099999999,0
			34.0550000000001,-77.9191669999999,0
			34.0552790000001,-77.9191669999999,0
			34.0555570000002,-77.918892,0
			34.0558320000002,-77.918892,0
			34.0561100000001,-77.9186099999999,0
			34.056946,-77.9186099999999,0
			34.0572200000001,-77.918892,0
			34.0574990000001,-77.918892,0
			34.058887,-77.9202799999999,0
			34.0594440000001,-77.9199979999999,0
			34.0597230000001,-77.9199979999999,0
			34.0600010000002,-77.9202799999999,0
			34.0603070000001,-77.920311,0
			34.0605550000002,-77.920555,0
			34.0608330000001,-77.920555,0
			34.0622220000001,-77.9219439999999,0
			34.0625000000002,-77.9219439999999,0
			34.0633320000001,-77.9227749999999,0
			34.0638890000002,-77.9227749999999,0
			34.0641670000001,-77.923058,0
			34.0644450000001,-77.923058,0
			34.0647240000002,-77.9233319999999,0
			34.0649990000002,-77.9233319999999,0
			34.0658340000002,-77.9241639999999,0
			34.0663870000001,-77.9241639999999,0
			34.0666660000001,-77.924446,0
			34.067501,-77.924446,0
			34.0677800000001,-77.924721,0
			34.0680540000002,-77.924721,0
			34.0683330000002,-77.9250029999999,0
			34.0705570000001,-77.9250029999999,0
			34.070835,-77.924721,0
			34.0722240000001,-77.924721,0
			34.0724980000002,-77.924446,0
			34.075279,-77.924446,0
			34.0755540000001,-77.924721,0
			34.0761110000001,-77.924721,0
			34.0763890000001,-77.9250029999999,0
			34.0769460000001,-77.924446,0
			34.0788880000001,-77.924446,0
			34.0791660000002,-77.924721,0
			34.0797230000001,-77.924721,0
			34.080002,-77.924446,0
			34.0802760000001,-77.924721,0
			34.080833,-77.924721,0
			34.081112,-77.924446,0
			34.0813900000001,-77.924446,0
			34.0816650000002,-77.924721,0
			34.0819440000001,-77.924721,0
			34.0822220000001,-77.9250029999999,0
			34.0825000000002,-77.9250029999999,0
			34.0827790000001,-77.924721,0
			34.0827790000001,-77.9241639999999,0
			34.083332,-77.9241639999999,0
			34.0838890000001,-77.9236149999999,0
			34.084167,-77.9236149999999,0
			34.0844460000002,-77.9233319999999,0
			34.0847210000001,-77.9233319999999,0
			34.0852780000001,-77.923889,0
			34.0855560000001,-77.923889,0
			34.085835,-77.9236149999999,0
			34.0861130000001,-77.9236149999999,0
			34.086666,-77.923058,0
			34.0869450000002,-77.923058,0
			34.0872230000001,-77.9233319999999,0
			34.0875020000001,-77.9233319999999,0
			34.089169,-77.9250029999999,0
			34.09,-77.9250029999999,0
			34.0902790000002,-77.924721,0
			34.0905570000001,-77.924721,0
			34.0908320000001,-77.9250029999999,0
			34.0908320000001,-77.924721,0
			34.0911100000002,-77.924446,0
			34.0919460000001,-77.924446,0
			34.092224,-77.924721,0
			34.092499,-77.924721,0
			34.0936130000002,-77.9258349999999,0
			34.0938870000001,-77.9258349999999,0
			34.0941660000001,-77.9261089999999,0
			34.0944440000002,-77.9261089999999,0
			34.094723,-77.926392,0
			34.095833,-77.926392,0
			34.0961110000001,-77.9261089999999,0
			34.0966680000002,-77.9261089999999,0
			34.0969430000002,-77.9258349999999,0
			34.0972210000001,-77.9258349999999,0
			34.0975000000001,-77.925552,0
			34.0977780000002,-77.925552,0
			34.0980570000002,-77.9252779999999,0
			34.0986100000001,-77.9252779999999,0
			34.0991670000002,-77.9258349999999,0
			34.0997240000001,-77.9258349999999,0
			34.1005550000001,-77.9250029999999,0
			34.1016650000001,-77.9250029999999,0
			34.1019440000001,-77.924721,0
			34.1027790000001,-77.924721,0
			34.1033330000001,-77.9252779999999,0
			34.1036110000002,-77.9252779999999,0
			34.1038890000001,-77.9250029999999,0
			34.1041680000001,-77.9250029999999,0
			34.1044430000001,-77.9252779999999,0
			34.1047210000002,-77.9252779999999,0
			34.1050000000002,-77.925552,0
			34.1077770000001,-77.925552,0
			34.1080550000001,-77.9252779999999,0
			34.1105540000001,-77.9252779999999,0
			34.1108320000001,-77.925552,0
			34.1113890000001,-77.925552,0
			34.1116680000001,-77.9258349999999,0
			34.1122210000001,-77.9258349999999,0
			34.113056,-77.9261089999999,0
			34.1141660000001,-77.9261089999999,0
			34.114445,-77.926392,0
			34.1147230000001,-77.926392,0
			34.115555,-77.927223,0
			34.1158330000001,-77.927223,0
			34.1161120000002,-77.927498,0
			34.11639,-77.927498,0
			34.1166650000001,-77.9278179999999,0
			34.116989,-77.9278259999999,0
			34.1172220000001,-77.928055,0
			34.118889,-77.928055,0
			34.119061,-77.9278869999999,0
			34.1191670000001,-77.9277799999999,0
			34.11972,-77.9277799999999,0
			34.1199990000001,-77.927498,0
			34.1205560000001,-77.927498,0
			34.1208340000001,-77.927223,0
			34.121113,-77.927223,0
			34.121944,-77.926392,0
			34.1225010000001,-77.926392,0
			34.1227760000002,-77.9261089999999,0
			34.1238900000001,-77.9261089999999,0
			34.124168,-77.9258349999999,0
			34.125278,-77.9258349999999,0
			34.1255570000002,-77.925552,0
			34.1263890000001,-77.925552,0
			34.126667,-77.9252779999999,0
			34.1272240000001,-77.9252779999999,0
			34.1274990000001,-77.925552,0
			34.127777,-77.925552,0
			34.1280560000002,-77.9258349999999,0
			34.1283340000001,-77.9258349999999,0
			34.1286130000001,-77.9261089999999,0
			34.1288870000002,-77.9261089999999,0
			34.129166,-77.926392,0
			34.1294440000001,-77.926392,0
			34.1297230000001,-77.926666,0
			34.130001,-77.926666,0
			34.1305540000001,-77.927223,0
			34.1308330000001,-77.927223,0
			34.131111,-77.927498,0
			34.1316680000001,-77.928055,0
			34.1316680000001,-77.9283369999999,0
			34.1319430000001,-77.928612,0
			34.1327780000001,-77.928612,0
			34.1330570000001,-77.928886,0
			34.1333350000002,-77.928886,0
			34.1347240000002,-77.9302749999999,0
			34.1347430000001,-77.930595,0
			34.134827,-77.9306789999999,0
			34.1352230000001,-77.9311519999999,0
			34.1352770000001,-77.931229,0
			34.1352770000001,-77.931389,0
			34.1355740000001,-77.9316479999999,0
			34.1355550000002,-77.9319459999999,0
			34.1358340000002,-77.93222,0
			34.1358340000002,-77.932777,0
			34.1373020000001,-77.9341129999999,0
			34.1372220000001,-77.9344479999999,0
			34.1375010000001,-77.934723,0
			34.1375010000001,-77.934998,0
			34.1377790000002,-77.9352799999999,0
			34.1377790000002,-77.9366679999999,0
			34.1380540000002,-77.9369429999999,0
			34.1380540000002,-77.9383319999999,0
			34.1383320000001,-77.9386139999999,0
			34.1383320000001,-77.939163,0
			34.1386110000001,-77.9394449999999,0
			34.1386110000001,-77.93972,0
			34.140278,-77.9413909999998,0
			34.140278,-77.9416659999999,0
			34.1405560000001,-77.9419479999999,0
			34.1405560000001,-77.942223,0
			34.1408350000001,-77.9424969999999,0
			34.1408350000001,-77.9427799999999,0
			34.1413880000002,-77.943336,0
			34.1413880000002,-77.9436109999999,0
			34.1416660000001,-77.943886,0
			34.1416660000001,-77.9441679999999,0
			34.1436120000001,-77.9461139999999,0
			34.1438900000001,-77.9461139999999,0
			34.1444440000001,-77.9466629999999,0
			34.1447220000002,-77.946388,0
			34.1450000000001,-77.9466629999999,0
			34.1452790000001,-77.946388,0
			34.1452790000001,-77.9458309999999,0
			34.1450000000001,-77.9455569999999,0
			34.1450000000001,-77.9452739999999,0
			34.1447220000002,-77.9449999999999,0
			34.1447220000002,-77.9441679999999,0
			34.1444440000001,-77.943886,0
			34.1444440000001,-77.9436109999999,0
			34.1441650000001,-77.943336,0
			34.1441650000001,-77.943054,0
			34.1438900000001,-77.9427799999999,0
			34.1438900000001,-77.9424969999999,0
			34.1436120000001,-77.942223,0
			34.1436120000001,-77.9416659999999,0
			34.1441650000001,-77.9411089999999,0
			34.1450000000001,-77.9411089999999,0
			34.1452790000001,-77.9413909999998,0
			34.1455570000002,-77.9413909999998,0
			34.1458320000002,-77.9411089999999,0
			34.1461110000001,-77.9413909999998,0
			34.1463890000001,-77.9413909999998,0
			34.1477780000001,-77.9427799999999,0
			34.1480560000002,-77.9427799999999,0
			34.1483350000001,-77.943054,0
			34.1491660000002,-77.943054,0
			34.1494450000001,-77.943336,0
			34.1502760000001,-77.943336,0
			34.1505550000002,-77.9436109999999,0
			34.1516690000001,-77.9436109999999,0
			34.1519430000001,-77.943336,0
			34.1527790000001,-77.9441679999999,0
			34.153057,-77.9441679999999,0
			34.153332,-77.9444429999999,0
			34.1536100000001,-77.9444429999999,0
			34.1538890000002,-77.9441679999999,0
			34.1544460000001,-77.9441679999999,0
			34.1546550000001,-77.943954,0
			34.1552770000001,-77.943336,0
			34.1558340000001,-77.943336,0
			34.1561130000001,-77.943054,0
			34.1569440000001,-77.943054,0
			34.1572230000001,-77.9427799999999,0
			34.1577760000001,-77.9427799999999,0
			34.1580540000002,-77.943054,0
			34.15889,-77.943054,0
			34.1591680000001,-77.9427799999999,0
			34.1594430000001,-77.943054,0
			34.159721,-77.943054,0
			34.1600270000001,-77.9433589999999,0
			34.1613880000001,-77.9447249999999,0
			34.1613880000001,-77.9449999999999,0
			34.161945,-77.9455569999999,0
			34.161945,-77.9458309999999,0
			34.162224,-77.9461139999999,0
			34.1636120000001,-77.947502,0
			34.1633340000002,-77.9477769999999,0
			34.164165,-77.9486079999999,0
			34.164444,-77.9486079999999,0
			34.1647220000001,-77.9488909999999,0
			34.165554,-77.9488909999999,0
			34.1658330000002,-77.9491649999999,0
			34.1666680000002,-77.9491649999999,0
			34.166943,-77.949448,0
			34.1672210000001,-77.9491649999999,0
			34.1683350000001,-77.9502789999999,0
			34.1686100000001,-77.9502789999999,0
			34.1694450000001,-77.9511109999999,0
			34.1697240000001,-77.9511109999999,0
			34.1699980000002,-77.950836,0
			34.170277,-77.9511109999999,0
			34.1708340000001,-77.9511109999999,0
			34.1711120000002,-77.951385,0
			34.171391,-77.951385,0
			34.1716650000001,-77.951668,0
			34.172222,-77.951668,0
			34.1733320000002,-77.9522249999999,0
			34.174721,-77.952499,0
			34.1749990000001,-77.9522249999999,0
			34.1752890000001,-77.9521939999999,0
			34.175556,-77.952499,0
			34.1758650000002,-77.9524309999999,0
			34.1885300000002,-77.957542,0
			34.1891710000001,-77.9596859999999,0
			34.1930890000001,-77.9579769999999,0
			34.1971700000001,-77.9573059999999,0
		</coordinates>
	</polygon>
</kml>
