<?xml version="1.0" encoding="UTF-8"?>
<kml xmlns="http://earth.google.com/kml/2.2">
	<polygon id="USA_PA_Adams" samplingProbability="1">
		<coordinates>
			39.7196807860001,-76.999809264,0
			39.719429016,-77.1211929319999,0
			39.7196121220001,-77.2151565549999,0
			39.7199516300001,-77.3926773059999,0
			39.7204093940002,-77.4596481319999,0
			39.7499084470001,-77.4608230589999,0
			39.7594299330001,-77.4608230589999,0
			39.7798309340001,-77.4614105219999,0
			39.8006896970002,-77.462593079,0
			39.8138389600001,-77.4631881719999,0
			39.821090698,-77.463180542,0
			39.8355903620001,-77.4643707279999,0
			39.8442115780001,-77.4649658209999,0
			39.8473815920001,-77.4649658209999,0
			39.8519096370001,-77.4655609139999,0
			39.852821349,-77.4655609139999,0
			39.8546295160002,-77.4655609139999,0
			39.8568992630001,-77.4655609139999,0
			39.8582611090002,-77.4655609139999,0
			39.861438751,-77.466163635,0
			39.8650589000001,-77.466163635,0
			39.9017906190001,-77.4679412849999,0
			39.9444007880001,-77.470321655,0
			39.9797515870001,-77.4216918949999,0
			39.9933395390001,-77.4018707269998,0
			40.0095787050001,-77.3322067249999,0
			40.0127296450001,-77.3141784669999,0
			40.014980316,-77.3021621699999,0
			40.015880585,-77.2967605589999,0
			40.0194702160001,-77.275726318,0
			40.0221595770001,-77.2583084099999,0
			40.022602082,-77.254096985,0
			40.0301895150002,-77.197616578,0
			40.032409667,-77.1814041129999,0
			40.0563812250001,-77.15725708,0
			40.0717506410001,-77.138557433,0
			40.0708313000002,-77.134361267,0
			40.0676193240001,-77.1235580449999,0
			40.0648803710001,-77.11517334,0
			40.064418792,-77.112159729,0
			40.0639495850002,-77.1091613779999,0
			40.0634918210001,-77.107360839,0
			40.0611991890001,-77.098358154,0
			40.058010102,-77.095367432,0
			40.0511817940001,-77.0870132449999,0
			40.048000335,-77.0840072619999,0
			40.0407295220002,-77.0780563359999,0
			40.0334587090001,-77.0732879649999,0
			40.0275421140001,-77.066719055,0
			40.024349212,-77.0619430529999,0
			40.0234298710001,-77.057136535,0
			40.0220413210001,-77.0481414789999,0
			40.0197296150001,-77.038536071,0
			40.0192604060002,-77.0331420909999,0
			40.0187911990001,-77.0277404779999,0
			40.0164985660001,-77.0229568489999,0
			40.011039733,-77.0181884779999,0
			39.981040955,-76.9985885619998,0
			39.9373893740001,-76.9682998649999,0
			39.936031341,-76.9683074949999,0
			39.934230804,-76.971916199,0
			39.9319686880001,-76.9731369019999,0
			39.9256286630002,-76.9731826789999,0
			39.9233589170001,-76.9726028439999,0
			39.9210891730001,-76.9708175659999,0
			39.918819427,-76.970840454,0
			39.9160995490001,-76.972045898,0
			39.9106788630001,-76.9763030999999,0
			39.9066200250002,-76.9811172479999,0
			39.9034614570001,-76.9835433969999,0
			39.9007415770001,-76.984764099,0
			39.8807792670001,-76.9801101679998,0
			39.87668991,-76.9783401479999,0
			39.8748703000002,-76.9771499619999,0
			39.8739509590002,-76.9741592399999,0
			39.8734817500002,-76.9705657959999,0
			39.873470307,-76.9675827019999,0
			39.8739089970001,-76.9657669059999,0
			39.8721008300001,-76.9651870719999,0
			39.868011476,-76.9640197749999,0
			39.865280151,-76.962242126,0
			39.8620986940002,-76.9598693849999,0
			39.8607406630002,-76.958679199,0
			39.8584709170001,-76.958099365,0
			39.8566513060001,-76.958106995,0
			39.854400636,-76.960533141,0
			39.852600099,-76.964126587,0
			39.8521499630001,-76.9653396609999,0
			39.8508110050001,-76.971336365,0
			39.849910736,-76.9731369019999,0
			39.8476791380001,-76.981536865,0
			39.84452057,-76.982772828,0
			39.8390922560001,-76.9858016969999,0
			39.8359298700001,-76.988822937,0
			39.8336715690001,-76.9918289179999,0
			39.83277893,-76.995422363,0
			39.8314399720001,-77.0002288809999,0
			39.8001594540001,-76.999839783,0
			39.775218963,-76.9994201659999,0
			39.758899688,-76.9995269779999,0
			39.7502899170001,-76.9996032719999,0
			39.7196807860001,-76.999809264,0
		</coordinates>
	</polygon>
</kml>
