<?xml version="1.0" encoding="UTF-8"?>
<kml xmlns="http://earth.google.com/kml/2.2">
	<polygon id="USA_WY_Lincoln" samplingProbability="1">
		<coordinates>
			42.000480652,-111.046279907,0
			42.0014190680001,-111.046279907,0
			42.010158538,-111.046257018,0
			42.099208833,-111.04673767,0
			42.1400184630001,-111.046501159,0
			42.1701087960001,-111.046333314,0
			42.21100998,-111.046470643,0
			42.2769012450001,-111.046699524,0
			42.293258666,-111.046752929,0
			42.4144783020001,-111.047172546,0
			42.4259910590002,-111.047210693,0
			42.4387207030001,-111.046928407,0
			42.4468994130002,-111.047691345,0
			42.5135917660001,-111.047500611,0
			42.513729095,-111.046920776,0
			42.6119689940001,-111.046829224,0
			42.6515197760001,-111.046546936,0
			42.7056312570001,-111.045906067,0
			42.7351799020001,-111.045455933,0
			42.788921357,-111.044647217,0
			42.8179588310001,-111.044586182,0
			42.8412284860001,-111.044532777,0
			42.847049714,-111.044456481,0
			42.9263000500001,-111.044456481,0
			43.0181999210002,-111.044128418,0
			43.019950866,-111.044136048,0
			43.0518722540001,-111.044281005,0
			43.083660126,-111.044418334,0
			43.141059876,-111.044517516,0
			43.1441993710002,-111.044540405,0
			43.1701393140002,-111.044540405,0
			43.197940827,-111.044540405,0
			43.281661987,-111.043869018,0
			43.3135795600001,-111.043617249,0
			43.3147811890001,-110.971626281,0
			43.3148498550001,-110.927566529,0
			43.292980195,-110.928520203,0
			43.2936897280002,-110.896446228,0
			43.2945022590002,-110.81780243,0
			43.2357101440002,-110.813049317,0
			43.2352905270002,-110.577369691,0
			43.1259803770001,-110.577423096,0
			43.1259689340002,-110.586929322,0
			42.7885398870001,-110.587440491,0
			42.7815017700001,-110.587615966,0
			42.7816505440002,-110.625732422,0
			42.710239411,-110.626136779,0
			42.7104911800001,-110.591201782,0
			42.5373001100001,-110.58908844,0
			42.4486312870001,-110.590759278,0
			42.4482498170001,-110.541007995,0
			42.4144783020001,-110.541534424,0
			42.3650398250001,-110.542312621,0
			42.3236694340001,-110.542655945,0
			42.30550003,-110.542617798,0
			42.2777709960001,-110.542846681,0
			42.2776794440001,-110.524238586,0
			42.2772102370001,-110.47831726,0
			42.2773704540002,-110.445457458,0
			42.2777404790001,-110.426246642,0
			42.2776603700001,-110.405776978,0
			42.2775611880001,-110.386558532,0
			42.276920318,-110.346847534,0
			42.2768516550001,-110.325752258,0
			42.276618957,-110.313339234,0
			42.2753791810002,-110.228340148,0
			42.2752685560001,-110.208496094,0
			42.2750091560002,-110.19732666,0
			42.2747001640002,-110.18863678,0
			42.2736396790001,-110.169998169,0
			42.2708892830001,-110.088676454,0
			42.2705497750001,-110.053329468,0
			42.0070610050001,-110.05391693,0
			42.0072708130001,-110.045646667,0
			41.9997901920001,-110.04548645,0
			41.577491761,-110.047439574,0
			41.578739167,-110.272567748,0
			41.5788612370002,-110.291603088,0
			41.5789718630001,-110.310646058,0
			41.578620911,-110.33027649,0
			41.5787086480001,-110.349937439,0
			41.5788192760002,-110.368972778,0
			41.578918458,-110.388008118,0
			41.5785522460001,-110.407646178,0
			41.578189851,-110.426666259,0
			41.5782814030002,-110.44631195,0
			41.5783996580001,-110.463508606,0
			41.578498841,-110.481925964,0
			41.5785903930001,-110.500976562,0
			41.5786399850002,-110.521247864,0
			41.5791816700001,-110.540298462,0
			41.5792388930001,-110.559951782,0
			41.579319001,-110.578987122,0
			41.5794410700001,-110.61768341,0
			41.5790405280002,-110.637306212,0
			41.579101564,-110.656349182,0
			41.5791320800001,-110.676612854,0
			41.5792007460001,-110.695037842,0
			41.5792007460001,-110.716529847,0
			41.5792503360001,-110.735572815,0
			41.578849792,-110.754592896,0
			41.5788803110001,-110.774238586,0
			41.578899384,-110.793891907,0
			41.578559876,-110.809837342,0
			41.5785789490001,-110.829490663,0
			41.5786018380001,-110.849136353,0
			41.5790901180002,-110.86820984,0
			41.579101564,-110.887863158,0
			41.5791091920001,-110.907508851,0
			41.5791702270001,-110.924713135,0
			41.5791091920001,-110.947425842,0
			41.578670501,-110.966445923,0
			41.578670501,-110.986091614,0
			41.5782318110001,-111.005111695,0
			41.5777702340001,-111.024749755,0
			41.577930451,-111.037040711,0
			41.5781707780001,-111.046310425,0
			41.732570648,-111.046646118,0
			41.8057289130002,-111.046546936,0
			41.8334388740001,-111.04650879,0
			41.8625106820001,-111.046470643,0
			41.9365501410001,-111.046371461,0
			42.000480652,-111.046279907,0
		</coordinates>
	</polygon>
</kml>
