<?xml version="1.0" encoding="UTF-8"?>
<kml xmlns="http://earth.google.com/kml/2.2">
	<polygon id="USA_SD_Faulk" samplingProbability="1">
		<coordinates>
			45.2458992000001,-98.724876404,0
			45.2449111940001,-98.7184295649998,0
			45.1024208070002,-98.7209167489999,0
			44.8964691160001,-98.718620301,0
			44.8975715650001,-99.313217164,0
			44.8986206060001,-99.328659057,0
			44.8982505790001,-99.5728073129998,0
			45.0721893320002,-99.574279785,0
			45.1018600470001,-99.571937562,0
			45.2457504280001,-99.575126649,0
			45.2463798520001,-99.4734573369998,0
			45.2453002940001,-99.451461792,0
			45.246219635,-99.3413619999999,0
			45.246471404,-99.2176666259999,0
			45.2454414360001,-99.205390931,0
			45.2458992000001,-98.724876404,0
		</coordinates>
	</polygon>
</kml>
