<?xml version="1.0" encoding="UTF-8"?>
<kml xmlns="http://earth.google.com/kml/2.2">
	<polygon id="USA_MO_Howell" samplingProbability="1">
		<coordinates>
			36.4982109070001,-91.67249298,0
			36.4984817500001,-91.758026123,0
			36.496910096,-92.031059265,0
			36.4968299870001,-92.1229705819999,0
			36.701911927,-92.117347718,0
			36.791229248,-92.114021302,0
			36.7916297920002,-92.0979232779999,0
			36.921741486,-92.0926208499999,0
			36.9444007880001,-92.0913467399999,0
			37.0278205870002,-92.088012696,0
			37.031002046,-92.0908660899999,0
			37.0595588690001,-92.0895614629999,0
			37.0582199090001,-91.977699279,0
			37.055900575,-91.8710327159999,0
			37.0530090340001,-91.760917664,0
			37.0498504640001,-91.6923294069999,0
			37.0486907970002,-91.6554412839999,0
			37.0368995670001,-91.655570984,0
			36.8872909540001,-91.6572570809999,0
			36.8528404250001,-91.658798218,0
			36.7880096440001,-91.6606674189999,0
			36.7876510620001,-91.6733169559999,0
			36.6067504880001,-91.6787490839999,0
			36.606700898,-91.671867371,0
			36.4982109070001,-91.67249298,0
		</coordinates>
	</polygon>
</kml>
