<?xml version="1.0" encoding="UTF-8"?>
<kml xmlns="http://earth.google.com/kml/2.2">
	<polygon id="USA_NC_Durham" samplingProbability="1">
		<coordinates>
			35.867801667,-78.9076232899999,0
			35.8674087530001,-78.91443634,0
			35.8666687010001,-78.9331665049999,0
			35.8659896840002,-78.958732605,0
			35.864398957,-78.986000061,0
			35.864059449,-78.998489381,0
			35.8632507330001,-79.0109863289999,0
			35.8633003230001,-79.016098023,0
			35.8755302440001,-79.014236451,0
			35.8859519970001,-79.0123977649999,0
			36.2392692560001,-78.9507369999999,0
			36.2360687260002,-78.801902771,0
			36.0927505500002,-78.8058700569999,0
			36.0877609260002,-78.8059463509999,0
			36.0849685680001,-78.798591614,0
			36.0858497620001,-78.7957305919999,0
			36.0853614810001,-78.792320252,0
			36.0771903990001,-78.791893005,0
			36.0757904050001,-78.7879180909999,0
			36.0703201290002,-78.785156249,0
			36.0706596370002,-78.774909974,0
			36.0717697140001,-78.7498474119999,0
			36.053230286,-78.7564163199999,0
			36.0490989690001,-78.751930237,0
			36.0468215950001,-78.750259399,0
			36.0427207960001,-78.7491912839999,0
			36.0395202630001,-78.7469558719999,0
			36.0350189220001,-78.749893189,0
			36.0323104860001,-78.7510681139999,0
			36.030078888,-78.754516601,0
			36.0282707210001,-78.7551193239999,0
			36.025951385,-78.750038146,0
			36.0208702090001,-78.742156982,0
			36.0198898310002,-78.735343933,0
			36.0266685490001,-78.7323913569999,0
			36.0288887030001,-78.727798461,0
			36.033420563,-78.7271575939999,0
			36.0343093870001,-78.726013183,0
			36.0333709720002,-78.7231674189999,0
			36.0283088680002,-78.7164382939999,0
			36.0278205870002,-78.713027954,0
			36.0287017820002,-78.71016693,0
			36.0286788950002,-78.7084732059999,0
			36.022289276,-78.7051620479999,0
			36.0132484440002,-78.707588197,0
			36.0087089540001,-78.7076568599999,0
			36.0091400150001,-78.7048187249999,0
			36.0131492620001,-78.6984863279999,0
			36.0068206790001,-78.700866699,0
			35.9729385380001,-78.7139587399999,0
			35.9409790030001,-78.737228393,0
			35.9306793210002,-78.751037598,0
			35.9176292420001,-78.7609100349999,0
			35.9280700680002,-78.805618286,0
			35.868869782,-78.8298263549999,0
			35.8676300060001,-78.8900222779999,0
			35.867801667,-78.9076232899999,0
		</coordinates>
	</polygon>
</kml>
