<?xml version="1.0" encoding="UTF-8"?>
<kml xmlns="http://earth.google.com/kml/2.2">
	<polygon id="USA_IL_Fulton" samplingProbability="1">
		<coordinates>
			40.71472931,-90.446632385,0
			40.7137298580001,-90.3289871219999,0
			40.7130584720002,-90.216186524,0
			40.7122917180001,-90.1015930169999,0
			40.711421967,-89.986976623,0
			40.6261405940001,-89.9894332879999,0
			40.6247215270002,-89.8737411499999,0
			40.5802688590001,-89.874732971,0
			40.579830169,-89.8698806759999,0
			40.5131607050001,-89.8713531499999,0
			40.5113296510002,-89.874969482,0
			40.5090599050001,-89.8779830929998,0
			40.5058708180001,-89.880378723,0
			40.4863586440002,-89.885116577,0
			40.4786491400002,-89.886276244,0
			40.4750099190001,-89.88746643,0
			40.4636421220002,-89.8976821889999,0
			40.4590988160002,-89.901885986,0
			40.4531898500001,-89.9036560059999,0
			40.44865036,-89.905448913,0
			40.4422798160001,-89.9114532469999,0
			40.4381790160001,-89.918678283,0
			40.4363517760001,-89.923500061,0
			40.4340591430002,-89.931343079,0
			40.4317703260001,-89.937362671,0
			40.4304008490002,-89.939765931,0
			40.4276618960001,-89.9457931509999,0
			40.423099517,-89.9524078359998,0
			40.41217041,-89.9662170399999,0
			40.399421692,-89.9788131709999,0
			40.397602082,-89.981216431,0
			40.3930511470001,-89.9854125969999,0
			40.3916587840002,-89.992042541,0
			40.3838920600001,-90.0070800779999,0
			40.3816185010002,-90.0082702629999,0
			40.3797988900002,-90.0112762439999,0
			40.3779602050002,-90.0148773199999,0
			40.3779487610001,-90.0185012829999,0
			40.3779220580001,-90.025138854,0
			40.3769912720001,-90.030563355,0
			40.3746986390001,-90.0371932989999,0
			40.3692321780002,-90.0431671139999,0
			40.3646812440001,-90.046157836,0
			40.3564987190001,-90.0497207629999,0
			40.3528709410001,-90.0509033209999,0
			40.3519592280001,-90.051490784,0
			40.349239349,-90.0526809689999,0
			40.3451499940002,-90.052642823,0
			40.338809967,-90.0513916019999,0
			40.3324584970002,-90.051948548,0
			40.3274688730002,-90.053718568,0
			40.3233718870001,-90.0573043809999,0
			40.3201713560001,-90.062103271,0
			40.315608978,-90.0686874389999,0
			40.3115196230002,-90.069869995,0
			40.306991576,-90.0686264039999,0
			40.301101685,-90.067977906,0
			40.2924690260002,-90.0715332029999,0
			40.2742500300001,-90.0876464849999,0
			40.266052246,-90.097229004,0
			40.2637596130002,-90.101432801,0
			40.261470796,-90.1056289679999,0
			40.2582893370002,-90.1086196909999,0
			40.2546501160001,-90.1109924319999,0
			40.2419204720002,-90.116912842,0
			40.2328300480002,-90.1210479729999,0
			40.2278289790002,-90.1252212529999,0
			40.2246284490002,-90.1299972529999,0
			40.2209014900001,-90.150451661,0
			40.2172203070001,-90.160049438,0
			40.2135620110001,-90.1654357909999,0
			40.2094612130001,-90.170211792,0
			40.2053604140002,-90.1731872559999,0
			40.1971702580001,-90.1773223879999,0
			40.1953506470002,-90.18031311,0
			40.1935005180001,-90.1851119999999,0
			40.1916503910001,-90.191719055,0
			40.188911438,-90.1958999629999,0
			40.1852607720001,-90.199478148,0
			40.1825294490002,-90.201255799,0
			40.1838111890002,-90.216918945,0
			40.1867218030001,-90.2614898689999,0
			40.188049317,-90.337936401,0
			40.1899719230001,-90.4511260979999,0
			40.2770385750002,-90.4504775999998,0
			40.3641090400001,-90.449829102,0
			40.4520988460001,-90.448593139,0
			40.540550233,-90.4479370109999,0
			40.6285400390001,-90.4472961429998,0
			40.71472931,-90.446632385,0
		</coordinates>
	</polygon>
</kml>
