<?xml version="1.0" encoding="UTF-8"?>
<kml xmlns="http://earth.google.com/kml/2.2">
	<polygon id="USA_NY_Jefferson" samplingProbability="1">
		<coordinates>
			44.1346231520001,-75.5216808229999,0
			44.1055221550001,-75.5474014279999,0
			44.0822906490001,-75.5015487669999,0
			44.0777397160001,-75.491996764,0
			44.0764629720001,-75.489320151,0
			44.0760534090001,-75.488461644,0
			44.0741000000002,-75.4843679999999,0
			44.0696836110001,-75.48822261,0
			44.0672924180002,-75.4903097409999,0
			44.0668110000001,-75.49073,0
			44.063385,-75.4937749999999,0
			44.053501494,-75.5025575029999,0
			44.0517692120001,-75.5040968969999,0
			44.0472221380001,-75.495185851,0
			44.0376510620001,-75.504722595,0
			44.0116806030001,-75.5040817249999,0
			44.0098495490001,-75.553039552,0
			43.9683990300001,-75.5485460039999,0
			43.9678303750001,-75.5536145199999,0
			43.9651910110002,-75.5771409069999,0
			43.9656258960002,-75.5774883989999,0
			43.9673727060001,-75.5788841739999,0
			43.9683799740002,-75.579689026,0
			43.96654892,-75.596839904,0
			43.973369598,-75.608276368,0
			43.9172515880002,-75.6920089719999,0
			43.9049952180002,-75.7137733899999,0
			43.8850854730002,-75.749128394,0
			43.8797912600001,-75.7585296629999,0
			43.8837013260001,-75.8404083249999,0
			43.7939605710002,-75.851997376,0
			43.7918848500001,-75.833934609,0
			43.790355,-75.8206249999999,0
			43.786819,-75.789856,0
			43.7867921050002,-75.7898517579999,0
			43.7736045350001,-75.7877720039999,0
			43.7208290110001,-75.7794494639999,0
			43.6907810160002,-75.776161238,0
			43.6973366330002,-75.8755352879999,0
			43.7026970000001,-75.9567909999999,0
			43.7073058950001,-76.026649047,0
			43.7073209990001,-76.0268779999999,0
			43.6864620000001,-76.026021,0
			43.6690790000001,-76.025307001,0
			43.6713140000001,-76.0569379999999,0
			43.6772190000002,-76.140526,0
			43.6800991060001,-76.201301568,0
			43.6905708310001,-76.2007827749999,0
			43.6987653110001,-76.2022855629999,0
			43.7036414350001,-76.2031797959999,0
			43.7051315310001,-76.203453065,0
			43.714679839,-76.2054519659999,0
			43.7149660060002,-76.205453881,0
			43.7156570420001,-76.205458503,0
			43.7169609070001,-76.2054672239999,0
			43.7246894840002,-76.2074584949999,0
			43.7390833220001,-76.2110815109999,0
			43.7401341400002,-76.211346008,0
			43.7587890620001,-76.2160415649999,0
			43.7760620120001,-76.221290588,0
			43.7914405610001,-76.2270927879999,0
			43.7919580000001,-76.227288,0
			43.7933310000001,-76.2278059999999,0
			43.7942410000001,-76.227943,0
			43.796328787,-76.228258376,0
			43.79788208,-76.2284927359999,0
			43.7990920770001,-76.228658615,0
			43.7998836940001,-76.228767138,0
			43.8028907790001,-76.229179383,0
			43.8069686900001,-76.233032226,0
			43.8081074330001,-76.234962302,0
			43.8081448630002,-76.2350257429999,0
			43.8092193610001,-76.236846924,0
			43.8103252610001,-76.237893968,0
			43.8105810010001,-76.2381359999999,0
			43.8119510000001,-76.237518,0
			43.811969994,-76.23751118,0
			43.8153707910001,-76.236289896,0
			43.818790436,-76.235061646,0
			43.819407983,-76.234896416,0
			43.8200439300002,-76.2347262629999,0
			43.8210716260001,-76.234451295,0
			43.8223464410001,-76.235349277,0
			43.822539222,-76.2354850719999,0
			43.822891236,-76.235733032,0
			43.822263493,-76.237157063,0
			43.8217811190001,-76.238251324,0
			43.8214988710002,-76.2388916009999,0
			43.8198244460001,-76.2405340569999,0
			43.8197465650002,-76.240610451,0
			43.8183021540001,-76.242027282,0
			43.8169212340001,-76.245178223,0
			43.816902161,-76.2483520509999,0
			43.8170920790001,-76.2484209679999,0
			43.8186837610002,-76.2489984809999,0
			43.8187100000001,-76.2490079999999,0
			43.8219110000001,-76.2477719999999,0
			43.8240540000002,-76.2482929999999,0
			43.8242622540001,-76.248343647,0
			43.8246421810001,-76.2484359749999,0
			43.825531005,-76.2509765619999,0
			43.8256357940001,-76.252046516,0
			43.8256669590001,-76.252364727,0
			43.8264007580001,-76.2598571779999,0
			43.826045068,-76.2648259719999,0
			43.8259710180001,-76.265860415,0
			43.825901032,-76.266838073,0
			43.8259092760002,-76.266885819,0
			43.8259370060002,-76.267046411,0
			43.8263399840001,-76.269378907,0
			43.826459226,-76.2694911359999,0
			43.8276712760001,-76.2706311049999,0
			43.8277020000002,-76.2706599999999,0
			43.8324226780001,-76.2686978299999,0
			43.8336296090001,-76.2681961059999,0
			43.836368871,-76.2669530589999,0
			43.838180543,-76.2701492299999,0
			43.8404006970001,-76.278419495,0
			43.8394508370002,-76.285392762,0
			43.8390187300002,-76.286763669,0
			43.8386207940001,-76.288026159,0
			43.8380584720002,-76.2898101809999,0
			43.8380393990001,-76.2942504869999,0
			43.8382924110001,-76.2947293509999,0
			43.8384080000001,-76.2949479999999,0
			43.83939,-76.2968059999999,0
			43.840524935,-76.296817499,0
			43.84166,-76.296828999,0
			43.8416729500001,-76.2968263069999,0
			43.844073569,-76.2963272749999,0
			43.8463076570001,-76.2958627429999,0
			43.8503189090002,-76.2950286859999,0
			43.853038789,-76.297599792,0
			43.8534293700001,-76.2978216689999,0
			43.8553088730001,-76.2988889279999,0
			43.8589706420001,-76.2964019779999,0
			43.864002228,-76.2920227049999,0
			43.869510651,-76.2851028439999,0
			43.8786888130001,-76.2725067129999,0
			43.881469726,-76.265556335,0
			43.881485743,-76.262228986,0
			43.8814931470001,-76.2606908329999,0
			43.8815002450002,-76.259216308,0
			43.8815422070001,-76.2522430409999,0
			43.883411407,-76.2446365349999,0
			43.8857193000001,-76.2376861569999,0
			43.8875694270002,-76.2326278689999,0
			43.8885002130001,-76.228828429,0
			43.8894309760001,-76.2256621969999,0
			43.888530732,-76.2243881229999,0
			43.8870096600001,-76.2249014829999,0
			43.8867000000001,-76.2250059999999,0
			43.8863417900001,-76.2257426659999,0
			43.8860808160002,-76.226279775,0
			43.8857803350001,-76.226898193,0
			43.885229709,-76.2284061319999,0
			43.8849548100001,-76.2291589659999,0
			43.8848609930001,-76.2294158939999,0
			43.8834991460001,-76.2275085449999,0
			43.8825723260002,-76.2261890039999,0
			43.8823171430001,-76.2258256929999,0
			43.8821488240001,-76.2255860529999,0
			43.878040001,-76.2268070009999,0
			43.8770167320002,-76.227864358,0
			43.8762092440002,-76.2286987479999,0
			43.8735882770001,-76.2319319279999,0
			43.8718640960002,-76.234058849,0
			43.8716201790002,-76.2343597409999,0
			43.8693504330001,-76.234336852,0
			43.8666114800001,-76.2349395749999,0
			43.8638801570002,-76.234275817,0
			43.863269173,-76.231068584,0
			43.8628897380001,-76.2290768219999,0
			43.8625488290001,-76.2272872919999,0
			43.863157739,-76.222068064,0
			43.8635100000001,-76.219048,0
			43.8630789990001,-76.2146000009999,0
			43.8630702970001,-76.2145816,0
			43.8621243110002,-76.2125813189999,0
			43.8617729140001,-76.211838493,0
			43.8612709050001,-76.210777283,0
			43.8593464370002,-76.21037116,0
			43.8590260910001,-76.210303557,0
			43.858089448,-76.210105896,0
			43.8562246880001,-76.209216671,0
			43.8560434950001,-76.209130267,0
			43.855369772,-76.2088089969999,0
			43.8541125440001,-76.2087878899999,0
			43.8540047510002,-76.2087860839999,0
			43.8537193670002,-76.2079961729999,0
			43.853340502,-76.2069302139999,0
			43.853099824,-76.2062530509999,0
			43.8532336170001,-76.2059765829999,0
			43.853391351,-76.2056506429999,0
			43.8540191650001,-76.2043533319999,0
			43.8552424470001,-76.203689788,0
			43.855323583,-76.203645778,0
			43.8563117970001,-76.2031097409998,0
			43.8595009280001,-76.2025070129999,0
			43.8621644070001,-76.2037691809999,0
			43.8622210000001,-76.2037959989999,0
			43.8636643360001,-76.2038205989999,0
			43.8640400740001,-76.203826899,0
			43.865052,-76.2024409999999,0
			43.8653512460001,-76.202031249,0
			43.8663406370001,-76.200675965,0
			43.8686409000001,-76.1968917849999,0
			43.871765322,-76.191332562,0
			43.8740308870002,-76.187301486,0
			43.8809821880002,-76.174932658,0
			43.881049999,-76.1748119989999,0
			43.8810693890001,-76.1747683139999,0
			43.8857313170001,-76.1642650679998,0
			43.8873507330002,-76.160616482,0
			43.8875008950002,-76.1602781639999,0
			43.8888700010001,-76.159027,0
			43.8902510010002,-76.1571269999999,0
			43.8898010010001,-76.1539459989999,0
			43.8895453320001,-76.1522877849999,0
			43.8890479270001,-76.149062196,0
			43.8889198300001,-76.1482315069999,0
			43.8921585090001,-76.1387481679999,0
			43.8972015380002,-76.1318130499999,0
			43.8986049480001,-76.1310097059999,0
			43.9000002740001,-76.1302109879999,0
			43.9026794430002,-76.128677368,0
			43.9051969330001,-76.1278970279999,0
			43.9067953300001,-76.1274015769999,0
			43.9086112980001,-76.1268386849999,0
			43.9163513180001,-76.127540588,0
			43.9318084720001,-76.1327667229999,0
			43.9333473520001,-76.1330866329999,0
			43.934210122,-76.1332659909999,0
			43.9350011860001,-76.133430442,0
			43.934997057,-76.1341323049999,0
			43.93499176,-76.1350326809999,0
			43.9349901320001,-76.1353383739999,0
			43.9350409420002,-76.13548222,0
			43.9354032220002,-76.1365076569999,0
			43.935890199,-76.1378860469999,0
			43.9362998260001,-76.1381345729999,0
			43.9390720000001,-76.1398159999999,0
			43.9408078250001,-76.139350979,0
			43.94134903,-76.139205932,0
			43.9417043580002,-76.1392099139999,0
			43.9427110000001,-76.139221,0
			43.9468499990002,-76.132895999,0
			43.947647568,-76.1317964679999,0
			43.949588776,-76.129119874,0
			43.9496014510001,-76.1272724449999,0
			43.9496020000001,-76.127191,0
			43.949619,-76.124672001,0
			43.948906873,-76.1241701059999,0
			43.9477996820002,-76.1233901979999,0
			43.9480159780001,-76.121388607,0
			43.9480558990001,-76.1210191759999,0
			43.9482803340001,-76.11894226,0
			43.951938629,-76.114532471,0
			43.9541320640001,-76.112313763,0
			43.9570790320002,-76.109332839,0
			43.9674987800001,-76.0987930299999,0
			43.9743690490002,-76.089950561,0
			43.975749969,-76.087432861,0
			43.9757630510001,-76.087344155,0
			43.9758332210002,-76.086868373,0
			43.976218794,-76.0842523969999,0
			43.9762167870001,-76.084218069,0
			43.9759359650001,-76.0800386059999,0
			43.9757919310001,-76.0778961189999,0
			43.975341797,-76.0759811389999,0
			43.9730720510001,-76.075317383,0
			43.970329285,-76.0772094719999,0
			43.9688790470001,-76.0771973529999,0
			43.9682890190002,-76.077192423,0
			43.967590332,-76.0771865849999,0
			43.9662400280002,-76.074630924,0
			43.9664180880002,-76.0741400099998,0
			43.9666682430002,-76.0734506539999,0
			43.9671592230001,-76.0720979129999,0
			43.9703521740001,-76.0708465579999,0
			43.9721908570001,-76.0664215089999,0
			43.97449886,-76.0613631429999,0
			43.9745674140001,-76.061315844,0
			43.9750301380001,-76.0609965909999,0
			43.9772300730001,-76.0594787609999,0
			43.9797238580001,-76.05949803,0
			43.9823414650001,-76.0595182549999,0
			43.9890785210001,-76.0595703129999,0
			43.9922183280001,-76.0606115129999,0
			43.994598388,-76.061400771,0
			43.994991042,-76.061530981,0
			43.996161484,-76.0609943259999,0
			43.99767273,-76.0603011449999,0
			43.9990997310001,-76.0596466059999,0
			44.0023117060002,-76.0552368169999,0
			44.002990692,-76.0524425329999,0
			44.003697915,-76.049530589,0
			44.0037015070001,-76.0494965509999,0
			44.0038808560001,-76.0464663019998,0
			44.0041885370001,-76.0412597649999,0
			44.003770999,-76.039327874,0
			44.0033553240002,-76.0374046009999,0
			44.002399445,-76.0329818719999,0
			44.0020980660001,-76.030612225,0
			44.0019357250001,-76.0293357909999,0
			44.001510621,-76.0259933469999,0
			44.0019989430001,-76.020271244,0
			44.0038299570001,-76.017738342,0
			44.0057388450001,-76.0208849189999,0
			44.0061408270001,-76.0215475389999,0
			44.0065422070002,-76.022209167,0
			44.0083122250001,-76.035575866,0
			44.0082702630002,-76.0457458499999,0
			44.0079100060001,-76.0473419049999,0
			44.0073945810001,-76.049625404,0
			44.0064086910001,-76.053993226,0
			44.0041198730001,-76.0584259039999,0
			44.0009117130001,-76.0622177119999,0
			43.998168968,-76.0647430209999,0
			43.998017711,-76.0647405,0
			43.997262113,-76.0647280179999,0
			43.9972484780001,-76.06724151,0
			43.9972420000001,-76.0685419999999,0
			43.9972466120001,-76.068561695,0
			43.9980120390001,-76.071829624,0
			43.999031067,-76.076179504,0
			44.0003890910002,-76.0787429649999,0
			44.0006318710002,-76.0786478439999,0
			44.003582001,-76.0774917599999,0
			44.0081405640001,-76.0756225599999,0
			44.0094076,-76.0749299129999,0
			44.0097740340001,-76.074729595,0
			44.0104292780002,-76.074371395,0
			44.0107128490001,-76.0747733329999,0
			44.0107618040001,-76.0748427399999,0
			44.0117797850001,-76.0762863159999,0
			44.0115724090002,-76.0767669189999,0
			44.0115401400001,-76.0768417039999,0
			44.0104103080002,-76.0794601449999,0
			44.0058403020001,-76.081329345,0
			44.0031013480001,-76.0825729379998,0
			44.0030898320001,-76.0854520599999,0
			44.0030807230001,-76.087729494,0
			44.0030708340001,-76.0902022029999,0
			44.0017013160001,-76.0908279069999,0
			43.9992397750001,-76.088650789,0
			43.9991655750002,-76.0885851629999,0
			43.9980697630001,-76.087615967,0
			43.9979973260001,-76.087574818,0
			43.9976204360001,-76.0873607199999,0
			43.9958000010001,-76.0863269999999,0
			43.9940432590002,-76.0871242369999,0
			43.9930610650001,-76.08757019,0
			43.9907722480002,-76.0894622809999,0
			43.9715003970002,-76.120429992,0
			43.9681853860001,-76.128877104,0
			43.9656890000001,-76.135239,0
			43.9650420910001,-76.1368867689999,0
			43.9645280260002,-76.1406954239999,0
			43.9641050820001,-76.14382934,0
			43.9641000000001,-76.1438669999999,0
			43.9640902020001,-76.143970512,0
			43.9639760250002,-76.1451768589999,0
			43.9636192330001,-76.1489486689999,0
			43.9632143420001,-76.1498696849999,0
			43.9622379030001,-76.152091291,0
			43.9622310000001,-76.1521069999999,0
			43.9599420000001,-76.155899,0
			43.9585500000001,-76.1603319999999,0
			43.958553549,-76.1603455209999,0
			43.959228268,-76.162915297,0
			43.9598884580001,-76.165428161,0
			43.9607810940001,-76.1698760789999,0
			43.9627334210001,-76.171535988,0
			43.9630510010001,-76.1718060009999,0
			43.965723068,-76.1734463299999,0
			43.9661128060002,-76.1736855189999,0
			43.9662208550001,-76.1737518309999,0
			43.9673980360001,-76.1737616709999,0
			43.9685920270001,-76.173771653,0
			43.9698715210002,-76.173782349,0
			43.9714600920001,-76.1745421969999,0
			43.97242929,-76.175005786,0
			43.9725990290001,-76.175086976,0
			43.973499299,-76.177642823,0
			43.9728370270001,-76.180920074,0
			43.9727520000001,-76.181341,0
			43.9720920000001,-76.1846079999999,0
			43.9702190000001,-76.1941219999999,0
			43.9702164770001,-76.1941356289999,0
			43.9696892270001,-76.196984694,0
			43.9692802430001,-76.1991958629999,0
			43.9706420900001,-76.2004775999999,0
			43.9717836210002,-76.200171664,0
			43.9723970690001,-76.2000072549999,0
			43.97291912,-76.19986734,0
			43.973344224,-76.2010722049999,0
			43.9737938590002,-76.202347168,0
			43.9742700010001,-76.203697,0
			43.9765320010001,-76.207527,0
			43.9787602920002,-76.2081787999999,0
			43.9788017270001,-76.208190917,0
			43.9833602910002,-76.2075958239999,0
			43.988380127,-76.205108794,0
			43.992931431,-76.197722707,0
			43.9934158450001,-76.1969365589999,0
			43.9934387810001,-76.1968993359999,0
			44.0014833540002,-76.186448457,0
			44.001689912,-76.186180113,0
			44.0017264510001,-76.1860702569999,0
			44.0021564960001,-76.1847772949999,0
			44.0040092480001,-76.179206849,0
			44.0063514710002,-76.1665191639999,0
			44.0096092230001,-76.152557373,0
			44.0124534420002,-76.146476085,0
			44.0133971910001,-76.1444582359999,0
			44.013751985,-76.1436996449999,0
			44.0139850650001,-76.1430601189999,0
			44.01453028,-76.1415641579999,0
			44.0165214540001,-76.1361007689999,0
			44.0220222470001,-76.129158021,0
			44.023630503,-76.127491069,0
			44.0238944280001,-76.127217511,0
			44.0256808260002,-76.125366091,0
			44.030701,-76.1235119999999,0
			44.0331912330001,-76.1220611749999,0
			44.0338557520001,-76.1216739989999,0
			44.0339088440001,-76.1216430659999,0
			44.0357284550001,-76.1203765869999,0
			44.0374856320001,-76.120393382,0
			44.0383027820002,-76.120401192,0
			44.0389209990001,-76.1204069999999,0
			44.0389316780002,-76.120392282,0
			44.0422990360001,-76.115751385,0
			44.0425597970001,-76.1153919569999,0
			44.0425910740001,-76.1153488459999,0
			44.0429694500001,-76.114566989,0
			44.04513461,-76.110092923,0
			44.0453491210001,-76.1096496589999,0
			44.048080444,-76.1103057849999,0
			44.0471419250001,-76.1153871069999,0
			44.047122644,-76.115413726,0
			44.0425605770001,-76.1217117319999,0
			44.0402469500001,-76.1248949759998,0
			44.040087242,-76.1251147139999,0
			44.0398101810001,-76.1254959119999,0
			44.039799492,-76.1275054489999,0
			44.0397876720001,-76.1297276149999,0
			44.0397796640002,-76.1312332159999,0
			44.0397605910001,-76.1363067629999,0
			44.0387829200001,-76.1389926709999,0
			44.0385818720002,-76.139545001,0
			44.0383720410001,-76.14012146,0
			44.036791572,-76.142961868,0
			44.035132,-76.145945,0
			44.0323910000001,-76.1508709999999,0
			44.0323720000001,-76.1559599999999,0
			44.0328460000001,-76.1586799999999,0
			44.0329370040001,-76.1592025019999,0
			44.0332603460001,-76.161056518,0
			44.0341491710001,-76.1648788449999,0
			44.0364189150002,-76.1655426029999,0
			44.0379120260002,-76.1645098689999,0
			44.0382500000001,-76.164276,0
			44.038407035,-76.1640076149999,0
			44.0400886540002,-76.1611328119999,0
			44.0418713130001,-76.15822724,0
			44.0440523350001,-76.154672374,0
			44.0451393130002,-76.152900696,0
			44.0483512880001,-76.149124146,0
			44.0520019520002,-76.1472473139999,0
			44.0526374670001,-76.1468100659999,0
			44.0535636720001,-76.146172816,0
			44.0547409060001,-76.1453628529999,0
			44.055647698,-76.1438620599999,0
			44.0566331890001,-76.142231016,0
			44.0570411680002,-76.1415557869999,0
			44.0607109080001,-76.1365203859999,0
			44.0616302200001,-76.1352463169999,0
			44.0617000610001,-76.135346855,0
			44.061861098,-76.1355788559999,0
			44.0625305180002,-76.136543274,0
			44.062217156,-76.137406644,0
			44.0619831210001,-76.1380514529999,0
			44.0616111750001,-76.1390762329999,0
			44.0606803890001,-76.142883301,0
			44.0606703170002,-76.145112791,0
			44.0606690010001,-76.1454160009999,0
			44.060909221,-76.1459311399999,0
			44.0615690000002,-76.147346,0
			44.061786999,-76.147145326,0
			44.064311999,-76.144821,0
			44.0675200000002,-76.1416699989999,0
			44.0692132890001,-76.139927698,0
			44.0693511970001,-76.139785766,0
			44.070709229,-76.1404266359999,0
			44.0702514650001,-76.142326355,0
			44.0667244960001,-76.1524193599999,0
			44.0654169960001,-76.156160987,0
			44.0647087100001,-76.1581878659999,0
			44.0639376460001,-76.1602977009999,0
			44.0635481400002,-76.1613634909999,0
			44.0633201600002,-76.1619873039999,0
			44.0642204290001,-76.1645507819999,0
			44.0653293380001,-76.1671695619999,0
			44.06552787,-76.167638412,0
			44.0655708310001,-76.1677398689999,0
			44.0660095210002,-76.1709289559998,0
			44.0650787350001,-76.1747360219999,0
			44.0646012570002,-76.175558235,0
			44.0640071070001,-76.176581356,0
			44.063240051,-76.1779022219999,0
			44.0614013680002,-76.180427551,0
			44.0613784790002,-76.184242249,0
			44.061790466,-76.192520142,0
			44.0608711250001,-76.1956863409999,0
			44.0585708620001,-76.1988372809999,0
			44.0585171050002,-76.1989361819999,0
			44.0584270000001,-76.1991019999999,0
			44.0571900000001,-76.201378,0
			44.0576290000002,-76.203926,0
			44.0594520120002,-76.205223038,0
			44.059879304,-76.20905304,0
			44.0611934620001,-76.2104360749999,0
			44.0616990000001,-76.2109679989999,0
			44.0617657580001,-76.210959411,0
			44.0639324160002,-76.210680426,0
			44.066261293,-76.2103805539999,0
			44.0713005070001,-76.205352784,0
			44.0731407030001,-76.2033163009999,0
			44.0731990950001,-76.2032516799999,0
			44.073589326,-76.2028198249999,0
			44.07542038,-76.2002868639999,0
			44.0768012990001,-76.199043273,0
			44.0777230510002,-76.198726361,0
			44.078179402,-76.1985694609999,0
			44.0786209120001,-76.198417664,0
			44.0789700180001,-76.1987491199999,0
			44.0796348020002,-76.1993802929999,0
			44.0799789430001,-76.1997070319999,0
			44.0799789430001,-76.2009811389999,0
			44.0795097360001,-76.2035217279999,0
			44.0762637900002,-76.20757671,0
			44.0751406890002,-76.2089797389999,0
			44.0744590770001,-76.209831239,0
			44.0742889520002,-76.210064189,0
			44.07395,-76.210529,0
			44.07354,-76.2110899999999,0
			44.073873,-76.2115579999999,0
			44.074122785,-76.2119097739999,0
			44.074451447,-76.2123718249999,0
			44.0739822400002,-76.2149124139999,0
			44.0712394710002,-76.216156005,0
			44.0686842860001,-76.220829954,0
			44.0684984530001,-76.2211698799999,0
			44.068470001,-76.2212219249999,0
			44.0680007940002,-76.2256698609999,0
			44.0688896180002,-76.2294998179999,0
			44.067031861,-76.2352066029999,0
			44.0657984430001,-76.2369036229999,0
			44.0654312560002,-76.2374088229999,0
			44.0642814650002,-76.238990783,0
			44.06427002,-76.2408980979999,0
			44.0651588440001,-76.244728089,0
			44.064881594,-76.2452351899999,0
			44.0645592380002,-76.2458247929999,0
			44.061008454,-76.2523193349999,0
			44.0550384520001,-76.261787414,0
			44.0541000250001,-76.2668838799999,0
			44.0540953950001,-76.2668943609999,0
			44.0540322600001,-76.2670372799998,0
			44.0527113520001,-76.2700268359999,0
			44.0520463580001,-76.2684550379999,0
			44.0517452990002,-76.2677434449999,0
			44.0513687130001,-76.266853333,0
			44.0509185790002,-76.264297486,0
			44.0496203160001,-76.264268311,0
			44.0495609990001,-76.264267001,0
			44.049338158,-76.2644832919999,0
			44.0417710000001,-76.271827999,0
			44.0415476200001,-76.271963464,0
			44.035860605,-76.2754122649999,0
			44.0294303900001,-76.2793121339999,0
			44.0234909060002,-76.2811584459999,0
			44.0217500200002,-76.283543144,0
			44.0213982010001,-76.284025072,0
			44.0211907730002,-76.2843092099999,0
			44.0206368990002,-76.2844950739999,0
			44.0202501000001,-76.2846248729999,0
			44.0193710330001,-76.2849197399999,0
			44.0193901060001,-76.2817459109999,0
			44.0180607010002,-76.2817292399999,0
			44.0178829940002,-76.281727012,0
			44.0157394110001,-76.281700069,0
			44.0139694220002,-76.2778701769999,0
			44.014629364,-76.276527404,0
			44.0148283210001,-76.2760663299999,0
			44.014861803,-76.275988736,0
			44.01486969,-76.2759704579999,0
			44.0194816580001,-76.2664718629999,0
			44.021888785,-76.2566422689999,0
			44.0225604130002,-76.2538996489999,0
			44.0241394040002,-76.247451782,0
			44.026854475,-76.239020239,0
			44.028411153,-76.2341860389999,0
			44.029239655,-76.2316131589999,0
			44.0311088560001,-76.223999023,0
			44.030754932,-76.2229952389999,0
			44.0304938370001,-76.2222547329999,0
			44.0297584530001,-76.2201690679999,0
			44.0288810740001,-76.2150726319999,0
			44.028469051,-76.206161395,0
			44.0275688170001,-76.2036132819999,0
			44.0258312650001,-76.2039956399998,0
			44.0251030000001,-76.204156,0
			44.0248300000001,-76.204216,0
			44.0193410000002,-76.2098769999999,0
			44.0138210000001,-76.220001,0
			44.0099040410001,-76.2237122179999,0
			44.0078620170001,-76.225646984,0
			44.007732361,-76.2256687079999,0
			44.0062922350001,-76.225909985,0
			44.0042190560001,-76.226257324,0
			44.0001220710001,-76.2255783089999,0
			43.9972094880001,-76.224528802,0
			43.9970990000002,-76.2244889999999,0
			43.9947583120001,-76.2236457769999,0
			43.9946592680001,-76.2236100969999,0
			43.9919884550002,-76.226552442,0
			43.9900782200001,-76.228658664,0
			43.9879680000001,-76.231821,0
			43.9864277450001,-76.234128499,0
			43.985031129,-76.236221313,0
			43.978160859,-76.2425003049999,0
			43.9712791450002,-76.2513198849999,0
			43.970329285,-76.257026673,0
			43.9675521850002,-76.2652587889999,0
			43.9669412740001,-76.2667229549999,0
			43.963872024,-76.2740801749999,0
			43.9638600000001,-76.2741089999999,0
			43.9615290000002,-76.2829819999999,0
			43.961674585,-76.2837181899999,0
			43.96241,-76.2874369989999,0
			43.9670004120001,-76.282031468,0
			43.9685649240002,-76.2801890069999,0
			43.9688301100001,-76.2798767089999,0
			43.9724539110002,-76.277706783,0
			43.9765531230001,-76.275252181,0
			43.9802589430001,-76.273033143,0
			43.9805429590002,-76.273134364,0
			43.9810766160002,-76.2733245559999,0
			43.9820788920001,-76.2736819619998,0
			43.9838905900001,-76.275596567,0
			43.987609307,-76.272195712,0
			43.9876558930002,-76.2721531079999,0
			43.9893798830001,-76.270576478,0
			43.9934997560001,-76.2702102659999,0
			43.9953192540002,-76.2700441869999,0
			43.996604559,-76.2699268679999,0
			43.9972610470002,-76.2698669439999,0
			44.0003204350002,-76.2713470459999,0
			44.0034904490001,-76.2745590219999,0
			44.007608894,-76.2793507059999,0
			44.0081380900001,-76.2799664089999,0
			44.0084609990001,-76.280342103,0
			44.012519837,-76.288658142,0
			44.0115700090001,-76.294372945,0
			44.0115733280002,-76.294413198,0
			44.011583,-76.29453,0
			44.0119931230001,-76.2994653969999,0
			44.0126640910001,-76.3004096109999,0
			44.0129012170001,-76.300742977,0
			44.0129302820001,-76.300739939,0
			44.0155511860001,-76.3004659189999,0
			44.0183715810002,-76.300170899,0
			44.0233689810001,-76.3008729969999,0
			44.026847046,-76.3057912649999,0
			44.026989,-76.305991999,0
			44.0283510000001,-76.3066479999999,0
			44.0301819660001,-76.3047560349999,0
			44.0329399110001,-76.300338745,0
			44.0342898180002,-76.300567287,0
			44.0361271030002,-76.300878344,0
			44.037040868,-76.301032977,0
			44.0375999000001,-76.300881407,0
			44.038442264,-76.3006530169999,0
			44.0415992750002,-76.2997970569999,0
			44.043449402,-76.2966461189999,0
			44.044818878,-76.295387268,0
			44.0458758830002,-76.2952171759999,0
			44.0465740680001,-76.2951048249998,0
			44.0484695440001,-76.2947998049999,0
			44.0502818520001,-76.295463946,0
			44.0516400000001,-76.297379001,0
			44.0520900000002,-76.29866,0
			44.054358999,-76.2986829999999,0
			44.0568584870001,-76.2964024809999,0
			44.0571025500001,-76.29617977,0
			44.0584552520002,-76.296184338,0
			44.0594832920001,-76.296192929,0
			44.0598487910001,-76.2961959949999,0
			44.0607039630002,-76.2980222949999,0
			44.0611132330001,-76.2988963299999,0
			44.0616493220001,-76.300041198,0
			44.0602302550002,-76.307022095,0
			44.0605263400001,-76.311517205,0
			44.0606500000002,-76.3133930009999,0
			44.0608657720001,-76.314144331,0
			44.0623174900001,-76.3191987239999,0
			44.0637702940001,-76.3242568979999,0
			44.0646514900002,-76.3306274419999,0
			44.065219933,-76.3314367519999,0
			44.0654070000002,-76.3317029999999,0
			44.066002,-76.3325499999999,0
			44.0687409990001,-76.331947,0
			44.0724219990001,-76.326271,0
			44.07748,-76.3174209989999,0
			44.077486386,-76.3174078859999,0
			44.0793301040002,-76.313622074,0
			44.0811499840001,-76.314918989,0
			44.081147609,-76.3149346719999,0
			44.0811321690002,-76.3150366279999,0
			44.0806694030001,-76.3180923469999,0
			44.0773284140001,-76.325986496,0
			44.0761320250002,-76.3288133469999,0
			44.0755805970002,-76.330116273,0
			44.0747830600002,-76.3315299179999,0
			44.0726784780001,-76.3352603169999,0
			44.0723611000002,-76.3358231899999,0
			44.072467977,-76.3360255439999,0
			44.0737113950001,-76.3383789069999,0
			44.0741500850002,-76.341560364,0
			44.0737065880001,-76.3429669859999,0
			44.0728265640001,-76.345758126,0
			44.0727500940002,-76.346000702,0
			44.072869271,-76.3474481489999,0
			44.0731700000001,-76.351097,0
			44.073132,-76.3580929999999,0
			44.0740319240001,-76.3600158369999,0
			44.0776786800001,-76.3587875359999,0
			44.0813598630002,-76.3543777469999,0
			44.082460502,-76.3525294839999,0
			44.0851194180001,-76.3480644649998,0
			44.0854988090002,-76.3474273689999,0
			44.0891418450001,-76.3481063829999,0
			44.0923309320001,-76.34815216,0
			44.0929215420001,-76.3492766529999,0
			44.0933663210001,-76.3501234939999,0
			44.093681335,-76.350723266,0
			44.0918312080001,-76.3551483159999,0
			44.090829382,-76.357874598,0
			44.0899700000002,-76.3602139989999,0
			44.090435307,-76.360091196,0
			44.091054844,-76.3599275059998,0
			44.0922508230001,-76.3596115119999,0
			44.0939072770001,-76.3593035179999,0
			44.0946328860002,-76.359168602,0
			44.0954513560002,-76.3590164189999,0
			44.0986404430002,-76.3584213259999,0
			44.0998620450002,-76.3588669419998,0
			44.1016269080001,-76.3595107289999,0
			44.102279663,-76.3597488679999,0
			44.1022605900001,-76.362930298,0
			44.1008605960001,-76.367362976,0
			44.1009986930001,-76.3683668769999,0
			44.101119312,-76.3692437229999,0
			44.1012992870001,-76.3705520629999,0
			44.1026000800002,-76.372405981,0
			44.1032282670002,-76.3722620729999,0
			44.1042989790001,-76.372016738,0
			44.1049308770002,-76.371871949,0
			44.106179968,-76.370773521,0
			44.1077030000001,-76.369434,0
			44.1113510000002,-76.366226,0
			44.1122630000002,-76.3648479999999,0
			44.1133912120001,-76.3631439069999,0
			44.115951539,-76.3592758189999,0
			44.1255989080001,-76.347312926,0
			44.1278991710001,-76.3428726199999,0
			44.1283578010002,-76.342064738,0
			44.1311254800001,-76.337188963,0
			44.133409,-76.332657,0
			44.133568837,-76.3323397159999,0
			44.1352806100002,-76.3289413449999,0
			44.138080598,-76.3187866219999,0
			44.1431617740002,-76.3073806769999,0
			44.1505010990002,-76.299186875,0
			44.1516484190001,-76.2977392399999,0
			44.1555833440001,-76.29277426,0
			44.1560096740001,-76.2922363279999,0
			44.1560372270001,-76.29220602,0
			44.1563660650002,-76.2918442979999,0
			44.1582984930002,-76.289718627,0
			44.1587061580001,-76.289299991,0
			44.159058733,-76.2889379269999,0
			44.1601409920001,-76.2878265379999,0
			44.1611099250001,-76.277008057,0
			44.161409805,-76.2739069579999,0
			44.161601133,-76.2719279819999,0
			44.1636813480001,-76.2665240979999,0
			44.1657599990001,-76.2611310009999,0
			44.166251253,-76.260456488,0
			44.16806,-76.2579729999999,0
			44.172199,-76.2509989999999,0
			44.1725305210002,-76.247492178,0
			44.172679902,-76.2459106439999,0
			44.1781692430001,-76.2427825969999,0
			44.178305,-76.242558,0
			44.1798020700001,-76.240082889,0
			44.1827697750001,-76.2351760859999,0
			44.1832691110002,-76.2344891109999,0
			44.1845030390001,-76.232791499,0
			44.1882794310001,-76.2275955339999,0
			44.188301,-76.2244029999999,0
			44.193359,-76.214897,0
			44.1933714530001,-76.2148685019999,0
			44.195628684,-76.209702127,0
			44.1961289070002,-76.208557102,0
			44.1987621160002,-76.2073601869999,0
			44.2000642110002,-76.2067683259999,0
			44.200241089,-76.206687927,0
			44.2043300870001,-76.208007697,0
			44.204337583,-76.2079821129999,0
			44.2057512090001,-76.2031574179999,0
			44.2060738760001,-76.2020558539999,0
			44.206192017,-76.201652528,0
			44.2062029720001,-76.2015707689999,0
			44.2062893800002,-76.2009258699999,0
			44.207127687,-76.1946662629999,0
			44.2071299990002,-76.1946489999999,0
			44.2094419160001,-76.1902081609999,0
			44.2087301980002,-76.189341425,0
			44.2076072960002,-76.1879739449999,0
			44.2062721260002,-76.1863479609999,0
			44.2065698750002,-76.1857102789999,0
			44.208095536,-76.1824428109999,0
			44.2104187010002,-76.1774673469999,0
			44.2168388360001,-76.167961121,0
			44.2193537450001,-76.1606186209999,0
			44.220539,-76.157158,0
			44.2233390000001,-76.145073,0
			44.2247390000001,-76.138702,0
			44.2247438620001,-76.137700826,0
			44.2247695930001,-76.132316589,0
			44.2252388000001,-76.1285018929999,0
			44.2280006420002,-76.1221466069999,0
			44.2325897220001,-76.11580658,0
			44.236240087,-76.11457072,0
			44.2376289100001,-76.1101072889999,0
			44.2362899780002,-76.103729247,0
			44.2349586480001,-76.095428468,0
			44.2359009380001,-76.0903320279999,0
			44.2359881270002,-76.0903255889999,0
			44.2366623230001,-76.090275795,0
			44.2436485300001,-76.0897598269999,0
			44.243659991,-76.0871961609999,0
			44.244123719,-76.083424946,0
			44.244129,-76.083382,0
			44.2436440000001,-76.0805779999999,0
			44.2433244080001,-76.078728767,0
			44.2428016660002,-76.0757064809999,0
			44.2469406120001,-76.0668182369999,0
			44.251079559,-76.0572814949999,0
			44.2552299500002,-76.0471115109999,0
			44.257991792,-76.038841249,0
			44.258115838,-76.0383349769999,0
			44.2583172520002,-76.0375129459999,0
			44.2584609990001,-76.0369262689999,0
			44.2591340650001,-76.037309748,0
			44.259801102,-76.0376897909999,0
			44.261170179,-76.03846982,0
			44.263,-76.0395119999999,0
			44.26404552,-76.0373486999999,0
			44.2646349510002,-76.036128537,0
			44.2666816720002,-76.0318908679999,0
			44.2671971330001,-76.0304642619999,0
			44.2675982490001,-76.0293541199999,0
			44.2685203560001,-76.0268020619999,0
			44.2686243720001,-76.0265196099999,0
			44.268733689,-76.026222764,0
			44.268989563,-76.025527955,0
			44.2680816650001,-76.0242462149999,0
			44.2644648280001,-76.0214834189999,0
			44.262976994,-76.0203469049999,0
			44.2621690230001,-76.0197297189999,0
			44.2626498440002,-76.0139770279999,0
			44.2735147770001,-76.0134676239999,0
			44.2740400000001,-76.0134429989999,0
			44.2746973340001,-76.0129893869999,0
			44.2761371750001,-76.0119954619999,0
			44.2776985180001,-76.010917663,0
			44.2807166850001,-76.007570288,0
			44.282279999,-76.005836,0
			44.2859609990001,-75.998207,0
			44.2899073250001,-75.9945695509999,0
			44.2941890000001,-75.990623,0
			44.294212883,-75.9906009139999,0
			44.3018990240001,-75.983492656,0
			44.3024215690001,-75.9830093379999,0
			44.3042716980002,-75.9766387939999,0
			44.3046353250001,-75.975504159,0
			44.305017302,-75.9743122639999,0
			44.306110382,-75.97090149,0
			44.3101736320002,-75.969376228,0
			44.310533567,-75.9692411159999,0
			44.3111305250002,-75.9690170289999,0
			44.3134307870001,-75.965843201,0
			44.3157310480001,-75.9581985469999,0
			44.3276597540001,-75.9372023139999,0
			44.3290372320001,-75.935895042,0
			44.3318167150001,-75.93325722,0
			44.336341859,-75.928962707,0
			44.3383418330001,-75.9270544929999,0
			44.3410500000001,-75.9244699999999,0
			44.3436580000001,-75.921982,0
			44.3491590000002,-75.913696,0
			44.3601680000001,-75.89077,0
			44.3635458790001,-75.8835483719999,0
			44.3654316790002,-75.8795161629999,0
			44.3661308290001,-75.8780212399999,0
			44.3669203280002,-75.875612157,0
			44.3669810000002,-75.8754269999999,0
			44.3684309190002,-75.8710022479999,0
			44.3657658220002,-75.8717891929999,0
			44.3646137120001,-75.8721293849999,0
			44.3620491030001,-75.872886657,0
			44.3584022520002,-75.872230529,0
			44.357349283,-75.8713365679999,0
			44.3571451650002,-75.8711632729999,0
			44.3561286930001,-75.870300293,0
			44.3543989830002,-75.8684654209999,0
			44.3543151220001,-75.8683764619998,0
			44.3545269890001,-75.867991445,0
			44.35531474,-75.8666227279999,0
			44.3561401360001,-75.865188599,0
			44.3596094510002,-75.863266685,0
			44.3606796940002,-75.862673698,0
			44.3606988850001,-75.8626630639999,0
			44.3607133420001,-75.862646946,0
			44.3608750000002,-75.8624659999999,0
			44.3629910000001,-75.860107,0
			44.36483,-75.8543699999999,0
			44.365248686,-75.852630678,0
			44.3662109380001,-75.8486328129999,0
			44.3675919230002,-75.845436063,0
			44.3676421170001,-75.8454100209999,0
			44.3680818240001,-75.8451818889999,0
			44.3712387670001,-75.843544121,0
			44.3719862430002,-75.8450189719999,0
			44.3725412490001,-75.8461140599999,0
			44.3735081900001,-75.848021941,0
			44.3776089990002,-75.8467559999999,0
			44.3776223940001,-75.846749852,0
			44.380351992,-75.845497097,0
			44.380215026,-75.846376907,0
			44.378959927,-75.8544396919999,0
			44.3787547010001,-75.8563950229999,0
			44.3786528160001,-75.8573674859999,0
			44.3784941440001,-75.858918078,0
			44.3825089240001,-75.8599615519999,0
			44.3835105890001,-75.860221864,0
			44.3853416450001,-75.857673645,0
			44.3889290050001,-75.850625231,0
			44.3919584610001,-75.844672983,0
			44.3931296820001,-75.842371589,0
			44.3407390000002,-75.722705,0
			44.3191490000001,-75.673393,0
			44.2900510000002,-75.6062699999999,0
			44.2766150000001,-75.5758689999999,0
			44.2618290000001,-75.542412,0
			44.256697,-75.5302369999999,0
			44.255909,-75.5283659999999,0
			44.2491890000002,-75.5133199999999,0
			44.2194401000001,-75.4467162239999,0
			44.158852995,-75.5002655339999,0
			44.1346231520001,-75.5216808229999,0
		</coordinates>
	</polygon>
</kml>
