<?xml version="1.0" encoding="UTF-8"?>
<kml xmlns="http://earth.google.com/kml/2.2">
	<polygon id="USA_ND_Mercer" samplingProbability="1">
		<coordinates>
			47.0124816900001,-102.144332885,0
			47.3276290900002,-102.144226075,0
			47.3291587820001,-102.207756042,0
			47.4827690130001,-102.203742982,0
			47.567401886,-102.203269959,0
			47.573379516,-102.203430175,0
			47.5720405580001,-102.200042726,0
			47.570281983,-102.193946838,0
			47.568050384,-102.18786621,0
			47.5667305000001,-102.183135986,0
			47.5655212410001,-102.169006347,0
			47.564731598,-102.15825653,0
			47.5662803660001,-102.144218445,0
			47.5692520150001,-102.126182557,0
			47.5742111200001,-102.094779968,0
			47.5753021240002,-102.088516235,0
			47.574138642,-102.054466247,0
			47.574138642,-102.053466797,0
			47.5741920470001,-102.037712097,0
			47.572891236,-102.029457092,0
			47.5688896180002,-102.024322509,0
			47.5605812070001,-102.017936707,0
			47.5538101190001,-102.022552491,0
			47.551090242,-102.023796082,0
			47.5483093270001,-102.025756836,0
			47.544589997,-102.029022217,0
			47.5404319770001,-102.030929566,0
			47.537239075,-102.028182983,0
			47.5345420840001,-102.022750855,0
			47.533210754,-102.018028259,0
			47.5342216490001,-102.010002136,0
			47.537059784,-102.002693176,0
			47.5380592340001,-101.996017455,0
			47.5381088260002,-101.990646361,0
			47.5381507880001,-101.986633301,0
			47.538211823,-101.981269837,0
			47.5373497010001,-101.975891112,0
			47.5364990230001,-101.969161987,0
			47.5351905820001,-101.962432862,0
			47.5338592520001,-101.958381652,0
			47.5330009470002,-101.951652527,0
			47.5321311960001,-101.947616577,0
			47.5307998660001,-101.942886353,0
			47.529911042,-101.93952179,0
			47.529048919,-101.934143066,0
			47.5277099610001,-101.930091858,0
			47.5240898140001,-101.924636841,0
			47.5204620370001,-101.919197083,0
			47.5177497870001,-101.915122985,0
			47.5154609670002,-101.913726807,0
			47.5141220100002,-101.909683227,0
			47.511871339,-101.904953003,0
			47.5087089540001,-101.899520874,0
			47.503761292,-101.888687133,0
			47.5033416750001,-101.884658814,0
			47.5034484870002,-101.873283387,0
			47.5035209650001,-101.866577148,0
			47.503582001,-101.859878541,0
			47.502269744,-101.852478027,0
			47.5009498600001,-101.847091674,0
			47.5005416880001,-101.84172058,0
			47.4992103580001,-101.8363266,0
			47.496990204,-101.828918458,0
			47.4956588740002,-101.823532105,0
			47.4952507030001,-101.817497253,0
			47.4976310740001,-101.809501648,0
			47.4995307930002,-101.803512572,0
			47.5027999890002,-101.797546387,0
			47.5051498420002,-101.792228698,0
			47.508441926,-101.784927369,0
			47.5136108400002,-101.772293092,0
			47.5164413460001,-101.764312745,0
			47.5197105410001,-101.758338928,0
			47.5248298640001,-101.75240326,0
			47.5276489260001,-101.745758056,0
			47.5304908760001,-101.737098695,0
			47.5338706970001,-101.717720032,0
			47.5343818660002,-101.712371826,0
			47.535331726,-101.70903778,0
			47.5363006590002,-101.703018188,0
			47.5372810370001,-101.69632721,0
			47.5373497010001,-101.688285828,0
			47.5360603330002,-101.678207398,0
			47.533390045,-101.667427063,0
			47.5320396420001,-101.664047242,0
			47.5307197570001,-101.657333375,0
			47.5298500070001,-101.650611877,0
			47.527622222,-101.64251709,0
			47.525859832,-101.633110047,0
			47.527870179,-101.611701964,0
			47.5298500070001,-101.594306946,0
			47.5336685180001,-101.57559967,0
			47.5407218940002,-101.556266784,0
			47.5426101690002,-101.548927307,0
			47.5450286880002,-101.533546447,0
			47.5502090460001,-101.517539979,0
			47.5511894240001,-101.508842469,0
			47.5521621700001,-101.502151488,0
			47.5550117500002,-101.489456176,0
			47.5569114690001,-101.481437683,0
			47.559291839,-101.470069885,0
			47.5625915530002,-101.458045959,0
			47.5636405950001,-101.439956666,0
			47.5632095350002,-101.435256958,0
			47.5618591310002,-101.429870606,0
			47.5586700440002,-101.425132752,0
			47.5431709280001,-101.404800414,0
			47.5367889410001,-101.39665985,0
			47.5308685300001,-101.387191773,0
			47.5272293090001,-101.381111144,0
			47.5249404910001,-101.379066468,0
			47.5217399590002,-101.375679017,0
			47.5199089060001,-101.374977111,0
			47.5171394360001,-101.376289368,0
			47.5139007570001,-101.380256654,0
			47.5111122130001,-101.384246826,0
			47.505069733,-101.393547059,0
			47.502269744,-101.399536132,0
			47.4980812080001,-101.408203126,0
			47.4952888490001,-101.413513184,0
			47.4934196470001,-101.417510987,0
			47.4878311150001,-101.428146363,0
			47.4822616590001,-101.436096191,0
			47.4771804810001,-101.440048218,0
			47.4711914060001,-101.441307067,0
			47.4665908820001,-101.441238404,0
			47.4629097000002,-101.441177368,0
			47.4601593010001,-101.439796449,0
			47.458789826,-101.439117432,0
			47.4565086370002,-101.436408997,0
			47.451961517,-101.428977967,0
			47.4473991400001,-101.422889709,0
			47.4410018930002,-101.417442321,0
			47.4240608220001,-101.407829286,0
			47.417171479,-101.405715942,0
			47.4102821360001,-101.405632018,0
			47.402488709,-101.402175903,0
			47.3983612050001,-101.400779723,0
			47.394241332,-101.3980484,0
			47.392871858,-101.396690369,0
			47.3901214590001,-101.394653321,0
			47.3882904060001,-101.393287659,0
			47.3869209290002,-101.391258239,0
			47.3832702630001,-101.388526916,0
			47.3809890760001,-101.384490967,0
			47.3782615660002,-101.381111144,0
			47.3755302430001,-101.377059936,0
			47.3737220760001,-101.371017456,0
			47.3709907530002,-101.36630249,0
			47.3668785100002,-101.362907411,0
			47.3535499580001,-101.362731933,0
			47.3434410090001,-101.361930847,0
			47.33380127,-101.360466004,0
			47.3278312680001,-101.36038971,0
			47.3227806090001,-101.358306885,0
			47.3191184990001,-101.356925965,0
			47.3149909980001,-101.354866029,0
			47.314540863,-101.35420227,0
			47.3108787530001,-101.351478577,0
			47.3099594120001,-101.350799561,0
			47.3072090160001,-101.349426269,0
			47.3040008560001,-101.348716736,0
			47.299411773,-101.347991944,0
			47.2952804570002,-101.345932008,0
			47.2916221610002,-101.344551086,0
			47.288890838,-101.33983612,0
			47.2889404300001,-101.331832885,0
			47.2889900200001,-101.323806763,0
			47.2886390690001,-101.305107117,0
			47.2882194520001,-101.29776001,0
			47.2868690480001,-101.293739319,0
			47.2841300970001,-101.289703368,0
			47.2790985110001,-101.285629272,0
			47.2736206050002,-101.279556275,0
			47.2722702040001,-101.273529053,0
			47.2704696650001,-101.26750183,0
			47.2682304380002,-101.256797791,0
			47.2420387270001,-101.257156373,0
			47.242019654,-101.763671875,0
			46.982070923,-101.763320924,0
			46.9808998110001,-102.096992492,0
			46.982181548,-102.144226075,0
			47.0124816900001,-102.144332885,0
		</coordinates>
	</polygon>
</kml>
