<?xml version="1.0" encoding="UTF-8"?>
<kml xmlns="http://earth.google.com/kml/2.2">
	<polygon id="USA_NY_Chemung" samplingProbability="1">
		<coordinates>
			42.280311585,-76.9653701779999,0
			42.288501741,-76.9649200439999,0
			42.291461945,-76.9023361209999,0
			42.2943191530002,-76.8472061159999,0
			42.2945289610001,-76.7820892339999,0
			42.2954292300001,-76.736206054,0
			42.2491188050002,-76.7322769169999,0
			42.2495498660001,-76.6870498659999,0
			42.2386589050002,-76.685630799,0
			42.2385406500001,-76.647827148,0
			42.2363319390002,-76.640975952,0
			42.2505989070001,-76.619506836,0
			42.254692079,-76.61958313,0
			42.2824020400001,-76.6194076539999,0
			42.2817115780002,-76.5381698619999,0
			42.2503700260001,-76.5376968379999,0
			42.1568107600002,-76.534446717,0
			42.1557006830002,-76.559806823,0
			42.1506996160001,-76.55973053,0
			42.131221771,-76.5538711549999,0
			42.1311798090001,-76.559432983,0
			42.1239204410001,-76.5580902099999,0
			42.0885200500002,-76.553840636,0
			42.0536308300001,-76.544036865,0
			42.0153198250001,-76.563240052,0
			42.0121116640001,-76.5675125119999,0
			42.0009193420001,-76.561843871,0
			42.0013122560001,-76.5963821419999,0
			42.0017204280001,-76.633438111,0
			42.0018806450001,-76.6476364139999,0
			42.0026092540001,-76.89655304,0
			42.0024719250001,-76.909523011,0
			42.0024108900001,-76.9291076659999,0
			42.002311708,-76.9651031499999,0
			42.1208496100001,-76.9657363899999,0
			42.280311585,-76.9653701779999,0
		</coordinates>
	</polygon>
</kml>
