<?xml version="1.0" encoding="UTF-8"?>
<kml xmlns="http://earth.google.com/kml/2.2">
	<polygon id="USA_NY_Saint_Lawrence" samplingProbability="1">
		<coordinates>
			44.9803920000002,-74.724792,0
			44.9663589870001,-74.7219849679999,0
			44.9542312620001,-74.7195587159999,0
			44.9540290830001,-74.6873168949999,0
			44.9540451020001,-74.6836359359999,0
			44.9540890010001,-74.6736000009999,0
			44.95422,-74.6434859999999,0
			44.9234620000001,-74.6390589999999,0
			44.7285690000002,-74.611008,0
			44.5655590000002,-74.5868609999998,0
			44.3752020000001,-74.5574569999998,0
			44.2757110000001,-74.5416109999999,0
			44.1693991000002,-74.5252610149999,0
			44.1688418120001,-74.5304653669999,0
			44.1677037700001,-74.5410934029999,0
			44.1676900420002,-74.541221595,0
			44.1503601080001,-74.5395507809998,0
			44.1322133670001,-74.537380932,0
			44.1206125750001,-74.5359937239999,0
			44.1077360930001,-74.5344539439999,0
			44.097911836,-74.5332794189999,0
			44.0796508800001,-74.7384872429999,0
			44.0688819880001,-74.8556900019999,0
			44.0497016920001,-75.0664367679998,0
			44.0750486790001,-75.123591398,0
			44.0840054900002,-75.143788172,0
			44.0941760000002,-75.1667229999999,0
			44.0941827510001,-75.166737043,0
			44.0942360000002,-75.16686,0
			44.1388970000001,-75.2698149999999,0
			44.1546680000001,-75.3061709999999,0
			44.1569224660001,-75.31136732,0
			44.1573410030002,-75.3123321529999,0
			44.186580658,-75.374076843,0
			44.1885679430002,-75.3784303969999,0
			44.1891150000001,-75.379629,0
			44.1897810000001,-75.3810879999999,0
			44.194037,-75.390505,0
			44.219413758,-75.4466579319999,0
			44.2194401000001,-75.4467162239999,0
			44.2491890000002,-75.5133199999999,0
			44.255909,-75.5283659999999,0
			44.256697,-75.5302369999999,0
			44.2618290000001,-75.542412,0
			44.2766150000001,-75.5758689999999,0
			44.2900510000002,-75.6062699999999,0
			44.3191490000001,-75.673393,0
			44.3407390000002,-75.722705,0
			44.3931296820001,-75.842371589,0
			44.393833663,-75.84088087,0
			44.3940059910001,-75.8405160439999,0
			44.3940392040001,-75.8404457299999,0
			44.4011074800001,-75.831064875,0
			44.4025702350001,-75.8291233989999,0
			44.4030308220001,-75.8285120749999,0
			44.404109954,-75.8270797729999,0
			44.4082298270001,-75.8168563839999,0
			44.4060884900001,-75.8151784679999,0
			44.4057330000001,-75.8149000009999,0
			44.40499693,-75.814323342,0
			44.4041401450002,-75.8136521139999,0
			44.4036733230001,-75.8135671499999,0
			44.4032523420001,-75.8134905599998,0
			44.401556934,-75.8131823039999,0
			44.4004898070001,-75.8129882809999,0
			44.3982201040001,-75.81041713,0
			44.4023284910002,-75.8059692389999,0
			44.4091911320002,-75.7996139539999,0
			44.4302101150001,-75.7779464709999,0
			44.4416313170001,-75.766479491,0
			44.446659088,-75.761383057,0
			44.4503097540001,-75.7594833379999,0
			44.4512165260002,-75.7615616759999,0
			44.4516413160001,-75.7625353019999,0
			44.4522541010001,-75.7639398159999,0
			44.4539413450001,-75.7678070059999,0
			44.4535736510001,-75.7688292249999,0
			44.4535130000001,-75.7689979999999,0
			44.4531370000001,-75.7700439999999,0
			44.4530220460002,-75.770362873,0
			44.4584884650001,-75.772941589,0
			44.4593324930001,-75.774528269,0
			44.459786889,-75.7753824829999,0
			44.4603788840001,-75.7764953669999,0
			44.4612199960001,-75.778075991,0
			44.4612433360001,-75.778492007,0
			44.4616497880001,-75.7857374119999,0
			44.4616509990001,-75.785759,0
			44.4616486380002,-75.785773779,0
			44.4610453340002,-75.789550509,0
			44.4607320000002,-75.791512,0
			44.462539908,-75.7960127699998,0
			44.4653966320001,-75.794693058,0
			44.4657278920002,-75.7945399959999,0
			44.4666471,-75.794115265,0
			44.470321655,-75.7845230089999,0
			44.4753417970001,-75.7813415529999,0
			44.4847501090002,-75.7778645669999,0
			44.4890290000001,-75.7762829999999,0
			44.4897950170001,-75.7758759479999,0
			44.495148165,-75.7730313549999,0
			44.497839292,-75.771601226,0
			44.4984223610001,-75.7712913699999,0
			44.4986190800001,-75.771186829,0
			44.5031890870001,-75.7673568719999,0
			44.503269985,-75.767256614,0
			44.503284851,-75.767238188,0
			44.5073013300001,-75.762260436,0
			44.5132293700001,-75.7622833249999,0
			44.5173416220002,-75.7584533529999,0
			44.5224212050001,-75.7472515339999,0
			44.5260389990001,-75.739273001,0
			44.527187504,-75.736544113,0
			44.5306205750001,-75.728385926,0
			44.5327087980002,-75.7274207249999,0
			44.5341663240001,-75.726747039,0
			44.5372899700001,-75.7253032519999,0
			44.5402004930002,-75.723957857,0
			44.5402108600001,-75.7239530639999,0
			44.5403138670001,-75.723857095,0
			44.5441468180001,-75.7202835319999,0
			44.5443184800001,-75.720123486,0
			44.5465690000001,-75.716169,0
			44.5466280000001,-75.7160649999999,0
			44.5472703790002,-75.71493629,0
			44.5479698180001,-75.7137069709999,0
			44.5530090340001,-75.7086029039999,0
			44.554004788,-75.70796883,0
			44.5580247800002,-75.705408688,0
			44.5603830350001,-75.701692158,0
			44.5609729000001,-75.700761443,0
			44.561345957,-75.7001728149999,0
			44.56167984,-75.6996459969999,0
			44.5622328460001,-75.6981027969999,0
			44.5626198970001,-75.6970227039999,0
			44.5630031120001,-75.695953314,0
			44.5644302370001,-75.6919708249999,0
			44.5708312990001,-75.68045044,0
			44.5808791260002,-75.668296917,0
			44.588642103,-75.6631927609999,0
			44.588768665,-75.6628974769999,0
			44.591388702,-75.6567840579999,0
			44.597320558,-75.6503829959999,0
			44.6101188650002,-75.6298828129999,0
			44.6233596810001,-75.608093262,0
			44.6244985980001,-75.606361895,0
			44.6265551410002,-75.6032355689999,0
			44.629223454,-75.5991792389999,0
			44.639801026,-75.583099365,0
			44.64263334,-75.5795041809999,0
			44.6456325340001,-75.5756971699999,0
			44.6456760200001,-75.5756419709999,0
			44.6539497390002,-75.565139771,0
			44.6554381500001,-75.5625983639999,0
			44.6576514540001,-75.5588192279999,0
			44.6581879580001,-75.55790317,0
			44.6603390000001,-75.554230001,0
			44.6674537470001,-75.5449793869999,0
			44.6781751870001,-75.5310393409999,0
			44.6785999990001,-75.5304869989999,0
			44.6859120550001,-75.5179587169999,0
			44.6890907280001,-75.5125122079999,0
			44.6945686350001,-75.5067367549999,0
			44.6960146530002,-75.5051117979999,0
			44.6964181550002,-75.5046583639999,0
			44.696597952,-75.5044563179999,0
			44.6968498240001,-75.504173279,0
			44.7002380100001,-75.5012542749999,0
			44.700925324,-75.5006621379999,0
			44.7009939880002,-75.5006029819999,0
			44.7050590520001,-75.497100831,0
			44.7050630690001,-75.4970875069999,0
			44.7128105170001,-75.4713973989999,0
			44.7132711570002,-75.47010607,0
			44.7137724350001,-75.46870082,0
			44.7139201680001,-75.4682866759999,0
			44.7150993350001,-75.4649810779999,0
			44.72467041,-75.455329896,0
			44.733791351,-75.441825866,0
			44.7483711240001,-75.408401489,0
			44.752667241,-75.400312847,0
			44.7541117120001,-75.397593226,0
			44.7601945340001,-75.386140611,0
			44.7620391840002,-75.3826675409999,0
			44.762629562,-75.381833436,0
			44.7632540000001,-75.3809509999999,0
			44.7633780000001,-75.380776,0
			44.7675090000001,-75.374939,0
			44.768028879,-75.373928652,0
			44.769099999,-75.3718469999999,0
			44.770028212,-75.3700440329999,0
			44.7703498470001,-75.3694189669999,0
			44.7711486810001,-75.3678665149999,0
			44.7743415830001,-75.3607864379999,0
			44.7751319030002,-75.359479924,0
			44.775668662,-75.3585925849999,0
			44.7765257560001,-75.3571756809999,0
			44.777069091,-75.3562774669999,0
			44.784370423,-75.353691101,0
			44.7930412290002,-75.3504562369999,0
			44.7936237600001,-75.34963026,0
			44.794232686,-75.348766858,0
			44.7948757130001,-75.3478551039999,0
			44.797130586,-75.3446578969999,0
			44.8003196730002,-75.3369293199999,0
			44.8089997240001,-75.3159828679999,0
			44.8118909310001,-75.3090058899999,0
			44.8123056580001,-75.308005081,0
			44.8125991830001,-75.3072967539999,0
			44.8136212480001,-75.3056987639999,0
			44.814246256,-75.3047215689999,0
			44.8162057540002,-75.3016579089999,0
			44.8212509160002,-75.293769836,0
			44.823532105,-75.292472839,0
			44.827178956,-75.2918167109999,0
			44.8317413330001,-75.2930908209999,0
			44.8319027940001,-75.2930139119999,0
			44.8344799990001,-75.2917859999999,0
			44.8376690050001,-75.28857399,0
			44.8410023640002,-75.2822714959999,0
			44.8432760250001,-75.2779719769999,0
			44.8433217620001,-75.2778854869999,0
			44.8458595270001,-75.273086548,0
			44.8471646010001,-75.266244124,0
			44.8472099070001,-75.2660065009999,0
			44.8471809000001,-75.2658136659999,0
			44.8469321020002,-75.264159658,0
			44.8464911730002,-75.2612286789999,0
			44.8453712460002,-75.2537841789999,0
			44.8467292800001,-75.2473373419999,0
			44.8504454580001,-75.240084361,0
			44.8504808860002,-75.2400152139999,0
			44.852913916,-75.2352665879999,0
			44.8540000910001,-75.233146667,0
			44.8648910320002,-75.203498899,0
			44.8700067570001,-75.187570137,0
			44.8721390000002,-75.180931,0
			44.8739510310001,-75.1776958889999,0
			44.874025439,-75.177432102,0
			44.8745679890002,-75.1755081039998,0
			44.874587853,-75.175437663,0
			44.8748588560002,-75.1744766229999,0
			44.8766708380002,-75.1699600209999,0
			44.8764387760002,-75.16529671,0
			44.8763035080001,-75.1625784529999,0
			44.8762190060001,-75.1608803589999,0
			44.876190186,-75.1603012089999,0
			44.8766731210001,-75.1584722749999,0
			44.8769222890001,-75.1575286459999,0
			44.8773676570001,-75.155841988,0
			44.877552032,-75.1551437369999,0
			44.88481903,-75.144805908,0
			44.8889007560001,-75.1338272099999,0
			44.8925399790002,-75.127372741,0
			44.895709992,-75.1202697749999,0
			44.8961486810002,-75.1138229379999,0
			44.896598968,-75.1099470469999,0
			44.8973232710002,-75.109225771,0
			44.901122616,-75.105442303,0
			44.901142,-75.105423,0
			44.9016923020001,-75.1050735039999,0
			44.9052390000001,-75.1028209999999,0
			44.9063230000001,-75.1008399999999,0
			44.9071697940001,-75.09929333,0
			44.9084205630002,-75.097007752,0
			44.9087135560002,-75.090258261,0
			44.9088400000002,-75.0873409989999,0
			44.9101444120001,-75.07403821,0
			44.9106100000001,-75.0692899999999,0
			44.9106391240002,-75.0684403509999,0
			44.9108375470001,-75.0626515529999,0
			44.9110298160002,-75.057037354,0
			44.9114608760001,-75.0486679079999,0
			44.9119124860002,-75.0476549109999,0
			44.91248619,-75.046368044,0
			44.9141681460001,-75.0425952819999,0
			44.9143737750002,-75.0421340099999,0
			44.9146298440001,-75.041559591,0
			44.9147087900001,-75.041163652,0
			44.9149634810001,-75.039876626,0
			44.9153214460001,-75.038067726,0
			44.916419068,-75.0325207119999,0
			44.9164188140002,-75.032146542,0
			44.9164105180002,-75.0295208009999,0
			44.916399834,-75.0261392129999,0
			44.9163894660001,-75.0228576659999,0
			44.9227294920001,-75.0099258419999,0
			44.9263310030001,-75.0054333899999,0
			44.9263687240001,-75.005386342,0
			44.927106424,-75.0046420799999,0
			44.9303087820001,-75.0014112439999,0
			44.9304547760001,-75.0012639509999,0
			44.934089661,-74.997596742,0
			44.9400215140001,-74.9956207269999,0
			44.9449175310002,-74.9917948999999,0
			44.945029999,-74.9917069999999,0
			44.9459305870001,-74.9895560959999,0
			44.947738648,-74.9852371219999,0
			44.9509010310002,-74.9755477909999,0
			44.953628539,-74.9735870369999,0
			44.956294849,-74.9685185569999,0
			44.9577085570001,-74.9658307459999,0
			44.9581662050002,-74.962511927,0
			44.9585990000002,-74.959366,0
			44.9585224420001,-74.9582563889999,0
			44.9584453000001,-74.9571382889999,0
			44.9582571220001,-74.954412647,0
			44.9581984050001,-74.9535621699999,0
			44.9581108090002,-74.952293396,0
			44.9553909300001,-74.955528258,0
			44.9540290830001,-74.9587631219999,0
			44.953726975,-74.9586941169999,0
			44.9536190750002,-74.9586694719999,0
			44.9535729010001,-74.958658925,0
			44.9512901300001,-74.9581375129999,0
			44.9494400100002,-74.9530029449999,0
			44.9494478480001,-74.9529622499999,0
			44.9495183850001,-74.9525962,0
			44.9516792300001,-74.9413833629999,0
			44.9527284130002,-74.9386211039999,0
			44.953377143,-74.936913148,0
			44.9540336310002,-74.935184766,0
			44.954380035,-74.934272767,0
			44.9584389360001,-74.9206771849999,0
			44.9602316180001,-74.9206662879999,0
			44.9617249430001,-74.9206572099999,0
			44.9623962780001,-74.9206531289999,0
			44.963459015,-74.9206466679999,0
			44.9679908750002,-74.914161682,0
			44.9686837510001,-74.9119186379999,0
			44.9697909990001,-74.9083330009999,0
			44.9692739430001,-74.905105007,0
			44.9688606260001,-74.9025268549999,0
			44.9706396410002,-74.900303086,0
			44.972492,-74.8979869989999,0
			44.972729297,-74.89325009,0
			44.9728434660001,-74.890968812,0
			44.9728924770002,-74.889989497,0
			44.972911835,-74.8896027039999,0
			44.9710693360001,-74.8863983159999,0
			44.969219207,-74.879966735,0
			44.9692110370001,-74.8784120779999,0
			44.969209972,-74.878209473,0
			44.9692068920002,-74.8776235769999,0
			44.9691886910002,-74.874160767,0
			44.9728088380001,-74.868316651,0
			44.9773406980001,-74.861831665,0
			44.9778330050001,-74.8601795169999,0
			44.9782754760002,-74.8586946139999,0
			44.9785609780002,-74.857736486,0
			44.9786910510002,-74.857299975,0
			44.981430054,-74.8559875489998,0
			44.9825873010001,-74.8566240359999,0
			44.9828320570002,-74.8567586519999,0
			44.983227979,-74.856976409,0
			44.9837188720001,-74.8572463999999,0
			44.985118867,-74.863693226,0
			44.9801292410002,-74.8721160889999,0
			44.9819792320002,-74.875327826,0
			44.9836325930002,-74.8741386419999,0
			44.9836460000001,-74.8741289989999,0
			44.9841573420001,-74.873761265,0
			44.9854825440001,-74.872807936,0
			44.9874305730002,-74.871406556,0
			44.9891047730001,-74.8702061859999,0
			44.9897030420001,-74.8697772379999,0
			44.990451885,-74.8692403299999,0
			44.9908522310001,-74.86895319,0
			44.991066319,-74.868799639,0
			44.9932899480001,-74.855232238,0
			44.996860505,-74.8384170529998,0
			44.9940986630001,-74.8339233399999,0
			44.989509583,-74.827522277,0
			44.9908409130001,-74.820411682,0
			44.9929714650001,-74.8184434449999,0
			44.995578,-74.8160349999999,0
			44.9963600000001,-74.8153129999999,0
			44.9972000000001,-74.8145369999999,0
			44.9994200000002,-74.802261,0
			45.0007590000001,-74.797089,0
			45.0020480000002,-74.7815929999999,0
			45.0010600100001,-74.766754154,0
			44.9942092910001,-74.7668304439999,0
			44.9911762460002,-74.7711810919999,0
			44.9911480460001,-74.771221543,0
			44.9910392770001,-74.771377564,0
			44.9904980210001,-74.7710022129999,0
			44.9899185800001,-74.7706003809999,0
			44.989175558,-74.77008511,0
			44.9882888790001,-74.7694702149999,0
			44.9873085020001,-74.7578659059999,0
			44.9890708930001,-74.7449569709999,0
			44.9890289310001,-74.7391510009999,0
			44.9903488150002,-74.7288131719999,0
			44.9907875720002,-74.726875015,0
			44.9804190000001,-74.724797,0
			44.9803920000002,-74.724792,0
		</coordinates>
	</polygon>
</kml>
