<?xml version="1.0" encoding="UTF-8"?>
<kml xmlns="http://earth.google.com/kml/2.2">
	<polygon id="USA_AZ_Mohave" samplingProbability="1">
		<coordinates>
			37.003150941,-112.542419434,0
			36.9995803830002,-112.542388916,0
			36.9914321890001,-112.540596009,0
			36.9855384830001,-112.538246154,0
			36.9783020020001,-112.535896301,0
			36.9746894840001,-112.532997131,0
			36.9706115730001,-112.532386779,0
			36.9642715460002,-112.530616761,0
			36.9601898200002,-112.531166077,0
			36.9547309870001,-112.533432006,0
			36.9465484630001,-112.537979126,0
			36.938819886,-112.542526245,0
			36.9342803960001,-112.544799804,0
			36.92565918,-112.545883179,0
			36.9165802010001,-112.548118591,0
			36.9129409790001,-112.549819946,0
			36.904769898,-112.553787232,0
			36.902469635,-112.559516906,0
			36.8988189690001,-112.564682007,0
			36.8974304190002,-112.570999146,0
			36.8919792190001,-112.573837279,0
			36.886070252,-112.575523376,0
			36.8797302250001,-112.575469971,0
			36.8742904670001,-112.574851989,0
			36.871109008,-112.575965881,0
			36.8656616210001,-112.578231812,0
			36.8602104200002,-112.58164215,0
			36.8561096200001,-112.584487916,0
			36.850662232,-112.586166382,0
			36.8465690610001,-112.587287902,0
			36.8429298400001,-112.590126037,0
			36.840198517,-112.592987061,0
			36.8365592970002,-112.594680786,0
			36.8333892830001,-112.594657897,0
			36.8320312500001,-112.594650269,0
			36.83021927,-112.594627381,0
			36.828842163,-112.596916198,0
			36.8256607060002,-112.599769592,0
			36.8215713500001,-112.600891114,0
			36.816581726,-112.600852965,0
			36.813861848,-112.601402283,0
			36.8111305230001,-112.603675842,0
			36.8079414360001,-112.606529236,0
			36.8056602490001,-112.608230591,0
			36.8020286560001,-112.608779907,0
			36.7988395690001,-112.6116333,0
			36.7952003490001,-112.615615844,0
			36.7901916510001,-112.619026184,0
			36.7860984800001,-112.620140076,0
			36.784751892,-112.619552612,0
			36.7820396420001,-112.616661071,0
			36.779331208,-112.614326477,0
			36.7761688240001,-112.612579345,0
			36.7734413140001,-112.613708495,0
			36.7698097240001,-112.614830017,0
			36.7670898440001,-112.614807129,0
			36.762550354,-112.615341186,0
			36.7584610000001,-112.617607117,0
			36.7525520330001,-112.619293212,0
			36.7457389840001,-112.620948792,0
			36.7380294800001,-112.622596741,0
			36.7312088020001,-112.624847412,0
			36.7243995660002,-112.62651062,0
			36.7180404660002,-112.628181458,0
			36.7112388620001,-112.628700257,0
			36.7085189820002,-112.629249573,0
			36.705329895,-112.632102967,0
			36.7016792290001,-112.635513306,0
			36.6989517210002,-112.636627197,0
			36.6962394720001,-112.635459899,0
			36.6921615600002,-112.634277344,0
			36.688541413,-112.633666993,0
			36.6844406140001,-112.635932922,0
			36.6808204640001,-112.635330201,0
			36.6771888740001,-112.635871886,0
			36.6731109630002,-112.634689331,0
			36.6676902770002,-112.631767274,0
			36.660438539,-112.629997253,0
			36.6563720710002,-112.627670289,0
			36.6477813730001,-112.623008728,0
			36.6418991100001,-112.619506837,0
			36.6369209290002,-112.618896485,0
			36.6323699960001,-112.62172699,0
			36.6291999830001,-112.621131898,0
			36.6237716680001,-112.618217469,0
			36.6201591490001,-112.615325928,0
			36.6165199280002,-112.61643982,0
			36.6128997810001,-112.615837097,0
			36.6029205310002,-112.616912842,0
			36.5952110300001,-112.616836549,0
			36.5833816530002,-112.624191284,0
			36.5788307200002,-112.62587738,0
			36.5747299200002,-112.629852294,0
			36.5724487310001,-112.633270264,0
			36.5697021490001,-112.638397217,0
			36.566040038,-112.6435318,0
			36.562850953,-112.647506714,0
			36.5583000180002,-112.650337219,0
			36.556011201,-112.654899598,0
			36.5546417240001,-112.656036376,0
			36.5559501650001,-112.665779115,0
			36.5482406620001,-112.665718079,0
			36.5454902650001,-112.669700623,0
			36.5377807610001,-112.671348571,0
			36.5341911310001,-112.663299561,0
			36.5246696470002,-112.663223267,0
			36.5210685730001,-112.658607484,0
			36.51335907,-112.659111023,0
			36.5088119510001,-112.660209656,0
			36.5042991650001,-112.657310486,0
			36.5025100710002,-112.651573182,0
			36.4975204470002,-112.65096283,0
			36.4929695140002,-112.65548706,0
			36.4874992380002,-112.660598755,0
			36.4884490970001,-112.65260315,0
			36.4916496270001,-112.648040771,0
			36.4916687010001,-112.64289093,0
			36.4848709120001,-112.643981934,0
			36.4807701120001,-112.64679718,0
			36.4771385200002,-112.646766662,0
			36.4744720470001,-112.63759613,0
			36.4759101870001,-112.621589662,0
			36.4736404430002,-112.623283386,0
			36.4713516240001,-112.62726593,0
			36.4663696300001,-112.626083375,0
			36.4627189640001,-112.630630493,0
			36.461769104,-112.638061524,0
			36.4590301510001,-112.641471863,0
			36.4558715830001,-112.638008118,0
			36.445861817,-112.644218445,0
			36.4463500970001,-112.638496399,0
			36.4422798160001,-112.635040282,0
			36.4399795530001,-112.642456055,0
			36.4345512390001,-112.639549256,0
			36.4263992320001,-112.636047364,0
			36.428260804,-112.627487183,0
			36.4210090640001,-112.626846313,0
			36.417850494,-112.623397827,0
			36.4133300770001,-112.620498658,0
			36.407878877,-112.62159729,0
			36.4005889900002,-112.627822876,0
			36.390621186,-112.627738952,0
			36.3896713260002,-112.635726929,0
			36.3837318430001,-112.643119813,0
			36.3746414190001,-112.645896911,0
			36.3641815190001,-112.651519775,0
			36.3555107130001,-112.660591125,0
			36.34867096,-112.666809083,0
			36.3450202940002,-112.672492982,0
			36.343620301,-112.677619935,0
			36.3454208380001,-112.681060791,0
			36.3508491520002,-112.682823181,0
			36.3549194330001,-112.686286926,0
			36.354412079,-112.695999146,0
			36.35118866,-112.703956604,0
			36.34980011,-112.707946778,0
			36.3465995800001,-112.713630677,0
			36.3420219430001,-112.719871522,0
			36.3374786380001,-112.720970154,0
			36.330688477,-112.719192505,0
			36.3279609690001,-112.719169617,0
			36.3211517330001,-112.72025299,0
			36.3197708130001,-112.723091126,0
			36.3170204170001,-112.727630616,0
			36.3219718940001,-112.736236572,0
			36.3246421810001,-112.743690491,0
			36.3218688960001,-112.752243042,0
			36.3150215150001,-112.759590148,0
			36.3095588690002,-112.761817933,0
			36.3072509760001,-112.766929627,0
			36.303089142,-112.780021668,0
			36.3003196720002,-112.787986756,0
			36.2975921640001,-112.788528442,0
			36.2925910950001,-112.790756226,0
			36.288940431,-112.793571473,0
			36.2861785890001,-112.799247742,0
			36.2861289990001,-112.807243347,0
			36.289260864,-112.813552857,0
			36.2878189080001,-112.825523376,0
			36.2832489020001,-112.829483031,0
			36.2809600840001,-112.833450317,0
			36.2791099550001,-112.838562011,0
			36.2821807870001,-112.853439331,0
			36.2853012080001,-112.86089325,0
			36.2811508180001,-112.869407654,0
			36.2779693620001,-112.871650697,0
			36.276580811,-112.87448883,0
			36.2756690990001,-112.875053406,0
			36.2638206490001,-112.882896424,0
			36.2606315620001,-112.885147094,0
			36.259712219,-112.886276245,0
			36.2569618220001,-112.8902359,0
			36.2541809090001,-112.898773193,0
			36.258609772,-112.912506104,0
			36.2576484670001,-112.91934967,0
			36.2466888430002,-112.929481507,0
			36.2402305610001,-112.941963197,0
			36.232200622,-112.98235321,0
			36.2330513000001,-112.989776612,0
			36.2365684520001,-113.002372742,0
			36.23833847,-113.007530212,0
			36.235488891,-113.022895814,0
			36.231819154,-113.02797699,0
			36.2267608650001,-113.035888673,0
			36.2148704530001,-113.04712677,0
			36.2121200560001,-113.049949647,0
			36.2070808420001,-113.056152343,0
			36.2033386220001,-113.068077087,0
			36.1885108950001,-113.102645874,0
			36.186660766,-113.106040955,0
			36.177951813,-113.11617279,0
			36.168800354,-113.125152588,0
			36.1664619440002,-113.132530212,0
			36.166450501,-113.133666992,0
			36.1677894590001,-113.13595581,0
			36.171371459,-113.140579224,0
			36.1721305850001,-113.155982971,0
			36.1647415160001,-113.169540406,0
			36.1619911200001,-113.172348022,0
			36.1533012400001,-113.179626466,0
			36.1491394050001,-113.186965942,0
			36.1459121710001,-113.192611694,0
			36.142730712,-113.193702698,0
			36.1372718810002,-113.195327759,0
			36.1282196050001,-113.192337036,0
			36.1187210090001,-113.18990326,0
			36.1160011300001,-113.189872741,0
			36.1146087640001,-113.193260192,0
			36.1127586370002,-113.196083069,0
			36.1118316640001,-113.198905944,0
			36.1067810050001,-113.205093384,0
			36.1007804870001,-113.214675903,0
			36.0989608760001,-113.215789795,0
			36.0957603460002,-113.217453003,0
			36.0948410030001,-113.2191391,0
			36.0939102170001,-113.220832824,0
			36.09344864,-113.221961975,0
			36.0915489190002,-113.229896546,0
			36.0928115850002,-113.24017334,0
			36.0899505610001,-113.2526474,0
			36.0937919610001,-113.276046754,0
			36.0964012140001,-113.286918641,0
			36.094970704,-113.292587279,0
			36.096721649,-113.298881531,0
			36.0980186470001,-113.304595947,0
			36.0993690500002,-113.305763244,0
			36.0988922130001,-113.308029175,0
			36.094310761,-113.311943054,0
			36.082389832,-113.323112487,0
			36.0709991460001,-113.327468871,0
			36.0531120300002,-113.345367432,0
			36.047630311,-113.348106384,0
			36.0426216130001,-113.350296021,0
			36.0380821230002,-113.350219727,0
			36.034431457,-113.351860047,0
			36.0263290400001,-113.346603393,0
			36.0177497860001,-113.342460631,0
			36.0109786980001,-113.339500427,0
			36.0055885310001,-113.334846497,0
			36.0010299690001,-113.337051393,0
			35.9946517950001,-113.339210511,0
			35.9896392830001,-113.341400147,0
			35.9855690000001,-113.340187072,0
			35.980178833,-113.334976196,0
			35.9748611460001,-113.32408142,0
			35.9717597960002,-113.317207336,0
			35.9672317510001,-113.315986633,0
			35.9626998910001,-113.31591034,0
			35.9521713250001,-113.324256896,0
			35.9367599480001,-113.322280883,0
			35.9304084780001,-113.322166443,0
			35.9253807070002,-113.325492859,0
			35.922180177,-113.328277587,0
			35.9185409540001,-113.329353332,0
			35.915821077,-113.328742981,0
			35.9104194640001,-113.325225831,0
			35.9027595520001,-113.32055664,0
			35.8973693850001,-113.315353394,0
			35.8933486940001,-113.309600829,0
			35.8611297610001,-113.30961609,0
			35.8588485720001,-113.311279297,0
			35.8570289620002,-113.311813355,0
			35.8524398820001,-113.316276549,0
			35.8455886830001,-113.320686341,0
			35.844211579,-113.321807861,0
			35.8287315380001,-113.326637267,0
			35.8218688970001,-113.331626891,0
			35.810112001,-113.328018189,0
			35.8055496220001,-113.330207825,0
			35.7932586660001,-113.333961488,0
			35.7655715940001,-113.33405304,0
			35.720199585,-113.333816529,0
			35.6298789980001,-113.334503173,0
			35.5277709960002,-113.333847045,0
			35.5050811770001,-113.334007263,0
			35.424751283,-113.333747863,0
			35.2608795170001,-113.333709716,0
			35.106529236,-113.333267213,0
			34.9267120360001,-113.33352661,0
			34.7963600170002,-113.334068298,0
			34.76638031,-113.334106445,0
			34.7554893490001,-113.333366395,0
			34.7405014050001,-113.333656311,0
			34.7255210880001,-113.333396912,0
			34.710521698,-113.333702088,0
			34.6955299370001,-113.333442689,0
			34.6805419920001,-113.333740235,0
			34.6591987620001,-113.333366395,0
			34.6560211180001,-113.333320618,0
			34.655101776,-113.333862306,0
			34.609230041,-113.333068848,0
			34.5933303830001,-113.333351135,0
			34.5510787960001,-113.333183289,0
			34.5365409850001,-113.333496094,0
			34.5210990910002,-113.333229066,0
			34.512008668,-113.333625793,0
			34.506549835,-113.33352661,0
			34.458400726,-113.333259583,0
			34.4334106450002,-113.333389281,0
			34.417949677,-113.3336792,0
			34.3806991570001,-113.33303833,0
			34.317520142,-113.334182739,0
			34.3179397590002,-113.338081361,0
			34.3192596430001,-113.341445924,0
			34.3187713630001,-113.344223022,0
			34.3174095160001,-113.344192505,0
			34.31513977,-113.343597412,0
			34.3124389660001,-113.341880799,0
			34.3115196230001,-113.342979431,0
			34.3087501530001,-113.3462677,0
			34.3032722470002,-113.348396302,0
			34.2982215870001,-113.35331726,0
			34.2945098880001,-113.359367371,0
			34.2926406860001,-113.36377716,0
			34.2916603100002,-113.369888306,0
			34.2933807380001,-113.378257751,0
			34.2942504890001,-113.381607056,0
			34.2951087960002,-113.38607788,0
			34.2999610910001,-113.397842407,0
			34.2999305720002,-113.400627137,0
			34.2985305790001,-113.403381348,0
			34.2975997930001,-113.405586242,0
			34.2952804570001,-113.408882141,0
			34.2938804640002,-113.412193299,0
			34.2952003480002,-113.415557861,0
			34.2974395760002,-113.418930054,0
			34.3005294800002,-113.426216126,0
			34.3013610840001,-113.432350158,0
			34.301780701,-113.435142517,0
			34.300350189,-113.440681457,0
			34.2998390200001,-113.445121765,0
			34.2997818000001,-113.450126649,0
			34.3002014150001,-113.452911377,0
			34.3015022280002,-113.457389832,0
			34.3055114740001,-113.464141846,0
			34.304389954,-113.480812072,0
			34.3060913090002,-113.489746093,0
			34.305099487,-113.496398925,0
			34.3058891290001,-113.505317688,0
			34.3107795710001,-113.513755798,0
			34.3111686710002,-113.51876831,0
			34.3115806580001,-113.522117615,0
			34.310619355,-113.526542664,0
			34.3091888440001,-113.531517028,0
			34.3077697750002,-113.535392762,0
			34.3059005740001,-113.539802551,0
			34.3049697880001,-113.540901185,0
			34.3008499150001,-113.543586731,0
			34.2985496530001,-113.545776366,0
			34.296730042,-113.545738219,0
			34.2930793760002,-113.546775818,0
			34.2894287100001,-113.547821044,0
			34.2880401600001,-113.55001831,0
			34.2852287290001,-113.556076049,0
			34.2796897890001,-113.562080383,0
			34.2769317620001,-113.564796447,0
			34.2760086060001,-113.565902709,0
			34.2746086130002,-113.568656921,0
			34.2727699270001,-113.569717408,0
			34.2695999140001,-113.569107057,0
			34.2686691280002,-113.570747376,0
			34.2677192680001,-113.573516846,0
			34.2640495310001,-113.576782226,0
			34.2594184890001,-113.582801819,0
			34.2430000300001,-113.586906433,0
			34.2397499100001,-113.59185028,0
			34.2383499140001,-113.594596863,0
			34.2374191280002,-113.596237183,0
			34.2360305780001,-113.597892761,0
			34.2350997920001,-113.59953308,0
			34.233291627,-113.598937987,0
			34.2323493960001,-113.601142883,0
			34.231880188,-113.602249145,0
			34.2309494020001,-113.603897095,0
			34.2295608520001,-113.606086732,0
			34.2313613890001,-113.607238769,0
			34.2308311470002,-113.612792969,0
			34.2294693000002,-113.612197876,0
			34.2271308910001,-113.617149353,0
			34.2270889290002,-113.619926453,0
			34.2279510500002,-113.623840332,0
			34.227931976,-113.624946594,0
			34.2283592230001,-113.627182008,0
			34.226039887,-113.630462647,0
			34.2255706780001,-113.631568909,0
			34.2237205510002,-113.633750916,0
			34.2245903020001,-113.635986328,0
			34.2231903090002,-113.63874054,0
			34.2272605900001,-113.64050293,0
			34.227680207,-113.642723084,0
			34.2262992870002,-113.644363403,0
			34.2253799440001,-113.644897461,0
			34.223579407,-113.643196106,0
			34.2226600640001,-113.64428711,0
			34.2212905900001,-113.644805909,0
			34.2203598030001,-113.645896912,0
			34.2212600710001,-113.647026063,0
			34.2221488950001,-113.648162841,0
			34.220748902,-113.650917053,0
			34.218448639,-113.652526856,0
			34.2170600890001,-113.654716491,0
			34.2161216730001,-113.656929017,0
			34.217021942,-113.657501221,0
			34.2169990540001,-113.659172057,0
			34.2142295840001,-113.661888122,0
			34.213298798,-113.662979126,0
			34.2123909000001,-113.662956237,0
			34.2119293210001,-113.664062499,0
			34.2127990720001,-113.666313172,0
			34.2127799990002,-113.667968749,0
			34.2132110590001,-113.669647218,0
			34.212280273,-113.671302796,0
			34.2126998900002,-113.672966003,0
			34.213119507,-113.675758362,0
			34.2122001640001,-113.676849365,0
			34.2112808230001,-113.676826477,0
			34.2098999030001,-113.678466796,0
			34.209869385,-113.68068695,0
			34.2097702030002,-113.687347412,0
			34.2101898200002,-113.690139771,0
			34.2101593030001,-113.691810609,0
			34.210109711,-113.695137025,0
			34.2109603880002,-113.699050903,0
			34.2113494870001,-113.70350647,0
			34.211791992,-113.70462799,0
			34.2122192390001,-113.706306458,0
			34.2167205810001,-113.709732056,0
			34.216228485,-113.71193695,0
			34.2171287550001,-113.712516784,0
			34.2180099490002,-113.714767457,0
			34.2216186530002,-113.715957641,0
			34.2220611580001,-113.717079163,0
			34.2215690610001,-113.719841003,0
			34.2224388130002,-113.722640991,0
			34.2233390810001,-113.72265625,0
			34.2255897520002,-113.724380493,0
			34.2265014640001,-113.724403381,0
			34.2274093640001,-113.72441864,0
			34.2319297790001,-113.72618866,0
			34.2359809880001,-113.728500366,0
			34.24048996,-113.730819702,0
			34.24092102,-113.732498168,0
			34.2413520820002,-113.734176637,0
			34.240859985,-113.736946106,0
			34.2402992250002,-113.743598938,0
			34.2398109430001,-113.745811462,0
			34.238880157,-113.747459412,0
			34.2383995060001,-113.749107361,0
			34.2392921460001,-113.75025177,0
			34.2378997810001,-113.751876831,0
			34.2373886120001,-113.755760193,0
			34.236469269,-113.756851197,0
			34.2359695430001,-113.759620667,0
			34.2331810000002,-113.763450623,0
			34.233161926,-113.765106201,0
			34.2326622,-113.767883301,0
			34.2317199710002,-113.770088195,0
			34.2307815550001,-113.77229309,0
			34.228939056,-113.773910523,0
			34.2284393320001,-113.776679993,0
			34.229278564,-113.781143188,0
			34.2301406870001,-113.783943176,0
			34.2319488520002,-113.785102843,0
			34.2323608410001,-113.787887574,0
			34.2336692820001,-113.791252136,0
			34.2349815370002,-113.794616699,0
			34.2353897100001,-113.797401429,0
			34.2362518310001,-113.800758362,0
			34.2362289420001,-113.80242157,0
			34.234359742,-113.805160523,0
			34.2334289560001,-113.806800842,0
			34.233409883,-113.807907104,0
			34.2315711970001,-113.809539796,0
			34.2319908140001,-113.811218262,0
			34.2315101630001,-113.812866211,0
			34.232860565,-113.81401825,0
			34.2342109680001,-113.814613343,0
			34.2351188650002,-113.815177917,0
			34.2355499280001,-113.816299438,0
			34.2346305850001,-113.817390441,0
			34.2341499330001,-113.818496703,0
			34.2327690130001,-113.819572448,0
			34.2309494020001,-113.820075989,0
			34.2295799260001,-113.820053101,0
			34.2282218940002,-113.820022582,0
			34.2277488700001,-113.821121216,0
			34.226829529,-113.821662904,0
			34.2258911130002,-113.823860169,0
			34.2258720400001,-113.824966431,0
			34.2244796760002,-113.82660675,0
			34.2239913940001,-113.828811646,0
			34.2239608770001,-113.831039428,0
			34.2230110180001,-113.833236694,0
			34.222999573,-113.834350586,0
			34.2229614260002,-113.83657074,0
			34.2238388070002,-113.838256836,0
			34.22518158,-113.839958191,0
			34.2279014590001,-113.840576172,0
			34.2315101630001,-113.842330932,0
			34.2364616400002,-113.845222473,0
			34.2382392890001,-113.847488404,0
			34.24048996,-113.849212647,0
			34.2427520750001,-113.849822998,0
			34.2463798530001,-113.850456238,0
			34.2495613100001,-113.850540162,0
			34.25090027,-113.85167694,0
			34.2517890940001,-113.853370667,0
			34.252651214,-113.856170654,0
			34.2534790030002,-113.861198426,0
			34.2542991640001,-113.866783143,0
			34.2551307680001,-113.871238709,0
			34.254619599,-113.875122071,0
			34.2541389470001,-113.876777649,0
			34.2522506710001,-113.88117981,0
			34.2512512210001,-113.88671112,0
			34.248851776,-113.894439697,0
			34.248321534,-113.898872375,0
			34.248260499,-113.902206421,0
			34.2486305240002,-113.907775879,0
			34.249290467,-113.922798158,0
			34.249210358,-113.92780304,0
			34.2496109020001,-113.931137086,0
			34.25138092,-113.933410645,0
			34.254032134,-113.938476563,0
			34.2565689080001,-113.949661254,0
			34.2569313050002,-113.955230713,0
			34.258129121,-113.96472168,0
			34.2569999700001,-113.978027344,0
			34.2555007930001,-113.985778809,0
			34.2545318600002,-113.989646911,0
			34.2549095150001,-113.994102479,0
			34.2548103330002,-113.999656677,0
			34.254749298,-114.003562927,0
			34.2542190550001,-114.007431031,0
			34.2555313120001,-114.010803222,0
			34.2577285770001,-114.014747619,0
			34.2604103080002,-114.017601013,0
			34.2626419070002,-114.019882202,0
			34.2649192820001,-114.019943238,0
			34.266262055,-114.021087646,0
			34.267581939,-114.023345947,0
			34.267101289,-114.025001527,0
			34.2666206360001,-114.026100159,0
			34.264801026,-114.026611328,0
			34.2620391840001,-114.028205872,0
			34.2597122200002,-114.031478881,0
			34.2596588130001,-114.034255981,0
			34.2605209360001,-114.037055969,0
			34.2614097600001,-114.038200378,0
			34.265510559,-114.037750244,0
			34.2663993840001,-114.038879395,0
			34.2658996580001,-114.041648865,0
			34.2658691410001,-114.043319703,0
			34.2689895630001,-114.046737671,0
			34.2730789190001,-114.046836853,0
			34.2757720950001,-114.049140931,0
			34.2779922490002,-114.051979064,0
			34.2788200380002,-114.056449891,0
			34.2805900580001,-114.059280396,0
			34.2837295530001,-114.061576843,0
			34.2836990370002,-114.06326294,0
			34.2868499770001,-114.065002441,0
			34.2899894720001,-114.067306519,0
			34.2908401490001,-114.070671082,0
			34.2925796510001,-114.075157165,0
			34.2925300600002,-114.077949523,0
			34.2942390450001,-114.083557129,0
			34.2951087960002,-114.086357117,0
			34.2964286810001,-114.088623046,0
			34.2990913400002,-114.092033386,0
			34.299919129,-114.096496582,0
			34.29940033,-114.100379944,0
			34.2975006110001,-114.104782105,0
			34.2951507560001,-114.109169006,0
			34.2951011660001,-114.111946106,0
			34.29550171,-114.114738465,0
			34.2977104180002,-114.118141174,0
			34.3038902280001,-114.128318786,0
			34.3043022150001,-114.13054657,0
			34.3050804140001,-114.137268066,0
			34.3081016550001,-114.137786865,0
			34.312740325,-114.141357422,0
			34.3185806290001,-114.144859314,0
			34.3251190180001,-114.151657105,0
			34.3292694100001,-114.156837463,0
			34.3355102540001,-114.163688661,0
			34.3391113280002,-114.166763305,0
			34.341140748,-114.168502807,0
			34.3470191960001,-114.173049927,0
			34.3520698550001,-114.176956177,0
			34.3560104380001,-114.18019867,0
			34.3584899910001,-114.184486388,0
			34.3600006100002,-114.190551757,0
			34.3627014160002,-114.199272156,0
			34.3629608160001,-114.20009613,0
			34.3646202090002,-114.209152221,0
			34.3667297370001,-114.216262817,0
			34.367019654,-114.217277527,0
			34.3681106570002,-114.221672058,0
			34.3684806820002,-114.22252655,0
			34.371318817,-114.226531983,0
			34.3727607730002,-114.228111267,0
			34.376049042,-114.231086731,0
			34.3832321160002,-114.23575592,0
			34.388561248,-114.242546081,0
			34.3898696890002,-114.244232178,0
			34.3965492250001,-114.251739502,0
			34.399490357,-114.255836486,0
			34.4036521900001,-114.260856629,0
			34.4063186650001,-114.265975952,0
			34.4070510870001,-114.272651672,0
			34.4074020380002,-114.278236389,0
			34.4080009460001,-114.283157349,0
			34.4104385380001,-114.286903382,0
			34.4144515990002,-114.289581298,0
			34.4197387690001,-114.291297913,0
			34.424800874,-114.294349671,0
			34.4286613470001,-114.297386169,0
			34.4323501600001,-114.303489685,0
			34.4358520510002,-114.310279845,0
			34.4391784670001,-114.318260194,0
			34.4411315920001,-114.322647095,0
			34.4415512090001,-114.323371886,0
			34.444488526,-114.327392577,0
			34.4477310180001,-114.330139161,0
			34.4522209160002,-114.332496643,0
			34.45444107,-114.335357665,0
			34.4557189950002,-114.339859009,0
			34.4555892940002,-114.345993041,0
			34.4532814030001,-114.357147216,0
			34.4530906670001,-114.358169556,0
			34.451320649,-114.365509033,0
			34.4512901300001,-114.366477966,0
			34.4510917660002,-114.372337341,0
			34.4535789500001,-114.378273011,0
			34.4588394160001,-114.383003235,0
			34.4639320370001,-114.384887696,0
			34.4688987730001,-114.384307861,0
			34.4760818490001,-114.381851196,0
			34.4830513010002,-114.381507873,0
			34.4856109630002,-114.381385802,0
			34.491981507,-114.381362916,0
			34.5037002560001,-114.378906251,0
			34.5049018870001,-114.378639221,0
			34.514518738,-114.376518249,0
			34.5226707470002,-114.377037048,0
			34.530361175,-114.378936767,0
			34.5398101810001,-114.382659912,0
			34.5468292240002,-114.38722229,0
			34.5523986830001,-114.389648437,0
			34.556869507,-114.393707275,0
			34.5613288890001,-114.396316529,0
			34.5673904430001,-114.400062562,0
			34.572040558,-114.402938842,0
			34.5753822320002,-114.405456543,0
			34.5781402590002,-114.409255981,0
			34.5811920170001,-114.413459778,0
			34.5885314940001,-114.425270081,0
			34.592510223,-114.430976868,0
			34.596019745,-114.434020996,0
			34.5987396240001,-114.434661866,0
			34.6000099190001,-114.433776855,0
			34.6010398870001,-114.433059693,0
			34.6033821120001,-114.429786682,0
			34.6052703850002,-114.426490783,0
			34.6076011670001,-114.423217772,0
			34.6099205010001,-114.421051026,0
			34.6135406500001,-114.421722412,0
			34.617118836,-114.424629211,0
			34.6206321720001,-114.430328368,0
			34.6232795720001,-114.434318542,0
			34.6268005370001,-114.437286377,0
			34.6323204050001,-114.438606263,0
			34.6385993970002,-114.44039154,0
			34.646289825,-114.441749573,0
			34.6507301330001,-114.44355774,0
			34.6552200310001,-114.449287414,0
			34.6575584410002,-114.45198822,0
			34.6592216490001,-114.453903198,0
			34.6619186400001,-114.455101014,0
			34.6637191770001,-114.455718995,0
			34.6664886470001,-114.453567504,0
			34.6681098950001,-114.451568603,0
			34.6706619270001,-114.449790955,0
			34.6733398450001,-114.451026916,0
			34.678741456,-114.454505921,0
			34.6863899240001,-114.458106995,0
			34.6935615550001,-114.462806702,0
			34.7007713330001,-114.464912414,0
			34.7022094730002,-114.46520996,0
			34.7080001840001,-114.467185975,0
			34.7151985170001,-114.470779419,0
			34.7187194820001,-114.476486206,0
			34.7195816040002,-114.480422973,0
			34.7197799690002,-114.481346131,0
			34.7243804940001,-114.487846375,0
			34.7266311650002,-114.489036559,0
			34.7293701180001,-114.490837098,0
			34.7319793700001,-114.492546081,0
			34.7350196850001,-114.499946595,0
			34.7371521000002,-114.506729126,0
			34.739730836,-114.513526917,0
			34.7412719730001,-114.515182494,0
			34.743499755,-114.517570496,0
			34.7481803900002,-114.520629882,0
			34.7538909920002,-114.526420593,0
			34.7570419320001,-114.532546998,0
			34.762748719,-114.54170227,0
			34.769870758,-114.549476624,0
			34.779640199,-114.558486938,0
			34.789600373,-114.564468384,0
			34.8012504590001,-114.571006775,0
			34.8102417000001,-114.573936462,0
			34.8127708440001,-114.574760436,0
			34.8219413760002,-114.577766419,0
			34.8231391920002,-114.578163148,0
			34.8307418830001,-114.580337525,0
			34.8390121460002,-114.585739135,0
			34.8455886840001,-114.591949464,0
			34.8463020320001,-114.592529296,0
			34.853549957,-114.603569031,0
			34.8602104190001,-114.615501405,0
			34.8607292180001,-114.616416931,0
			34.8667411800002,-114.625839234,0
			34.8733787540001,-114.63204193,0
			34.8801689150002,-114.63471222,0
			34.8866996780001,-114.634979248,0
			34.893009186,-114.634162902,0
			34.8997497570001,-114.632575988,0
			34.9052619930002,-114.629959107,0
			34.911190033,-114.629035949,0
			34.9146194460002,-114.629592895,0
			34.9202384950001,-114.630470276,0
			34.9237289430001,-114.63092041,0
			34.9261322030002,-114.631233215,0
			34.9342117320002,-114.629867553,0
			34.9411888130001,-114.628379821,0
			34.9488906870001,-114.629211425,0
			34.9556388860001,-114.631317139,0
			34.9606285100001,-114.632392884,0
			34.9626007070001,-114.632812501,0
			34.9674110420001,-114.633766174,0
			34.9761009220001,-114.631256103,0
			34.9855194090001,-114.628295899,0
			34.987529755,-114.628707886,0
			34.993728638,-114.628906251,0
			35.000160217,-114.631523133,0
			35.0020790100001,-114.632865906,0
			35.0075988780001,-114.634559631,0
			35.0094299320001,-114.635063172,0
			35.0132408150002,-114.635902406,0
			35.0153388980002,-114.635772705,0
			35.0176315310001,-114.635627746,0
			35.0205192560001,-114.63545227,0
			35.02368927,-114.635612487,0
			35.0291290290001,-114.635879517,0
			35.0353202820002,-114.635208131,0
			35.0415992740001,-114.632156373,0
			35.0442504880001,-114.630226135,0
			35.0484504700001,-114.625312805,0
			35.0520095820001,-114.619300843,0
			35.0526199350001,-114.618270875,0
			35.054450989,-114.614219665,0
			35.0564994820002,-114.609703063,0
			35.0598411560001,-114.607276917,0
			35.0614089970001,-114.606140136,0
			35.0677108770001,-114.603652955,0
			35.0729789740001,-114.604797363,0
			35.076869964,-114.606681824,0
			35.0805702200001,-114.610671996,0
			35.0836486820001,-114.615272522,0
			35.0857620230001,-114.617591858,0
			35.0866203310001,-114.618843079,0
			35.0892410290002,-114.622673034,0
			35.0899620050001,-114.625328063,0
			35.0907402040002,-114.627281189,0
			35.091152191,-114.628433228,0
			35.092010499,-114.630836486,0
			35.0932922360001,-114.634117127,0
			35.0957984930001,-114.640419005,0
			35.097881316,-114.644050598,0
			35.0991821300001,-114.646316529,0
			35.1037902830001,-114.648956298,0
			35.1069602970001,-114.649238586,0
			35.1105384820001,-114.646461486,0
			35.116298677,-114.64061737,0
			35.1188621520001,-114.635116577,0
			35.1214790350002,-114.629486083,0
			35.1222686770001,-114.624649048,0
			35.1225814810001,-114.622787476,0
			35.123580933,-114.616630555,0
			35.1237716670001,-114.608207703,0
			35.1244392400001,-114.598106385,0
			35.1255187990001,-114.590232849,0
			35.1271705640001,-114.583976745,0
			35.1306991590001,-114.579353333,0
			35.1317520140001,-114.578781127,0
			35.1374206540002,-114.575706483,0
			35.140388488,-114.575019836,0
			35.144680024,-114.575431825,0
			35.1462821970002,-114.575782776,0
			35.1494407650001,-114.576446533,0
			35.1510009780001,-114.576057434,0
			35.1551094050001,-114.575027466,0
			35.162261963,-114.571823121,0
			35.1650199900001,-114.571907044,0
			35.169528961,-114.572052002,0
			35.1704292310001,-114.572090148,0
			35.173660279,-114.571556091,0
			35.1759109500001,-114.571197509,0
			35.1772384650002,-114.571006775,0
			35.180000304,-114.570716859,0
			35.1859321600002,-114.572166442,0
			35.1921920780001,-114.573951721,0
			35.196861267,-114.573440552,0
			35.2008018490001,-114.574798585,0
			35.202838897,-114.575996399,0
			35.2048301700001,-114.577186585,0
			35.2074813840001,-114.580352783,0
			35.2116203310001,-114.582450866,0
			35.2174415590002,-114.582122803,0
			35.2202301020001,-114.582237244,0
			35.2242393500002,-114.582427978,0
			35.2256889350001,-114.58254242,0
			35.229679107,-114.583091736,0
			35.233921051,-114.584419251,0
			35.2387390140001,-114.585487366,0
			35.2425918570001,-114.586341858,0
			35.2459602350002,-114.585891723,0
			35.2507896420001,-114.586456299,0
			35.255458833,-114.587020873,0
			35.2598686220001,-114.587432862,0
			35.262241363,-114.587776183,0
			35.2699394240001,-114.58909607,0
			35.2708091740001,-114.589241027,0
			35.2794303890001,-114.592086793,0
			35.2866096500001,-114.596282959,0
			35.2905197150002,-114.597007751,0
			35.2925300600002,-114.597381591,0
			35.2992591850001,-114.598968505,0
			35.3032989500002,-114.598876953,0
			35.3051910410001,-114.598831176,0
			35.3065299980001,-114.598937989,0
			35.3137207030001,-114.597717284,0
			35.318828582,-114.596809387,0
			35.324569701,-114.595619201,0
			35.3292617810001,-114.597717284,0
			35.3336906440002,-114.598808288,0
			35.336528779,-114.599502563,0
			35.3429489150001,-114.601432801,0
			35.3437919620002,-114.601661682,0
			35.3503685000001,-114.604309083,0
			35.3515586860001,-114.604782105,0
			35.3598594670001,-114.610046387,0
			35.369941712,-114.613716126,0
			35.3720092770001,-114.614456176,0
			35.3886489870001,-114.621109008,0
			35.3906021130002,-114.621887207,0
			35.436180116,-114.648788452,0
			35.4482193000002,-114.656982421,0
			35.4488716130001,-114.657432557,0
			35.4606018080001,-114.665100097,0
			35.4638900770001,-114.667137147,0
			35.469749452,-114.670288085,0
			35.4787788400002,-114.672866821,0
			35.4841003420001,-114.674736023,0
			35.4895820610001,-114.676666259,0
			35.4904403690001,-114.676948547,0
			35.494159698,-114.67829895,0
			35.4973220840001,-114.679489136,0
			35.4985694890001,-114.679870606,0
			35.5005302440001,-114.680488585,0
			35.510398864,-114.679626465,0
			35.5113601690001,-114.679351807,0
			35.5150108350002,-114.678253173,0
			35.5176620490001,-114.675827027,0
			35.518409729,-114.675163268,0
			35.5207710270002,-114.67238617,0
			35.5234222420001,-114.669456481,0
			35.5258293150002,-114.666732788,0
			35.5267791740002,-114.665649415,0
			35.5279388430001,-114.664329528,0
			35.5300598150001,-114.662429809,0
			35.5331802370002,-114.660057068,0
			35.5354385370002,-114.65940857,0
			35.5372695930001,-114.65989685,0
			35.5398712150001,-114.661453248,0
			35.5446205150001,-114.663589478,0
			35.549339294,-114.664596558,0
			35.5506019600001,-114.664855958,0
			35.5561103830001,-114.665969848,0
			35.5583000190001,-114.665390015,0
			35.5609893800001,-114.664672852,0
			35.5642890940001,-114.665687562,0
			35.569690705,-114.667747498,0
			35.5729217540001,-114.669891358,0
			35.5746498120001,-114.672790527,0
			35.5752410900002,-114.673789979,0
			35.5771598820001,-114.676521302,0
			35.580390931,-114.676437378,0
			35.5826721180001,-114.675949097,0
			35.5840988150001,-114.673171997,0
			35.5861892700001,-114.667762756,0
			35.5864791870002,-114.667007446,0
			35.588920593,-114.66319275,0
			35.5898208630001,-114.661796569,0
			35.5912017830001,-114.659835815,0
			35.5935211190002,-114.657661438,0
			35.5971298230002,-114.657096862,0
			35.6021919250001,-114.655700684,0
			35.6081008920001,-114.655326844,0
			35.6102409370002,-114.656127929,0
			35.6116790770001,-114.656661986,0
			35.6162300110001,-114.658653259,0
			35.6184120180001,-114.661346436,0
			35.6199989320001,-114.664176941,0
			35.621910095,-114.668067933,0
			35.6249999990001,-114.671211243,0
			35.6278991700001,-114.671806336,0
			35.6301803590001,-114.672286988,0
			35.6335487370001,-114.674339295,0
			35.6366691590001,-114.676712036,0
			35.6402091990001,-114.680801392,0
			35.642730713,-114.684837341,0
			35.645969392,-114.686676025,0
			35.6491203320002,-114.688476562,0
			35.6572608960001,-114.689903259,0
			35.6627807620001,-114.688560486,0
			35.6636199960001,-114.688346863,0
			35.6668090830001,-114.687278748,0
			35.6704406740001,-114.686050416,0
			35.672729493,-114.685195923,0
			35.675380707,-114.684158325,0
			35.677379609,-114.683242797,0
			35.6789512640001,-114.682746886,0
			35.6803588880001,-114.682319641,0
			35.6830787660001,-114.682220459,0
			35.6855621340002,-114.682960511,0
			35.68814087,-114.685432434,0
			35.6899795540001,-114.688217163,0
			35.6930389400001,-114.693428039,0
			35.6957893360001,-114.696968078,0
			35.6966094970001,-114.698036195,0
			35.7005615250002,-114.702186584,0
			35.7050399770002,-114.704612731,0
			35.7091102600001,-114.705329894,0
			35.713649751,-114.705490112,0
			35.7177505500002,-114.70449829,0
			35.7212104800001,-114.702827454,0
			35.722549438,-114.702178954,0
			35.727859497,-114.699188232,0
			35.7347488400001,-114.697357178,0
			35.737442018,-114.696647645,0
			35.7401504520001,-114.695976258,0
			35.7442512520001,-114.696937561,0
			35.747402192,-114.698181152,0
			35.7492904660002,-114.699043275,0
			35.7524719250001,-114.698928832,0
			35.7551307670001,-114.697326659,0
			35.7583389280001,-114.696296691,0
			35.7597122190001,-114.695793152,0
			35.7619514470001,-114.696876526,0
			35.7647399900002,-114.698616027,0
			35.7679405220001,-114.700622559,0
			35.7718391420001,-114.701316834,0
			35.7770385740001,-114.701416016,0
			35.7809295660002,-114.701072692,0
			35.783439636,-114.70149994,0
			35.785449983,-114.701843261,0
			35.7906684870001,-114.702056886,0
			35.7966308590002,-114.704666138,0
			35.7994003290002,-114.706840515,0
			35.8008117680001,-114.708496093,0
			35.8026809700001,-114.71069336,0
			35.8063621530001,-114.712829591,0
			35.8086318970002,-114.712753297,0
			35.8107910150001,-114.710868836,0
			35.8129005440001,-114.70903015,0
			35.8137092590001,-114.708045959,0
			35.8145217900001,-114.706581115,0
			35.815711976,-114.705108642,0
			35.819419862,-114.703506469,0
			35.8217391980001,-114.702522278,0
			35.8242721570002,-114.702522278,0
			35.8260612480001,-114.701316834,0
			35.8281822200001,-114.698776245,0
			35.830490113,-114.697158814,0
			35.8313903810001,-114.696586609,0
			35.8341293340001,-114.697052002,0
			35.8364410400001,-114.698669434,0
			35.8399200450001,-114.701469421,0
			35.841968536,-114.703025819,0
			35.8433685310001,-114.704086304,0
			35.8458099360001,-114.705513,0
			35.848899841,-114.707290649,0
			35.8511390680001,-114.706977844,0
			35.8529891970002,-114.705909729,0
			35.854228973,-114.702552796,0
			35.8544807430001,-114.699707031,0
			35.8546485900001,-114.69857788,0
			35.854991914,-114.696281433,0
			35.85628891,-114.693397523,0
			35.8585090640001,-114.691596986,0
			35.859588624,-114.690711974,0
			35.860221864,-114.690193177,0
			35.8610801690001,-114.689163209,0
			35.8624496460002,-114.685218812,0
			35.864120484,-114.679466247,0
			35.8671493530001,-114.673118592,0
			35.8678207400001,-114.670089721,0
			35.8681907650001,-114.668373108,0
			35.8687896730001,-114.665672303,0
			35.869831084,-114.663352967,0
			35.8718910210002,-114.662719727,0
			35.8732795710001,-114.663803101,0
			35.874710083,-114.666587829,0
			35.875728608,-114.671096802,0
			35.8794784540002,-114.676055908,0
			35.8818092350002,-114.677902222,0
			35.8826484680001,-114.67856598,0
			35.8873901370001,-114.684288026,0
			35.8923492440001,-114.691406249,0
			35.898269654,-114.697990418,0
			35.900291444,-114.700241088,0
			35.902439117,-114.702392579,0
			35.9046592710002,-114.704666138,0
			35.9085502630001,-114.706939697,0
			35.9120292670002,-114.708946229,0
			35.9170188900001,-114.708770753,0
			35.9219894410001,-114.708023071,0
			35.925529479,-114.709068299,0
			35.9311599730001,-114.712226868,0
			35.9357299800002,-114.719673156,0
			35.9392509470001,-114.724327087,0
			35.9414100660001,-114.728958129,0
			35.9445190440001,-114.731918335,0
			35.9461517330001,-114.731666566,0
			35.9481506340001,-114.731369019,0
			35.9547386180001,-114.730690003,0
			35.9590721130002,-114.730743408,0
			35.9640388490001,-114.732048034,0
			35.9671211250002,-114.73613739,0
			35.9742698680001,-114.740951538,0
			35.979759216,-114.743179321,0
			35.98461151,-114.745300292,0
			35.986862183,-114.745040893,0
			35.9891090390001,-114.744789123,0
			35.992092133,-114.742980956,0
			35.995140076,-114.741127014,0
			35.9992408760001,-114.740707397,0
			36.0028495800001,-114.741409302,0
			36.0081100460001,-114.742385863,0
			36.0119209300001,-114.741737365,0
			36.0135498040001,-114.740539551,0
			36.015609741,-114.739028931,0
			36.0187988270001,-114.733467103,0
			36.0231018060001,-114.729057311,0
			36.0263595590001,-114.725761414,0
			36.0300407410001,-114.723617554,0
			36.0326499940002,-114.724426269,0
			36.034931183,-114.727783204,0
			36.038040161,-114.730743408,0
			36.039321899,-114.734191894,0
			36.0406990060002,-114.738357544,0
			36.0428199780002,-114.740013122,0
			36.0471000680001,-114.740402223,0
			36.049800873,-114.739738464,0
			36.0515022270001,-114.737480163,0
			36.0542297370002,-114.73501587,0
			36.0578918460001,-114.73602295,0
			36.061019898,-114.737815857,0
			36.0657005300001,-114.74030304,0
			36.0699996940002,-114.742126466,0
			36.0735588080001,-114.745109558,0
			36.077079773,-114.749786377,0
			36.0810699470002,-114.753921509,0
			36.0851287850001,-114.755210877,0
			36.091861726,-114.753005981,0
			36.0952491770001,-114.749313355,0
			36.1007118230002,-114.742996217,0
			36.1041908260001,-114.736610413,0
			36.1061210640001,-114.730339051,0
			36.1079406740001,-114.722236634,0
			36.108390808,-114.710487366,0
			36.1093711860001,-114.70565796,0
			36.1101493830001,-114.700508118,0
			36.11095047,-114.697471619,0
			36.1123008740001,-114.695297242,0
			36.1140098560001,-114.690681458,0
			36.113151551,-114.686851501,0
			36.1126594550001,-114.682151795,0
			36.1128501890001,-114.679885864,0
			36.1146507260001,-114.675392151,0
			36.1149406430001,-114.674667358,0
			36.1170692450002,-114.669792176,0
			36.1173820490001,-114.669036866,0
			36.119739532,-114.664253235,0
			36.121749879,-114.661979675,0
			36.1223602300001,-114.661293031,0
			36.1250419610001,-114.658363343,0
			36.126800538,-114.65600586,0
			36.1299095160001,-114.653053284,0
			36.1329193120002,-114.64868164,0
			36.1347198490001,-114.645462036,0
			36.1362991330001,-114.639686584,0
			36.1390991220001,-114.636360168,0
			36.1407508850001,-114.632125854,0
			36.1420593260001,-114.62979126,0
			36.1419601440001,-114.625808716,0
			36.1394004830001,-114.622695922,0
			36.1368598940001,-114.621437073,0
			36.1341018680002,-114.61982727,0
			36.133098603,-114.615890503,0
			36.13282013,-114.612213136,0
			36.1338195800001,-114.607688904,0
			36.136650085,-114.603233338,0
			36.140319824,-114.59790039,0
			36.1408691400002,-114.597106933,0
			36.1438598630001,-114.592109681,0
			36.1486396790002,-114.583366394,0
			36.1509208680002,-114.572937013,0
			36.1515388500002,-114.564979553,0
			36.1525802610001,-114.558700561,0
			36.1536407480002,-114.551368713,0
			36.1546592710001,-114.546272278,0
			36.1529998780001,-114.539382935,0
			36.1501693730001,-114.534858704,0
			36.1482620240001,-114.530937195,0
			36.1481590270002,-114.526947021,0
			36.1494522100002,-114.52406311,0
			36.151569366,-114.521087646,0
			36.1524086000002,-114.515388489,0
			36.1527519220002,-114.510818482,0
			36.151760102,-114.507431031,0
			36.1501121530001,-114.503936767,0
			36.1461601250002,-114.50138855,0
			36.1443595890001,-114.502029418,0
			36.14215088,-114.504386901,0
			36.139968873,-114.507896423,0
			36.1372795110001,-114.509780884,0
			36.134120941,-114.509841919,0
			36.1309013380001,-114.508262635,0
			36.1283187870001,-114.504356384,0
			36.1288299560001,-114.498077393,0
			36.1304702750002,-114.49118042,0
			36.1356391900002,-114.480148315,0
			36.1403617860001,-114.471138,0
			36.142730712,-114.466087341,0
			36.1423606870001,-114.462081909,0
			36.1409721370001,-114.457702636,0
			36.1370887750001,-114.453926086,0
			36.1316795340001,-114.449531555,0
			36.129749299,-114.4450531,0
			36.1273498540002,-114.4400177,0
			36.1320190430001,-114.433227539,0
			36.132450103,-114.432586669,0
			36.1372718810002,-114.424331665,0
			36.137748719,-114.423576354,0
			36.141910554,-114.417617797,0
			36.1461296090001,-114.410919189,0
			36.1466789250001,-114.404441833,0
			36.1473197940001,-114.396713258,0
			36.1456718450001,-114.388679504,0
			36.1439819330001,-114.382347107,0
			36.143798827,-114.373802184,0
			36.1413803110001,-114.368202209,0
			36.1362304700001,-114.36213684,0
			36.1316299440001,-114.360046387,0
			36.1268386850001,-114.35446167,0
			36.1241188050001,-114.35067749,0
			36.1211090090001,-114.346305848,0
			36.1154022220002,-114.341766358,0
			36.114330291,-114.341079711,0
			36.1106491090001,-114.338699342,0
			36.1081810000001,-114.334510803,0
			36.106040955,-114.329307557,0
			36.105659485,-114.328140259,0
			36.104358674,-114.324150085,0
			36.1020202640001,-114.321395874,0
			36.0987701420001,-114.318687439,0
			36.0944709780001,-114.315856934,0
			36.089969635,-114.312232971,0
			36.0867004390001,-114.308937072,0
			36.0825500490001,-114.306266785,0
			36.0779800430001,-114.305328368,0
			36.0734901430001,-114.307220459,0
			36.0705490120001,-114.311180115,0
			36.0699501040002,-114.311889648,0
			36.066799164,-114.315589904,0
			36.0628395080001,-114.316223144,0
			36.059589386,-114.313507081,0
			36.0576400750001,-114.308456422,0
			36.058021545,-114.304458617,0
			36.0584907520001,-114.29940033,0
			36.0567588810002,-114.295356751,0
			36.0544319150001,-114.290367127,0
			36.0510101320002,-114.287216187,0
			36.0492286680002,-114.28263092,0
			36.0480384820002,-114.276306153,0
			36.0466690060002,-114.27191925,0
			36.042282105,-114.269317628,0
			36.0359420780001,-114.268547057,0
			36.02973938,-114.266952515,0
			36.023151399,-114.258132934,0
			36.017818451,-114.245826722,0
			36.0151405330001,-114.240615845,0
			36.0139122010001,-114.233757019,0
			36.0145416250002,-114.224105835,0
			36.016559602,-114.213356018,0
			36.0199508660002,-114.201522826,0
			36.0227317810001,-114.193267822,0
			36.0239486690001,-114.188087464,0
			36.0265502930001,-114.183990479,0
			36.0290107730001,-114.177879333,0
			36.0291709910002,-114.175903321,0
			36.029590608,-114.171058654,0
			36.0287818900001,-114.165351869,0
			36.0290794370001,-114.160537721,0
			36.0284500120001,-114.154296876,0
			36.028800964,-114.150871278,0
			36.0305213940001,-114.147377014,0
			36.0313796990001,-114.147216797,0
			36.0345916750002,-114.145599366,0
			36.0364112850001,-114.145080566,0
			36.03812027,-114.143058777,0
			36.0416488650002,-114.13948822,0
			36.0456619260002,-114.137031554,0
			36.0501709000002,-114.136886597,0
			36.0524787900002,-114.136810304,0
			36.0597190850002,-114.136405945,0
			36.0678100590001,-114.133766174,0
			36.0793609630002,-114.128082275,0
			36.08885193,-114.123146056,0
			36.0932502760002,-114.118400574,0
			36.0963706970001,-114.116027832,0
			36.0999717710002,-114.115249634,0
			36.1022605900001,-114.116760254,0
			36.105381012,-114.119697572,0
			36.1083717350001,-114.123420716,0
			36.1130409240002,-114.122756958,0
			36.117172242,-114.120033265,0
			36.1194992060001,-114.115516663,0
			36.121440887,-114.109321593,0
			36.1241302500001,-114.102767944,0
			36.1276893620002,-114.100326539,0
			36.1352615370001,-114.097740173,0
			36.1415901190001,-114.094566345,0
			36.14812851,-114.088409423,0
			36.1553688040001,-114.084266662,0
			36.1651000980001,-114.078048706,0
			36.1754493720002,-114.073028565,0
			36.1764602650001,-114.072532654,0
			36.1777305600001,-114.071823121,0
			36.1820297240002,-114.069396972,0
			36.1886711120001,-114.062667847,0
			36.189250947,-114.062080382,0
			36.194011688,-114.05457306,0
			36.1950988760001,-114.048652648,0
			36.2047195440001,-114.048309327,0
			36.2310409550001,-114.048309327,0
			36.4888114940002,-114.047966003,0
			36.513568879,-114.048042297,0
			36.580680847,-114.048316955,0
			36.712100982,-114.048866273,0
			36.8060913090001,-114.049285888,0
			36.809230804,-114.049285888,0
			36.8241996780001,-114.049468994,0
			36.8428192150001,-114.049682616,0
			36.9979896540001,-114.050949096,0
			36.9999885550002,-114.050956726,0
			37.0004501340001,-114.006736756,0
			37.0004997260001,-113.989448546,0
			37.0006408700001,-113.934700013,0
			37.0006904600001,-113.916831971,0
			37.000740051,-113.898399352,0
			37.0007514960002,-113.8936615,0
			37.0009613030001,-113.88053894,0
			37.0008888250001,-113.855178832,0
			37.0009002680001,-113.835586549,0
			37.000911713,-113.826362609,0
			37.000911713,-113.82434082,0
			37.0009193410001,-113.808502197,0
			37.0009307870002,-113.788902283,0
			37.00094986,-113.77218628,0
			37.0009613030001,-113.769889833,0
			37.001270295,-113.723770142,0
			37.00133133,-113.715126037,0
			37.0013389580001,-113.713981628,0
			37.0010719310001,-113.703018189,0
			37.00094986,-113.697837829,0
			37.0011596680002,-113.68170929,0
			37.0013999940002,-113.663269044,0
			37.001449586,-113.659812927,0
			37.0015411380002,-113.642517089,0
			37.001628877,-113.627548218,0
			37.0017089850001,-113.535896301,0
			37.0017089850001,-113.515159606,0
			37.0017089850001,-113.499588012,0
			37.0016899120002,-113.4817276,0
			37.0016708370001,-113.463287353,0
			37.0016593930001,-113.444847107,0
			37.001628877,-113.41142273,0
			37.0016899120002,-113.39125824,0
			37.001750945,-113.372810363,0
			37.001819611,-113.353233338,0
			37.0018806460002,-113.334777831,0
			37.0020103450001,-113.296173095,0
			37.0021705620002,-113.281188965,0
			37.0020713800001,-113.277153016,0
			37.0021400460001,-113.263320923,0
			37.0022392280002,-113.242576598,0
			37.0023307800001,-113.224708556,0
			37.0023498530002,-113.220108033,0
			37.0023803720001,-113.188980102,0
			37.0024108890001,-113.17111969,0
			37.0024108890001,-113.167655945,0
			37.0024604810001,-113.152679443,0
			37.002449035,-113.132507323,0
			37.0024414070001,-113.095626832,0
			37.002578736,-113.078330994,0
			37.0025291440002,-113.06047058,0
			37.0025215160001,-113.057006835,0
			37.0025291440002,-113.038581849,0
			37.002552033,-113.003433227,0
			37.0025405890001,-113.001686095,0
			37.0026893620001,-112.96711731,0
			37.0027198800001,-112.959060668,0
			37.0028305060001,-112.944335938,0
			37.0027885440002,-112.93081665,0
			37.0026893620001,-112.9037323,0
			37.0028305060001,-112.869743347,0
			37.0030097970001,-112.823051452,0
			37.0033302310001,-112.744689942,0
			37.0031089790001,-112.705513,0
			37.003131867,-112.62310028,0
			37.003150941,-112.542419434,0
		</coordinates>
	</polygon>
</kml>
