<?xml version="1.0" encoding="UTF-8"?>
<kml xmlns="http://earth.google.com/kml/2.2">
	<polygon id="USA_NE_Box_Butte" samplingProbability="1">
		<coordinates>
			42.4387397760001,-103.444366454,0
			42.437740326,-103.360992432,0
			42.4375801090002,-103.241607665,0
			42.4381103510001,-103.089302063,0
			42.43909073,-102.888526917,0
			42.44021988,-102.77419281,0
			42.4393692030001,-102.749916077,0
			42.4144783020001,-102.74987793,0
			42.3575592040002,-102.749786377,0
			42.353050233,-102.747749328,0
			42.270790101,-102.747611999,0
			42.1809196470002,-102.74282837,0
			42.092300415,-102.743057251,0
			42.092231751,-102.703460693,0
			42.0051002510001,-102.69885254,0
			42.0026206970001,-102.81490326,0
			42.0021896370001,-102.935966491,0
			42.002681733,-103.052146912,0
			42.0021400450001,-103.168907166,0
			42.0036621090001,-103.36051941,0
			42.0040016170001,-103.399459839,0
			42.090301513,-103.401191711,0
			42.090480804,-103.445747376,0
			42.1759796150001,-103.443778991,0
			42.2646408080001,-103.443199157,0
			42.4144783020001,-103.444206239,0
			42.4387397760001,-103.444366454,0
		</coordinates>
	</polygon>
</kml>
