<?xml version="1.0" encoding="UTF-8"?>
<kml xmlns="http://earth.google.com/kml/2.2">
	<polygon id="USA_MI_Newaygo" samplingProbability="1">
		<coordinates>
			43.2940101630002,-85.56388092,0
			43.2929306030002,-85.6746292119999,0
			43.2922515880001,-85.7916564939999,0
			43.2910118100001,-85.909317017,0
			43.2915191660002,-85.9225311289999,0
			43.2933120730001,-86.02883911,0
			43.2933502200001,-86.0395431519999,0
			43.380260467,-86.0408477779999,0
			43.4667205810002,-86.040901183,0
			43.5518302920001,-86.0409622179999,0
			43.5959815980001,-86.0400314319999,0
			43.6105499260001,-86.0399322499999,0
			43.6396789560001,-86.0391082759999,0
			43.7275390630002,-86.038520814,0
			43.8140602120001,-86.038566589,0
			43.813610076,-85.9244613639999,0
			43.8139495850002,-85.8040084849999,0
			43.8138504030001,-85.7862472529999,0
			43.8137207040001,-85.6848220819999,0
			43.8142204300001,-85.619522095,0
			43.8142890930002,-85.5643615729999,0
			43.7437095640001,-85.564056396,0
			43.6986312860001,-85.5634078979999,0
			43.6399002090001,-85.5629501339999,0
			43.554321289,-85.5634765629999,0
			43.4660301210001,-85.564056396,0
			43.4054985050001,-85.5642471319998,0
			43.2940101630002,-85.56388092,0
		</coordinates>
	</polygon>
</kml>
