<?xml version="1.0" encoding="UTF-8"?>
<kml xmlns="http://earth.google.com/kml/2.2">
	<polygon id="USA_OR_Malheur" samplingProbability="1">
		<coordinates>
			43.8819885250001,-116.981758118,0
			43.8772087090002,-116.981819154,0
			43.8703689580001,-116.981536866,0
			43.8668785100002,-116.982597351,0
			43.8639297490001,-116.9894104,0
			43.8648109430001,-116.997512817,0
			43.8631286620001,-117.009506226,0
			43.8593788160001,-117.020256043,0
			43.8559112560001,-117.019241333,0
			43.8528709410002,-117.012420655,0
			43.8505210880002,-117.010032654,0
			43.846240998,-117.009407044,0
			43.8429107670001,-117.008438111,0
			43.8407211310001,-117.01097107,0
			43.8403396610001,-117.017417907,0
			43.842990876,-117.02179718,0
			43.8377304090001,-117.029556274,0
			43.8297615060001,-117.032302857,0
			43.8256797790001,-117.025390625,0
			43.8227500920001,-117.020957948,0
			43.8215408330001,-117.021476745,0
			43.816558837,-117.023651124,0
			43.8153686530001,-117.024169921,0
			43.8091392520001,-117.026878358,0
			43.8082008360001,-117.027061462,0
			43.8068695080001,-117.027046203,0
			43.7786407480002,-117.027107239,0
			43.681621551,-117.027328491,0
			43.5644989010001,-117.027587891,0
			43.2348289500001,-117.027549744,0
			43.2202606200001,-117.027572633,0
			43.143989563,-117.027687073,0
			43.1333198560001,-117.027648926,0
			43.1162300100001,-117.028076172,0
			43.1046600350002,-117.028068543,0
			43.0605010990001,-117.028022766,0
			43.0313796990002,-117.027992248,0
			43.023860932,-117.02810669,0
			43.0163688660001,-117.028076172,0
			42.9533500680001,-117.028129577,0
			42.9242401130001,-117.028152465,0
			42.8805809030002,-117.028182984,0
			42.852378846,-117.028205872,0
			42.8421020520001,-117.028068543,0
			42.8270988470001,-117.027870179,0
			42.809181214,-117.027641296,0
			42.7555007940001,-117.028549194,0
			42.7004890440002,-117.028450012,0
			42.6781997690001,-117.028411865,0
			42.6283187870001,-117.028038025,0
			42.5646400450001,-117.028396606,0
			42.503620148,-117.028427123,0
			42.4354209900001,-117.028861999,0
			42.4268608090002,-117.028923034,0
			42.4145202640001,-117.028869629,0
			42.4144783020001,-117.028869629,0
			42.3967895500001,-117.028808593,0
			42.381790162,-117.028762816,0
			42.3486709600001,-117.028617859,0
			42.3282318120001,-117.028526305,0
			42.281822205,-117.0287323,0
			42.147769929,-117.02910614,0
			42.1332092290002,-117.029151917,0
			42.0605087270002,-117.02937317,0
			42.0541610720002,-117.029411316,0
			42.0455207830001,-117.029388428,0
			42.0009689330002,-117.029266357,0
			42.0003089910001,-117.029266357,0
			42.0003089910001,-117.029808045,0
			41.9990615850001,-117.230743408,0
			41.9985389710001,-117.286376953,0
			41.9984016420001,-117.40032196,0
			41.998809814,-117.489852905,0
			41.9987716670001,-117.503837585,0
			41.9987220770001,-117.529991151,0
			41.9986610420001,-117.558197022,0
			41.9984092720001,-117.611961364,0
			41.9984207150001,-117.616447449,0
			41.998371125,-117.650886536,0
			41.9983406070002,-117.669418334,0
			41.9982795710001,-117.708335876,0
			41.9982414250001,-117.715240479,0
			41.9981613160002,-117.772605897,0
			41.9981613160002,-117.773277283,0
			41.998081207,-117.806587219,0
			41.9980506900001,-117.828857423,0
			41.997890473,-117.92642212,0
			41.9974021900001,-118.019088745,0
			41.9974288940001,-118.042556762,0
			41.9971199040002,-118.078399659,0
			41.996799469,-118.135238647,0
			41.9967002870002,-118.155006409,0
			41.9964790340001,-118.195159913,0
			42.0492897040002,-118.19403839,0
			42.0633621210002,-118.193572998,0
			42.1355705270001,-118.191802978,0
			42.1483001710002,-118.192619324,0
			42.2223396310001,-118.191406249,0
			42.2359809870001,-118.191566467,0
			42.2750396730002,-118.190902711,0
			42.2754211430001,-118.211967468,0
			42.304039001,-118.211647033,0
			42.319049835,-118.212402343,0
			42.3335990910002,-118.212539672,0
			42.347690582,-118.21269989,0
			42.3622322080001,-118.212837219,0
			42.4144783020001,-118.213760377,0
			42.4486122130001,-118.214363098,0
			42.4631500250002,-118.213867187,0
			42.492698669,-118.214141845,0
			42.5358886730002,-118.214591981,0
			42.550430297,-118.21472931,0
			42.6227302550001,-118.21546936,0
			42.6372795120001,-118.215606689,0
			42.7109413160001,-118.215682984,0
			42.72549057,-118.215820313,0
			42.7968902590002,-118.216590882,0
			42.8118896490001,-118.216087341,0
			42.9128685010002,-118.217140198,0
			42.9130592350002,-118.227767943,0
			42.9276199340001,-118.227920533,0
			43.0008621220001,-118.228637696,0
			43.000381469,-118.227401733,0
			43.0144920350002,-118.227561951,0
			43.0290489200002,-118.22770691,0
			43.0435905460002,-118.227226258,0
			43.0581588740001,-118.227386475,0
			43.0872688300001,-118.227676391,0
			43.100929261,-118.227851867,0
			43.172359468,-118.227996826,0
			43.173278808,-118.228607178,0
			43.188758851,-118.228721618,0
			43.2461013810001,-118.229339599,0
			43.2615699780002,-118.2294693,0
			43.2893409720001,-118.229797363,0
			43.3038902290002,-118.229316711,0
			43.3184700020001,-118.23010254,0
			43.3334884650001,-118.230239869,0
			43.348968506,-118.230346679,0
			43.3486099240002,-118.236038208,0
			43.3627204900001,-118.236198426,0
			43.3772811900001,-118.235717773,0
			43.391841888,-118.235237121,0
			43.405948639,-118.235397338,0
			43.4209594720001,-118.234909058,0
			43.4346199040001,-118.235076903,0
			43.448741914,-118.235252381,0
			43.5065422050001,-118.234596253,0
			43.521099092,-118.234123231,0
			43.5356788630002,-118.234268188,0
			43.5743789680001,-118.23425293,0
			43.6294593820001,-118.233680725,0
			43.6977615350002,-118.233306885,0
			43.7241821280001,-118.233695984,0
			43.7674522410002,-118.233543396,0
			43.7797508250001,-118.233772277,0
			43.7792320250001,-118.229988097,0
			43.865310669,-118.229019164,0
			43.8944587700001,-118.228675843,0
			43.9085807790001,-118.228851319,0
			43.9532318110001,-118.228637696,0
			43.9673614510002,-118.228813172,0
			44.011550904,-118.228599547,0
			44.0388984680001,-118.228958129,0
			44.0530204770001,-118.228477479,0
			44.0680618300001,-118.228622436,0
			44.0967903140001,-118.22957611,0
			44.1259498600002,-118.229232789,0
			44.1400985730001,-118.230041505,0
			44.1542320250002,-118.230201722,0
			44.211681367,-118.230827332,0
			44.211730957,-118.234016418,0
			44.2263221730001,-118.234169006,0
			44.24044037,-118.233070374,0
			44.2564010630002,-118.233169556,0
			44.256530761,-118.214653016,0
			44.25617981,-118.194236755,0
			44.2707519530001,-118.193107604,0
			44.2706985480002,-118.189918517,0
			44.2713317870001,-118.173927308,0
			44.2714386000001,-118.154136658,0
			44.2996902460002,-118.153167725,0
			44.2997818000001,-118.132720947,0
			44.3134689340001,-118.132888795,0
			44.3135604860001,-118.112442017,0
			44.3286209120001,-118.113189697,0
			44.3291893010001,-118.094627379,0
			44.342411041,-118.094169618,0
			44.3426895140001,-118.084571838,0
			44.3572692870002,-118.084053039,0
			44.357059479,-118.072563171,0
			44.371181489,-118.071411134,0
			44.3708305370001,-118.052238465,0
			44.3922500610001,-118.051483155,0
			44.3918991090002,-118.032936096,0
			44.4146919250001,-118.032112122,0
			44.4147720340001,-118.011627197,0
			44.4279899610002,-118.011146545,0
			44.4273414610001,-118.000930786,0
			44.4272384650001,-117.971496582,0
			44.4427490250001,-117.971572876,0
			44.443519593,-117.869766235,0
			44.4441108710001,-117.830688476,0
			44.4453887940001,-117.650131226,0
			44.4458503730002,-117.60849762,0
			44.4459190380001,-117.590568542,0
			44.4322204590001,-117.589866639,0
			44.432231904,-117.569396972,0
			44.4171791090002,-117.569396972,0
			44.4171714790001,-117.527816772,0
			44.4025688170001,-117.527816772,0
			44.403041839,-117.507957458,0
			44.3870811460001,-117.508026124,0
			44.3870086680001,-117.48500824,0
			44.2998695370002,-117.483757019,0
			44.299991608,-117.469062806,0
			44.3004188530001,-117.428161622,0
			44.300880432,-117.389167785,0
			44.3013305660002,-117.350166322,0
			44.3016510010001,-117.26838684,0
			44.301609039,-117.247947692,0
			44.301780701,-117.21813202,0
			44.2989807130002,-117.218017577,0
			44.2951316830002,-117.215919494,0
			44.2927894600001,-117.214370728,0
			44.2879600520002,-117.207008361,0
			44.283199311,-117.202140808,0
			44.2809410100001,-117.200988769,0
			44.277610779,-117.199279784,0
			44.2721405030002,-117.193038941,0
			44.2712402350001,-117.192008973,0
			44.2643508900001,-117.180976869,0
			44.2616195670001,-117.172546386,0
			44.2613906860001,-117.171142578,0
			44.2603302000001,-117.164367676,0
			44.2591590890001,-117.157691955,0
			44.2572021480001,-117.152412415,0
			44.2572212210002,-117.151870727,0
			44.2573394770002,-117.148048401,0
			44.2574005120002,-117.1460495,0
			44.257598876,-117.144866944,0
			44.2588615430001,-117.141876221,0
			44.2593917850002,-117.14061737,0
			44.2632904050001,-117.137397767,0
			44.2694511420002,-117.131866455,0
			44.2701721200002,-117.131309509,0
			44.2740287790001,-117.129196167,0
			44.2789306640001,-117.124488832,0
			44.2809906000002,-117.118843079,0
			44.2812995920002,-117.117980957,0
			44.2811393740002,-117.115180968,0
			44.2809295650002,-117.113533021,0
			44.2806205750002,-117.1120224,0
			44.280139923,-117.109657287,0
			44.2763900770001,-117.101036073,0
			44.275409698,-117.099189759,0
			44.2718391410001,-117.092430115,0
			44.267318727,-117.09034729,0
			44.259658813,-117.086219788,0
			44.2530899050001,-117.083068848,0
			44.251010895,-117.081092834,0
			44.2494201660001,-117.079338074,0
			44.2449798580001,-117.07447052,0
			44.2443008430001,-117.073036193,0
			44.241100311,-117.066299438,0
			44.2395820620001,-117.063110351,0
			44.2351608270001,-117.055931092,0
			44.2329292300001,-117.052017211,0
			44.233009339,-117.051490784,0
			44.2334518430001,-117.047920226,0
			44.2364196790002,-117.045181275,0
			44.237670898,-117.043899536,0
			44.2422714230001,-117.042160034,0
			44.246768951,-117.038406373,0
			44.2477989200001,-117.036872864,0
			44.2486801160002,-117.035263061,0
			44.2489395150001,-117.03478241,0
			44.2500419620001,-117.029663086,0
			44.2496604920001,-117.024436951,0
			44.2492904670002,-117.022026063,0
			44.2484588630001,-117.015541077,0
			44.2475700390001,-117.008590698,0
			44.2475509650001,-117.007888793,0
			44.2475013730001,-117.000923157,0
			44.2474288950002,-116.992607117,0
			44.247402191,-116.989646911,0
			44.2472496040001,-116.988113404,0
			44.2467002880002,-116.986366272,0
			44.2448005690001,-116.98034668,0
			44.2420692440002,-116.976753234,0
			44.2395286570002,-116.973396302,0
			44.2391700750002,-116.972831725,0
			44.2348022460002,-116.970962525,0
			44.2292594910001,-116.970321655,0
			44.2275314330001,-116.970771789,0
			44.2253494270001,-116.971305846,0
			44.2247810360002,-116.971336365,0
			44.2162399280002,-116.97164917,0
			44.212490082,-116.972099304,0
			44.2115821850002,-116.97213745,0
			44.2093391420001,-116.971817017,0
			44.2052612310001,-116.970832824,0
			44.2020721440001,-116.970046997,0
			44.1968688960002,-116.966827392,0
			44.1963691720001,-116.966362,0
			44.196220398,-116.965850831,0
			44.1956901550001,-116.96396637,0
			44.194568635,-116.960021973,0
			44.1948814400001,-116.954528808,0
			44.195251465,-116.947929383,0
			44.1947898860001,-116.942382813,0
			44.1944999700001,-116.938972474,0
			44.1923408510001,-116.932937621,0
			44.1908187870001,-116.929367066,0
			44.1888809210001,-116.924850464,0
			44.1880493170001,-116.922927857,0
			44.1857795710001,-116.917610168,0
			44.1787414560001,-116.903343201,0
			44.175479888,-116.898880005,0
			44.1747589120001,-116.897895814,0
			44.1702613840001,-116.893478394,0
			44.164779664,-116.892807008,0
			44.1630096440002,-116.892936706,0
			44.1593017580001,-116.893241883,0
			44.1551704410002,-116.895217896,0
			44.1551704410002,-116.896133424,0
			44.1475791930002,-116.900276183,0
			44.1466293340002,-116.901145936,0
			44.1454620370002,-116.902320861,0
			44.1422386180002,-116.905548095,0
			44.1413002020001,-116.906471253,0
			44.1387519850001,-116.908996582,0
			44.1378593450001,-116.909683228,0
			44.1367721570001,-116.909889221,0
			44.1354484550001,-116.91014099,0
			44.1320800790002,-116.911872864,0
			44.1305618290001,-116.912345886,0
			44.128398895,-116.912902832,0
			44.1260719300001,-116.913330077,0
			44.12430191,-116.913658142,0
			44.1220512400002,-116.914169311,0
			44.1211090080002,-116.914398194,0
			44.116500855,-116.915527343,0
			44.1134796150002,-116.9167099,0
			44.1116905220002,-116.917579651,0
			44.1075820920001,-116.919570922,0
			44.1070785530001,-116.920097352,0
			44.1033096310002,-116.924400331,0
			44.1014709480002,-116.926849365,0
			44.1010093690001,-116.927589417,0
			44.0976600640001,-116.93296051,0
			44.096569061,-116.935623169,0
			44.095611573,-116.938766479,0
			44.093849183,-116.94455719,0
			44.093330384,-116.94683838,0
			44.0920715330001,-116.952476501,0
			44.0907707210001,-116.958007813,0
			44.0893516550001,-116.962486268,0
			44.088699342,-116.964500427,0
			44.0872917180001,-116.96887207,0
			44.086769104,-116.969436646,0
			44.0844993600002,-116.971946716,0
			44.079299926,-116.972831725,0
			44.0776290900001,-116.973106383,0
			44.0748901370001,-116.972496032,0
			44.0735397340002,-116.972236633,0
			44.071109772,-116.972129822,0
			44.0680885310001,-116.972106934,0
			44.065269471,-116.971687317,0
			44.0557098390001,-116.970657348,0
			44.0539512640001,-116.969772339,0
			44.0506706250001,-116.968109131,0
			44.050060273,-116.967796327,0
			44.0475006110001,-116.963928223,0
			44.0458488460002,-116.960319519,0
			44.043560029,-116.955299376,0
			44.0411491390001,-116.950019836,0
			44.0394897460002,-116.947341918,0
			44.037620546,-116.944206239,0
			44.0341796870002,-116.938476563,0
			44.0300598140001,-116.936370849,0
			44.0268287650002,-116.934608459,0
			44.0231590280001,-116.933792114,0
			44.0199089060001,-116.933547974,0
			44.015029907,-116.933181762,0
			44.0104293820002,-116.935546875,0
			44.0090293890001,-116.938056946,0
			44.0079689040002,-116.939117431,0
			44.006381989,-116.940711975,0
			44.004829407,-116.94178009,0
			44.0044212350002,-116.94216156,0
			44.0029792800001,-116.941802979,0
			43.999401092,-116.940887451,0
			43.9956512440001,-116.938552856,0
			43.9933509840002,-116.937103271,0
			43.9916419990001,-116.935997009,0
			43.9886016840002,-116.937255858,0
			43.9871902470002,-116.938552856,0
			43.9867515570001,-116.939468384,0
			43.9861793530002,-116.94178009,0
			43.9859619150001,-116.942466735,0
			43.9847908030001,-116.946868896,0
			43.984458924,-116.948120117,0
			43.9826698310001,-116.949935913,0
			43.9805717470001,-116.952072143,0
			43.978000642,-116.954696655,0
			43.9755821240001,-116.957153321,0
			43.9751091010002,-116.957916259,0
			43.973190307,-116.960998536,0
			43.972629548,-116.962356567,0
			43.97113037,-116.965927124,0
			43.9695396430001,-116.96924591,0
			43.967819215,-116.972801209,0
			43.9658203140001,-116.975891114,0
			43.96403122,-116.977111816,0
			43.962280273,-116.976966859,0
			43.9595985420001,-116.973777772,0
			43.9587211610001,-116.969367981,0
			43.9577217100001,-116.965507507,0
			43.9572105400001,-116.964416504,0
			43.9563293460001,-116.962150575,0
			43.9556808480002,-116.961517335,0
			43.9542198180001,-116.960472106,0
			43.9536895750002,-116.960510253,0
			43.9507293690002,-116.960746764,0
			43.9481201170001,-116.96269989,0
			43.947608948,-116.963279725,0
			43.941940307,-116.967422485,0
			43.9383888260001,-116.968490602,0
			43.9357986450001,-116.96647644,0
			43.9333686830001,-116.964538574,0
			43.93265152,-116.963500976,0
			43.9304389960001,-116.961273194,0
			43.9291419980001,-116.959877013,0
			43.9267501830001,-116.95955658,0
			43.923110962,-116.959747315,0
			43.9197692880001,-116.959632874,0
			43.9161300650002,-116.960289002,0
			43.9125900270002,-116.961990357,0
			43.91186142,-116.962821961,0
			43.9096794130001,-116.965270996,0
			43.9080886840002,-116.967361451,0
			43.906761169,-116.968658447,0
			43.903270723,-116.972076415,0
			43.9016189580001,-116.973442079,0
			43.8966789240001,-116.975936891,0
			43.894309998,-116.976882935,0
			43.8892822270001,-116.978866578,0
			43.8856697080001,-116.980300903,0
			43.8819885250001,-116.981758118,0
		</coordinates>
	</polygon>
</kml>
