<?xml version="1.0" encoding="UTF-8"?>
<kml xmlns="http://earth.google.com/kml/2.2">
	<polygon id="USA_MO_Saint_Charles" samplingProbability="1">
		<coordinates>
			38.9369316110001,-90.663696289,0
			38.9322319030001,-90.6622314449999,0
			38.928131104,-90.6611480719998,0
			38.92383957,-90.6581573489999,0
			38.9207992550001,-90.6560058589999,0
			38.9184494030002,-90.652763366,0
			38.9161911020001,-90.6508026119999,0
			38.9135208140002,-90.6467666629999,0
			38.9108314510001,-90.6431732169999,0
			38.9082221990001,-90.6392669689999,0
			38.905899047,-90.637176513,0
			38.9037094120001,-90.6345596309999,0
			38.9000587460001,-90.632881165,0
			38.8973121650001,-90.6311798099999,0
			38.8923988340001,-90.626922608,0
			38.8890190130001,-90.6225204469999,0
			38.885700226,-90.615592957,0
			38.8820114130001,-90.6085128779999,0
			38.876789093,-90.5983123769999,0
			38.874019623,-90.5903930659999,0
			38.8723793040001,-90.584648132,0
			38.8701705930001,-90.5781173709999,0
			38.8692207330002,-90.572792054,0
			38.8700218210002,-90.5662689209999,0
			38.8712387080001,-90.55921936,0
			38.8729896550001,-90.5531768799999,0
			38.87651062,-90.5465774529999,0
			38.8790893560002,-90.542190552,0
			38.8827514650001,-90.5375061029999,0
			38.8871688840001,-90.5321121219999,0
			38.891620636,-90.527259828,0
			38.896480561,-90.521156312,0
			38.9006004340001,-90.516479493,0
			38.9031410230001,-90.510375977,0
			38.905330658,-90.5061798099999,0
			38.9079589840001,-90.503570558,0
			38.913440705,-90.4977264409999,0
			38.9183006280001,-90.494583129,0
			38.9249992370001,-90.4884872439999,0
			38.9316902160002,-90.483779908,0
			38.9362297060001,-90.482070923,0
			38.9398689270002,-90.481529235,0
			38.9444007890002,-90.4804077149999,0
			38.9493217470002,-90.478942871,0
			38.952129364,-90.476951598,0
			38.9525718690002,-90.4766387929998,0
			38.9569396970001,-90.4733963009999,0
			38.9614105230002,-90.4697265619999,0
			38.9640197760001,-90.4652786259999,0
			38.9663200380002,-90.4599761969999,0
			38.9675102240001,-90.45475769,0
			38.9684600840001,-90.4493331909999,0
			38.9687614450001,-90.4476165779999,0
			38.9684715270001,-90.444770813,0
			38.968219757,-90.4423065189998,0
			38.9678611760002,-90.4369277949999,0
			38.9669914250001,-90.432182312,0
			38.9661407470002,-90.4263763429999,0
			38.96554947,-90.4181060779999,0
			38.9649009720002,-90.4073028569999,0
			38.9634094240001,-90.3992309559998,0
			38.9614715590002,-90.3915863029999,0
			38.959510804,-90.382766724,0
			38.9560699460001,-90.3746414189998,0
			38.9524002080001,-90.365226745,0
			38.9480400090002,-90.3573913579999,0
			38.9425315860001,-90.3448028559999,0
			38.9382095340001,-90.33657074,0
			38.9345588680002,-90.3296585079999,0
			38.931499482,-90.3234786989999,0
			38.929309844,-90.315032958,0
			38.9272003180001,-90.3079071039999,0
			38.926200866,-90.3009414679999,0
			38.926239013,-90.2949981689999,0
			38.9262695320002,-90.290267945,0
			38.926250458,-90.2897033689998,0
			38.9258689880001,-90.2826080309999,0
			38.9254684440002,-90.2772827139999,0
			38.9254302970001,-90.2766876209999,0
			38.9248695380002,-90.269012451,0
			38.9237403880002,-90.2606964119999,0
			38.9224090580001,-90.2553558339999,0
			38.9197311400001,-90.248817443,0
			38.9180603020001,-90.2437820439999,0
			38.915241242,-90.237953186,0
			38.9099006650002,-90.2256622299999,0
			38.9054107670001,-90.218521118,0
			38.9004592900002,-90.211372376,0
			38.8965110770001,-90.205406189,0
			38.8927803050001,-90.20021057,0
			38.889068604,-90.195587158,0
			38.8860893260001,-90.188766479,0
			38.884319306,-90.183921814,0
			38.8824195870001,-90.1792526249999,0
			38.8802795420001,-90.173347474,0
			38.878131866,-90.168151855,0
			38.875301361,-90.1623306279999,0
			38.872219086,-90.1555404669999,0
			38.8658790590001,-90.1437072749999,0
			38.8605499270002,-90.133583068,0
			38.8555107110002,-90.1233673089999,0
			38.8533706660001,-90.1181488039999,0
			38.85079956,-90.114059448,0
			38.847129823,-90.1118164059999,0
			38.842559814,-90.1095962519999,0
			38.838001251,-90.108566283,0
			38.8334693910001,-90.1091232289999,0
			38.8285102850001,-90.1100692759999,0
			38.8217506410002,-90.1120605469999,0
			38.8154487610001,-90.114631652,0
			38.810489654,-90.1159667969999,0
			38.8059997560002,-90.1184768679999,0
			38.8119506850001,-90.121238709,0
			38.8206596380001,-90.12626648,0
			38.829559327,-90.141349792,0
			38.8296203620002,-90.1442871089999,0
			38.8296508790002,-90.1460723879999,0
			38.8289794930002,-90.1585006709999,0
			38.8217506410002,-90.183547974,0
			38.8238792410001,-90.200607299,0
			38.8342094430002,-90.2197875969999,0
			38.8426399230001,-90.23488617,0
			38.8431205750002,-90.2360610949999,0
			38.8511199950001,-90.252357483,0
			38.853961946,-90.258766174,0
			38.8544387830001,-90.2599411009999,0
			38.8632202150002,-90.269706726,0
			38.8650588990001,-90.270835877,0
			38.8668785090002,-90.271377563,0
			38.8691787720002,-90.2730789189998,0
			38.871952057,-90.27596283,0
			38.8747215260001,-90.278816223,0
			38.8811492920001,-90.283363342,0
			38.8816108710002,-90.283943176,0
			38.8834609980001,-90.285652161,0
			38.8848419200001,-90.2867965699999,0
			38.885318755,-90.2879562369999,0
			38.885318755,-90.28855133,0
			38.8871803280001,-90.2908630379999,0
			38.8881187440002,-90.2926101679999,0
			38.889030457,-90.293167114,0
			38.8895111090002,-90.2943420409999,0
			38.8895187370001,-90.2949295039999,0
			38.8899803160002,-90.295509338,0
			38.8909301760001,-90.2978363049999,0
			38.8918685920001,-90.2995910639999,0
			38.8923301690002,-90.3001632689999,0
			38.8928298950001,-90.3025207519999,0
			38.8928298950001,-90.303108214,0
			38.8933219900001,-90.304870605,0
			38.8933410640001,-90.3060531619999,0
			38.8938522350002,-90.3089904779999,0
			38.8947792060001,-90.3107376089999,0
			38.895259858,-90.3118972779999,0
			38.8952903750002,-90.3136672969999,0
			38.8953018180001,-90.31427002,0
			38.895328522,-90.31604004,0
			38.8949508670001,-90.32019043,0
			38.8949584970001,-90.320793153,0
			38.8945198060001,-90.321388246,0
			38.89453888,-90.3225708009999,0
			38.8941116340001,-90.3237686149999,0
			38.8941192630001,-90.32435608,0
			38.894142151,-90.3255386349999,0
			38.8937110910001,-90.3267364489999,0
			38.8932609550001,-90.3273391719999,0
			38.892818452,-90.327941895,0
			38.8923912040001,-90.3291397089999,0
			38.8919601440001,-90.3303375249999,0
			38.891059877,-90.3309631349999,0
			38.8901786800001,-90.3321609499999,0
			38.8892898560001,-90.3333663949999,0
			38.8883895870001,-90.3339920039999,0
			38.8870506290002,-90.3352127079999,0
			38.886611938,-90.3358230599999,0
			38.8852615350001,-90.3364486689999,0
			38.8848190320002,-90.3370513919999,0
			38.8798599240002,-90.3383789069999,0
			38.8771514900001,-90.339050293,0
			38.87625122,-90.3396682749999,0
			38.8748893740001,-90.3397064219999,0
			38.8726501470001,-90.340957641,0
			38.8717422490001,-90.3409881589999,0
			38.870830536,-90.341011048,0
			38.8667907720001,-90.342910767,0
			38.8613395690002,-90.3424758909999,0
			38.8581695560002,-90.3425674429999,0
			38.8509597780001,-90.345146179,0
			38.8500518800001,-90.345176696,0
			38.8365898140001,-90.3532562259999,0
			38.8290100090001,-90.3605728149999,0
			38.8228721620002,-90.372566224,0
			38.8222122200001,-90.3867568969999,0
			38.8257102970001,-90.406150818,0
			38.8291587840002,-90.422599793,0
			38.8291702270002,-90.4231872559999,0
			38.829200745,-90.424957276,0
			38.8292999280001,-90.4308624259999,0
			38.8293495180002,-90.433807374,0
			38.8271903990001,-90.4403839119999,0
			38.8218688970002,-90.4476165779999,0
			38.8196487430002,-90.4500427249999,0
			38.8057708750001,-90.4610595709999,0
			38.8048820510002,-90.461677552,0
			38.7972793570001,-90.4683761589999,0
			38.7896690380001,-90.473922729,0
			38.7833518990001,-90.4758682249999,0
			38.7824516300001,-90.4764862059999,0
			38.7712020880001,-90.481506349,0
			38.7703094480001,-90.482131958,0
			38.7653694150001,-90.4852218629999,0
			38.7644691470002,-90.485832214,0
			38.7555503840001,-90.494346618,0
			38.7475318910002,-90.5034179679999,0
			38.7453308110001,-90.507606507,0
			38.7400207520001,-90.515426636,0
			38.7364997870001,-90.5220108039999,0
			38.733440399,-90.5291671749999,0
			38.7267112730001,-90.5334930419999,0
			38.72126007,-90.533042909,0
			38.7089805600001,-90.530426026,0
			38.6972007750001,-90.530738831,0
			38.6936187750002,-90.5337829589998,0
			38.6914100640001,-90.537376404,0
			38.688381195,-90.5463104249999,0
			38.686260223,-90.555801393,0
			38.6845817560002,-90.564102172,0
			38.6851692210002,-90.601821899,0
			38.6853790290002,-90.6159667969999,0
			38.6896209720001,-90.6264572139999,0
			38.6915893550001,-90.637031554,0
			38.6912689220001,-90.6458816539999,0
			38.6882400510001,-90.655403137,0
			38.6874389650001,-90.662490845,0
			38.6803894050001,-90.6762390139999,0
			38.676330567,-90.677520752,0
			38.6718597400001,-90.6817474369999,0
			38.6660118110001,-90.6848373419999,0
			38.6639099130002,-90.6960983269999,0
			38.6595001230002,-90.7044601439999,0
			38.6577186580001,-90.7068557739999,0
			38.655040742,-90.7092819219999,0
			38.6533203140002,-90.7157974249999,0
			38.6480216980002,-90.7259597789998,0
			38.644939424,-90.731925964,0
			38.6431694030001,-90.7349166859999,0
			38.641391755,-90.737312316,0
			38.639579773,-90.737953186,0
			38.6386795050001,-90.7385559089998,0
			38.637340545,-90.7397689809999,0
			38.636451721,-90.7409667969999,0
			38.6328392040002,-90.742233276,0
			38.628810883,-90.745277404,0
			38.626998901,-90.745910644,0
			38.6220893860001,-90.750740052,0
			38.6203002940001,-90.7525482169999,0
			38.6189498910002,-90.753166199,0
			38.6175994880001,-90.753791808,0
			38.615798951,-90.7550125129999,0
			38.6144409170001,-90.7550430289999,0
			38.612178803,-90.755096436,0
			38.6108322150002,-90.7563095089999,0
			38.6085815430001,-90.7575378409999,0
			38.606349945,-90.759948731,0
			38.6041107180001,-90.7617721569999,0
			38.6023101810001,-90.7629928589999,0
			38.6009597780002,-90.76361084,0
			38.6000518800002,-90.763046264,0
			38.5866394040002,-90.776306153,0
			38.5848312370002,-90.776947021,0
			38.584850311,-90.778121948,0
			38.584400177,-90.7787170409999,0
			38.5830497740001,-90.77934265,0
			38.5803604130001,-90.7817611689999,0
			38.578571319,-90.7829818729999,0
			38.5772209180001,-90.783599854,0
			38.575881958,-90.7854003909999,0
			38.5754814140001,-90.7889404299999,0
			38.5764122,-90.790687562,0
			38.5769310000001,-90.795379639,0
			38.5824317940002,-90.799957276,0
			38.5866088880001,-90.8069305429999,0
			38.5866088880001,-90.807533264,0
			38.5866889960001,-90.8128204339998,0
			38.5862998960001,-90.81754303,0
			38.5831909180001,-90.82232666,0
			38.581890107,-90.8264770509999,0
			38.5814590460001,-90.8282470699999,0
			38.5810317990001,-90.8300323479999,0
			38.5815086360001,-90.8323669429999,0
			38.5810890190002,-90.834739686,0
			38.5811004650001,-90.835906983,0
			38.581138611,-90.8382720939999,0
			38.580718994,-90.841217042,0
			38.5798606870001,-90.844177246,0
			38.579429627,-90.8465499869999,0
			38.5772285460001,-90.85131073,0
			38.5749816900001,-90.8525390629999,0
			38.5731887820001,-90.8537597649998,0
			38.5722808840001,-90.8537673949999,0
			38.5704803470001,-90.855003358,0
			38.5686988840001,-90.8567962649999,0
			38.5673484800001,-90.858009339,0
			38.5655593870001,-90.8598175039999,0
			38.564659119,-90.860427857,0
			38.5575790400001,-90.872940064,0
			38.5473403930001,-90.887290954,0
			38.5438003540002,-90.8938369749999,0
			38.5402793890001,-90.9021606449999,0
			38.5381011970001,-90.9092712409999,0
			38.5382194530002,-90.9180908199999,0
			38.537410737,-90.9263458259999,0
			38.538452149,-90.9363174439999,0
			38.540409088,-90.9480514529999,0
			38.5413894660002,-90.9539184579999,0
			38.5423202520001,-90.9556579599999,0
			38.5441703790001,-90.9585571279999,0
			38.5451087960001,-90.9608993529999,0
			38.5460319520001,-90.9626464849999,0
			38.5464897160001,-90.9632263189999,0
			38.5474090580001,-90.964385986,0
			38.8750419610001,-90.956291199,0
			38.8986206060001,-90.9569778439999,0
			38.898078918,-90.949890137,0
			38.8957405090001,-90.9440307619998,0
			38.89250946,-90.939956664,0
			38.891120912,-90.9376220699999,0
			38.8910903930001,-90.9346694939999,0
			38.8887901300001,-90.932350158,0
			38.8901100170002,-90.9293670649999,0
			38.891441345,-90.926376343,0
			38.8913803090001,-90.921646118,0
			38.8922195440002,-90.916908264,0
			38.8939704900001,-90.912139893,0
			38.8957405090001,-90.9085464469998,0
			38.8952102660002,-90.9020614629999,0
			38.8928909300001,-90.8985671999999,0
			38.8914909370002,-90.8950500499999,0
			38.8905105590001,-90.8891601559999,0
			38.890892029,-90.8838272089999,0
			38.8930587780002,-90.8766860969999,0
			38.8934593190002,-90.8719406119999,0
			38.8934020990001,-90.867797852,0
			38.891971589,-90.8625106799998,0
			38.8896789550002,-90.860786439,0
			38.8873901370002,-90.859062196,0
			38.88692093,-90.8578872679998,0
			38.8877906810001,-90.854919434,0
			38.8895606990002,-90.8519210809999,0
			38.8876991270002,-90.847816467,0
			38.886730194,-90.8431167609999,0
			38.8880195620001,-90.838356018,0
			38.888900758,-90.8359832769999,0
			38.887039186,-90.8330612179999,0
			38.8838386530001,-90.8307571419999,0
			38.8824615490001,-90.8290328989999,0
			38.8809814450001,-90.820190429,0
			38.8813819880002,-90.816642761,0
			38.8827095030002,-90.8142395029999,0
			38.883590699,-90.8124465939999,0
			38.8830604550001,-90.806549073,0
			38.8843994150002,-90.805335998,0
			38.8871116640001,-90.80467987,0
			38.8894195550001,-90.8075790409999,0
			38.891250611,-90.8087158189999,0
			38.8980293280002,-90.807380677,0
			38.9061889660001,-90.8077774049999,0
			38.9061584470002,-90.8054199219999,0
			38.9052009590002,-90.8013000489999,0
			38.9069786080001,-90.7988967889999,0
			38.9105911250001,-90.7976303099999,0
			38.9142494210001,-90.8004989619999,0
			38.9169921870001,-90.801620484,0
			38.9196701050001,-90.7985992429999,0
			38.9209289560001,-90.791473389,0
			38.9221992490001,-90.784927367,0
			38.925750732,-90.779533387,0
			38.927509307,-90.77533722,0
			38.926509858,-90.768859864,0
			38.9255485530001,-90.765327454,0
			38.9241409300001,-90.7612304689999,0
			38.9254417430002,-90.7570571909999,0
			38.9271812440001,-90.75228119,0
			38.930290223,-90.7474670409999,0
			38.9329490670002,-90.7432632449999,0
			38.933792114,-90.7385101319999,0
			38.9337120050002,-90.7331771849999,0
			38.9322891240001,-90.728492737,0
			38.930870057,-90.724983215,0
			38.9267921460001,-90.7244796749999,0
			38.9250106800001,-90.7268905649999,0
			38.924129486,-90.7286758409999,0
			38.9223518380001,-90.7310943599999,0
			38.9201087950001,-90.7329330449999,0
			38.918289185,-90.7323760989999,0
			38.9178199780001,-90.731208802,0
			38.9173393260001,-90.7294464119999,0
			38.9191093440002,-90.726440429,0
			38.9195289610001,-90.7240676879999,0
			38.9154586800001,-90.724746704,0
			38.91316986,-90.723037719,0
			38.9144592280002,-90.7182769779999,0
			38.914890289,-90.7164916999999,0
			38.9139404290001,-90.713546752,0
			38.910728456,-90.711273193,0
			38.9097900390001,-90.70892334,0
			38.9074897770002,-90.7066192629999,0
			38.9079017640001,-90.7036514279999,0
			38.909660339,-90.700057983,0
			38.9119110110001,-90.6988220219999,0
			38.915130615,-90.701698304,0
			38.9152221690001,-90.7081985469999,0
			38.9161911020001,-90.7123184199999,0
			38.918491364,-90.714630128,0
			38.9207420350002,-90.7139816279999,0
			38.9229888930001,-90.712150574,0
			38.9242897040002,-90.7085723869999,0
			38.9237709050001,-90.7038497929999,0
			38.9214401250002,-90.6991729739999,0
			38.9209403990001,-90.696228028,0
			38.9203910840002,-90.6897430419999,0
			38.920780182,-90.685577392,0
			38.9225807190001,-90.684356689,0
			38.9262886050001,-90.690193175,0
			38.9286117560002,-90.693672181,0
			38.930931092,-90.697166442,0
			38.934120179,-90.6982727039999,0
			38.939022064,-90.6928329469999,0
			38.9369316110001,-90.663696289,0
		</coordinates>
	</polygon>
</kml>
