<?xml version="1.0" encoding="UTF-8"?>
<kml xmlns="http://earth.google.com/kml/2.2">
	<polygon id="USA_KS_Crawford" samplingProbability="1">
		<coordinates>
			37.6745605470002,-95.087547302,0
			37.6736106880002,-94.6162261959999,0
			37.6538620000001,-94.616355895,0
			37.63640976,-94.61641693,0
			37.3823814390001,-94.6172790529999,0
			37.3641204830002,-94.6173858629999,0
			37.3383903500001,-94.617477417,0
			37.3417091380001,-95.07385254,0
			37.3843193050001,-95.0730361939999,0
			37.3842620850001,-95.0869598389999,0
			37.6745605470002,-95.087547302,0
		</coordinates>
	</polygon>
</kml>
