<?xml version="1.0" encoding="UTF-8"?>
<kml xmlns="http://earth.google.com/kml/2.2">
	<polygon id="USA_MT_Broadwater" samplingProbability="1">
		<coordinates>
			46.5724601740001,-111.787567138,0
			46.5729904190001,-111.728790283,0
			46.573348998,-111.689147948,0
			46.573139191,-111.660079956,0
			46.573348998,-111.634323119,0
			46.5811004640001,-111.640396119,0
			46.594848633,-111.640640258,0
			46.6471290580002,-111.640220643,0
			46.7393302910001,-111.6384964,0
			46.7397995000001,-111.637191773,0
			46.7439498900002,-111.634613038,0
			46.7467422480001,-111.630676269,0
			46.749519348,-111.62676239,0
			46.7532196040001,-111.624176026,0
			46.7555389400002,-111.620903015,0
			46.764770508,-111.613769531,0
			46.7735214230001,-111.609275818,0
			46.7763099660002,-111.605346679,0
			46.7776985160001,-111.603385925,0
			46.7786293030001,-111.602081298,0
			46.780029298,-111.598793029,0
			46.7814292910002,-111.596160888,0
			46.7833099370001,-111.589561462,0
			46.7819709790001,-111.584907531,0
			46.7783508300001,-111.579536437,0
			46.7761497510001,-111.567565918,0
			46.7724914550001,-111.566177368,0
			46.7692794790001,-111.565483093,0
			46.7670021050001,-111.563446045,0
			46.7670402520002,-111.558151245,0
			46.7675399780002,-111.553520203,0
			46.7689590470001,-111.548240661,0
			46.7690086370001,-111.541618348,0
			46.7662887570001,-111.53692627,0
			46.7658615120002,-111.532951354,0
			46.764518739,-111.528297424,0
			46.763641358,-111.523635865,0
			46.7632102970001,-111.518997193,0
			46.7604789740002,-111.516311645,0
			46.7610092170001,-111.506378174,0
			46.7624511720001,-111.498451232,0
			46.7570114140001,-111.489097594,0
			46.753871917,-111.479766847,0
			46.7525711060001,-111.468498229,0
			46.7475700370001,-111.462463379,0
			46.743469238,-111.457756043,0
			46.7329406740002,-111.454956054,0
			46.7310905450001,-111.456916809,0
			46.7232398990002,-111.463432312,0
			46.7187118520001,-111.456092835,0
			46.7169113160001,-111.451416016,0
			46.7123107920002,-111.453338623,0
			46.7062912000002,-111.461196899,0
			46.7021789550002,-111.458488465,0
			46.7013206480001,-111.450538635,0
			46.695850373,-111.445816041,0
			46.6903495780001,-111.445747375,0
			46.685279846,-111.447647094,0
			46.6820793160001,-111.446289063,0
			46.6807403580002,-111.441642761,0
			46.6808090210001,-111.43170166,0
			46.6767387400001,-111.42238617,0
			46.669441223,-111.416992188,0
			46.660308838,-111.41091156,0
			46.651130676,-111.412773132,0
			46.6460914620001,-111.411376952,0
			46.6428794860001,-111.411331177,0
			46.6410713190002,-111.407997131,0
			46.6424789430001,-111.402732849,0
			46.6425399780001,-111.392807007,0
			46.643989563,-111.382911683,0
			46.6431198120001,-111.374961853,0
			46.638568879,-111.369606017,0
			46.6335601820002,-111.363601684,0
			46.6345291150001,-111.355010986,0
			46.63502121,-111.349731446,0
			46.6346397400001,-111.337829591,0
			46.6310195930002,-111.329849244,0
			46.6223106380002,-111.328407287,0
			46.6154518130001,-111.325675964,0
			46.610851288,-111.328269958,0
			46.6048698430001,-111.33216095,0
			46.596160889,-111.331390381,0
			46.5911407470002,-111.328025819,0
			46.5851821900002,-111.327293397,0
			46.5778121950001,-111.332481385,0
			46.5746307380001,-111.329139709,0
			46.5728111280001,-111.325813293,0
			46.5691795350001,-111.320480348,0
			46.5641403190001,-111.319099426,0
			46.5553894040002,-111.326255798,0
			46.5484390260001,-111.33870697,0
			46.54473877,-111.342628478,0
			46.541080476,-111.341262817,0
			46.5388221750001,-111.337272644,0
			46.536548614,-111.332618714,0
			46.5352096560001,-111.327316283,0
			46.5302314750001,-111.31604004,0
			46.528030395,-111.301490783,0
			46.5276298530001,-111.292236329,0
			46.5249099730001,-111.286270142,0
			46.5194511420001,-111.278282165,0
			46.5098419200001,-111.275527954,0
			46.5071105970001,-111.271537782,0
			46.5034599310001,-111.268196105,0
			46.4998092650002,-111.266166688,0
			46.4966392510001,-111.259536742,0
			46.494369507,-111.254890442,0
			46.4911689770001,-111.252868652,0
			46.4870491040002,-111.252822875,0
			46.4824600220001,-111.254089356,0
			46.4769592290001,-111.253372193,0
			46.4691696160002,-111.252616883,0
			46.4623222350002,-111.247917175,0
			46.4462699880001,-111.251052857,0
			46.4398689280002,-111.248336792,0
			46.4380798340001,-111.240402223,0
			46.4298706050001,-111.231742859,0
			46.42855072,-111.222496034,0
			46.429950714,-111.216583252,0
			46.428180695,-111.205360413,0
			46.429149628,-111.193496705,0
			46.4337921140001,-111.183006286,0
			46.4370307930001,-111.176437378,0
			46.4471321110001,-111.172592163,0
			46.4490203870002,-111.160087585,0
			46.4481391910001,-111.152816773,0
			46.4491195690001,-111.141616821,0
			46.4496116650001,-111.133712768,0
			46.4519386290001,-111.124496459,0
			46.4482917780001,-111.121826172,0
			46.4432487490001,-111.122436523,0
			46.4400596620002,-111.117141724,0
			46.4355087290001,-111.109191894,0
			46.4341812140001,-111.100608825,0
			46.4309921270001,-111.095962524,0
			46.4254989630001,-111.094596863,0
			46.422309876,-111.090606689,0
			46.4168395990001,-111.082000733,0
			46.4131889350001,-111.078010558,0
			46.4109420780001,-111.069427491,0
			46.4095916750001,-111.063476562,0
			46.4082412710001,-111.057540894,0
			46.4045906080001,-111.054222106,0
			46.399089813,-111.054176331,0
			46.393550873,-111.063346863,0
			46.3894195570002,-111.065292358,0
			46.3839302070002,-111.063926696,0
			46.375190735,-111.072410583,0
			46.3674087530001,-111.069709777,0
			46.3614501960001,-111.07032013,0
			46.349979401,-111.074829102,0
			46.349029542,-111.080741882,0
			46.347629548,-111.08731842,0
			46.3416290280001,-111.098449706,0
			46.3356704710001,-111.098396301,0
			46.3283119210001,-111.106231688,0
			46.3163414000001,-111.117301942,0
			46.3016700750001,-111.119796754,0
			46.29434967,-111.118415832,0
			46.2842521660002,-111.123580933,0
			46.2746200570002,-111.12612152,0
			46.2691307080001,-111.124099731,0
			46.2654991150001,-111.117492676,0
			46.2646217340001,-111.108932495,0
			46.2550392150001,-111.10029602,0
			46.2500305180001,-111.093032837,0
			46.2495994570001,-111.085792541,0
			46.2509994510001,-111.080535889,0
			46.2478103640001,-111.076568603,0
			46.2399902350001,-111.084388732,0
			46.2354202280001,-111.083038329,0
			46.233161927,-111.075790404,0
			46.2327308650001,-111.069869995,0
			46.2190093990002,-111.064491272,0
			46.2135200500001,-111.062477113,0
			46.2103195190001,-111.061126709,0
			46.2034492500002,-111.062393189,0
			46.1924819960001,-111.055732727,0
			46.1924819960001,-111.158203126,0
			46.1879005440001,-111.158149719,0
			46.187358856,-111.26322174,0
			46.1872520460001,-111.282257079,0
			46.1882400520001,-111.345993041,0
			46.1374015800001,-111.347961426,0
			46.1239204410002,-111.349876403,0
			46.1136398320002,-111.378456117,0
			46.10602951,-111.38305664,0
			46.1070289620001,-111.386802673,0
			46.10805893,-111.388778686,0
			46.1089897160002,-111.391616821,0
			46.104301454,-111.395950317,0
			46.0985412590001,-111.392547607,0
			46.0921592720001,-111.392326355,0
			46.0872306820002,-111.405212403,0
			46.0765609740002,-111.410133361,0
			46.0710220340002,-111.417266846,0
			46.0622787470002,-111.424346925,0
			46.0485305780001,-111.424819947,0
			46.0366210950002,-111.426620484,0
			46.0274810790001,-111.425186157,0
			46.0212097180002,-111.429283141,0
			46.016620635,-111.420631408,0
			46.0073013310001,-111.415626526,0
			46.004829408,-111.415786744,0
			46.0013885490002,-111.415145874,0
			45.999420167,-111.415206909,0
			45.995010375,-111.41999054,0
			45.9926605230002,-111.434936524,0
			45.990638733,-111.440437316,0
			45.9918022150002,-111.443649292,0
			45.9967193600002,-111.447875977,0
			45.9990806580001,-111.45300293,0
			45.998249054,-111.458045959,0
			45.9949188230001,-111.461036682,0
			45.9888992310001,-111.462150574,0
			45.981899261,-111.464012146,0
			45.973960876,-111.462242126,0
			45.9683113090001,-111.462486267,0
			45.9663505550001,-111.461639405,0
			45.963668824,-111.463508605,0
			45.9626998910001,-111.46382904,0
			45.9516220090001,-111.469802857,0
			45.9504089350001,-111.473793029,0
			45.947311402,-111.480018616,0
			45.9455299390002,-111.481529237,0
			45.9424591070001,-111.485603333,0
			45.9398193360001,-111.491432191,0
			45.9376602180001,-111.493408203,0
			45.9335288990002,-111.496917725,0
			45.9304008480001,-111.503639221,0
			45.9284896850002,-111.513351441,0
			45.9253501890001,-111.529632568,0
			45.918140411,-111.535499573,0
			45.912441254,-111.543319702,0
			45.908439636,-111.549308778,0
			45.9054412850001,-111.556587219,0
			45.9023590090001,-111.562782287,0
			45.8981208800001,-111.571166992,0
			45.8955612180001,-111.583473206,0
			45.8967514030001,-111.593902588,0
			45.8963508620001,-111.59651184,0
			45.8943901070001,-111.599411011,0
			45.8931198130002,-111.600318908,0
			45.8929901120002,-111.600509644,0
			45.8851509100001,-111.608222961,0
			45.8787193310001,-111.61138916,0
			45.8718109120002,-111.616500854,0
			45.8616218570001,-111.632011413,0
			45.8528289800001,-111.642967224,0
			45.8513908380001,-111.651435851,0
			45.8399086000001,-111.656471252,0
			45.837589264,-111.660346984,0
			45.9597816470001,-111.658546447,0
			46.0499496470001,-111.658805847,0
			46.0511322020001,-111.782707215,0
			46.0657806390002,-111.782997131,0
			46.0804290780001,-111.783279419,0
			46.1092605590001,-111.783836365,0
			46.1234588620001,-111.784111023,0
			46.1367301940002,-111.784370423,0
			46.1646499640001,-111.785568237,0
			46.2232589730001,-111.787361145,0
			46.265399933,-111.786872863,0
			46.290611267,-111.786041259,0
			46.2993087770001,-111.786209106,0
			46.3089408880001,-111.785736084,0
			46.3213119500001,-111.785980225,0
			46.4858016980002,-111.787857056,0
			46.5302696220001,-111.788070679,0
			46.5724601740001,-111.787567138,0
		</coordinates>
	</polygon>
</kml>
