<?xml version="1.0" encoding="UTF-8"?>
<kml xmlns="http://earth.google.com/kml/2.2">
	<polygon id="USA_ND_Ward" samplingProbability="1">
		<coordinates>
			48.547279358,-102.233978271,0
			48.7209320070002,-102.235931397,0
			48.7205085750001,-102.155349732,0
			48.8064689630002,-102.154830932,0
			48.8066215520001,-102.141853332,0
			48.8062591560001,-102.132942199,0
			48.8064613350001,-102.115859986,0
			48.8065185550001,-102.11038971,0
			48.8061103810001,-102.022872924,0
			48.7192420960002,-102.022178649,0
			48.719661713,-101.845352173,0
			48.4583015450002,-101.844673156,0
			48.4581718450001,-101.594436645,0
			48.4580421460001,-101.550918578,0
			48.4580802930001,-101.545478821,0
			48.4578208930002,-101.451637268,0
			48.458648682,-101.321098327,0
			48.4594802860001,-101.059326172,0
			48.3727302560001,-101.059272765,0
			48.371349336,-101.059249879,0
			48.3715209970001,-101.013748169,0
			48.0229797370001,-101.014366151,0
			48.0217590340001,-100.970458984,0
			47.8472099300002,-100.968528748,0
			47.8470916750001,-101.000846862,0
			47.8479309090001,-101.227851867,0
			47.8468093870002,-101.485816955,0
			47.8481903090002,-101.819259643,0
			47.8486099240002,-101.871131896,0
			48.0157890320002,-101.872642517,0
			48.022708894,-101.872787476,0
			48.0245094310001,-101.922805787,0
			48.371250154,-101.920936585,0
			48.371410369,-101.950149536,0
			48.3717613230001,-101.961021423,0
			48.3717002870001,-101.967132569,0
			48.371650695,-101.97189331,0
			48.3827209470001,-101.972137451,0
			48.5447006220002,-101.975158691,0
			48.547279358,-102.233978271,0
		</coordinates>
	</polygon>
</kml>
