<?xml version="1.0" encoding="UTF-8"?>
<kml xmlns="http://earth.google.com/kml/2.2">
	<polygon id="USA_IN_Johnson" samplingProbability="1">
		<coordinates>
			39.3469619750001,-85.9521026619999,0
			39.3466300970002,-85.981246948,0
			39.3466720590001,-85.9901733409999,0
			39.3463516240001,-86.024681091,0
			39.3452110300001,-86.0853729239999,0
			39.3452301040001,-86.0919113159999,0
			39.3452606200001,-86.1008300789999,0
			39.3444595330002,-86.1377181999999,0
			39.3420219430001,-86.248970033,0
			39.4308586120002,-86.2498474119998,0
			39.516990662,-86.2495498649999,0
			39.6035690320001,-86.247459412,0
			39.6334915160001,-86.247962951,0
			39.6379814150001,-85.9522705069999,0
			39.3469619750001,-85.9521026619999,0
		</coordinates>
	</polygon>
</kml>
