<?xml version="1.0" encoding="UTF-8"?>
<kml xmlns="http://earth.google.com/kml/2.2">
	<polygon id="USA_NE_Sarpy" samplingProbability="1">
		<coordinates>
			41.1590003960001,-95.878768921,0
			41.1556587220001,-95.8800964349999,0
			41.1508407590001,-95.8804473869999,0
			41.1458702080001,-95.87966919,0
			41.1404800430001,-95.8764266959999,0
			41.1363906860001,-95.8738861089999,0
			41.1324119570001,-95.871276855,0
			41.1274986270002,-95.866836549,0
			41.1233787540001,-95.864891053,0
			41.1202888490002,-95.8641662589999,0
			41.116199493,-95.86402893,0
			41.1116409310001,-95.865097045,0
			41.105300904,-95.8642730709999,0
			41.0998687750001,-95.863479614,0
			41.0958099370002,-95.862129211,0
			41.0905418400001,-95.8607101439999,0
			41.0868988040002,-95.8603057859999,0
			41.0824089040001,-95.86178589,0
			41.0793113710002,-95.86441803,0
			41.0748291020001,-95.8681259149999,0
			41.0718421940001,-95.872169494,0
			41.0692520150001,-95.875259399,0
			41.0659790040001,-95.8800277719999,0
			41.063072205,-95.8818283089999,0
			41.060489655,-95.8822784429999,0
			41.0537605290002,-95.8794860839999,0
			41.0613517770001,-95.8987197879999,0
			41.061149598,-95.9206771849999,0
			41.0583000190001,-95.9452362049999,0
			41.0592498790002,-95.9610366829999,0
			41.051368714,-95.9846572869999,0
			41.0554695140001,-95.9977798469999,0
			41.0604019160002,-96.0078659049999,0
			41.061630248,-96.0125274659999,0
			41.0643119810001,-96.0250473029999,0
			41.0648689270002,-96.032333374,0
			41.0652809140001,-96.046279907,0
			41.0645103460001,-96.057228088,0
			41.0640602120001,-96.060707091,0
			41.0572090160001,-96.0774230969999,0
			41.051712036,-96.0967330939999,0
			41.047870636,-96.108238221,0
			41.0464401240001,-96.11152649,0
			41.0276985180002,-96.133926392,0
			41.0177001950001,-96.1437530519999,0
			41.0146408090001,-96.147651673,0
			41.0134696960001,-96.1500167839999,0
			41.0127105710001,-96.1558303829999,0
			41.01145935,-96.1616668699999,0
			41.00592041,-96.177497864,0
			40.997550965,-96.2041778559999,0
			40.9963607790002,-96.2199172969999,0
			40.9972000120001,-96.226119995,0
			41.0012893680002,-96.230422974,0
			41.003620147,-96.2334823599999,0
			41.009288788,-96.238265991,0
			41.015979767,-96.244293214,0
			41.017841339,-96.2477569579999,0
			41.0182991030001,-96.2496566779999,0
			41.0191917420001,-96.2655181879999,0
			41.0195312500002,-96.266822815,0
			41.0218620300001,-96.2843704219999,0
			41.0251502990001,-96.294952393,0
			41.029369354,-96.302177429,0
			41.0368194580001,-96.3122863769999,0
			41.0450286870001,-96.3190383909999,0
			41.0552291880001,-96.3234710689999,0
			41.081550599,-96.3385696409999,0
			41.0838203430001,-96.3394088739999,0
			41.0908393870001,-96.338890076,0
			41.0956001280001,-96.3373870859999,0
			41.0978088380001,-96.3355789189999,0
			41.103679656,-96.326889039,0
			41.108020782,-96.317932129,0
			41.1108589170001,-96.3146133419999,0
			41.1128120420001,-96.312103271,0
			41.11518097,-96.311965942,0
			41.118251801,-96.3122405999999,0
			41.1225090030002,-96.314086914,0
			41.1288986200001,-96.319137573,0
			41.1325302130002,-96.3192291249998,0
			41.1361503600001,-96.3190231329999,0
			41.1418495170001,-96.3167419439999,0
			41.1455612190001,-96.3159332279999,0
			41.1527595530001,-96.3168411259999,0
			41.1586418160001,-96.3193130489999,0
			41.16960907,-96.3217926029999,0
			41.1773910530001,-96.323829651,0
			41.190250397,-96.327293396,0
			41.1890907280001,-95.920997619,0
			41.1890907280001,-95.9201889039999,0
			41.1874504090002,-95.915863036,0
			41.1857299810001,-95.9113311769999,0
			41.1855201730002,-95.9046173089999,0
			41.1854820240001,-95.8974761969999,0
			41.1861000060001,-95.88835144,0
			41.1861305240001,-95.8813705449999,0
			41.1863098150001,-95.877128601,0
			41.1863899240001,-95.8752517709999,0
			41.1860694890001,-95.865486146,0
			41.1863288890001,-95.859367371,0
			41.1842613220002,-95.8515472399999,0
			41.1808891290001,-95.84562683,0
			41.1774101260002,-95.842880249,0
			41.17483902,-95.8411025999999,0
			41.1707191470001,-95.8401260369998,0
			41.1675987240001,-95.8421401969999,0
			41.1654396050001,-95.8453216559998,0
			41.1641197210001,-95.849761964,0
			41.1639213560002,-95.854576112,0
			41.1653289800001,-95.858337403,0
			41.1669197090002,-95.8629531869998,0
			41.1675605770001,-95.868171692,0
			41.167640686,-95.868812561,0
			41.1682815560001,-95.870651245,0
			41.1668701170001,-95.8730468749999,0
			41.1645393380001,-95.87663269,0
			41.1610412590002,-95.8779525749999,0
			41.1590003960001,-95.878768921,0
		</coordinates>
	</polygon>
</kml>
