<?xml version="1.0" encoding="UTF-8"?>
<kml xmlns="http://earth.google.com/kml/2.2">
	<polygon id="USA_IA_Marion" samplingProbability="1">
		<coordinates>
			41.5073585520001,-93.3303604119999,0
			41.5076217650001,-93.2181472779999,0
			41.5077705390001,-93.1046981819999,0
			41.5082702650001,-92.9894180299999,0
			41.508209229,-92.8729171759999,0
			41.420162201,-92.8718566889999,0
			41.3330192570002,-92.8714065549999,0
			41.246341706,-92.8709564219999,0
			41.1592216490001,-92.8711318969998,0
			41.158828735,-92.987670898,0
			41.1592292790002,-93.0999374389999,0
			41.1590805050001,-93.214653015,0
			41.1592788690002,-93.3293685899999,0
			41.245948792,-93.3303832999999,0
			41.3330802930001,-93.3301696779999,0
			41.419311524,-93.3305664059999,0
			41.4905700680001,-93.3303985589999,0
			41.5073585520001,-93.3303604119999,0
		</coordinates>
	</polygon>
</kml>
