<?xml version="1.0" encoding="UTF-8"?>
<kml xmlns="http://earth.google.com/kml/2.2">
	<polygon id="USA_PA_Dauphin" samplingProbability="1">
		<coordinates>
			40.2266311650002,-76.8613586419999,0
			40.2430419920001,-76.8792877189999,0
			40.2558097830002,-76.8948364249999,0
			40.265838623,-76.906806946,0
			40.276298523,-76.9133529649999,0
			40.284488679,-76.919296264,0
			40.2885894790001,-76.9222869869999,0
			40.2940406800001,-76.9234466559999,0
			40.2976608290001,-76.9234161369999,0
			40.304000854,-76.9215469369999,0
			40.3094291680001,-76.9191131599999,0
			40.3139610300001,-76.9172592159999,0
			40.3180198680002,-76.9135971069999,0
			40.32572937,-76.912338258,0
			40.3284606950002,-76.91532898,0
			40.3298301690001,-76.915924073,0
			40.3380203250001,-76.92188263,0
			40.3393898020001,-76.924285888,0
			40.3425788890002,-76.92727661,0
			40.3475685130002,-76.9284362789999,0
			40.3493919380001,-76.9296264649999,0
			40.3557510380001,-76.9331970219999,0
			40.3580398560002,-76.9374084469999,0
			40.3585319520002,-76.945251465,0
			40.3585891720001,-76.9609374999999,0
			40.356819154,-76.968795776,0
			40.3568496700001,-76.977836609,0
			40.3577804560002,-76.9826583859999,0
			40.3568992620001,-76.9905166629999,0
			40.3573989860001,-77.000167846,0
			40.3583297720002,-77.008003235,0
			40.3596992490001,-77.009201049,0
			40.3633499150001,-77.0152130129999,0
			40.3670005810002,-77.0206069939998,0
			40.3706321710001,-77.0211868279999,0
			40.3729019170001,-77.021781921,0
			40.3760795590002,-77.022361756,0
			40.3797187810002,-77.0259628299999,0
			40.3838005080001,-77.028350829,0
			40.3878898620001,-77.028923036,0
			40.391059876,-77.0282974239999,0
			40.3951301590001,-77.024650573,0
			40.3982887270001,-77.0197982779999,0
			40.401889801,-77.013137818,0
			40.4022216790001,-77.0099487309999,0
			40.4105110170001,-77.012428283,0
			40.4171218870002,-77.016609191,0
			40.4257888800001,-77.0164260849999,0
			40.4267501830001,-77.0033493049999,0
			40.4357719430002,-76.994956969,0
			40.4375190730001,-76.989227296,0
			40.4385185240001,-76.9887161259999,0
			40.4425888050002,-76.985679627,0
			40.4489097590001,-76.977783202,0
			40.452049256,-76.9699020379999,0
			40.455188751,-76.962615966,0
			40.4592514040002,-76.9559478759999,0
			40.4628601080001,-76.952896118,0
			40.4691886890002,-76.9486160279999,0
			40.4746398920001,-76.9485778809999,0
			40.480979919,-76.9479217529999,0
			40.4864387520001,-76.950302124,0
			40.4905319220002,-76.9532928469999,0
			40.4932785030001,-76.9611358639999,0
			40.4978485120001,-76.9695587159999,0
			40.5042304990002,-76.974960327,0
			40.506500245,-76.9779663079999,0
			40.5156021120001,-76.983337402,0
			40.5201416020001,-76.9845123299999,0
			40.5264892590001,-76.9850692759998,0
			40.5310211190001,-76.982620239,0
			40.5341796870002,-76.980781555,0
			40.5432586670001,-76.981925964,0
			40.5482521060001,-76.9818878169999,0
			40.5505218500001,-76.9830932609999,0
			40.5536994940001,-76.9854812629999,0
			40.5637092590001,-76.992668152,0
			40.5677909850001,-76.991432189,0
			40.5718688960001,-76.990188598,0
			40.5750312810002,-76.9871368399999,0
			40.5781898500002,-76.982887268,0
			40.5813293460002,-76.9761962899999,0
			40.5844802870001,-76.9695205699999,0
			40.5898895270001,-76.961006165,0
			40.5943984990002,-76.956741333,0
			40.5989303590002,-76.9548873889999,0
			40.6039085390001,-76.9530258169999,0
			40.6075401300001,-76.95300293,0
			40.617069244,-76.9535369879999,0
			40.6243095400001,-76.9510574339999,0
			40.627479554,-76.9498214719998,0
			40.6261100770002,-76.9474105839999,0
			40.6224708570002,-76.945007324,0
			40.6142807010002,-76.9390258779999,0
			40.611541747,-76.933601379,0
			40.6083297740001,-76.927558899,0
			40.6055908210001,-76.923347473,0
			40.6042289740001,-76.922149658,0
			40.6037597650001,-76.919120788,0
			40.6046600350002,-76.9179077139999,0
			40.606479645,-76.9185028069999,0
			40.6082992550001,-76.919090271,0
			40.610099792,-76.916648865,0
			40.6109886170001,-76.9136123649999,0
			40.6114196790001,-76.908157349,0
			40.6109390260002,-76.90271759,0
			40.6100006100002,-76.8966827389999,0
			40.6108894340002,-76.892433167,0
			40.6140594480001,-76.8911895739999,0
			40.6158599850001,-76.8881530769999,0
			40.6167602540001,-76.88571167,0
			40.616729736,-76.880867005,0
			40.617149353,-76.8742065429999,0
			40.6180496220002,-76.872383118,0
			40.620319366,-76.8711471549999,0
			40.6230316160001,-76.869918823,0
			40.6252899170001,-76.867477418,0
			40.6266403200001,-76.8650360109999,0
			40.6266212460001,-76.8613967899999,0
			40.6261215210001,-76.852333068,0
			40.6264991760001,-76.838996886,0
			40.6278419490001,-76.834747314,0
			40.6300888060001,-76.8317031869999,0
			40.6323394770001,-76.8286514289999,0
			40.6336898800002,-76.8256073009999,0
			40.634120941,-76.8219680779999,0
			40.6341018670001,-76.8177261339999,0
			40.635429382,-76.8128662109999,0
			40.636329651,-76.811050414,0
			40.6394996650001,-76.810409546,0
			40.6431312570001,-76.809768676,0
			40.6449317940001,-76.8073272699999,0
			40.6462707520002,-76.8030776979999,0
			40.6458015450002,-76.8006591799999,0
			40.6421394360001,-76.7946395869999,0
			40.6425590510001,-76.7885665899999,0
			40.6439018260001,-76.7849273669999,0
			40.6456909180002,-76.7812728879999,0
			40.646579742,-76.778228761,0
			40.6474609380001,-76.7727737429999,0
			40.6473999030001,-76.763076783,0
			40.6482810990001,-76.7582168579999,0
			40.6500816350001,-76.7551727299999,0
			40.6518707270002,-76.752128601,0
			40.653671264,-76.748466491,0
			40.654548645,-76.7442169199999,0
			40.6549720770001,-76.7393722529998,0
			40.6540298460002,-76.732719421,0
			40.6530799860001,-76.7260589589999,0
			40.6544189460001,-76.7230224609999,0
			40.65668106,-76.72177887,0
			40.658470154,-76.7181167589999,0
			40.658901214,-76.713882446,0
			40.657508851,-76.7096557619999,0
			40.656558992,-76.703002931,0
			40.658370972,-76.7011566169999,0
			40.656539918,-76.698760987,0
			40.6510391230001,-76.689743042,0
			40.6400413520001,-76.672897338,0
			40.6194114690002,-76.6392288199999,0
			40.6125297560002,-76.6278076169999,0
			40.5551605230001,-76.535339355,0
			40.5435218820002,-76.5548629769999,0
			40.5350189210001,-76.5706863409999,0
			40.5144309990001,-76.6096572869999,0
			40.5005493160002,-76.6346206669999,0
			40.4754486080001,-76.679641724,0
			40.447719573,-76.6690902719999,0
			40.4172515880002,-76.6573562619999,0
			40.392250061,-76.648002624,0
			40.3726997380001,-76.6403884889999,0
			40.3381385810001,-76.626342774,0
			40.3081207270001,-76.61403656,0
			40.2981109630001,-76.6099395749999,0
			40.278110505,-76.6023559569999,0
			40.2344512940002,-76.5848312379999,0
			40.2212600710002,-76.579582215,0
			40.196250915,-76.570266724,0
			40.1953697210001,-76.5733032229999,0
			40.195388794,-76.576301574,0
			40.1954193110001,-76.580520629,0
			40.1940689100001,-76.582336426,0
			40.1927299500001,-76.584762573,0
			40.1905097960001,-76.5920181279999,0
			40.1901206970002,-76.600448608,0
			40.191070557,-76.605857849,0
			40.190181733,-76.60887146,0
			40.1879310620001,-76.6107101439999,0
			40.186130523,-76.612525939,0
			40.182971955,-76.614982604,0
			40.1811714180001,-76.6174163829999,0
			40.1807518010002,-76.6222305309999,0
			40.1776199340001,-76.62828827,0
			40.166858672,-76.6458663939999,0
			40.1664505010001,-76.6518859859999,0
			40.166038514,-76.658515931,0
			40.1651687630001,-76.6645431509999,0
			40.1611289990001,-76.67060852,0
			40.1593284620001,-76.6724319459999,0
			40.1561698910002,-76.673683167,0
			40.1543693540002,-76.676696778,0
			40.1516494750001,-76.677337646,0
			40.1503105170002,-76.6791458129999,0
			40.1516799930001,-76.682136536,0
			40.1516990670001,-76.6851501469999,0
			40.1517295830001,-76.688766479,0
			40.152198793,-76.6911621089999,0
			40.154010773,-76.6917419429999,0
			40.1549301160002,-76.6941528309999,0
			40.1549491890001,-76.6959533679999,0
			40.1454887390001,-76.7050781259999,0
			40.1405220030001,-76.7093429559999,0
			40.1369018560001,-76.709976195,0
			40.1346702590001,-76.7154159549999,0
			40.1220207210001,-76.7233734129998,0
			40.1257095340001,-76.732955932,0
			40.1302795410001,-76.740127563,0
			40.1352996830001,-76.7454757689999,0
			40.1434707640001,-76.7478027349999,0
			40.1620712280001,-76.7488327029999,0
			40.1643409740001,-76.748786926,0
			40.1675109880002,-76.7487640379999,0
			40.1693305980001,-76.7493362419999,0
			40.1707000730001,-76.749931335,0
			40.1743316650001,-76.751701355,0
			40.1757087720001,-76.7534942619999,0
			40.1761589050001,-76.7540893549999,0
			40.1770820610001,-76.7558822639999,0
			40.1775398250002,-76.7570877079999,0
			40.178001404,-76.758888245,0
			40.1784820570001,-76.762489318,0
			40.179389954,-76.764289855,0
			40.1821517940001,-76.7702789309999,0
			40.1858215330001,-76.7774581899999,0
			40.189029694,-76.7834472649999,0
			40.1899490370001,-76.785247802,0
			40.1917800900001,-76.7882385249999,0
			40.1926918030001,-76.7894287109999,0
			40.1949691770002,-76.792419433,0
			40.1954307560001,-76.793006896,0
			40.2000007630002,-76.800186157,0
			40.2004699700001,-76.802597045,0
			40.2004814150001,-76.803802489,0
			40.2004814150001,-76.8044128429999,0
			40.200489045,-76.805610657,0
			40.200489045,-76.8068237309999,0
			40.2005004890001,-76.807411193,0
			40.2005119320001,-76.809219361,0
			40.2005195620002,-76.811630249,0
			40.2010002140001,-76.8158264149999,0
			40.2010192880001,-76.8194503779999,0
			40.2010192880001,-76.8200531009999,0
			40.2010307310001,-76.8218536379999,0
			40.201950074,-76.8242568979999,0
			40.2028694150002,-76.826049804,0
			40.2033195510001,-76.8266525269999,0
			40.2042388910002,-76.8284530639999,0
			40.2046890250001,-76.829048157,0
			40.2069702140001,-76.8302307129999,0
			40.2101516730002,-76.8314132679999,0
			40.2128715510001,-76.8319778439998,0
			40.2151412970002,-76.8325576789999,0
			40.2187919610001,-76.836143495,0
			40.2192497250001,-76.8367385869999,0
			40.2201614380002,-76.837936401,0
			40.2220001210001,-76.8421325679999,0
			40.2224617000001,-76.8439331049999,0
			40.2233886710001,-76.848136902,0
			40.2252388000002,-76.85534668,0
			40.225700379,-76.8571472169999,0
			40.2266311650002,-76.8613586419999,0
		</coordinates>
	</polygon>
</kml>
