<?xml version="1.0" encoding="UTF-8"?>
<kml xmlns="http://earth.google.com/kml/2.2">
	<polygon id="USA_MN_Wabasha" samplingProbability="1">
		<coordinates>
			44.1972198490002,-92.5515670779999,0
			44.3695220960001,-92.5517196649999,0
			44.369529724,-92.4321899409999,0
			44.4561386120001,-92.4301757819999,0
			44.4560012810002,-92.3592681889999,0
			44.4557800300001,-92.243377686,0
			44.4520492560001,-92.2386627199999,0
			44.4517402660001,-92.238250733,0
			44.4462509160002,-92.230766296,0
			44.440540314,-92.220298767,0
			44.4364204410001,-92.2116699229999,0
			44.4346885690002,-92.2052688599999,0
			44.4346008300001,-92.2046661369999,0
			44.4336013790001,-92.1962890619999,0
			44.4335403440001,-92.1957321159999,0
			44.4325294510001,-92.186798095,0
			44.4315795890001,-92.1783065799999,0
			44.4286689750002,-92.165122987,0
			44.425479888,-92.1524963379999,0
			44.422470092,-92.1383666979999,0
			44.4178390500002,-92.1240463249999,0
			44.416320801,-92.1160964969999,0
			44.415802002,-92.1103591909999,0
			44.4149093630002,-92.104042052,0
			44.414779664,-92.103347777,0
			44.4146804820002,-92.1028518689999,0
			44.4133987420001,-92.098251343,0
			44.4125099180001,-92.092491151,0
			44.4123802190002,-92.0918884279999,0
			44.4113388060001,-92.0861892699999,0
			44.4090995780001,-92.0808486929999,0
			44.4072608940002,-92.078559876,0
			44.4058494580001,-92.0753860469999,0
			44.4052505500001,-92.0721511849999,0
			44.4043197640001,-92.0685119619999,0
			44.4034500130001,-92.0632858269999,0
			44.4022407540001,-92.058197021,0
			44.4004898070001,-92.054290771,0
			44.3978195190001,-92.048698426,0
			44.395030976,-92.0449066159999,0
			44.3945121770002,-92.0443572999999,0
			44.3907012940001,-92.0402908319999,0
			44.3903999340001,-92.0397720329999,0
			44.3871688850002,-92.0342330929999,0
			44.3845596310001,-92.0287628169999,0
			44.3819999700001,-92.020271302,0
			44.379772186,-92.0130920399999,0
			44.3777313230001,-92.00566101,0
			44.374481201,-91.9999771109999,0
			44.372219085,-91.9955215449999,0
			44.3720207210002,-91.9950103759999,0
			44.3702697760002,-91.9904785159999,0
			44.3693008430002,-91.98603058,0
			44.3683013910001,-91.9815826409999,0
			44.3681221000001,-91.9808273309999,0
			44.3669090280001,-91.975852966,0
			44.3664016720001,-91.9713897709999,0
			44.3656196600002,-91.968589783,0
			44.3629722590001,-91.9640197759999,0
			44.3601684580001,-91.959236144,0
			44.359779357,-91.9588317879999,0
			44.3552703860001,-91.955017089,0
			44.3529891960001,-91.9529571529999,0
			44.3511199960002,-91.9512786859999,0
			44.3465385440001,-91.9488296509999,0
			44.3428497310001,-91.945075988,0
			44.3408317570001,-91.940727234,0
			44.3404998780001,-91.940032959,0
			44.3386802680002,-91.936210633,0
			44.338409423,-91.9356384279999,0
			44.335060121,-91.929450989,0
			44.33259201,-91.9261474609999,0
			44.3274993890001,-91.922142029,0
			44.3270492560001,-91.921836854,0
			44.3211097720002,-91.9187469489999,0
			44.3178291310001,-91.9165496819999,0
			44.3173484810001,-91.916320801,0
			44.3146820060002,-91.91506958,0
			44.3110084540002,-91.9148712149999,0
			44.3083000190001,-91.9152069089999,0
			44.3067016600001,-91.917922973,0
			44.3062286380001,-91.918395996,0
			44.3044090270001,-91.9205398559999,0
			44.3040504460001,-91.9210128779999,0
			44.3020210280001,-91.923667908,0
			44.29983902,-91.925315857,0
			44.298000337,-91.925888062,0
			44.2948303230001,-91.9251327509999,0
			44.2916412360001,-91.925018311,0
			44.288478851,-91.9229965209999,0
			44.2854003910001,-91.917137146,0
			44.2817802420001,-91.908805846,0
			44.2792587290001,-91.903511048,0
			44.2775802620001,-91.9006118769999,0
			44.275730133,-91.898101807,0
			44.2729911800001,-91.8975372309999,0
			44.2711792000001,-91.8968429559998,0
			44.267509461,-91.8979873659999,0
			44.2645492550002,-91.8960876469999,0
			44.2601699840001,-91.8927307129999,0
			44.2569389350001,-91.8896179199999,0
			44.2546310420001,-91.8871231079999,0
			44.2514915470002,-91.8855590819999,0
			44.2509803780001,-91.885597229,0
			44.2481193550001,-91.885810851,0
			44.2455101020001,-91.88733673,0
			44.2425804150001,-91.8894500739999,0
			44.2384490970002,-91.891571046,0
			44.235530854,-91.891403198,0
			44.2323493960001,-91.8914718639999,0
			44.2282295230002,-91.890296936,0
			44.2241020210001,-91.8884811409999,0
			44.2199592600001,-91.884750366,0
			44.2162704470001,-91.8816528309999,0
			44.2113418590001,-91.877502442,0
			44.2102088930002,-91.8768157969999,0
			44.2090911860002,-91.876152038,0
			44.205688476,-91.8736114499999,0
			44.203380586,-91.8715362549999,0
			44.2029304500001,-91.8711318979999,0
			44.2002716070001,-91.8680496209999,0
			44.1996917730001,-91.8673782349999,0
			44.1969909660002,-91.864250183,0
			44.1948089590002,-91.8590698249999,0
			44.194229127,-91.8578872679999,0
			44.1948394780001,-92.080451964,0
			44.1087112420001,-92.080329896,0
			44.1101188660002,-92.3178329479999,0
			44.1953506470001,-92.3188858019999,0
			44.1956748970001,-92.3592681889999,0
			44.1972198490002,-92.5515670779999,0
		</coordinates>
	</polygon>
</kml>
