<?xml version="1.0" encoding="UTF-8"?>
<kml xmlns="http://earth.google.com/kml/2.2">
	<polygon id="USA_KS_Riley" samplingProbability="1">
		<coordinates>
			39.22026062,-96.962165833,0
			39.3082008360001,-96.960891723,0
			39.566650392,-96.9637527469999,0
			39.566879273,-96.8061828609999,0
			39.566390992,-96.584182738,0
			39.5663414,-96.5805969229999,0
			39.5604896560001,-96.5837402349999,0
			39.5564994810001,-96.589813232,0
			39.5501899730001,-96.592369079,0
			39.5425491330001,-96.596748352,0
			39.539920807,-96.6027832029999,0
			39.5368309020001,-96.6082305899998,0
			39.5346488950001,-96.61366272,0
			39.5365295410001,-96.618377686,0
			39.533470154,-96.62561798,0
			39.5312500010001,-96.6286621099999,0
			39.5277099620002,-96.6347122189999,0
			39.5245704650001,-96.6371765139999,0
			39.5222816480001,-96.6354522709999,0
			39.5195617680001,-96.6355209339999,0
			39.515491485,-96.6362228389999,0
			39.51097107,-96.6369400029999,0
			39.5087318430001,-96.638786317,0
			39.5101203930001,-96.6411361699999,0
			39.5128898630001,-96.6440429679999,0
			39.512908936,-96.6458358769999,0
			39.5088195800002,-96.6453399659999,0
			39.502941132,-96.6460876469999,0
			39.504348755,-96.6490325919999,0
			39.5039787300001,-96.655006409,0
			39.4999504090001,-96.6586761469999,0
			39.489608764,-96.6643066399998,0
			39.482830047,-96.6656799319999,0
			39.475608826,-96.6682510379999,0
			39.4724998480002,-96.6725006099999,0
			39.4739189140001,-96.6760406499999,0
			39.4771194460001,-96.6783370979999,0
			39.4794311520001,-96.681266785,0
			39.4803810120002,-96.6842193609999,0
			39.4754714970001,-96.689712524,0
			39.46961975,-96.692237854,0
			39.4636993400001,-96.6905975349998,0
			39.4605598460001,-96.6930618279999,0
			39.46018982,-96.699028015,0
			39.4606895440002,-96.701995849,0
			39.4590110780002,-96.7115707399999,0
			39.4536590570001,-96.717666626,0
			39.4482498160001,-96.7201766959998,0
			39.4414901740002,-96.7227325429998,0
			39.4364814770001,-96.721069335,0
			39.4323806770001,-96.7199783319999,0
			39.430599212,-96.7223968499999,0
			39.4306106570002,-96.722999573,0
			39.4297409060001,-96.725402833,0
			39.427520752,-96.7284317019999,0
			39.4243392960001,-96.7279205309999,0
			39.4238700860001,-96.7267379759999,0
			39.4220085140001,-96.7238082889999,0
			39.4151687630001,-96.720993042,0
			39.4079513550001,-96.7235565189999,0
			39.4066390990001,-96.727157593,0
			39.3997802730001,-96.722557067,0
			39.3869400030001,-96.712760926,0
			39.3790893550002,-96.7022399899999,0
			39.3739318840001,-96.6904602059999,0
			39.3679809570002,-96.686439515,0
			39.365669251,-96.6835174559999,0
			39.3479003910001,-96.67742157,0
			39.3341522220001,-96.6676559449999,0
			39.325439454,-96.6613311759999,0
			39.313072205,-96.652130127,0
			39.2978286750002,-96.6334915159999,0
			39.2942504880001,-96.636558533,0
			39.2868995680001,-96.6302032469999,0
			39.280479432,-96.6250228869999,0
			39.2731094370002,-96.6174774159999,0
			39.2693901070001,-96.6116409299999,0
			39.2646904000002,-96.6004714969999,0
			39.261909485,-96.5963821399999,0
			39.2563400260001,-96.5882110599999,0
			39.2476692200001,-96.5848693849999,0
			39.250278472,-96.5776672359999,0
			39.252140044,-96.5805969229999,0
			39.256240844,-96.581672668,0
			39.2552604680001,-96.5769424439999,0
			39.2456703190001,-96.572448731,0
			39.244289399,-96.571296692,0
			39.2454490660001,-96.5878982549999,0
			39.2349700920001,-96.584022521,0
			39.2405700690001,-96.564857483,0
			39.2291107180001,-96.5568466199999,0
			39.2290916440001,-96.555656434,0
			39.2263412480001,-96.553947449,0
			39.2222290050001,-96.552276611,0
			39.217201232,-96.5494461059999,0
			39.2149086000001,-96.5477294929999,0
			39.2130317690001,-96.5436172479999,0
			39.2102508540002,-96.539543152,0
			39.2133102420001,-96.5323333739998,0
			39.2081909170001,-96.5241470329999,0
			39.2026786810001,-96.519546509,0
			39.1995391840001,-96.5220108029998,0
			39.1951408380002,-96.5304412849999,0
			39.1952400210001,-96.536972046,0
			39.1908912670002,-96.54837036,0
			39.1899909970001,-96.548988342,0
			39.1863594070002,-96.5484924309999,0
			39.1827392570002,-96.548591613,0
			39.18183136,-96.5486068729999,0
			39.1813316340001,-96.545661926,0
			39.1812820440001,-96.5426864619999,0
			39.182971955,-96.534927368,0
			39.1873207090001,-96.5229415889999,0
			39.1890106210001,-96.515167237,0
			39.1831321730002,-96.516532898,0
			39.1763687140001,-96.5184860219999,0
			39.1740417470001,-96.5149917609999,0
			39.170829774,-96.512702941,0
			39.167140961,-96.5086517339999,0
			39.1657295230002,-96.5051269539999,0
			39.1656990060002,-96.503936768,0
			39.1660919190001,-96.4997787479999,0
			39.169200898,-96.4961318969999,0
			39.177742005,-96.491142273,0
			39.179409026,-96.4821929939999,0
			39.1730194090001,-96.479988098,0
			39.169391632,-96.4794998179999,0
			39.164810182,-96.476646424,0
			39.1647186280001,-96.4713058469999,0
			39.1673011790002,-96.462341309,0
			39.1690406800001,-96.458137512,0
			39.1709022520001,-96.4610519409999,0
			39.1736488340002,-96.462753296,0
			39.178218843,-96.464996338,0
			39.1841011060001,-96.4642410279999,0
			39.1913299570001,-96.4628524779999,0
			39.1893196110001,-96.450439454,0
			39.1877784730002,-96.4397964469999,0
			39.1863021840002,-96.43271637,0
			39.1842994700002,-96.421485902,0
			39.1790199280002,-96.4038314819999,0
			39.1734313960001,-96.3950958249999,0
			39.1719818110002,-96.3897933969999,0
			39.0437202450001,-96.391738891,0
			39.0424003610001,-96.5043563849999,0
			39.0704689040001,-96.501808166,0
			39.0722198480001,-96.706268311,0
			39.0926284800001,-96.706359863,0
			39.0904502870001,-96.712928771,0
			39.0905189510001,-96.717666626,0
			39.0887908950002,-96.7230529779999,0
			39.0865402220002,-96.7248764039999,0
			39.0852088920001,-96.7260971059999,0
			39.0834999090001,-96.7338485719999,0
			39.0790786750002,-96.741668701,0
			39.0864295970002,-96.748596192,0
			39.0864791870002,-96.851760864,0
			39.119560242,-96.8510131839999,0
			39.1327095030001,-96.850723266,0
			39.2188301080001,-96.849937439,0
			39.2194595330001,-96.898040771,0
			39.2196502690001,-96.913467408,0
			39.2197914130001,-96.9241561889999,0
			39.22026062,-96.962165833,0
		</coordinates>
	</polygon>
</kml>
