<?xml version="1.0" encoding="UTF-8"?>
<kml xmlns="http://earth.google.com/kml/2.2">
	<polygon id="USA_PA_Lancaster" samplingProbability="1">
		<coordinates>
			39.7222787970001,-76.1391600629999,0
			39.7222307430001,-76.1509108019999,0
			39.7221150000001,-76.179095,0
			39.7219310000001,-76.2241519999999,0
			39.7213400000001,-76.2349169999999,0
			39.7218513490002,-76.240898132,0
			39.7281990050001,-76.2407760609999,0
			39.7309303280001,-76.2431259159999,0
			39.7359619130001,-76.2466430659999,0
			39.744651795,-76.254257203,0
			39.7606391920001,-76.2665481569999,0
			39.7706909180001,-76.2747497559999,0
			39.7766189580001,-76.278236389,0
			39.780269622,-76.2805709839999,0
			39.7812194820001,-76.284736634,0
			39.7835502630001,-76.2918930059999,0
			39.7863121030002,-76.2960357659999,0
			39.7927093500001,-76.3007125849999,0
			39.801380158,-76.3065643309999,0
			39.8073310850001,-76.3130493159999,0
			39.8128509510001,-76.3213272089999,0
			39.8156318670001,-76.3272781369999,0
			39.8179206860001,-76.3308258059999,0
			39.829818726,-76.3426208489999,0
			39.8398704520001,-76.350852967,0
			39.8448715220001,-76.351966859,0
			39.847591401,-76.3513183589999,0
			39.8503189090001,-76.352478028,0
			39.8539619450001,-76.3542175299999,0
			39.8585700990001,-76.362525939,0
			39.863182067,-76.3714370739999,0
			39.8700294500002,-76.3767318719999,0
			39.8768692010001,-76.380226136,0
			39.8795814510001,-76.3795928959999,0
			39.8827514640001,-76.378936768,0
			39.885009765,-76.378295898,0
			39.8895492550001,-76.3794326789999,0
			39.8954696650001,-76.382339477,0
			39.901378632,-76.384040832,0
			39.9068298350001,-76.3851470939999,0
			39.9123001110001,-76.3880691529999,0
			39.9141616830001,-76.3934402469999,0
			39.9155693050001,-76.398811339,0
			39.9169921880001,-76.4059829699999,0
			39.9211311350002,-76.413116455,0
			39.925750732,-76.4232482919999,0
			39.9285316470002,-76.4298019409999,0
			39.9308700560001,-76.4381561279999,0
			39.9332008360001,-76.4459228519999,0
			39.938282014,-76.4572372439999,0
			39.944290161,-76.4709472649999,0
			39.9470405590001,-76.4757232659999,0
			39.9538993830002,-76.48222351,0
			39.9625701900001,-76.4892959589999,0
			39.9739608760001,-76.4963378909999,0
			39.9794197090002,-76.4980621349999,0
			39.9889411930002,-76.498527527,0
			39.9984703070001,-76.4996032719999,0
			40.0052986140001,-76.5025024409999,0
			40.009860993,-76.5060424809998,0
			40.0148887640001,-76.5119781499999,0
			40.0222091670001,-76.5196762079999,0
			40.0308914180001,-76.527969361,0
			40.0390701290001,-76.5308609019999,0
			40.047229767,-76.531356812,0
			40.0513191230002,-76.532501221,0
			40.0540695190002,-76.5354690549999,0
			40.0549888600001,-76.537857055,0
			40.0541191100001,-76.54208374,0
			40.052341461,-76.5469131469999,0
			40.050109864,-76.552352904,0
			40.0492401130001,-76.557159424,0
			40.0484085090002,-76.56678009,0
			40.0498390190001,-76.57637787,0
			40.052639008,-76.587150574,0
			40.0559387220002,-76.604537964,0
			40.0611801150002,-76.641716004,0
			40.0612297050002,-76.6489257819999,0
			40.0672187810001,-76.662681579,0
			40.073162079,-76.6692199699999,0
			40.082279206,-76.676933289,0
			40.0849990840002,-76.678100586,0
			40.102329254,-76.692932129,0
			40.112850189,-76.7072372439999,0
			40.1174316410001,-76.7149963379999,0
			40.1220207210001,-76.7233734129998,0
			40.1346702590001,-76.7154159549999,0
			40.1369018560001,-76.709976195,0
			40.1405220030001,-76.7093429559999,0
			40.1454887390001,-76.7050781259999,0
			40.1549491890001,-76.6959533679999,0
			40.1549301160002,-76.6941528309999,0
			40.154010773,-76.6917419429999,0
			40.152198793,-76.6911621089999,0
			40.1517295830001,-76.688766479,0
			40.1516990670001,-76.6851501469999,0
			40.1516799930001,-76.682136536,0
			40.1503105170002,-76.6791458129999,0
			40.1516494750001,-76.677337646,0
			40.1543693540002,-76.676696778,0
			40.1561698910002,-76.673683167,0
			40.1593284620001,-76.6724319459999,0
			40.1611289990001,-76.67060852,0
			40.1651687630001,-76.6645431509999,0
			40.166038514,-76.658515931,0
			40.1664505010001,-76.6518859859999,0
			40.166858672,-76.6458663939999,0
			40.1776199340001,-76.62828827,0
			40.1807518010002,-76.6222305309999,0
			40.1811714180001,-76.6174163829999,0
			40.182971955,-76.614982604,0
			40.186130523,-76.612525939,0
			40.1879310620001,-76.6107101439999,0
			40.190181733,-76.60887146,0
			40.191070557,-76.605857849,0
			40.1901206970002,-76.600448608,0
			40.1905097960001,-76.5920181279999,0
			40.1927299500001,-76.584762573,0
			40.1940689100001,-76.582336426,0
			40.1954193110001,-76.580520629,0
			40.195388794,-76.576301574,0
			40.1953697210001,-76.5733032229999,0
			40.196250915,-76.570266724,0
			40.202888488,-76.5485229499999,0
			40.2090911860001,-76.5285568239999,0
			40.215290069,-76.50920868,0
			40.2179298400001,-76.499542237,0
			40.2188186650002,-76.497116088,0
			40.2387390130001,-76.437210083,0
			40.2413520810001,-76.425132752,0
			40.247310639,-76.3798370349999,0
			40.2502899170001,-76.3587112429998,0
			40.2519798280001,-76.3442230219999,0
			40.2544898990002,-76.3218917849999,0
			40.2566795360001,-76.313423158,0
			40.3158187870001,-76.1514205939999,0
			40.2918319710001,-76.1138992309999,0
			40.2779808040001,-76.0918731689999,0
			40.2761421210001,-76.088890076,0
			40.2729110720002,-76.084136964,0
			40.2687606820002,-76.0781860349999,0
			40.2627487180001,-76.0674591069999,0
			40.2558097830002,-76.0561523449999,0
			40.248889924,-76.0454483029999,0
			40.2304191580001,-76.01751709,0
			40.2248802190001,-76.0092010499999,0
			40.2188797000002,-75.999687194,0
			40.19947052,-75.9699859619999,0
			40.1782302850001,-75.9385375979999,0
			40.1643600470002,-75.917182923,0
			40.1546401970001,-75.901748657,0
			40.1370811470001,-75.8756790159999,0
			40.1260795590001,-75.9017868039999,0
			40.1212387090001,-75.9139328009999,0
			40.113750458,-75.9315261849999,0
			40.1093406670001,-75.941246033,0
			40.1066207890001,-75.941307068,0
			40.0988998420002,-75.9402770999999,0
			40.0807113650001,-75.936462402,0
			40.068908692,-75.93611908,0
			40.0471420300001,-75.9354019169999,0
			40.0394287110001,-75.9349670409999,0
			40.0196609500001,-75.950416565,0
			40.0124816910002,-75.955970763,0
			40.00259018,-75.962791443,0
			40.0007896430001,-75.9640274049999,0
			39.9854698180001,-75.972160339,0
			39.9675102230001,-75.9869461069999,0
			39.9634284970001,-75.987030029,0
			39.9607315060002,-75.988891601,0
			39.9580307020001,-75.9901428219999,0
			39.9544219980002,-75.9920196519999,0
			39.9512519840001,-75.9920883179999,0
			39.948070527,-75.99154663,0
			39.9398612980002,-75.987525939,0
			39.9361686700001,-75.9822082519999,0
			39.9334297190001,-75.9804687509999,0
			39.9316215520001,-75.98110199,0
			39.9307289120002,-75.982322693,0
			39.930751801,-75.98412323,0
			39.9307708740001,-75.985916139,0
			39.9285507200001,-75.9901733409999,0
			39.9272117620001,-75.991386413,0
			39.926769257,-75.9925994869998,0
			39.9276886000002,-75.993782043,0
			39.9281806950001,-75.9967727649999,0
			39.9272918710001,-75.997985839,0
			39.9259109490001,-75.9962158209999,0
			39.9236297620001,-75.9956665029999,0
			39.9027786250001,-75.9961013789999,0
			39.9009513850001,-75.994338989,0
			39.8977203380002,-75.990211487,0
			39.8949890150001,-75.988471986,0
			39.8927116390001,-75.987922668,0
			39.8868408210002,-75.989852906,0
			39.8827705380001,-75.9905166619999,0
			39.8800506600001,-75.9911804199999,0
			39.8768386850001,-75.9876632679999,0
			39.8745613100002,-75.9870986939999,0
			39.873210907,-75.987731934,0
			39.8718910230001,-75.9907531729999,0
			39.8705520630002,-75.992576599,0
			39.8696517950001,-75.9932022099999,0
			39.870128632,-75.9955825809999,0
			39.8715095520001,-75.9973525999999,0
			39.873352051,-75.999107362,0
			39.8738288880001,-76.0015029909999,0
			39.872951508,-76.003906249,0
			39.8711509710001,-76.005149842,0
			39.8666419990001,-76.0070419309999,0
			39.8544197090001,-76.0090866089999,0
			39.8530807490002,-76.01032257,0
			39.853099822,-76.0127181999999,0
			39.8540496820002,-76.016296387,0
			39.8545303340001,-76.0180816659999,0
			39.8536605840001,-76.0211029049999,0
			39.8518486030002,-76.0217285149999,0
			39.8464202890001,-76.023040771,0
			39.8377799990002,-76.020233154,0
			39.8336792000001,-76.0191116339999,0
			39.8318710330001,-76.019149781,0
			39.8310089120001,-76.0233612059999,0
			39.8301315310001,-76.025177001,0
			39.8260498050001,-76.0252532969999,0
			39.8246994020001,-76.026481629,0
			39.8206901560001,-76.031951904,0
			39.8175010690001,-76.0308227529999,0
			39.812961579,-76.0303115839999,0
			39.8080291750001,-76.035202026,0
			39.8026199340001,-76.037712098,0
			39.7963409430001,-76.044433593,0
			39.7900390620001,-76.04814148,0
			39.7846298210001,-76.050636291,0
			39.78194046,-76.053703308,0
			39.7801704400002,-76.0567169189999,0
			39.7788619990002,-76.0615386969998,0
			39.7752304080001,-76.0616073609999,0
			39.7734298710001,-76.0628433229999,0
			39.7707519530001,-76.0658874509999,0
			39.7671203610001,-76.065361024,0
			39.7644004830001,-76.0660171499999,0
			39.7626113890001,-76.0678405749999,0
			39.760940551,-76.0804443359999,0
			39.7591705330001,-76.0840682979999,0
			39.7537307740001,-76.084182739,0
			39.747421265,-76.0872879039999,0
			39.745189668,-76.090927124,0
			39.7447891240001,-76.0957183839999,0
			39.74485016,-76.1010971059999,0
			39.742141723,-76.1017532339999,0
			39.7398719790002,-76.101799011,0
			39.7380294800002,-76.0988388049999,0
			39.7361793510001,-76.09588623,0
			39.732559204,-76.0965499879999,0
			39.7285118110001,-76.099617004,0
			39.7253990180002,-76.1050567619999,0
			39.7268219000001,-76.1104202279999,0
			39.7286605840001,-76.1133728039999,0
			39.7318191540001,-76.112121583,0
			39.7349891670001,-76.111457824,0
			39.7368392940002,-76.1144180299999,0
			39.7364387510002,-76.119804383,0
			39.7332801820002,-76.1204681389999,0
			39.7300796500001,-76.1187286369999,0
			39.7260093690002,-76.118812561,0
			39.7242393490001,-76.123626709,0
			39.7265396120001,-76.1265716549999,0
			39.7279510500001,-76.130737305,0
			39.7279815670001,-76.1337203969999,0
			39.726211549,-76.1373367319999,0
			39.7222787970001,-76.1391600629999,0
		</coordinates>
	</polygon>
</kml>
