<?xml version="1.0" encoding="UTF-8"?>
<kml xmlns="http://earth.google.com/kml/2.2">
	<polygon id="USA_MI_Saginaw" samplingProbability="1">
		<coordinates>
			43.5689315810001,-84.1701965329999,0
			43.5667991640001,-84.052116395,0
			43.5235404970002,-84.0523986809999,0
			43.521720886,-83.8188171379999,0
			43.4780120850001,-83.8186416619999,0
			43.4787292490001,-83.699958999,0
			43.3940696720001,-83.7008895869999,0
			43.3316802980001,-83.699645996,0
			43.3251912090001,-83.694252013,0
			43.2223205570001,-83.694046021,0
			43.2212295530001,-83.815437317,0
			43.2203712470001,-83.9317932119999,0
			43.133399964,-83.929382324,0
			43.1316604610001,-84.051879884,0
			43.1305999760002,-84.168701173,0
			43.1285591130002,-84.287422181,0
			43.1280784600001,-84.3684310919999,0
			43.20590973,-84.3697891229999,0
			43.2145614630001,-84.3701477049999,0
			43.3884315500001,-84.3717041009999,0
			43.4653587350001,-84.3718261709999,0
			43.4817390450001,-84.371322633,0
			43.4824600220001,-84.17188263,0
			43.5689315810001,-84.1701965329999,0
		</coordinates>
	</polygon>
</kml>
