<?xml version="1.0" encoding="UTF-8"?>
<kml xmlns="http://earth.google.com/kml/2.2">
	<polygon id="USA_OH_Stark" samplingProbability="1">
		<coordinates>
			40.7280120850001,-81.0873489379999,0
			40.7285194390001,-81.0921859749998,0
			40.728149414,-81.1000823969999,0
			40.7291984560001,-81.1989364619999,0
			40.7224006650001,-81.199058533,0
			40.7236900330001,-81.237251282,0
			40.6506919870001,-81.2409667969999,0
			40.651031495,-81.275497437,0
			40.651069642,-81.2791290279999,0
			40.6517601020001,-81.303962708,0
			40.6518821720001,-81.3172759999999,0
			40.652938842,-81.4372329709999,0
			40.6583786020001,-81.4365463259999,0
			40.6624908450001,-81.43950653,0
			40.665721894,-81.446739196,0
			40.6653709420001,-81.4588623039999,0
			40.6554603580001,-81.467491149,0
			40.634578704,-81.6489028919999,0
			40.6681404120001,-81.649101257,0
			40.7370796200001,-81.6482772829999,0
			40.914459229,-81.6479721059999,0
			40.9063797000001,-81.4200515759999,0
			40.9889221190002,-81.4163589479999,0
			40.9887199410002,-81.393226624,0
			40.988170623,-81.1058959969999,0
			40.9880218510001,-81.0925064099999,0
			40.9879493710002,-81.0864257819999,0
			40.9838714600002,-81.0865097039999,0
			40.9779701230001,-81.086624146,0
			40.901298523,-81.0869369509999,0
			40.7280120850001,-81.0873489379999,0
		</coordinates>
	</polygon>
</kml>
