<?xml version="1.0" encoding="UTF-8"?>
<kml xmlns="http://earth.google.com/kml/2.2">
	<polygon id="USA_IN_Hamilton" samplingProbability="1">
		<coordinates>
			39.9258689870002,-86.238533019,0
			39.9548912050002,-86.2390289299999,0
			40.0419387810001,-86.241706848,0
			40.1303596500001,-86.2419967659999,0
			40.1806907650001,-86.2424163809999,0
			40.215160371,-86.2434997559999,0
			40.217590332,-86.1284790039999,0
			40.2185592650002,-86.0134582519999,0
			40.2194404610001,-85.9014587409999,0
			40.2201499940001,-85.8617019659998,0
			40.1389884960001,-85.8630218499999,0
			39.9435691840001,-85.8623580939999,0
			39.9286117560002,-85.8624877929999,0
			39.9271507270001,-85.93686676,0
			39.9271698000001,-85.941070557,0
			39.926879882,-85.9800567619999,0
			39.9258689870002,-86.238533019,0
		</coordinates>
	</polygon>
</kml>
