<?xml version="1.0" encoding="UTF-8"?>
<kml xmlns="http://earth.google.com/kml/2.2">
	<polygon id="USA_NY_Monroe" samplingProbability="1">
		<coordinates>
			42.9877204910002,-77.910133361,0
			43.0141105650001,-77.909812926,0
			43.0369110110001,-77.906837464,0
			43.0392417900001,-77.9526901249999,0
			43.1319694530001,-77.9082794189999,0
			43.1321105970002,-77.998069764,0
			43.2818107610001,-77.9984817509999,0
			43.365600586,-77.9958572379999,0
			43.3656806940001,-77.9920883189999,0
			43.3662109370002,-77.987686158,0
			43.3676795960001,-77.982711792,0
			43.3686904900001,-77.9770660399999,0
			43.367908478,-77.9701232919999,0
			43.3668098450001,-77.9562072749999,0
			43.3626213080001,-77.936531068,0
			43.3604202280001,-77.932670592,0
			43.3587417610001,-77.9250564579999,0
			43.3575286870002,-77.916816712,0
			43.3572387690002,-77.9079971309999,0
			43.3564605720002,-77.900405883,0
			43.3551292420001,-77.8984680169999,0
			43.3533897410002,-77.8939971919999,0
			43.3525505060001,-77.890190124,0
			43.350120545,-77.8737258899999,0
			43.3485603340002,-77.8591918939999,0
			43.348690033,-77.8522720349999,0
			43.345840454,-77.8332672119999,0
			43.3429794310002,-77.814918517,0
			43.3397598270001,-77.790878296,0
			43.3394393920001,-77.7826766959999,0
			43.3400001530001,-77.777030944,0
			43.340969086,-77.773277283,0
			43.3414802550001,-77.77015686,0
			43.342430115,-77.7676696779999,0
			43.34249115,-77.7645187379999,0
			43.3412094120002,-77.7594375619999,0
			43.339012147,-77.7549591069999,0
			43.335479736,-77.7485504149999,0
			43.3328819270001,-77.740905761,0
			43.3316307060001,-77.7339401249999,0
			43.3276901240002,-77.724998474,0
			43.3255195620002,-77.7186202999999,0
			43.3233108510001,-77.7147827149999,0
			43.3201599110002,-77.712776183,0
			43.3178901670001,-77.712081908,0
			43.316070557,-77.7120208749999,0
			43.3147087110002,-77.711982726,0
			43.3147010800001,-77.7126083379999,0
			43.3146705640001,-77.714492798,0
			43.316478729,-77.715179443,0
			43.3182601920001,-77.717758179,0
			43.3190994260001,-77.7215728749999,0
			43.3185920720001,-77.7246932989999,0
			43.3176307680001,-77.7278213509999,0
			43.3171501150002,-77.729057311,0
			43.3157997140001,-77.7283859249999,0
			43.31539917,-77.725219726,0
			43.3145484930001,-77.7214126579999,0
			43.313690186,-77.718872071,0
			43.312339782,-77.7175674429999,0
			43.3105087290001,-77.7181396489999,0
			43.309150695,-77.7180862419999,0
			43.30791092,-77.710502624,0
			43.3070411690001,-77.707946777,0
			43.3084220890001,-77.707366942,0
			43.31021881,-77.708686829,0
			43.3106803890001,-77.7080688479999,0
			43.309822082,-77.7048873909999,0
			43.3040695200002,-77.6952667229999,0
			43.2916488650002,-77.6759872439999,0
			43.2832298280002,-77.661888123,0
			43.2797012330001,-77.655487061,0
			43.2775497440001,-77.647872924,0
			43.2749595650001,-77.6389770499999,0
			43.2679214480001,-77.624290467,0
			43.2634887700002,-77.616607667,0
			43.255970001,-77.6031570439999,0
			43.2462997450002,-77.5821228029999,0
			43.2392997750001,-77.5643005379999,0
			43.2367401120001,-77.5535430909999,0
			43.2350807190001,-77.542793273,0
			43.2355995190002,-77.539031982,0
			43.2356491090002,-77.5358886719999,0
			43.238510132,-77.5271759029999,0
			43.245090486,-77.5135269159999,0
			43.247909546,-77.507957458,0
			43.2488594050002,-77.505470276,0
			43.2493705740001,-77.5017089849999,0
			43.2489814760001,-77.4972991939999,0
			43.2504997250001,-77.4872817989999,0
			43.2538185120001,-77.4779357909999,0
			43.2561912540002,-77.4717178349998,0
			43.258659364,-77.4585800169999,0
			43.2616004950002,-77.444831848,0
			43.2672500620001,-77.4317779529999,0
			43.2700614930001,-77.426200867,0
			43.2696990970002,-77.4198989869999,0
			43.2702903740002,-77.4104766849999,0
			43.2713088990001,-77.4029617309999,0
			43.2746009840001,-77.396125793,0
			43.2760696420002,-77.3886184689999,0
			43.2748413100001,-77.3791503899999,0
			43.1898117060002,-77.3755569459999,0
			43.1220588680001,-77.3730926509999,0
			43.0329093930001,-77.3719329839999,0
			43.0321388250001,-77.486633301,0
			42.943050385,-77.482192993,0
			42.9438018800001,-77.5805129999999,0
			42.9442787180002,-77.6349868779998,0
			42.9397010810001,-77.6373596189999,0
			42.9403915400001,-77.758209229,0
			42.9426307680001,-77.7601623539999,0
			42.9444808970001,-77.758346558,0
			42.945491792,-77.7527389529999,0
			42.9437713620001,-77.747047424,0
			42.9475708020001,-77.737792968,0
			42.9449310310001,-77.7320632939999,0
			42.946769714,-77.7308731079999,0
			42.9548988350001,-77.7342605599999,0
			42.9554100040002,-77.7311477659999,0
			42.9531898500001,-77.7279357909999,0
			42.9591598520001,-77.7243804939999,0
			42.9654998770002,-77.7264633169999,0
			42.9719200130001,-77.7235412599999,0
			42.9715499880001,-77.7185058589999,0
			42.9738311770001,-77.717956543,0
			42.9796905520001,-77.721282959,0
			42.9817695620001,-77.7326278679999,0
			42.9881591790001,-77.73095703,0
			42.9877204910002,-77.910133361,0
		</coordinates>
	</polygon>
</kml>
