<?xml version="1.0" encoding="UTF-8"?>
<kml xmlns="http://earth.google.com/kml/2.2">
	<polygon id="USA_PA_Northampton" samplingProbability="1">
		<coordinates>
			40.9643707280001,-75.119636536,0
			40.9616813670001,-75.119018554,0
			40.9598693850001,-75.119003296,0
			40.9575996410001,-75.1183776859999,0
			40.955329895,-75.117141724,0
			40.9499092100002,-75.113441468,0
			40.9481010430002,-75.1122131349999,0
			40.9449386600001,-75.1091384889999,0
			40.9377708440002,-75.1047210689999,0
			40.929920196,-75.0989379879999,0
			40.925338746,-75.095413208,0
			40.9232406610001,-75.0931472769999,0
			40.921291352,-75.0908203129999,0
			40.9200897230002,-75.0882492069999,0
			40.9192619320002,-75.0858764659999,0
			40.9174003600001,-75.0835113529999,0
			40.9147796640002,-75.0810089109999,0
			40.9125099180001,-75.079536439,0
			40.909698486,-75.0784378049999,0
			40.906360627,-75.077285766,0
			40.9031906140002,-75.0760879519999,0
			40.9001884460001,-75.075828553,0
			40.8975105280001,-75.0746002199999,0
			40.8948898320001,-75.0735168469999,0
			40.8917503350001,-75.071006774,0
			40.8894195560001,-75.069038392,0
			40.8890190120002,-75.0686416629999,0
			40.8858718870001,-75.065628052,0
			40.8820686340001,-75.062828064,0
			40.877578736,-75.0581207279999,0
			40.8731803900001,-75.05545044,0
			40.868980408,-75.0538024909999,0
			40.8655586250002,-75.05367279,0
			40.862861634,-75.0549774179999,0
			40.8609619150001,-75.05608368,0
			40.8588485710001,-75.058761596,0
			40.85723877,-75.0604705809999,0
			40.8544311520001,-75.062187196,0
			40.8521308910001,-75.063247681,0
			40.8505706780001,-75.064346314,0
			40.849010467,-75.0663909909999,0
			40.8486099240002,-75.0688400279999,0
			40.8484916680002,-75.0712585459999,0
			40.8491592420002,-75.074287415,0
			40.8495597830001,-75.075286865,0
			40.8498306280001,-75.0767440799999,0
			40.8507194520001,-75.0797805779999,0
			40.850700379,-75.0834274289999,0
			40.8502311720002,-75.0870666499999,0
			40.8494720460001,-75.090682984,0
			40.8488502500002,-75.0925216669999,0
			40.8470191960002,-75.0943298349999,0
			40.8443489090001,-75.095619202,0
			40.842029573,-75.0954971319999,0
			40.8397712720002,-75.094268799,0
			40.8375091560001,-75.0924301149999,0
			40.8357009890001,-75.0899810789999,0
			40.8335304270001,-75.087577821,0
			40.8312187190002,-75.0852279659999,0
			40.8284721370001,-75.0844573969999,0
			40.8271522530001,-75.0841522229999,0
			40.8257598880001,-75.0841979979999,0
			40.8236999510002,-75.0842666629999,0
			40.8230400080001,-75.0842895509999,0
			40.819889068,-75.0856170659999,0
			40.8179702760001,-75.0867233279999,0
			40.8157501220001,-75.08921051,0
			40.8145408620002,-75.091262818,0
			40.8135414130002,-75.0926818849999,0
			40.8123397840001,-75.09438324,0
			40.810939789,-75.0963439939999,0
			40.8105087280002,-75.096801758,0
			40.8083190930001,-75.098152161,0
			40.8057212840002,-75.099449157,0
			40.8039016730002,-75.1000366219999,0
			40.8007202150002,-75.101837159,0
			40.7970695510001,-75.10484314,0
			40.7935485840002,-75.108978271,0
			40.7922286990001,-75.1108398429999,0
			40.7906990050001,-75.114433289,0
			40.790100097,-75.1182022089999,0
			40.7883796690002,-75.1211471559999,0
			40.7865486150002,-75.122962951,0
			40.7846794130001,-75.1252822879999,0
			40.7820892340001,-75.1269683839999,0
			40.779579164,-75.128761291,0
			40.7776298530002,-75.1307601919999,0
			40.7763290410002,-75.1321258539999,0
			40.7758407590001,-75.132637025,0
			40.7753715520001,-75.1338500969999,0
			40.775299073,-75.134399415,0
			40.7750206000002,-75.1369171149999,0
			40.7755317690001,-75.1399383539999,0
			40.7764701850001,-75.1441116329999,0
			40.7766189580001,-75.1446228039999,0
			40.7775001540002,-75.148368835,0
			40.7784805300001,-75.1525878899999,0
			40.7791290280001,-75.1568832409999,0
			40.7795600900001,-75.1611328129999,0
			40.7796096800001,-75.1641616819999,0
			40.7795295720001,-75.1646728509999,0
			40.7792205820001,-75.167739867,0
			40.777900695,-75.170211793,0
			40.7761192320002,-75.172088623,0
			40.7745018010002,-75.173217774,0
			40.772739411,-75.1739425649999,0
			40.7699813840001,-75.1744689949999,0
			40.767688752,-75.175582885,0
			40.7649612440001,-75.1773757939999,0
			40.7622184750001,-75.1797790539999,0
			40.7605895990001,-75.1829986569999,0
			40.7596015930001,-75.1865921029999,0
			40.756889343,-75.1921005259999,0
			40.7543220530001,-75.1958618169999,0
			40.7526016250002,-75.197280884,0
			40.7510299690002,-75.1977920529999,0
			40.748069763,-75.1966323859999,0
			40.7460708610002,-75.1949996949999,0
			40.744499207,-75.1930007929999,0
			40.7433509840001,-75.1913681019999,0
			40.7424507140001,-75.190216065,0
			40.741489411,-75.1890029909999,0
			40.7403297420001,-75.187522889,0
			40.7398719780001,-75.186943054,0
			40.738250732,-75.185462952,0
			40.7359504700001,-75.183723449,0
			40.7332115180001,-75.1825866699999,0
			40.730949402,-75.1832733149999,0
			40.7287902840001,-75.185104371,0
			40.7268714910001,-75.186218261,0
			40.7254409790002,-75.186706543,0
			40.7237586980002,-75.1871490469999,0
			40.7219314580001,-75.1881103519999,0
			40.721431732,-75.188369751,0
			40.7199821460001,-75.1902923589999,0
			40.7177009590001,-75.192687989,0
			40.7145805360001,-75.195182801,0
			40.7090492240001,-75.198669434,0
			40.7035903930001,-75.2010421749999,0
			40.6976890570001,-75.202796935,0
			40.693649292,-75.2037429819999,0
			40.6926803590001,-75.203880311,0
			40.688610076,-75.2027130129999,0
			40.6864318840001,-75.201347352,0
			40.6846694940001,-75.1986312869998,0
			40.683139802,-75.1945037839998,0
			40.6825408940001,-75.189903258,0
			40.6819801330001,-75.1848678599999,0
			40.6815299990001,-75.181236267,0
			40.6801719660002,-75.1790466319999,0
			40.6769599920001,-75.177749634,0
			40.6742286670002,-75.178329468,0
			40.6715011600002,-75.1795196539999,0
			40.6693496710001,-75.182342529,0
			40.6674613950001,-75.1847381589999,0
			40.6652488710001,-75.1878433219999,0
			40.663028717,-75.190940857,0
			40.6603698730001,-75.19406128,0
			40.658481599,-75.1961822499999,0
			40.6554489150001,-75.1978530879999,0
			40.6537094110001,-75.1987304689999,0
			40.651390077,-75.199234008,0
			40.6491203310001,-75.1992721549999,0
			40.647361756,-75.198669434,0
			40.6463508610001,-75.1969375599999,0
			40.6450195310001,-75.1956558229999,0
			40.6445121770001,-75.195182801,0
			40.6435203560002,-75.194038392,0
			40.6410903940002,-75.191902162,0
			40.637901307,-75.1906585689999,0
			40.635608673,-75.1900863639999,0
			40.6319885250002,-75.1894378659999,0
			40.6271591190001,-75.1890792849999,0
			40.6253395090002,-75.18913269,0
			40.6226501480002,-75.190437316,0
			40.621490479,-75.1916503899999,0
			40.6208686840002,-75.192306518,0
			40.6206207280001,-75.1941680909999,0
			40.6197013850002,-75.1971893319999,0
			40.618782044,-75.1989974969999,0
			40.616970062,-75.1995773319999,0
			40.6147003180002,-75.1995620729999,0
			40.6129989630002,-75.198722839,0
			40.6109809880001,-75.198089599,0
			40.5838890090002,-75.2552566529999,0
			40.5755996710001,-75.274276734,0
			40.5535392770001,-75.3100662239999,0
			40.5371894830001,-75.3353805549999,0
			40.5586318980002,-75.3692169179999,0
			40.5810012810002,-75.4048767089999,0
			40.59218216,-75.3948593149999,0
			40.5944404610001,-75.3947982789999,0
			40.6297492980001,-75.3901062019999,0
			40.6533317580001,-75.4166870119998,0
			40.6699295060002,-75.4331665049999,0
			40.6534309400002,-75.4791030879999,0
			40.6730690000001,-75.487632752,0
			40.6762695310001,-75.489356995,0
			40.6791000380001,-75.495941162,0
			40.6855506900002,-75.5024261479999,0
			40.7002296450001,-75.5129318229999,0
			40.7098617550001,-75.5193328849999,0
			40.7262992870001,-75.5261459339999,0
			40.7354087840001,-75.528327942,0
			40.7372817990001,-75.5319061289999,0
			40.7382698060002,-75.537345887,0
			40.7369613640001,-75.5404205329999,0
			40.7320098870001,-75.5429763799999,0
			40.7283821100001,-75.5430831909999,0
			40.7248001100002,-75.546211242,0
			40.723041535,-75.54989624,0
			40.721302033,-75.5548019419999,0
			40.721820832,-75.5590286249999,0
			40.7237319950002,-75.5656509399999,0
			40.7283287050002,-75.5691680899999,0
			40.7310600280001,-75.5702972409999,0
			40.73382187,-75.572647096,0
			40.735240936,-75.5762557979999,0
			40.7348403930002,-75.579917907,0
			40.7344322210002,-75.582962037,0
			40.7340316770001,-75.5866088869999,0
			40.7345199600001,-75.5890274059999,0
			40.7377586370001,-75.593193054,0
			40.7409820550001,-75.5961303709999,0
			40.7460212710002,-75.599639893,0
			40.7537994380001,-75.6036758419999,0
			40.7665405280002,-75.6063690179999,0
			40.7765388490001,-75.6079330439998,0
			40.7861099250001,-75.610702514,0
			40.78824997,-75.6015396119999,0
			40.7904510510002,-75.5972290049999,0
			40.7935600290002,-75.592903137,0
			40.7966194150002,-75.585533142,0
			40.8036994940001,-75.543434142,0
			40.813529968,-75.4757461549999,0
			40.8210792540001,-75.437271117,0
			40.8231086740001,-75.422637939,0
			40.8252105720002,-75.412857056,0
			40.8269119270001,-75.4055175789999,0
			40.8272590630001,-75.398826598,0
			40.8275909430002,-75.3915328989999,0
			40.8292808530001,-75.384185792,0
			40.8327293400002,-75.3737564079999,0
			40.8419609070001,-75.3558578499999,0
			40.8432312020001,-75.350349426,0
			40.845329285,-75.3405685429999,0
			40.8545799260001,-75.3238830559999,0
			40.8549804690001,-75.32081604,0
			40.8565597540002,-75.3074111939999,0
			40.8574218740001,-75.3043365479999,0
			40.861759187,-75.2926635739999,0
			40.863941192,-75.2877273569999,0
			40.8665885930001,-75.283386231,0
			40.8697013870001,-75.2796478259999,0
			40.8732185370001,-75.273460389,0
			40.8821792610001,-75.267097473,0
			40.8879890440001,-75.2614364629999,0
			40.8954086310001,-75.2454071039999,0
			40.8988990780002,-75.237388611,0
			40.9080696100001,-75.2425689689999,0
			40.9102706910001,-75.2388458239999,0
			40.9111518870001,-75.2369995119999,0
			40.9146804820001,-75.2314071659999,0
			40.9182090750002,-75.225822449,0
			40.9208793650001,-75.222686767,0
			40.924030305,-75.221366882,0
			40.9285087580001,-75.2181930539999,0
			40.9311904910001,-75.2156829839999,0
			40.9329414380001,-75.211967467,0
			40.9351501460001,-75.2088470459999,0
			40.9355201710002,-75.2039718619999,0
			40.937110901,-75.191757202,0
			40.9383621220001,-75.1856307979999,0
			40.9410095210002,-75.181892395,0
			40.9436798110002,-75.178756713,0
			40.9463691720002,-75.1768493659999,0
			40.9476699830001,-75.17376709,0
			40.94839859,-75.1640014649999,0
			40.949588775,-75.154228211,0
			40.9643707280001,-75.119636536,0
		</coordinates>
	</polygon>
</kml>
