<?xml version="1.0" encoding="UTF-8"?>
<kml xmlns="http://earth.google.com/kml/2.2">
	<polygon id="USA_KY_Grant" samplingProbability="1">
		<coordinates>
			38.7772521970001,-84.660026551,0
			38.7776794440001,-84.6552963249999,0
			38.7849388120002,-84.6575775139999,0
			38.7876510610001,-84.655769349,0
			38.7908210750001,-84.65573883,0
			38.7925720220001,-84.645683289,0
			38.7975387570001,-84.6438522329999,0
			38.8028793340001,-84.6296157839999,0
			38.803749085,-84.624290467,0
			38.802330017,-84.6154479969999,0
			38.792739869,-84.605529785,0
			38.7908592220001,-84.5972824089999,0
			38.789920807,-84.5317611679998,0
			38.5424499510001,-84.476776124,0
			38.508529664,-84.4854888919999,0
			38.512248993,-84.496612549,0
			38.51184845,-84.503089905,0
			38.5087509150001,-84.5131301879998,0
			38.508369447,-84.520782471,0
			38.500770568,-84.534996032,0
			38.4972114560001,-84.5432815549999,0
			38.4932212840001,-84.5544967659999,0
			38.492778779,-84.5562667839999,0
			38.4927902220002,-84.558036804,0
			38.4923591610001,-84.5609817499999,0
			38.4730186470001,-84.580627441,0
			38.4804115290002,-84.5999374379999,0
			38.480449676,-84.605812073,0
			38.4809799200002,-84.616386414,0
			38.4819297800001,-84.6216735839998,0
			38.4855918890001,-84.626907349,0
			38.4951591500001,-84.633857727,0
			38.5028800970001,-84.6361160279999,0
			38.508369447,-84.6436996459999,0
			38.5152091970002,-84.6500930779998,0
			38.518371583,-84.648292541,0
			38.5274696340001,-84.6528930669999,0
			38.5324897770002,-84.657539367,0
			38.532958984,-84.6610565189999,0
			38.5307121280001,-84.663436889,0
			38.5284690860001,-84.6675872799999,0
			38.5266799920001,-84.6711273189998,0
			38.5321502690002,-84.6745986939999,0
			38.537109376,-84.6710128779999,0
			38.5361709590001,-84.6663208009999,0
			38.5438690180002,-84.6656417839999,0
			38.5461997990002,-84.6756210319999,0
			38.5516700750002,-84.6796798699999,0
			38.5548095700001,-84.6749267569999,0
			38.5575294500001,-84.6743164059999,0
			38.5602989200002,-84.6825332629999,0
			38.6184387220001,-84.774353028,0
			38.720031738,-84.7857208259999,0
			38.7648696910001,-84.780563354,0
			38.7772521970001,-84.660026551,0
		</coordinates>
	</polygon>
</kml>
