<?xml version="1.0" encoding="UTF-8"?>
<kml xmlns="http://earth.google.com/kml/2.2">
	<polygon id="USA_MI_Mason" samplingProbability="1">
		<coordinates>
			43.8189392090002,-86.429077148,0
			43.859470368,-86.434112549,0
			43.8872604370002,-86.4474105839999,0
			43.8877105710001,-86.4467773439999,0
			43.8968200680001,-86.446769714,0
			43.9054718010001,-86.4467620839999,0
			43.922328948,-86.447387696,0
			43.944648742,-86.456886291,0
			43.949661254,-86.45942688,0
			43.9533004770001,-86.45942688,0
			43.9551315310001,-86.4581603999999,0
			43.9528503410002,-86.455619811,0
			43.9510307310001,-86.455619811,0
			43.9478416440001,-86.453720092,0
			43.943740844,-86.4492721559999,0
			43.939178468,-86.4486389169999,0
			43.931888581,-86.4416732779999,0
			43.9332504280002,-86.432136536,0
			43.9327888490001,-86.4289627069999,0
			43.9350700380001,-86.4200668329999,0
			43.9410018930002,-86.4365768439999,0
			43.9396286010001,-86.4391174309999,0
			43.945549011,-86.4384765629999,0
			43.948741913,-86.440376282,0
			43.94829178,-86.4467315669999,0
			43.9523887640001,-86.4499130239999,0
			43.953762054,-86.4543533319999,0
			43.9583206170001,-86.45878601,0
			43.9710693370002,-86.4606933589999,0
			43.986110687,-86.4733886719999,0
			43.9929389950001,-86.4784774779999,0
			44.0102500910002,-86.49182129,0
			44.0166320800002,-86.4969024659999,0
			44.0220909130001,-86.501358032,0
			44.0275688170001,-86.505172729,0
			44.0457801830001,-86.5166168219999,0
			44.0535316460001,-86.518531799,0
			44.060359954,-86.5172729499999,0
			44.0826911930002,-86.4867172239999,0
			44.08588028,-86.4822616569999,0
			44.10818863,-86.44278717,0
			44.1359787,-86.4160079949999,0
			44.1437187200001,-86.4108963009999,0
			44.1473617560001,-86.4089889529999,0
			44.1564712530002,-86.399421693,0
			44.1715011590001,-86.3949432379999,0
			44.1796989440001,-86.389190674,0
			44.1754608150002,-86.2795791619999,0
			44.1745185860001,-86.2611007689999,0
			44.1716194150001,-86.184638976,0
			44.1667289730001,-86.062942506,0
			44.1661987310001,-86.0412826529999,0
			43.9889602660002,-86.039291382,0
			43.9333801260001,-86.0383987429999,0
			43.9024009700001,-86.0379714959999,0
			43.8140602120001,-86.038566589,0
			43.8157806400002,-86.1570968629999,0
			43.8164596550002,-86.2553710929999,0
			43.8164901740001,-86.2750167859999,0
			43.8184585580001,-86.398010254,0
			43.8189392090002,-86.429077148,0
		</coordinates>
	</polygon>
</kml>
