<?xml version="1.0" encoding="UTF-8"?>
<kml xmlns="http://earth.google.com/kml/2.2">
	<polygon id="USA_WI_Milwaukee" samplingProbability="1">
		<coordinates>
			43.1947288510001,-87.89491272,0
			43.1938095100001,-87.893669127,0
			43.1901321410002,-87.8906097409999,0
			43.1864395150001,-87.8869171139999,0
			43.1805114750001,-87.8851928699999,0
			43.1759414680001,-87.8834075939999,0
			43.1718215950002,-87.881607055,0
			43.1672821050001,-87.882347107,0
			43.1604919440001,-87.885017394,0
			43.1550712580001,-87.888290405,0
			43.1483001710002,-87.8922195439999,0
			43.1437911990001,-87.895462036,0
			43.1401786800001,-87.8980560299999,0
			43.134750366,-87.9006958009999,0
			43.1302108780001,-87.9014282229999,0
			43.1243019110001,-87.90157318,0
			43.1201820380001,-87.899147034,0
			43.1141815190002,-87.89238739,0
			43.1077384950001,-87.8868865969999,0
			43.1040802010002,-87.884468079,0
			43.1003684990002,-87.8789062499999,0
			43.0952987670001,-87.8740081779999,0
			43.0898094170001,-87.8716278069999,0
			43.0752220160001,-87.868843079,0
			43.072429658,-87.8638763429999,0
			43.0683593750001,-87.8652267449999,0
			43.0585098280001,-87.8780059809999,0
			43.0495300300001,-87.8876266489999,0
			43.0405387880001,-87.895980835,0
			43.0346603400001,-87.8992462159999,0
			43.0310516360001,-87.901222229,0
			43.0233612060001,-87.9045333859999,0
			43.0179290770001,-87.906539918,0
			43.0165596020001,-87.905937195,0
			43.0151596070002,-87.9034729009999,0
			43.0123519900001,-87.897262573,0
			43.0063819880002,-87.89238739,0
			43.003631591,-87.890579223,0
			43.0026702890001,-87.886222839,0
			43.0017395030002,-87.8849792479999,0
			42.9962615960002,-87.8832321159999,0
			42.9833106990002,-87.8659973149999,0
			42.978229523,-87.8598480219999,0
			42.9717903140001,-87.8537368779999,0
			42.9690284730001,-87.8513030999999,0
			42.9653587350001,-87.8482589719999,0
			42.9612388620001,-87.8464813229999,0
			42.9534912120002,-87.8447875969999,0
			42.9375801090001,-87.845169067,0
			42.924411774,-87.847358704,0
			42.918941498,-87.846237182,0
			42.9134292600001,-87.8420028689999,0
			42.9116020210002,-87.841407776,0
			42.9079704290001,-87.8414993279999,0
			42.9039497380001,-87.847229004,0
			42.9007911680002,-87.8491821299999,0
			42.8939895630001,-87.8505859379999,0
			42.883499145,-87.848342896,0
			42.8789291380002,-87.8465728749999,0
			42.8748207100001,-87.845413208,0
			42.8707084650001,-87.8436431879999,0
			42.8633689890002,-87.838806152,0
			42.8597221380001,-87.8376464849999,0
			42.8542289730001,-87.8346633919999,0
			42.8491592400001,-87.8297729479999,0
			42.84457016,-87.826759339,0
			42.8446807860001,-87.835510254,0
			42.8447608940002,-87.9524230949999,0
			42.8447303780001,-88.0699386599999,0
			42.9333801270002,-88.067466736,0
			42.972499848,-88.069183349,0
			43.0202407840002,-88.06817627,0
			43.1075592040002,-88.0663681019998,0
			43.193962098,-88.0639419559999,0
			43.1944618230001,-87.9872665409999,0
			43.1948585520001,-87.9432830819999,0
			43.1947288510001,-87.89491272,0
		</coordinates>
	</polygon>
</kml>
