<?xml version="1.0" encoding="UTF-8"?>
<kml xmlns="http://earth.google.com/kml/2.2">
	<polygon id="USA_NM_San_Miguel" samplingProbability="1">
		<coordinates>
			35.142749786,-104.123046874,0
			35.215141296,-104.124351502,0
			35.2161407480001,-104.680198669,0
			35.2159500120002,-105.092201233,0
			35.2166099550001,-105.290420531,0
			35.043418884,-105.288536073,0
			35.0436096200002,-105.502487183,0
			35.0424995430001,-105.713928224,0
			35.2150115970001,-105.712989807,0
			35.3956718450001,-105.714569091,0
			35.409740447,-105.714523315,0
			35.4219894410002,-105.714469909,0
			35.871341705,-105.720275879,0
			35.871711732,-105.572563172,0
			35.8710212700001,-105.511260987,0
			35.8709297180001,-105.490257263,0
			35.8705215460001,-105.401145935,0
			35.8706893920001,-105.347206115,0
			35.83782959,-105.2374115,0
			35.8382606500002,-105.233436584,0
			35.8359489440001,-105.227783203,0
			35.835010528,-105.222122193,0
			35.8290901180001,-105.219337463,0
			35.8272094720001,-105.209152221,0
			35.8267097480002,-105.202919006,0
			35.8257408150002,-105.19441986,0
			35.8256912230001,-105.185913086,0
			35.8233489990001,-105.17516327,0
			35.821491242,-105.169502258,0
			35.8196296690001,-105.162712097,0
			35.8164215090002,-105.158210754,0
			35.8150405890001,-105.155403137,0
			35.8113899230001,-105.153167725,0
			35.8091087340001,-105.150917054,0
			35.8095092780002,-105.142967224,0
			35.8103294380002,-105.132186889,0
			35.8084487930001,-105.122566223,0
			35.8065795900001,-105.115219116,0
			35.8065490720001,-105.110679626,0
			35.7996597290001,-105.099418641,0
			35.790470123,-105.084793091,0
			35.785888673,-105.079162597,0
			35.7794303900001,-105.065628052,0
			35.779830932,-105.059387207,0
			35.774780273,-105.052078247,0
			35.768821716,-105.043663026,0
			35.7696495050001,-105.034568787,0
			35.7678298950001,-105.033462525,0
			35.7655601510001,-105.033493042,0
			35.7610015870001,-105.031280518,0
			35.7559814450001,-105.027366637,0
			35.7559509280001,-105.023971558,0
			35.7609214780001,-105.021636963,0
			35.762729645,-105.021057129,0
			35.7699699400002,-105.018127442,0
			35.7739219670001,-105.002197265,0
			35.7791404720001,-104.545379639,0
			35.7785797130002,-104.382591248,0
			35.7802085870001,-104.368362427,0
			35.781139373,-104.021659851,0
			35.787719727,-104.008453369,0
			35.801021577,-103.975875855,0
			35.8006706240002,-103.975616455,0
			35.7135620120002,-103.918029785,0
			35.6919593820002,-103.902763367,0
			35.4216995250001,-103.723213196,0
			35.4216117860001,-103.641777039,0
			35.4216804510002,-103.63597107,0
			35.389438629,-103.635665893,0
			35.2406005860001,-103.635192871,0
			35.2408905030001,-103.692672729,0
			35.2423820500001,-103.856086732,0
			35.264148712,-103.85636139,0
			35.1927490240002,-104.016029359,0
			35.142749786,-104.123046874,0
		</coordinates>
	</polygon>
</kml>
