<?xml version="1.0" encoding="UTF-8"?>
<kml xmlns="http://earth.google.com/kml/2.2">
	<polygon id="USA_IL_Clinton" samplingProbability="1">
		<coordinates>
			38.7420120250001,-89.596839904,0
			38.7406921380001,-89.4835662839999,0
			38.7406311030001,-89.3714675909999,0
			38.7409400950001,-89.27531433,0
			38.7409095760001,-89.2546463019999,0
			38.7399406430002,-89.2251586919999,0
			38.7360916150002,-89.139633179,0
			38.6495208740002,-89.139472962,0
			38.5611495970001,-89.1428527829999,0
			38.5040512090001,-89.144302368,0
			38.5079193110001,-89.243682861,0
			38.5070304870001,-89.2489700309999,0
			38.507041932,-89.256027221,0
			38.5079498290001,-89.256607056,0
			38.50976181,-89.25718689,0
			38.5097694400001,-89.2589569089999,0
			38.5093193060002,-89.2607269289999,0
			38.5093193060002,-89.2636566159999,0
			38.5097808830001,-89.266021729,0
			38.5093307490002,-89.267196655,0
			38.5075187690002,-89.2695465099999,0
			38.5066108720001,-89.2713165279999,0
			38.5075302120001,-89.2754364009999,0
			38.5070800790001,-89.277786256,0
			38.5079917910001,-89.2795486459999,0
			38.50799942,-89.283081054,0
			38.5098190320002,-89.285423279,0
			38.5102691660001,-89.287773132,0
			38.5098190320002,-89.288963317,0
			38.5089187620001,-89.2907180789999,0
			38.5102806090001,-89.295417785,0
			38.5089302060002,-89.2966003419999,0
			38.5075721740001,-89.2989578249999,0
			38.509391785,-89.3013076779999,0
			38.511650085,-89.3013000479999,0
			38.5121116640001,-89.3048171999999,0
			38.5121192930001,-89.308357239,0
			38.5130310050001,-89.3136367809999,0
			38.5125808720001,-89.3154067989999,0
			38.5107688910001,-89.3183593749999,0
			38.5112304680001,-89.3207092279999,0
			38.5121421810001,-89.323646545,0
			38.514862061,-89.32422638,0
			38.5135002140001,-89.3271713249999,0
			38.5148696910002,-89.3283462529999,0
			38.5125999450001,-89.3318786629999,0
			38.5126113900001,-89.333641053,0
			38.514419555,-89.3359909059999,0
			38.5130691520001,-89.3389358519999,0
			38.5144310010001,-89.3418807989999,0
			38.5139808650002,-89.3454132079999,0
			38.514438629,-89.3477630619999,0
			38.5171585090002,-89.3477630619999,0
			38.5189704910002,-89.35069275,0
			38.5189819340001,-89.3548126229999,0
			38.518989564,-89.360099793,0
			38.5162696840001,-89.3606872559999,0
			38.5144615170001,-89.362457276,0
			38.512641907,-89.3612899789999,0
			38.51128006,-89.361877441,0
			38.51084137,-89.366577149,0
			38.5094795240001,-89.3648223869998,0
			38.5081100470001,-89.36541748,0
			38.5076599130001,-89.368347167,0
			38.5058593740001,-89.3707122799999,0
			38.5044899000001,-89.3689498899998,0
			38.504039764,-89.3666000369999,0
			38.5017700200002,-89.3701324459999,0
			38.4999618530002,-89.3719024659999,0
			38.50086975,-89.3736572259999,0
			38.502231599,-89.3736572259999,0
			38.5026893630001,-89.376586913,0
			38.5017814630001,-89.377777099,0
			38.4999694830001,-89.377777099,0
			38.497711182,-89.3818969719999,0
			38.4981613160002,-89.3848266589999,0
			38.4972610480001,-89.38659668,0
			38.49861908,-89.3907165529999,0
			38.4977188100002,-89.3924789429998,0
			38.4963607790001,-89.3948364259999,0
			38.496810913,-89.397766113,0
			38.496810913,-89.3989486689999,0
			38.495910645,-89.4007186889999,0
			38.4936408990001,-89.398956299,0
			38.491378785,-89.399536133,0
			38.4918289190001,-89.401901245,0
			38.4927406320002,-89.404251099,0
			38.4940986630002,-89.404830932,0
			38.4954605100002,-89.404830932,0
			38.495910645,-89.4065933219999,0
			38.4954605100002,-89.408363342,0
			38.4927406320002,-89.4095382699999,0
			38.4913902290001,-89.4107208249999,0
			38.4909286500002,-89.412483215,0
			38.4909400950002,-89.414253236,0
			38.4936599730001,-89.418952941,0
			38.4977416990001,-89.425407411,0
			38.4986495960001,-89.430107116,0
			38.498199463,-89.4336395269999,0
			38.4936714180001,-89.4377593999999,0
			38.4918594360001,-89.4412918099998,0
			38.4918594360001,-89.44481659,0
			38.4914093020001,-89.4489364629999,0
			38.4900512710001,-89.4512863159999,0
			38.4873313910002,-89.455986024,0
			38.484611511,-89.457756042,0
			38.4823493950001,-89.4589309689999,0
			38.4796295170001,-89.461875915,0
			38.4773597710001,-89.4683380129999,0
			38.4755516060001,-89.4718704229999,0
			38.4741897580002,-89.4783325189999,0
			38.4719314570002,-89.4848022459998,0
			38.4719314570002,-89.4865570059999,0
			38.4737396240001,-89.487152099,0
			38.4755592340002,-89.488327027,0
			38.4796295170001,-89.4953765869999,0
			38.478279114,-89.497146607,0
			38.4760093700002,-89.49420929,0
			38.4742012030002,-89.4947967529999,0
			38.4760093700002,-89.5024261469999,0
			38.4760093700002,-89.507728576,0
			38.4746513370001,-89.512435914,0
			38.4751014700001,-89.5147933969999,0
			38.476459504,-89.520080567,0
			38.4796295170001,-89.5241928099999,0
			38.480991364,-89.52948761,0
			38.4823493950001,-89.5324172979999,0
			38.4814414970001,-89.5365371709999,0
			38.4814414970001,-89.5406570439998,0
			38.4805297850002,-89.5424194339999,0
			38.476909638,-89.5435867309999,0
			38.47600174,-89.5477066039999,0
			38.476909638,-89.5494689939999,0
			38.4796218870002,-89.554756165,0
			38.4782600410001,-89.55770111,0
			38.476902007,-89.5600509649999,0
			38.4782600410001,-89.56298828,0
			38.4787101740001,-89.5653381349999,0
			38.4782600410001,-89.5671081539999,0
			38.4791603080001,-89.570053101,0
			38.4836997980001,-89.567703246,0
			38.48369217,-89.574172974,0
			38.480968475,-89.574752807,0
			38.4800605780001,-89.5765075689999,0
			38.482780457,-89.579452514,0
			38.480968475,-89.582977295,0
			38.4805107110001,-89.5865020749999,0
			38.4786987310002,-89.587677002,0
			38.4777908340001,-89.5941467279999,0
			38.477779388,-89.5982589729999,0
			38.4768714910002,-89.6058959959999,0
			38.4750518800001,-89.611770629,0
			38.4709701540001,-89.6188201909999,0
			38.4691505440002,-89.6211700439999,0
			38.4659805300001,-89.6217498789999,0
			38.4637107840001,-89.6240997309998,0
			38.4637107840001,-89.6258621219999,0
			38.4655189510001,-89.627632142,0
			38.4650688180001,-89.6287994389999,0
			38.4618911740001,-89.6276168809999,0
			38.4596290600002,-89.6276168809999,0
			38.4546394340002,-89.628776551,0
			38.4528198240001,-89.6311264029999,0
			38.4532699600002,-89.6364212039999,0
			38.451000213,-89.637008666,0
			38.45055008,-89.637588501,0
			38.45055008,-89.6399459839999,0
			38.449642182,-89.6405258179998,0
			38.4478302000001,-89.6405258179998,0
			38.4473686230002,-89.6422882089999,0
			38.4478187570001,-89.6446380609999,0
			38.4469108590001,-89.645812989,0
			38.4446487430001,-89.6463928209999,0
			38.4437408460001,-89.648162842,0
			38.4441909790001,-89.6540298459998,0
			38.4441795360001,-89.656379699,0
			38.44644928,-89.6604995719999,0
			38.4468994140001,-89.66343689,0
			38.446891786,-89.665786743,0
			38.4459800730002,-89.6669616699999,0
			38.4441719060001,-89.66871643,0
			38.440540313,-89.67047882,0
			38.4387321480001,-89.668708802,0
			38.4378204360002,-89.6675262459999,0
			38.4360084530001,-89.6669387809999,0
			38.4351005560002,-89.6675262459999,0
			38.4342002860001,-89.669288636,0
			38.4341888430001,-89.671051026,0
			38.4360008230001,-89.673400879,0
			38.4360008230001,-89.674575806,0
			38.4355506900001,-89.6751632689999,0
			38.4341888430001,-89.6751632689999,0
			38.4328308120001,-89.673980714,0
			38.4319190990001,-89.6745681759999,0
			38.4314689630002,-89.6757431039999,0
			38.432369233,-89.678092957,0
			38.4319190990001,-89.679267884,0
			38.4300994870002,-89.6792602539999,0
			38.4273796090002,-89.6798400879999,0
			38.426460266,-89.686889649,0
			38.428279876,-89.6868972789999,0
			38.4300918590001,-89.6863098139999,0
			38.4287300120001,-89.6898269659999,0
			38.4269104,-89.6910018919999,0
			38.4269104,-89.6945266719998,0
			38.4250907890002,-89.696296692,0
			38.4232788090002,-89.6968765269999,0
			38.4187393190001,-89.696861266,0
			38.4173812880001,-89.6986160279999,0
			38.4178314220001,-89.7021484379999,0
			38.418731689,-89.7056732189999,0
			38.480369567,-89.707015992,0
			38.5687484740001,-89.7072677609999,0
			38.656219482,-89.7069168099999,0
			38.6558990470001,-89.5967330939998,0
			38.7420120250001,-89.596839904,0
		</coordinates>
	</polygon>
</kml>
