<?xml version="1.0" encoding="UTF-8"?>
<kml xmlns="http://earth.google.com/kml/2.2">
	<polygon id="USA_MI_Shiawassee" samplingProbability="1">
		<coordinates>
			42.774631501,-84.3649368279999,0
			42.856060029,-84.366806031,0
			42.8610496520002,-84.3666458129998,0
			42.94385147,-84.367851257,0
			42.9561195370001,-84.3674697869999,0
			43.117160796,-84.3681411739999,0
			43.1280784600001,-84.3684310919999,0
			43.1285591130002,-84.287422181,0
			43.1305999760002,-84.168701173,0
			43.1316604610001,-84.051879884,0
			43.133399964,-83.929382324,0
			43.0451202400001,-83.9282836919999,0
			42.9573707590001,-83.9309158329999,0
			42.867710114,-83.9280014039999,0
			42.7811889650001,-83.9224624639999,0
			42.77791977,-84.159332276,0
			42.774631501,-84.3649368279999,0
		</coordinates>
	</polygon>
</kml>
