<?xml version="1.0" encoding="UTF-8"?>
<kml xmlns="http://earth.google.com/kml/2.2">
	<polygon id="USA_MS_Washington" samplingProbability="1">
		<coordinates>
			33.0103187570001,-91.1623077379999,0
			33.0127105720002,-91.161956787,0
			33.0177192690001,-91.1613616939998,0
			33.0217704780001,-91.1595382689999,0
			33.025451661,-91.1557617189999,0
			33.0271987910002,-91.151412963,0
			33.0273590080001,-91.147026062,0
			33.0275802610001,-91.14100647,0
			33.0293617250001,-91.1360702509999,0
			33.0311584480001,-91.13331604,0
			33.0352821350002,-91.1290893559999,0
			33.0403213500001,-91.125877381,0
			33.0448989870001,-91.1232070929999,0
			33.0517387400001,-91.1222076419999,0
			33.0567398070001,-91.122833251,0
			33.0608100900002,-91.1245269779999,0
			33.0648002630002,-91.1280059809999,0
			33.0698509220002,-91.13343811,0
			33.0738601690002,-91.1400527949999,0
			33.0804595940001,-91.1519393919999,0
			33.0845909120001,-91.1593627929999,0
			33.0881690980001,-91.1654357899999,0
			33.0921821600001,-91.1742630009999,0
			33.0970802300002,-91.1835327149999,0
			33.1019897450001,-91.1935806279999,0
			33.1055793760002,-91.199111938,0
			33.109191895,-91.2013473499999,0
			33.1132698060002,-91.203056335,0
			33.1178207400001,-91.203681947,0
			33.1219100960001,-91.20374298,0
			33.1264686600002,-91.2027130119999,0
			33.1322402950001,-91.1996002209999,0
			33.1363105780002,-91.1962661739999,0
			33.1390113830001,-91.192413329,0
			33.1416702270002,-91.185409546,0
			33.1426315320001,-91.1810379029999,0
			33.1431388860001,-91.176116943,0
			33.1422996520001,-91.169532777,0
			33.1407890330001,-91.1636428829999,0
			33.1312408460001,-91.151100158,0
			33.1287002570002,-91.1368484499998,0
			33.1302413940001,-91.103027343,0
			33.1370315550001,-91.092330932,0
			33.1520309450001,-91.086853027,0
			33.1826896670001,-91.0834732059998,0
			33.2170906060001,-91.0924758909999,0
			33.2192611700001,-91.091751099,0
			33.2215309140001,-91.090629577,0
			33.222869872,-91.0878677369999,0
			33.2233009350001,-91.0851211539999,0
			33.2241706850001,-91.081321716,0
			33.2255592350001,-91.078048705,0
			33.2292594910002,-91.0715179439999,0
			33.2358818070001,-91.064666748,0
			33.240760803,-91.059051514,0
			33.2471809390001,-91.053649902,0
			33.2508392330001,-91.051506043,0
			33.2567787180001,-91.048286438,0
			33.2608909610001,-91.046699524,0
			33.2659111020001,-91.0456695549998,0
			33.2713699350001,-91.045196533,0
			33.276691437,-91.04662323,0
			33.280448913,-91.0480575569999,0
			33.2840003970001,-91.0509262089998,0
			33.2858619690001,-91.055297851,0
			33.2872695920001,-91.061317443,0
			33.2873191840002,-91.066261292,0
			33.2864608770001,-91.072860717,0
			33.2847290030002,-91.0766601569999,0
			33.280590057,-91.0815505989999,0
			33.2774505620001,-91.084503175,0
			33.2768821730002,-91.0848922729999,0
			33.260120392,-91.090980531,0
			33.2382316590002,-91.0987625129999,0
			33.2458915710002,-91.1124725329999,0
			33.259170533,-91.116752624,0
			33.2637290960002,-91.1228027349999,0
			33.266521455,-91.1252670299999,0
			33.2701492300001,-91.126960754,0
			33.274230957,-91.1281204209999,0
			33.277870179,-91.128166198,0
			33.281898498,-91.1294631959999,0
			33.2882919300002,-91.1327133189999,0
			33.294158935,-91.1371917719999,0
			33.2974395760002,-91.139167786,0
			33.3009490960001,-91.1411361689999,0
			33.304649354,-91.1424560549999,0
			33.30929947,-91.143432616,0
			33.313861848,-91.143928527,0
			33.3195686340001,-91.14414978,0
			33.3247795100001,-91.144355774,0
			33.330039979,-91.1443023669999,0
			33.3350410460002,-91.144371033,0
			33.338878631,-91.1436614989999,0
			33.3437004090002,-91.142852784,0
			33.3474998470002,-91.1408233639999,0
			33.3506698610001,-91.138587952,0
			33.3537902840001,-91.1353073129999,0
			33.3574295050001,-91.1291732779999,0
			33.3605690000001,-91.1236419689999,0
			33.363960266,-91.1189727779999,0
			33.3671722410002,-91.1157073969999,0
			33.3732109070001,-91.1108627319999,0
			33.3781814570002,-91.107070922,0
			33.3827705380002,-91.1027374269999,0
			33.386878967,-91.100051881,0
			33.3909988400001,-91.097358705,0
			33.3935585030001,-91.095237733,0
			33.3960609430002,-91.0919265749998,0
			33.4006614680001,-91.0864868159999,0
			33.405261994,-91.0796966549999,0
			33.408958435,-91.0745162969998,0
			33.41355133,-91.070732117,0
			33.417438507,-91.0663681029999,0
			33.4206008900001,-91.0630264279999,0
			33.4237518300001,-91.059692382,0
			33.427318573,-91.057167054,0
			33.432369232,-91.0568389889999,0
			33.4373321540002,-91.0572967529999,0
			33.4405708310002,-91.057289124,0
			33.4445991520001,-91.0585021969999,0
			33.4474105840001,-91.059959412,0
			33.4504814150001,-91.0618820199999,0
			33.4531822220001,-91.0652160639999,0
			33.4554100040001,-91.0696487439999,0
			33.4571113590001,-91.0780029299999,0
			33.4580688480002,-91.0840377809999,0
			33.4571990970001,-91.0884475699999,0
			33.4557685860001,-91.0919265749998,0
			33.4529113770002,-91.093818664,0
			33.448799134,-91.0959625239999,0
			33.4408798230002,-91.09689331,0
			33.4301109310002,-91.099006652,0
			33.4210090640001,-91.0994262689999,0
			33.415431976,-91.0993804919999,0
			33.4109992980001,-91.1003875739999,0
			33.4077987680001,-91.101440429,0
			33.403919221,-91.1029357909998,0
			33.4000091550002,-91.1050567629999,0
			33.3968200680002,-91.107887268,0
			33.393680573,-91.1117172249999,0
			33.3892097470001,-91.1205673219998,0
			33.3851699820001,-91.128860473,0
			33.3815002450002,-91.1389999389999,0
			33.3798713690002,-91.149261474,0
			33.3794708250001,-91.158058167,0
			33.380290986,-91.16921997,0
			33.3824806210001,-91.1774978649999,0
			33.3851203920001,-91.1838378899999,0
			33.3874397290001,-91.1898727419999,0
			33.3897399910001,-91.193138123,0
			33.3922805780001,-91.1968917839999,0
			33.394531251,-91.1996765139999,0
			33.3958702090002,-91.2024459839999,0
			33.39855957,-91.2057876579999,0
			33.4017295830001,-91.2074813849999,0
			33.406269074,-91.2086486819999,0
			33.4090118420002,-91.2075958249999,0
			33.4121208200002,-91.206108093,0
			33.415279388,-91.202217101,0
			33.4170684820001,-91.1983566279999,0
			33.4179496760001,-91.1944961539999,0
			33.4187889100002,-91.186286927,0
			33.4197692860001,-91.1791610729999,0
			33.4209709170001,-91.170272827,0
			33.4233398440001,-91.1624374389999,0
			33.4291687020001,-91.131652832,0
			33.4560318000002,-91.117156982,0
			33.4743995660001,-91.1261062619999,0
			33.4987792960001,-91.1684570309999,0
			33.4964103700001,-91.1765670769999,0
			33.4686088570002,-91.1754531869998,0
			33.4522094740001,-91.168876648,0
			33.438499451,-91.182960511,0
			33.4339218140001,-91.2111968989999,0
			33.437740326,-91.2348632809999,0
			33.4560318000002,-91.232856751,0
			33.4742698670001,-91.1999664299999,0
			33.5014419560001,-91.1838760369999,0
			33.5028495790001,-91.184013368,0
			33.5043411260002,-91.183731079,0
			33.509799957,-91.1832733159999,0
			33.513420105,-91.1847076409999,0
			33.516609192,-91.18688202,0
			33.5184593210001,-91.190162659,0
			33.5219421390001,-91.197219849,0
			33.5277519230002,-91.2070922839999,0
			33.5283889780002,-91.2081909179999,0
			33.5292587290001,-90.76499939,0
			33.5292892460001,-90.761695861,0
			33.4460487370001,-90.760887146,0
			33.4460220340001,-90.7647399909999,0
			33.2694892890001,-90.7657775869999,0
			33.2697296150001,-90.72844696,0
			33.2701988220001,-90.7268066409999,0
			33.2702598580001,-90.7174758909999,0
			33.2700195310001,-90.7167816159999,0
			33.2665901180001,-90.722381591,0
			33.264709473,-90.731147767,0
			33.2592391960001,-90.732200623,0
			33.2505989090001,-90.7321166999999,0
			33.2355690000001,-90.7347183219999,0
			33.232391358,-90.733047486,0
			33.2297210700001,-90.7231369019999,0
			33.227470398,-90.7192764279999,0
			33.2170600900002,-90.709846496,0
			33.2148094170001,-90.705451965,0
			33.209461211,-90.6878509529999,0
			33.2044906610002,-90.6817779539999,0
			33.1985893240001,-90.680076599,0
			33.19311142,-90.682228089,0
			33.1880798340001,-90.687118531,0
			33.1830711370002,-90.687072754,0
			33.1689720160001,-90.6853027339999,0
			33.1635017400001,-90.6874465939999,0
			33.1566505440001,-90.691230774,0
			33.1489219670001,-90.6900558469999,0
			33.1416206370002,-90.692741395,0
			33.1374893190001,-90.6987304679999,0
			33.1333885190001,-90.699790955,0
			33.1288414010001,-90.6997528079999,0
			33.1247406010001,-90.7002563469999,0
			33.1238594050002,-90.695869446,0
			33.1243400580001,-90.69039917,0
			33.1216201780001,-90.6887283319999,0
			33.117530823,-90.6881484989999,0
			33.1161918630001,-90.6837463379999,0
			33.115310669,-90.6799087529999,0
			33.1107597360001,-90.678771973,0
			33.103012086,-90.6809005749999,0
			33.1002616890001,-90.6836166369999,0
			33.1002388010002,-90.6885528559999,0
			33.1011009210001,-90.696228028,0
			33.0997009280001,-90.7005920399998,0
			33.0965118410002,-90.7016601549999,0
			33.094490051,-90.863746643,0
			33.097679138,-90.8637924199999,0
			33.0968284610001,-90.9136199949999,0
			33.007629394,-90.912590027,0
			33.0076484690001,-90.965118408,0
			33.010379792,-90.9656982429999,0
			33.0103187570001,-91.1623077379999,0
		</coordinates>
	</polygon>
</kml>
