<?xml version="1.0" encoding="UTF-8"?>
<kml xmlns="http://earth.google.com/kml/2.2">
	<polygon id="USA_WI_Columbia" samplingProbability="1">
		<coordinates>
			43.641071319,-89.7865676869999,0
			43.6410789490001,-89.7789764409999,0
			43.6430206300001,-89.7195358279999,0
			43.6427116400001,-89.6000289909999,0
			43.6422920230002,-89.483680724,0
			43.6426811220001,-89.364799499,0
			43.6429595950001,-89.2452774049999,0
			43.643589019,-89.1270294189999,0
			43.6317520150001,-89.127098083,0
			43.633178711,-89.0069580079999,0
			43.5480499270002,-89.0063095099999,0
			43.4615821830001,-89.00440216,0
			43.3737487800001,-89.0037765509999,0
			43.3737716680002,-89.0088119499999,0
			43.2859611510001,-89.009437561,0
			43.282699586,-89.127098083,0
			43.2834396360001,-89.245986938,0
			43.2831611630001,-89.3623580939999,0
			43.2954406750002,-89.3617019659999,0
			43.2941513070001,-89.4818801869998,0
			43.2932014480001,-89.600776673,0
			43.2935104370002,-89.7209472649999,0
			43.2934989940001,-89.7234573369999,0
			43.3025894180001,-89.7291564939999,0
			43.3107795720001,-89.727920532,0
			43.3153419500001,-89.7254180909999,0
			43.3180694580001,-89.72292328,0
			43.3194503780002,-89.7185058599999,0
			43.3226394650002,-89.7128524779999,0
			43.3276519770001,-89.7078399659999,0
			43.33449173,-89.7028198249999,0
			43.3495216370001,-89.6909027089999,0
			43.3572692870002,-89.683998108,0
			43.3586387640001,-89.6783294679999,0
			43.3581886300001,-89.670776366,0
			43.3577499400001,-89.661331176,0
			43.360038757,-89.645591736,0
			43.364608764,-89.6311187749999,0
			43.3709907530001,-89.6166381839999,0
			43.3805618290001,-89.6009063719999,0
			43.4688415530002,-89.600410461,0
			43.554401398,-89.599899292,0
			43.5603103640001,-89.60749054,0
			43.5625801080001,-89.6138076789999,0
			43.5616607670001,-89.627700805,0
			43.560279846,-89.6359100349999,0
			43.5620918280001,-89.6510696399999,0
			43.5634498590001,-89.6580200189999,0
			43.5657196050001,-89.6643371589998,0
			43.5666198730001,-89.6706619259999,0
			43.567058563,-89.6782531739999,0
			43.5634117120002,-89.6877059939998,0
			43.5615806590001,-89.6933898929999,0
			43.5620307920001,-89.6990661619999,0
			43.5647506720001,-89.706031798,0
			43.565181733,-89.718666078,0
			43.5660705570002,-89.728767396,0
			43.5692520140001,-89.735099793,0
			43.5742607130002,-89.7363815299999,0
			43.5792694100001,-89.732597351,0
			43.5829200740001,-89.728828429,0
			43.5870208740001,-89.72441864,0
			43.592948914,-89.7187499989999,0
			43.5970420830002,-89.720657349,0
			43.5979385380001,-89.726982117,0
			43.5970001210001,-89.742767334,0
			43.5997200010001,-89.7509994499999,0
			43.6028900150002,-89.756698608,0
			43.602870941,-89.7661819469998,0
			43.6092300420001,-89.7737884529998,0
			43.6160621640001,-89.77633667,0
			43.621509552,-89.780792236,0
			43.6274299620002,-89.780181885,0
			43.6342620850001,-89.778945922,0
			43.638801575,-89.7840270999999,0
			43.641071319,-89.7865676869999,0
		</coordinates>
	</polygon>
</kml>
