<?xml version="1.0" encoding="UTF-8"?>
<kml xmlns="http://earth.google.com/kml/2.2">
	<polygon id="USA_WI_Oconto" samplingProbability="1">
		<coordinates>
			44.6777687080001,-87.988677979,0
			44.6775398270001,-88.0092315669999,0
			44.6770210270002,-88.1312484749999,0
			44.6734390270001,-88.183319092,0
			44.6725120540001,-88.2289199819999,0
			44.684379578,-88.2286987309998,0
			44.6845092780001,-88.243461608,0
			44.766738892,-88.2528610239999,0
			44.8524894720001,-88.2487030039999,0
			44.8544807430001,-88.3703384409999,0
			44.8554306030002,-88.489433289,0
			44.943511963,-88.4881057739999,0
			45.0302314760001,-88.486152648,0
			45.1169586180001,-88.483551026,0
			45.1175193790001,-88.5597991939999,0
			45.1174087540001,-88.610862732,0
			45.1171417240002,-88.6399459849999,0
			45.2048187250001,-88.639472962,0
			45.2050704960002,-88.6802291869999,0
			45.2946014400001,-88.679138184,0
			45.3553619390001,-88.6783905039999,0
			45.365409852,-88.678268433,0
			45.3786621090001,-88.678108215,0
			45.3785400400002,-88.6586532589999,0
			45.3784408580001,-88.641777038,0
			45.3778495780001,-88.5541992189999,0
			45.3769110990002,-88.428337001,0
			45.3745438840001,-88.3076804099999,0
			45.3745189990001,-88.306412,0
			45.28772,-88.307961,0
			45.221866,-88.3086409999999,0
			45.2013890000001,-88.3088529999999,0
			45.1979865640001,-88.1871636579999,0
			45.1979710100001,-88.1866073829999,0
			45.118822976,-88.191929258,0
			45.1167778620001,-88.192066776,0
			45.1167300000001,-88.1920699999999,0
			45.116727826,-88.191974318,0
			45.1151008980001,-88.1203690009999,0
			45.1149934410001,-88.1203704099999,0
			45.101747,-88.1205439999998,0
			45.0260700000002,-88.1215359999999,0
			45.0234910000001,-88.008659,0
			45.0236820000001,-87.944107,0
			44.9949111190001,-87.9434890029999,0
			44.9946591140001,-87.8841667629999,0
			44.994659,-87.8841400119999,0
			44.9914700000002,-87.884216,0
			44.9914413120001,-87.8634637769999,0
			44.9913826590001,-87.8212823539999,0
			44.9912986770001,-87.7610020239999,0
			44.9706120770002,-87.7624931759999,0
			44.963470472,-87.763008003,0
			44.9622001660001,-87.7707672129999,0
			44.9592094430001,-87.7863311769999,0
			44.955280304,-87.8006057739999,0
			44.951801301,-87.8142471309999,0
			44.9505004880002,-87.820075989,0
			44.9487113960001,-87.822700501,0
			44.945549011,-87.8253631589999,0
			44.9423713690002,-87.826728821,0
			44.9405899060001,-87.8299865729999,0
			44.9374504090001,-87.8345870959999,0
			44.9333496090001,-87.835327148,0
			44.9320220940002,-87.8385772709999,0
			44.9293289180001,-87.842521668,0
			44.926158905,-87.8445358269999,0
			44.9216003410002,-87.8452911379999,0
			44.9143104550001,-87.8461227419999,0
			44.9097213740001,-87.844291686,0
			44.9033012390001,-87.84187317,0
			44.8954505930001,-87.8349761969999,0
			44.8931503300001,-87.8330993659999,0
			44.8862991340001,-87.833267212,0
			44.8844490050001,-87.830726623,0
			44.8835296640001,-87.8307571419999,0
			44.8827018730001,-87.8372192389999,0
			44.8817901610001,-87.8372421259999,0
			44.8799591070002,-87.8372879029998,0
			44.8786010740002,-87.8379669189999,0
			44.8768005370001,-87.8399429319999,0
			44.873149873,-87.839385986,0
			44.8726997370001,-87.840042114,0
			44.8726997370001,-87.8406906119999,0
			44.873630523,-87.8413085939999,0
			44.8754692090001,-87.8431930539999,0
			44.8759498590001,-87.8444671639999,0
			44.8759498590001,-87.8451232899999,0
			44.8759803780001,-87.8470458979999,0
			44.8755302420001,-87.847702026,0
			44.8700599680001,-87.8484802249999,0
			44.8660087580001,-87.8530883779999,0
			44.8619384780001,-87.8564071659999,0
			44.8578491210001,-87.8571472159999,0
			44.8497009270002,-87.8631439219999,0
			44.8460807800001,-87.8658065789999,0
			44.842460632,-87.8678283689999,0
			44.8397293090001,-87.868537902,0
			44.8383789060002,-87.8704986569999,0
			44.8384704580001,-87.878219604,0
			44.8264198310002,-87.9003906249999,0
			44.8210105900002,-87.906318665,0
			44.8169212330001,-87.907699585,0
			44.813289643,-87.9097213739998,0
			44.808300019,-87.9117660529999,0
			44.8015098580001,-87.916427611,0
			44.796989442,-87.9197463989998,0
			44.7910385130002,-87.9192504879999,0
			44.7851409920001,-87.9219589229999,0
			44.7788085950001,-87.926612854,0
			44.7770118710001,-87.9285812379999,0
			44.7647819520001,-87.9365768429999,0
			44.762088776,-87.9411468499999,0
			44.7607421880002,-87.9424591059999,0
			44.7593612680001,-87.9412078849999,0
			44.7588806160001,-87.9399261469999,0
			44.7556800840002,-87.9393615729999,0
			44.7547988900001,-87.941307067,0
			44.7544212340001,-87.9483871459998,0
			44.7513008110001,-87.9548873909999,0
			44.7481307990002,-87.956886292,0
			44.7454299930002,-87.9595260629999,0
			44.7400398260002,-87.9673614499999,0
			44.7359809880001,-87.971305848,0
			44.7305412300001,-87.9746475219999,0
			44.7273521430001,-87.975357055,0
			44.722831727,-87.978675843,0
			44.7205886840002,-87.9825820909999,0
			44.7142791760002,-87.989791869,0
			44.71105957,-87.9872894289999,0
			44.7037696840001,-87.988098145,0
			44.7061195380001,-87.99382782,0
			44.7043190000001,-87.9957962029999,0
			44.7024612420001,-87.9932632439999,0
			44.6996994030001,-87.9907608039999,0
			44.6905593870002,-87.9903182989999,0
			44.6823387140001,-87.989219665,0
			44.6777687080001,-87.988677979,0
		</coordinates>
	</polygon>
</kml>
