<?xml version="1.0" encoding="UTF-8"?>
<kml xmlns="http://earth.google.com/kml/2.2">
	<polygon id="USA_IN_Newton" samplingProbability="1">
		<coordinates>
			40.737800599,-87.5262832639999,0
			40.7410087590001,-87.5262908939999,0
			40.83903122,-87.5264587399999,0
			40.9809608460001,-87.526168824,0
			40.9831504830001,-87.526168824,0
			41.01417923,-87.52645111,0
			41.1230888380001,-87.5264129629999,0
			41.1660919180002,-87.526336669,0
			41.1700820930002,-87.48008728,0
			41.1702384950001,-87.4587402339999,0
			41.1744003300001,-87.448417663,0
			41.173961639,-87.4465866099998,0
			41.1730995190001,-87.441078187,0
			41.1619491590001,-87.4146881099999,0
			41.1624603280001,-87.405548097,0
			41.1624984750001,-87.4000473019999,0
			41.1625404370002,-87.3939514159999,0
			41.172618866,-87.380043029,0
			41.18239212,-87.344757081,0
			41.182418823,-87.3404922479999,0
			41.1829299920001,-87.331336974,0
			41.186161041,-87.3240509029999,0
			41.2154388430001,-87.2859268189999,0
			41.218669892,-87.27619171,0
			41.1733016960002,-87.2756881719999,0
			41.0866394050001,-87.2753524779999,0
			40.9990692140001,-87.275001527,0
			40.9405403140001,-87.2767868029998,0
			40.9133186340001,-87.2758789059999,0
			40.9133720410001,-87.2679672249999,0
			40.8249206540002,-87.2664108269999,0
			40.7382812510002,-87.265480041,0
			40.7379913330001,-87.380722046,0
			40.7380905150002,-87.4905090329999,0
			40.737800599,-87.5262832639999,0
		</coordinates>
	</polygon>
</kml>
