<?xml version="1.0" encoding="UTF-8"?>
<kml xmlns="http://earth.google.com/kml/2.2">
	<polygon id="USA_LA_Orleans" samplingProbability="1">
		<coordinates>
			29.9041600000002,-90.013863,0
			29.9371620000001,-90.0506589999999,0
			29.9455110000001,-90.058418,0
			29.9304100000001,-90.0597309999999,0
			29.9263310000001,-90.0624389999999,0
			29.9191300000001,-90.072037,0
			29.9103510000001,-90.1011579999998,0
			29.9091910000002,-90.118027,0
			29.9106600000001,-90.1258999999998,0
			29.9134900000001,-90.1326979999999,0
			29.9186000000001,-90.1384119999999,0
			29.9250300000001,-90.139877,0
			29.9483910000002,-90.1400299999999,0
			29.9533880000001,-90.137306,0
			29.9742910000002,-90.124847,0
			30.0264090000001,-90.1187129999999,0
			30.1919380000002,-90.1058879999999,0
			30.1844900000002,-90.087326,0
			30.179218,-90.0755079999998,0
			30.1750600000001,-90.0612259999999,0
			30.1731490000001,-90.0490259999999,0
			30.1719090000001,-90.0367429999999,0
			30.1702917530002,-90.0334971609999,0
			30.1680598990001,-90.0290184889999,0
			30.1667881010002,-90.0264663689999,0
			30.165227363,-90.024526599,0
			30.163364287,-90.0222110659998,0
			30.1559104920001,-90.0129470829999,0
			30.1548223950001,-90.0107644019999,0
			30.154584949,-90.0102880949999,0
			30.153350829,-90.0078124999999,0
			30.1490516670001,-89.998992921,0
			30.1497706660002,-89.9916437649999,0
			30.1499751430001,-89.9895537219999,0
			30.150051117,-89.98877716,0
			30.1561454310001,-89.9795799479999,0
			30.1590204160001,-89.9752411759999,0
			30.1600608830001,-89.9736709599999,0
			30.162245453,-89.9678636479999,0
			30.1656073390002,-89.9589266389999,0
			30.1707401290001,-89.945281982,0
			30.1793212890001,-89.929542542,0
			30.18639946,-89.9124298099999,0
			30.1885902590002,-89.907389865,0
			30.1919165270001,-89.8997377699999,0
			30.192441941,-89.8985290529999,0
			30.1971397410001,-89.8847885119999,0
			30.1982097640001,-89.8753433219999,0
			30.1957206720002,-89.87097168,0
			30.195397086,-89.8705126099999,0
			30.1948772540002,-89.869775127,0
			30.1901493080002,-89.8630676269999,0
			30.1894965360001,-89.8582315119999,0
			30.1884885090001,-89.8507634619999,0
			30.1872596730001,-89.8416595459999,0
			30.1867464500002,-89.83668937,0
			30.186609079,-89.835359039,0
			30.1859918490002,-89.829384218,0
			30.1815200000001,-89.819031001,0
			30.1815049800001,-89.8190268429999,0
			30.1770403730001,-89.8177908059999,0
			30.1746056440002,-89.817116947,0
			30.169639587,-89.815742492,0
			30.1628312040001,-89.814622105,0
			30.162283422,-89.814531962,0
			30.161340714,-89.8143768299998,0
			30.155651092,-89.811927795,0
			30.1546252050001,-89.8095869909999,0
			30.1536516960001,-89.8073657,0
			30.1520900510001,-89.8038022779999,0
			30.152083362,-89.803737642,0
			30.1519646110001,-89.802590072,0
			30.1508197780001,-89.7915267939999,0
			30.1570129410002,-89.779159545,0
			30.170069025,-89.7604948319999,0
			30.1758262480001,-89.752264187,0
			30.1759320000001,-89.7521129999999,0
			30.1770937380001,-89.7466994869999,0
			30.1772990000001,-89.745742999,0
			30.1772573620001,-89.739798106,0
			30.1772513780001,-89.7389538989999,0
			30.1772499110002,-89.7387469359999,0
			30.167535,-89.7318099999999,0
			30.1669878620001,-89.7314190479999,0
			30.166971201,-89.7314071479999,0
			30.165981293,-89.728416442,0
			30.1656092130002,-89.727433987,0
			30.1647175550001,-89.7250796199999,0
			30.1631698620002,-89.7209930419999,0
			30.1627665240001,-89.7195845619999,0
			30.1623726880002,-89.7182092639999,0
			30.1620883940001,-89.7172164919999,0
			30.1625523070002,-89.7146588159999,0
			30.1627104840001,-89.7137867429999,0
			30.162950516,-89.7124633789999,0
			30.1662597660001,-89.705093384,0
			30.1665415120001,-89.704412911,0
			30.1668661850001,-89.7036287619999,0
			30.168970109,-89.6985473629999,0
			30.1726818080001,-89.695007324,0
			30.176219947,-89.689941238,0
			30.1762529230001,-89.68882545,0
			30.176519,-89.6798099999999,0
			30.1687564960001,-89.6668361059999,0
			30.168312062,-89.6660933639999,0
			30.168270111,-89.666023254,0
			30.160591126,-89.6576004039999,0
			30.160079507,-89.6569807679999,0
			30.1595519600002,-89.6563418389998,0
			30.1582603470002,-89.654777527,0
			30.1575417600001,-89.6517130289999,0
			30.156658512,-89.647946319,0
			30.1557807930002,-89.644203186,0
			30.156051905,-89.6390141569999,0
			30.1564900000001,-89.6306229999999,0
			30.1542712940001,-89.6286503919999,0
			30.1541729680001,-89.6285629909999,0
			30.1505450000001,-89.627533,0
			30.1502780000001,-89.62722,0
			30.1500000000001,-89.62722,0
			30.1498790000001,-89.6273419999999,0
			30.1497230000002,-89.6275019999999,0
			30.149082,-89.627647,0
			30.1488700000001,-89.627853,0
			30.1477580000001,-89.628891,0
			30.1474970000002,-89.6291659999999,0
			30.1473520000001,-89.629517,0
			30.1472230000001,-89.63028,0
			30.1474970000002,-89.630554,0
			30.1474970000002,-89.6308359999999,0
			30.147285,-89.6313319999999,0
			30.1472230000001,-89.6341629999999,0
			30.1476590000001,-89.6342769999999,0
			30.147991,-89.633987,0
			30.1486110000001,-89.6341629999999,0
			30.1488900000002,-89.6341629999999,0
			30.1488900000002,-89.635277,0
			30.1501290000002,-89.6362379999999,0
			30.1500000000001,-89.6366649999999,0
			30.1502780000001,-89.6369479999999,0
			30.1505370000002,-89.6370769999999,0
			30.1505550000001,-89.6374969999999,0
			30.1505550000001,-89.638054,0
			30.1505370000002,-89.6383359999999,0
			30.1502780000001,-89.638611,0
			30.1501940000001,-89.6390379999999,0
			30.1500000000001,-89.639442,0
			30.1497020000002,-89.6399989999999,0
			30.1495740000001,-89.640633,0
			30.1492120000001,-89.6411129999999,0
			30.1488900000002,-89.6413879999999,0
			30.148333,-89.6415409999999,0
			30.1477760000001,-89.6419449999999,0
			30.1474970000002,-89.6419449999999,0
			30.1469460000001,-89.6425019999999,0
			30.146667,-89.6425019999999,0
			30.1463870000002,-89.642776,0
			30.145224,-89.643227,0
			30.144981,-89.6430589999999,0
			30.145275,-89.6430589999999,0
			30.145275,-89.642776,0
			30.1447220000001,-89.6419449999999,0
			30.1431790000001,-89.64061,0
			30.1428850000001,-89.640976,0
			30.1427780000001,-89.6408309999999,0
			30.1427780000001,-89.6405559999999,0
			30.1438880000002,-89.639442,0
			30.1438880000002,-89.6391679999999,0
			30.1430530000002,-89.638611,0
			30.1427780000001,-89.638611,0
			30.1419450000001,-89.639442,0
			30.1416660000002,-89.6397249999999,0
			30.1416660000002,-89.6399989999999,0
			30.1413880000001,-89.640274,0
			30.1397230000002,-89.6411129999999,0
			30.139444,-89.6411129999999,0
			30.1391660000001,-89.6413879999999,0
			30.138611,-89.6413879999999,0
			30.1383340000002,-89.6416699999999,0
			30.1377770000001,-89.6416699999999,0
			30.1375010000002,-89.6419449999999,0
			30.1372220000002,-89.6419449999999,0
			30.1369440000001,-89.64222,0
			30.1366670000001,-89.64222,0
			30.135279,-89.643608,0
			30.135279,-89.6438899999999,0
			30.1344450000001,-89.6447219999999,0
			30.1341690000002,-89.6447219999999,0
			30.1330570000002,-89.6458359999999,0
			30.1330570000002,-89.6461109999999,0
			30.1325000000001,-89.6466669999999,0
			30.1325000000001,-89.6469419999999,0
			30.1322230000001,-89.6472239999999,0
			30.131947,-89.6474989999999,0
			30.131947,-89.6480559999999,0
			30.131664,-89.6483309999999,0
			30.1313900000001,-89.6483309999999,0
			30.1311110000001,-89.6486129999999,0
			30.1311110000001,-89.6488879999999,0
			30.130833,-89.64917,0
			30.130833,-89.6494449999999,0
			30.1305540000002,-89.6497189999999,0
			30.1302780000001,-89.6497189999999,0
			30.1299990000001,-89.650002,0
			30.1288890000001,-89.650002,0
			30.128611,-89.6502759999999,0
			30.1280560000001,-89.6502759999999,0
			30.1277770000001,-89.650558,0
			30.1272200000002,-89.650558,0
			30.1269440000001,-89.6508329999999,0
			30.1266670000001,-89.6508329999999,0
			30.1263890000002,-89.6511079999999,0
			30.12611,-89.6511079999999,0
			30.1258340000001,-89.6513899999998,0
			30.1255550000001,-89.6513899999998,0
			30.125002,-89.6519469999999,0
			30.1247220000001,-89.6519469999999,0
			30.1241660000001,-89.6524959999999,0
			30.1238900000002,-89.6524959999999,0
			30.1230560000001,-89.653336,0
			30.12278,-89.653336,0
			30.1222230000001,-89.653893,0
			30.1219440000001,-89.653893,0
			30.1200010000001,-89.6558299999999,0
			30.1197220000001,-89.6558299999999,0
			30.1191650000001,-89.6563869999999,0
			30.1186100000002,-89.6569439999999,0
			30.1186100000002,-89.6572189999999,0
			30.118336,-89.657501,0
			30.118336,-89.6577759999999,0
			30.1177770000002,-89.658333,0
			30.1177770000002,-89.6586069999999,0
			30.1175000000001,-89.65889,0
			30.1175000000001,-89.6591639999999,0
			30.117222,-89.6594469999999,0
			30.117222,-89.659721,0
			30.116943,-89.660004,0
			30.116943,-89.6602779999999,0
			30.1166670000001,-89.6605529999998,0
			30.1166670000001,-89.660835,0
			30.116112,-89.661392,0
			30.116112,-89.661667,0
			30.1155550000001,-89.662224,0
			30.1155550000001,-89.662498,0
			30.1152780000002,-89.6627809999999,0
			30.1152780000002,-89.663055,0
			30.114721,-89.6636119999999,0
			30.114721,-89.6644439999999,0
			30.1144450000002,-89.664719,0
			30.1144450000002,-89.665001,0
			30.11389,-89.665558,0
			30.11389,-89.665833,0
			30.113611,-89.6661149999999,0
			30.1133330000001,-89.666389,0
			30.1130560000001,-89.666664,0
			30.1124990000001,-89.667221,0
			30.1116660000001,-89.668053,0
			30.1116660000001,-89.6686099999999,0
			30.111389,-89.6688919999999,0
			30.1111110000002,-89.669167,0
			30.1108340000001,-89.6694409999999,0
			30.110556,-89.669724,0
			30.110556,-89.6711119999999,0
			30.1102770000001,-89.671387,0
			30.1102770000001,-89.6719439999999,0
			30.110556,-89.6722259999999,0
			30.110556,-89.672501,0
			30.1108340000001,-89.6727749999999,0
			30.1108340000001,-89.6730579999999,0
			30.1111110000002,-89.673332,0
			30.1111110000002,-89.6736149999999,0
			30.110556,-89.674164,0
			30.110556,-89.674721,0
			30.1102770000001,-89.6750029999999,0
			30.1104280000001,-89.6752779999999,0
			30.1100010000001,-89.6758349999999,0
			30.1097220000001,-89.6761089999999,0
			30.1097220000001,-89.6763919999999,0
			30.1094440000001,-89.676666,0
			30.1094440000001,-89.6769409999999,0
			30.1091670000001,-89.6772229999999,0
			30.1091670000001,-89.677498,0
			30.1077790000002,-89.678886,0
			30.1077790000002,-89.6791689999999,0
			30.1075000000001,-89.6794429999999,0
			30.1075000000001,-89.6797259999999,0
			30.1072220000001,-89.6799999999999,0
			30.1072220000001,-89.6811139999999,0
			30.1066650000002,-89.681664,0
			30.1063860000002,-89.681664,0
			30.1061120000001,-89.6819459999999,0
			30.1058330000001,-89.681664,0
			30.1058330000001,-89.6813889999999,0
			30.1044460000001,-89.6799999999999,0
			30.1036110000001,-89.6799999999999,0
			30.1033330000002,-89.6802749999999,0
			30.1027770000002,-89.6802749999999,0
			30.1025010000001,-89.6805569999999,0
			30.1011100000001,-89.6805569999999,0
			30.1008340000002,-89.680832,0
			30.1005550000002,-89.680832,0
			30.1002770000001,-89.6811139999999,0
			30.0986120000002,-89.6811139999999,0
			30.098333,-89.6813889999999,0
			30.0980550000001,-89.6813889999999,0
			30.0977780000001,-89.681664,0
			30.097221,-89.681664,0
			30.0969450000001,-89.6819459999999,0
			30.0955560000001,-89.6819459999999,0
			30.0952800000002,-89.6822199999999,0
			30.093889,-89.6822199999999,0
			30.0936110000001,-89.6825029999998,0
			30.0925010000001,-89.6825029999998,0
			30.0922220000001,-89.6827769999999,0
			30.091665,-89.6827769999999,0
			30.0913890000001,-89.683052,0
			30.0900000000001,-89.683052,0
			30.089722,-89.6833339999999,0
			30.0894430000002,-89.6833339999999,0
			30.0891670000001,-89.6836089999999,0
			30.088331,-89.6836089999999,0
			30.0880550000001,-89.6838909999999,0
			30.0877780000001,-89.6836089999999,0
			30.0872210000001,-89.6836089999999,0
			30.0869450000001,-89.6838909999999,0
			30.0858330000001,-89.6838909999999,0
			30.0855560000001,-89.6836089999999,0
			30.0841670000001,-89.6836089999999,0
			30.0839650000001,-89.6838149999999,0
			30.0833340000001,-89.684448,0
			30.0830550000001,-89.6847229999999,0
			30.0827790000002,-89.6847229999999,0
			30.0821880000001,-89.6841429999999,0
			30.0813880000001,-89.6841659999999,0
			30.0811120000001,-89.6838909999999,0
			30.0800000000002,-89.6838909999999,0
			30.0797210000001,-89.6841659999999,0
			30.0774990000002,-89.6841659999999,0
			30.0772250000001,-89.684448,0
			30.0763890000001,-89.684448,0
			30.075832,-89.684998,0
			30.075832,-89.68528,0
			30.0755560000001,-89.6855549999999,0
			30.0755560000001,-89.6858369999999,0
			30.0752770000001,-89.6861109999999,0
			30.0752770000001,-89.6863859999999,0
			30.075001,-89.6866679999998,0
			30.075001,-89.6872329999999,0
			30.075001,-89.6874999999999,0
			30.0741670000002,-89.6883319999999,0
			30.0741670000002,-89.688614,0
			30.0738890000001,-89.6888889999999,0
			30.0736100000001,-89.689163,0
			30.0736100000001,-89.6902769999999,0
			30.0733340000002,-89.6905519999999,0
			30.0733340000002,-89.6908339999998,0
			30.0730550000001,-89.6911089999999,0
			30.0730550000001,-89.6913909999999,0
			30.0733340000002,-89.6916659999998,0
			30.0733340000002,-89.6922229999999,0
			30.0730550000001,-89.6924969999999,0
			30.0730550000001,-89.69278,0
			30.072779,-89.6930539999999,0
			30.072779,-89.693336,0
			30.0725,-89.693611,0
			30.0725,-89.6938859999999,0
			30.0722220000001,-89.694168,0
			30.0722220000001,-89.6947249999999,0
			30.071667,-89.6952739999999,0
			30.071667,-89.696114,0
			30.0713880000001,-89.6963879999999,0
			30.0713880000001,-89.6972199999999,0
			30.0711120000001,-89.697502,0
			30.0711120000001,-89.698334,0
			30.0708330000002,-89.698608,0
			30.0705550000001,-89.6988909999999,0
			30.0705550000001,-89.6991649999999,0
			30.0708330000002,-89.699448,0
			30.0708330000002,-89.6999969999998,0
			30.0711120000001,-89.700279,0
			30.0711120000001,-89.700836,0
			30.0708330000002,-89.701111,0
			30.0708330000002,-89.7047199999999,0
			30.0705550000001,-89.705002,0
			30.0705550000001,-89.706947,0
			30.0702780000001,-89.7072219999999,0
			30.0702780000001,-89.7097239999999,0
			30.0700000000002,-89.709999,0
			30.0700000000002,-89.7105559999999,0
			30.0697230000001,-89.710831,0
			30.0697230000001,-89.7122189999999,0
			30.0694450000001,-89.7125019999999,0
			30.0694450000001,-89.7133329999999,0
			30.0691660000001,-89.713608,0
			30.0691660000001,-89.7138899999999,0
			30.0688900000001,-89.714165,0
			30.0688900000001,-89.714447,0
			30.0686110000001,-89.7147219999999,0
			30.0686110000001,-89.7155529999999,0
			30.0683330000001,-89.7158359999999,0
			30.0683330000001,-89.7172239999999,0
			30.0680560000001,-89.7174989999999,0
			30.0680560000001,-89.7180559999999,0
			30.0677780000001,-89.71833,0
			30.0677780000001,-89.7197189999999,0
			30.0674970000002,-89.7200009999999,0
			30.0674970000002,-89.720276,0
			30.0672230000001,-89.720558,0
			30.0672230000001,-89.7208329999999,0
			30.0669440000001,-89.721107,0
			30.0669440000001,-89.7213899999999,0
			30.0666680000002,-89.7216639999999,0
			30.0666680000002,-89.7219469999998,0
			30.0655570000001,-89.7230529999999,0
			30.0655570000001,-89.7233349999999,0
			30.0650010000001,-89.723892,0
			30.0650010000001,-89.7241669999999,0
			30.0647220000001,-89.724442,0
			30.0647220000001,-89.724724,0
			30.0641650000002,-89.7252809999999,0
			30.0638890000001,-89.7255549999999,0
			30.0638890000001,-89.7258299999999,0
			30.0636140000001,-89.7261119999998,0
			30.0636140000001,-89.7269439999998,0
			30.0627780000002,-89.7277759999999,0
			30.0622220000002,-89.7277759999999,0
			30.0602780000001,-89.729721,0
			30.0599990000001,-89.729721,0
			30.0597230000002,-89.7300029999999,0
			30.0591660000001,-89.7300029999999,0
			30.0588890000001,-89.7302779999999,0
			30.0580560000001,-89.7302779999999,0
			30.0575010000002,-89.7308349999999,0
			30.0563910000002,-89.7308349999999,0
			30.05611,-89.7311099999998,0
			30.0555340000001,-89.7310639999999,0
			30.055279,-89.731392,0
			30.0550000000002,-89.731392,0
			30.0547220000001,-89.7316669999999,0
			30.0541730000002,-89.7316669999999,0
			30.053886,-89.7319409999999,0
			30.051664,-89.7319409999999,0
			30.0513900000001,-89.732224,0
			30.0511110000001,-89.732224,0
			30.0508330000002,-89.7319409999999,0
			30.0502780000001,-89.7319409999999,0
			30.0499990000001,-89.7316669999999,0
			30.0486110000001,-89.7316669999999,0
			30.048332,-89.731392,0
			30.0480560000001,-89.731392,0
			30.0475010000002,-89.7308349999999,0
			30.04722,-89.7308349999999,0
			30.0469440000001,-89.7305529999999,0
			30.0466670000001,-89.7305529999999,0
			30.0461100000001,-89.7300029999999,0
			30.0455550000001,-89.7300029999999,0
			30.0452790000001,-89.729721,0
			30.045,-89.729721,0
			30.0447220000001,-89.7294459999999,0
			30.0444450000001,-89.7294459999999,0
			30.0430640000001,-89.7280429999999,0
			30.0427800000001,-89.728058,0
			30.042398,-89.7276759999999,0
			30.0422230000001,-89.7275009999999,0
			30.0402760000001,-89.7255549999999,0
			30.0400010000001,-89.7255549999999,0
			30.0394460000001,-89.7249979999999,0
			30.039167,-89.7249979999999,0
			30.0377770000001,-89.72361,0
			30.0375000000001,-89.72361,0
			30.037222,-89.7233349999999,0
			30.0366670000001,-89.7227779999999,0
			30.036367,-89.7228009999999,0
			30.0361140000001,-89.7225039999999,0
			30.0358330000001,-89.7222209999999,0
			30.0355550000002,-89.7222209999999,0
			30.0352780000001,-89.7219469999998,0
			30.034721,-89.7219469999998,0
			30.0341660000001,-89.7213899999999,0
			30.03389,-89.7213899999999,0
			30.0336110000001,-89.721107,0
			30.0333330000001,-89.721107,0
			30.0330560000002,-89.7208329999999,0
			30.0319440000002,-89.7208329999999,0
			30.0316660000001,-89.720558,0
			30.0316660000001,-89.720276,0
			30.031389,-89.7200009999999,0
			30.031389,-89.7197189999999,0
			30.0297220000002,-89.7180559999999,0
			30.0294440000001,-89.7180559999999,0
			30.0291670000001,-89.7177809999998,0
			30.0288890000002,-89.7177809999998,0
			30.0286100000002,-89.7174989999999,0
			30.0283340000001,-89.7174989999999,0
			30.0277790000002,-89.716942,0
			30.0272220000001,-89.716942,0
			30.0269450000001,-89.7172239999999,0
			30.0266690000001,-89.7172239999999,0
			30.0261120000001,-89.7177809999998,0
			30.0252780000002,-89.7186129999999,0
			30.0252780000002,-89.7188869999999,0
			30.0250000000001,-89.7191699999999,0
			30.0250000000001,-89.719444,0
			30.0247230000001,-89.7197189999999,0
			30.0247230000001,-89.7200009999999,0
			30.0238900000001,-89.7208329999999,0
			30.0236110000001,-89.721107,0
			30.0236110000001,-89.7216639999999,0
			30.023333,-89.7219469999998,0
			30.023333,-89.7222209999999,0
			30.0230540000002,-89.7225039999999,0
			30.0230540000002,-89.7230529999999,0
			30.0227780000001,-89.7233349999999,0
			30.0227780000001,-89.723892,0
			30.0227640000002,-89.7249219999999,0
			30.0223750000001,-89.7258299999999,0
			30.0222230000002,-89.7263869999999,0
			30.0222230000002,-89.7291639999999,0
			30.0224990000001,-89.7294459999999,0
			30.0224990000001,-89.729721,0
			30.0222230000002,-89.7300029999999,0
			30.0222230000002,-89.7319409999999,0
			30.0222030000001,-89.7323,0
			30.0221390000002,-89.7325739999999,0
			30.0221840000002,-89.732925,0
			30.0224990000001,-89.7333299999999,0
			30.0238630000002,-89.735016,0
			30.024529,-89.7353739999999,0
			30.0252780000002,-89.736115,0
			30.0261120000001,-89.736946,0
			30.0261120000001,-89.737221,0
			30.0263860000002,-89.7375029999999,0
			30.0263860000002,-89.7383349999999,0
			30.0266690000001,-89.7386089999999,0
			30.0269450000001,-89.738892,0
			30.0269450000001,-89.7391659999999,0
			30.0275000000001,-89.739723,0
			30.0275000000001,-89.7399979999999,0
			30.0283340000001,-89.7408369999999,0
			30.0283340000001,-89.741112,0
			30.0288890000002,-89.7416689999999,0
			30.0288890000002,-89.742226,0
			30.0291670000001,-89.7424999999999,0
			30.0291670000001,-89.743332,0
			30.0316660000001,-89.7458339999999,0
			30.0319440000002,-89.7458339999999,0
			30.0322230000002,-89.746109,0
			30.0324990000001,-89.746109,0
			30.0327780000001,-89.746391,0
			30.0330560000002,-89.746391,0
			30.0333330000001,-89.7466659999999,0
			30.0336110000001,-89.7469479999999,0
			30.03389,-89.7469479999999,0
			30.0341660000001,-89.747223,0
			30.0344450000001,-89.747223,0
			30.034721,-89.747498,0
			30.0363880000002,-89.7491679999999,0
			30.0366670000001,-89.7491679999999,0
			30.0369430000001,-89.749443,0
			30.0369430000001,-89.749725,0
			30.0377770000001,-89.750557,0
			30.0377770000001,-89.7511139999999,0
			30.0380540000002,-89.75222,0
			30.0386100000001,-89.7527769999999,0
			30.0386100000001,-89.7533339999999,0
			30.0388890000002,-89.7536089999999,0
			30.0388890000002,-89.753891,0
			30.039167,-89.7541659999999,0
			30.039167,-89.754723,0
			30.0394460000001,-89.7549969999999,0
			30.0394460000001,-89.755554,0
			30.0397220000002,-89.755836,0
			30.0397220000002,-89.7561109999999,0
			30.0400010000001,-89.756386,0
			30.0400010000001,-89.7566679999999,0
			30.040558,-89.7572249999998,0
			30.040558,-89.7583309999999,0
			30.040833,-89.7586139999999,0
			30.040833,-89.7594449999999,0
			30.041668,-89.7602769999999,0
			30.041668,-89.7605589999999,0
			30.0419450000001,-89.760834,0
			30.0419450000001,-89.7611079999999,0
			30.0436120000001,-89.7627789999999,0
			30.0436120000001,-89.763054,0
			30.0444450000001,-89.763885,0
			30.0444450000001,-89.764168,0
			30.0447220000001,-89.7644419999999,0
			30.0447220000001,-89.764999,0
			30.045,-89.7652739999999,0
			30.045,-89.7655559999999,0
			30.0452790000001,-89.7658309999999,0
			30.0452790000001,-89.7672199999998,0
			30.0455550000001,-89.767502,0
			30.0455550000001,-89.7677759999999,0
			30.0458340000001,-89.7680589999999,0
			30.0458340000001,-89.768333,0
			30.0466670000001,-89.769165,0
			30.0466670000001,-89.769447,0
			30.0469440000001,-89.7697219999999,0
			30.04722,-89.769997,0
			30.04722,-89.7702789999999,0
			30.0475010000002,-89.7705539999999,0
			30.0475010000002,-89.770836,0
			30.0466670000001,-89.771667,0
			30.0466670000001,-89.7719419999999,0
			30.0455550000001,-89.7730559999999,0
			30.045,-89.7730559999999,0
			30.0447220000001,-89.773331,0
			30.0447220000001,-89.773613,0
			30.045,-89.7738879999999,0
			30.045,-89.7747189999999,0
			30.0452790000001,-89.775002,0
			30.0452790000001,-89.7763899999999,0
			30.0455550000001,-89.776665,0
			30.0455550000001,-89.776947,0
			30.0458340000001,-89.7772219999999,0
			30.0458340000001,-89.778336,0
			30.0461100000001,-89.77861,0
			30.0458340000001,-89.7788929999999,0
			30.0461100000001,-89.779167,0
			30.0461100000001,-89.780556,0
			30.046389,-89.78083,0
			30.046389,-89.7813869999999,0
			30.0461100000001,-89.78167,0
			30.0461100000001,-89.782501,0
			30.046389,-89.782776,0
			30.046389,-89.7844469999999,0
			30.0466670000001,-89.784721,0
			30.0466670000001,-89.78611,0
			30.046389,-89.7863919999999,0
			30.046389,-89.787498,0
			30.0461100000001,-89.7877809999999,0
			30.046389,-89.7880549999999,0
			30.046389,-89.78833,0
			30.0469440000001,-89.7888869999999,0
			30.04722,-89.7888869999999,0
			30.0475010000002,-89.789169,0
			30.0477770000001,-89.789169,0
			30.0480560000001,-89.7894439999999,0
			30.048332,-89.7894439999999,0
			30.0486110000001,-89.789719,0
			30.0488890000001,-89.7894439999999,0
			30.0491660000001,-89.7894439999999,0
			30.0499990000001,-89.7902759999999,0
			30.0502780000001,-89.7905579999999,0
			30.0502780000001,-89.790833,0
			30.050554,-89.791115,0
			30.050554,-89.7919459999999,0
			30.0502780000001,-89.7922209999999,0
			30.0502780000001,-89.7925029999998,0
			30.0499990000001,-89.7927779999999,0
			30.048332,-89.7925029999998,0
			30.0475010000002,-89.7922209999999,0
			30.0466670000001,-89.7922209999999,0
			30.0466670000001,-89.7925029999998,0
			30.0469440000001,-89.7927779999999,0
			30.0469440000001,-89.7947239999999,0
			30.0466670000001,-89.794998,0
			30.0466670000001,-89.7972259999999,0
			30.046389,-89.7975009999998,0
			30.046389,-89.80278,0
			30.0466670000001,-89.8030549999999,0
			30.046389,-89.8030549999999,0
			30.046389,-89.8066639999998,0
			30.0461100000001,-89.806946,0
			30.0461100000001,-89.808609,0
			30.0458340000001,-89.808891,0
			30.0458340000001,-89.8105549999999,0
			30.0455550000001,-89.8108369999999,0
			30.0455550000001,-89.811111,0
			30.0452790000001,-89.8113859999999,0
			30.0452790000001,-89.8116679999999,0
			30.0455550000001,-89.811943,0
			30.0458340000001,-89.812225,0
			30.0458340000001,-89.8155519999999,0
			30.0455550000001,-89.8158339999999,0
			30.0455550000001,-89.816948,0
			30.0452790000001,-89.817223,0
			30.0452790000001,-89.81778,0
			30.045,-89.818054,0
			30.045,-89.818611,0
			30.0447220000001,-89.818886,0
			30.0447220000001,-89.8191679999999,0
			30.0436250000001,-89.820114,0
			30.0429080000001,-89.8202969999999,0
			30.042694,-89.8205029999999,0
			30.0427970000002,-89.820908,0
			30.0427130000002,-89.821037,0
			30.0425380000001,-89.8208689999999,0
			30.042196,-89.8210749999999,0
			30.0423070000002,-89.8212969999999,0
			30.0415290000001,-89.821564,0
			30.0413130000002,-89.8222429999999,0
			30.0411780000002,-89.822281,0
			30.040833,-89.82222,0
			30.0402760000001,-89.82222,0
			30.039343,-89.8238369999999,0
			30.0386560000001,-89.8244629999999,0
			30.038336,-89.8244479999998,0
			30.0377770000001,-89.8249969999999,0
			30.0377770000001,-89.825279,0
			30.0375000000001,-89.825554,0
			30.0375000000001,-89.8258359999999,0
			30.0373970000002,-89.8265379999999,0
			30.037138,-89.826813,0
			30.0361140000001,-89.8274989999999,0
			30.0361140000001,-89.8291699999999,0
			30.0358330000001,-89.829445,0
			30.0358330000001,-89.82972,0
			30.0352780000001,-89.830276,0
			30.0350000000001,-89.830276,0
			30.034721,-89.8305589999999,0
			30.034721,-89.8308329999999,0
			30.0344450000001,-89.831108,0
			30.0344450000001,-89.8313899999999,0
			30.0341660000001,-89.8316649999999,0
			30.0341660000001,-89.8319469999999,0
			30.03389,-89.8322219999999,0
			30.0336110000001,-89.8322219999999,0
			30.0308340000001,-89.8349989999999,0
			30.030556,-89.8352809999999,0
			30.030556,-89.8361129999999,0
			30.0302770000001,-89.8361129999999,0
			30.0300010000001,-89.8363879999999,0
			30.0300010000001,-89.8366699999999,0
			30.0294440000001,-89.8372189999999,0
			30.0291670000001,-89.8372189999999,0
			30.0261120000001,-89.8402789999999,0
			30.0258330000001,-89.8405529999999,0
			30.0255570000002,-89.840836,0
			30.0252780000002,-89.840836,0
			30.0247230000001,-89.841393,0
			30.0244460000001,-89.8416669999999,0
			30.0244460000001,-89.8419419999998,0
			30.024164,-89.842224,0
			30.0238900000001,-89.842224,0
			30.0236110000001,-89.8424989999999,0
			30.023333,-89.8427809999999,0
			30.0230540000002,-89.843056,0
			30.0224990000001,-89.8436129999999,0
			30.0222230000002,-89.8436129999999,0
			30.021942,-89.8438869999999,0
			30.021667,-89.84417,0
			30.0213890000001,-89.84417,0
			30.020832,-89.8447189999999,0
			30.0205550000002,-89.8447189999999,0
			30.0202770000001,-89.845001,0
			30.0200000000001,-89.845001,0
			30.0191670000001,-89.8458329999999,0
			30.0188880000001,-89.8458329999999,0
			30.0186120000002,-89.8461069999998,0
			30.018333,-89.84639,0
			30.0177780000001,-89.84639,0
			30.0152800000002,-89.848892,0
			30.014999,-89.848892,0
			30.0133340000001,-89.850555,0
			30.0130580000002,-89.850555,0
			30.012775,-89.8508299999999,0
			30.0125010000001,-89.8508299999999,0
			30.011946,-89.851387,0
			30.011667,-89.851387,0
			30.010836,-89.852219,0
			30.010553,-89.852219,0
			30.0100000000001,-89.8527759999999,0
			30.0100000000001,-89.853058,0
			30.008612,-89.8544459999999,0
			30.008612,-89.854721,0
			30.0088880000001,-89.855003,0
			30.0088880000001,-89.855835,0
			30.008612,-89.8561099999999,0
			30.008612,-89.856392,0
			30.0083310000001,-89.856667,0
			30.0083310000001,-89.8569409999999,0
			30.0080550000001,-89.8569409999999,0
			30.0069450000001,-89.858055,0
			30.0066660000001,-89.85833,0
			30.006111,-89.85833,0
			30.0058330000001,-89.8586119999999,0
			30.005278,-89.8586119999999,0
			30.0049990000001,-89.858887,0
			30.004168,-89.858887,0
			30.003889,-89.859169,0
			30.0033340000001,-89.859169,0
			30.003056,-89.8594439999999,0
			30.0022540000001,-89.8594819999999,0
			30.0008120000002,-89.861798,0
			29.9991000000001,-89.864548,0
			29.9972710000001,-89.864586,0
			29.9948620000001,-89.8612419999999,0
			29.993528,-89.85939,0
			29.990782,-89.8594359999999,0
			29.9895680000001,-89.861463,0
			29.9885480000001,-89.863167,0
			29.9890380000002,-89.865799,0
			29.9941480000002,-89.8704529999999,0
			29.98871,-89.8742369999999,0
			29.9862060000002,-89.8785199999999,0
			29.9855920000001,-89.8795699999999,0
			29.9856110000001,-89.881157,0
			29.9865310000002,-89.881837,0
			29.9911710000001,-89.8852689999999,0
			29.9957600000001,-89.88623,0
			29.9986210000001,-89.894081,0
			29.9990270000001,-89.8947139999999,0
			30.0009590000001,-89.8977279999999,0
			30.0021430000002,-89.9025029999999,0
			30.0029110000001,-89.9056019999999,0
			30.0007080000001,-89.911438,0
			29.9992310000001,-89.912245,0
			29.9957100000001,-89.9141689999999,0
			29.993938,-89.9184189999999,0
			29.991308,-89.9263759999999,0
			29.9890650000001,-89.9279059999999,0
			29.9881310000001,-89.9285429999999,0
			29.985821,-89.935527,0
			29.9846190000001,-89.9391629999999,0
			29.9833390000001,-89.939182,0
			29.9809610000001,-89.939217,0
			29.9807530000002,-89.93997,0
			29.9805200000001,-89.9408109999998,0
			29.9819600000002,-89.9455259999999,0
			29.9816140000001,-89.949246,0
			29.9811730000001,-89.9539789999999,0
			29.9867100000001,-89.9570309999999,0
			29.9858400000001,-89.9607389999999,0
			29.9871570000001,-89.962209,0
			29.9895610000001,-89.9648899999999,0
			29.9912510000001,-89.969963,0
			29.99148,-89.9706499999999,0
			29.9925500000001,-89.971244,0
			29.9942400000002,-89.9721829999999,0
			29.9942510000002,-89.9729729999999,0
			29.9942700000001,-89.9742889999999,0
			29.9866010000001,-89.981796,0
			29.987961,-89.9851199999999,0
			29.9889580000001,-89.9875559999999,0
			29.9878070000001,-89.990329,0
			29.9876310000001,-89.990753,0
			29.9730510000001,-89.9957579999999,0
			29.9740100000002,-89.998901,0
			29.9533240000001,-90.00908,0
			29.9439910000001,-90.0136719999999,0
			29.9336280000001,-89.99279,0
			29.93305,-89.9917549999999,0
			29.9251800000001,-89.9776689999998,0
			29.924183,-89.9677809999999,0
			29.9235900000002,-89.9618989999999,0
			29.9218220000001,-89.934021,0
			29.9189300000001,-89.924072,0
			29.8981210000002,-89.9102629999999,0
			29.8829190000002,-89.9042279999999,0
			29.87285,-89.904953,0
			29.8692490000001,-89.908699,0
			29.8690540000002,-89.909935,0
			29.8688320000001,-89.9113389999999,0
			29.866631,-89.9177019999998,0
			29.8929810000001,-89.9345699999999,0
			29.9024790000001,-89.9586109999999,0
			29.904051,-89.972786,0
			29.9023000000001,-89.9791409999999,0
			29.9051690000001,-89.9875179999999,0
			29.8896290000001,-89.98938,0
			29.8980480000001,-90.0023879999999,0
			29.89255,-90.002487,0
			29.8958400000001,-90.0082169999999,0
			29.9041600000002,-90.013863,0
		</coordinates>
	</polygon>
</kml>
