<?xml version="1.0" encoding="UTF-8"?>
<kml xmlns="http://earth.google.com/kml/2.2">
	<polygon id="USA_AZ_Pinal" samplingProbability="1">
		<coordinates>
			33.4650688170001,-111.034446717,0
			33.4517593380002,-111.026237487,0
			33.4042510990001,-111.003181457,0
			33.3845901500001,-110.992988587,0
			33.372249604,-110.986000062,0
			33.343952179,-110.97592926,0
			33.3033294670001,-110.961616517,0
			33.2809600840002,-110.953689575,0
			33.2526512150001,-110.943077088,0
			33.1505699170001,-110.881416321,0
			33.1359214780002,-110.872306824,0
			33.1208114620001,-110.863220216,0
			33.1061592110001,-110.854667663,0
			33.1015815740001,-110.851997375,0
			33.0924186720001,-110.845558166,0
			33.0782089230001,-110.836456299,0
			33.0337486270001,-110.807006837,0
			33.0227584850001,-110.800613402,0
			32.9862022400001,-110.780746459,0
			32.9873008730002,-110.764266969,0
			33.0046691900001,-110.763023376,0
			33.0053901680002,-110.756301881,0
			33.0101013190002,-110.745857239,0
			33.0271186840002,-110.727676392,0
			33.0280914300002,-110.726791383,0
			33.0291900640001,-110.726463318,0
			33.035888673,-110.727447509,0
			33.0424919120001,-110.721740724,0
			33.0425987250002,-110.714981079,0
			33.0507698050001,-110.714637756,0
			33.07019043,-110.724456786,0
			33.0764389030001,-110.71974182,0
			33.0814094540002,-110.710166931,0
			33.083709716,-110.7053833,0
			33.0769615170001,-110.691268921,0
			33.0782890320001,-110.688888549,0
			33.0813903800002,-110.686813355,0
			33.084018708,-110.686561585,0
			33.0860519410002,-110.68660736,0
			33.0881614700002,-110.684249877,0
			33.0893707290001,-110.682220459,0
			33.099010468,-110.683113099,0
			33.1117591860001,-110.677978516,0
			33.118991852,-110.664016724,0
			33.1192588820001,-110.661491393,0
			33.1118202210001,-110.660507202,0
			33.1138191220002,-110.65524292,0
			33.1343688970001,-110.63748169,0
			33.1420288090002,-110.632949828,0
			33.143180848,-110.608383179,0
			33.1384887700001,-110.598373413,0
			33.1381416320002,-110.584686279,0
			33.1446914680001,-110.56678009,0
			33.1528701790002,-110.550376891,0
			33.1569900520001,-110.548782349,0
			33.1678314210001,-110.544647218,0
			33.1687088020001,-110.542976379,0
			33.1607589720002,-110.534980775,0
			33.1596412670002,-110.530822755,0
			33.158931733,-110.528427125,0
			33.158920288,-110.52783966,0
			33.1595191960001,-110.526618958,0
			33.1609992980001,-110.524436951,0
			33.1632614140001,-110.525047302,0
			33.1640090940001,-110.526176452,0
			33.1638603220001,-110.528526307,0
			33.1639289850002,-110.52974701,0
			33.164600372,-110.531936645,0
			33.1657409670001,-110.532478333,0
			33.1679191600002,-110.532249452,0
			33.1710701000001,-110.526908874,0
			33.177970886,-110.525093079,0
			33.1782913210001,-110.521606446,0
			33.17855072,-110.519157411,0
			33.1803703310002,-110.514945984,0
			33.1838722220001,-110.509002685,0
			33.1857299810001,-110.503921509,0
			33.1828689580001,-110.476249695,0
			33.1833915720001,-110.464370728,0
			33.1851997370001,-110.460769653,0
			33.1925010690001,-110.462997437,0
			33.1983795170001,-110.453102113,0
			33.1943893430002,-110.44909668,0
			32.5144195570002,-110.448432922,0
			32.513919831,-110.548492431,0
			32.514678954,-110.684951782,0
			32.5143318180001,-110.694198608,0
			32.5144500740001,-110.704528809,0
			32.514579772,-110.756187438,0
			32.513641358,-110.84046936,0
			32.5113601690002,-110.840507507,0
			32.5119590770001,-110.854629516,0
			32.5124397270001,-110.9508667,0
			32.5120620740001,-111.063407899,0
			32.5118904110001,-111.098213195,0
			32.5114097590002,-111.154747009,0
			32.502750398,-111.154846191,0
			32.5026588440001,-111.20539856,0
			32.502780914,-111.22278595,0
			32.5030517570002,-111.262466432,0
			32.5022697450001,-111.446762085,0
			32.5018997200002,-111.464157105,0
			32.5019416800001,-111.471229554,0
			32.5018920900001,-111.567436218,0
			32.5069007870001,-111.567413329,0
			32.5069808960001,-111.587532044,0
			32.5067405700001,-111.654953003,0
			32.506340026,-111.672340393,0
			32.506469727,-111.721809386,0
			32.5069694530001,-111.739746094,0
			32.5065498360001,-111.756599426,0
			32.5066184990001,-111.789756775,0
			32.506629944,-111.793571472,0
			32.5076789860001,-112.099632263,0
			32.5070800780001,-112.202919006,0
			32.5954589850002,-112.202056885,0
			32.6405487070001,-112.202156067,0
			32.6819915770001,-112.202270508,0
			32.6952018740001,-112.202308655,0
			32.722068787,-112.20237732,0
			32.7553100600002,-112.202461242,0
			32.7698822030002,-112.202499389,0
			32.781719208,-112.202522277,0
			32.792190551,-112.202552796,0
			32.7990188610001,-112.202026367,0
			32.8240699770002,-112.202087402,0
			32.8568496710001,-112.201629638,0
			32.8869018560001,-112.202262878,0
			32.932418824,-112.201828002,0
			32.9433517460001,-112.201309205,0
			32.9442596440001,-112.201850891,0
			32.9884185790001,-112.201416015,0
			33.0034408570001,-112.201446534,0
			33.0316619870001,-112.201530456,0
			33.031669617,-112.199890136,0
			33.0771789550001,-112.199996949,0
			33.0912895210001,-112.200027465,0
			33.1067695620001,-112.199531555,0
			33.1190490720002,-112.200111389,0
			33.165019989,-112.20022583,0
			33.2064285290001,-112.199783326,0
			33.248291016,-112.200439452,0
			33.263309479,-112.199928283,0
			33.2915191660001,-112.199996949,0
			33.2915191660001,-112.201652526,0
			33.3078994760002,-112.201141357,0
			33.3060798640001,-112.198936462,0
			33.3019905100001,-112.197288514,0
			33.2965316770001,-112.196166992,0
			33.2901687630001,-112.19506073,0
			33.2806091300001,-112.191177368,0
			33.2774314890002,-112.188980103,0
			33.2742614750001,-112.184036256,0
			33.2715301520001,-112.180732726,0
			33.2683486930001,-112.178543091,0
			33.2642517090002,-112.178520202,0
			33.2597122190001,-112.175216675,0
			33.2588005060001,-112.171920776,0
			33.256988526,-112.169166564,0
			33.2583618170001,-112.165336609,0
			33.257911682,-112.160949707,0
			33.2542800910001,-112.155448914,0
			33.2547302250002,-112.153259276,0
			33.256099702,-112.150520325,0
			33.2551994320002,-112.144477845,0
			33.2551994320002,-112.142829895,0
			33.2538414010002,-112.139526368,0
			33.2520217900001,-112.138442994,0
			33.2497520440001,-112.13733673,0
			33.2452011110001,-112.139526368,0
			33.2424697880001,-112.137870788,0
			33.2397499080001,-112.13456726,0
			33.2392921440001,-112.132377625,0
			33.237930298,-112.130729675,0
			33.2383918770001,-112.128540038,0
			33.2383918770001,-112.124687195,0
			33.2374801640001,-112.121406556,0
			33.234298705,-112.117561341,0
			33.235221863,-112.114807129,0
			33.2343101510001,-112.109329223,0
			33.2352294910002,-112.105491638,0
			33.2334098810001,-112.10383606,0
			33.228408814,-112.098350526,0
			33.2275009160001,-112.095596314,0
			33.2275009160001,-112.094512939,0
			33.2275009160001,-112.091217041,0
			33.2243194580001,-112.089569092,0
			33.2211303710001,-112.089012146,0
			33.2183990480002,-112.087356568,0
			33.2143096930001,-112.087356568,0
			33.2106704710001,-112.085708618,0
			33.2097587580001,-112.082969665,0
			33.208400727,-112.081321715,0
			33.2052192700002,-112.076393127,0
			33.2038192750001,-111.890457154,0
			33.2047996530002,-111.683151245,0
			33.2053794870002,-111.580047608,0
			33.3801116950002,-111.581863403,0
			33.3805503860002,-111.578559876,0
			33.4660797110001,-111.579200744,0
			33.4658012380001,-111.509872437,0
			33.4660987850001,-111.474105834,0
			33.4660186760001,-111.457595825,0
			33.4664001460001,-111.440536499,0
			33.4648704520002,-111.064712525,0
			33.4650688170001,-111.034446717,0
		</coordinates>
	</polygon>
</kml>
