<?xml version="1.0" encoding="UTF-8"?>
<kml xmlns="http://earth.google.com/kml/2.2">
	<polygon id="USA_NM_Socorro" samplingProbability="1">
		<coordinates>
			33.4773521420001,-107.711616516,0
			33.50691986,-107.711723327,0
			33.5228500370001,-107.711517334,0
			33.5801620490001,-107.711662293,0
			33.5951690680001,-107.711990357,0
			33.61064148,-107.711776734,0
			33.6251907350001,-107.711547851,0
			33.6397514340001,-107.711860656,0
			33.6674919140001,-107.711906433,0
			33.6825103760002,-107.71169281,0
			33.6966018680001,-107.711997987,0
			33.7125205990001,-107.711799622,0
			33.7275199900001,-107.712127686,0
			33.740718841,-107.711860656,0
			33.7857398980001,-107.711738587,0
			33.815750122,-107.711853028,0
			33.824390411,-107.712036134,0
			33.824329376,-107.715911865,0
			33.8811912530001,-107.714950561,0
			33.9862098690001,-107.71559143,0
			34.0003013620001,-107.715896607,0
			34.0157699590001,-107.715126038,0
			34.0603294370001,-107.714447022,0
			34.0803489680001,-107.713226319,0
			34.165359497,-107.712882996,0
			34.2566986090001,-107.714340209,0
			34.257450104,-107.724357606,0
			34.3470420850001,-107.720787049,0
			34.4192886350002,-107.720718383,0
			34.4347419740001,-107.721061707,0
			34.4506492620001,-107.720863342,0
			34.4656410220001,-107.720626831,0
			34.4806289670001,-107.720962524,0
			34.4956207270001,-107.721298218,0
			34.5542106630002,-107.722602844,0
			34.5841903700001,-107.723266602,0
			34.5844688410001,-107.70374298,0
			34.5838813780001,-107.617752076,0
			34.583709717,-107.529541015,0
			34.5834808340002,-107.51222229,0
			34.5820884710002,-107.201255799,0
			34.5799407960002,-106.882492065,0
			34.53302002,-106.77205658,0
			34.459999085,-106.502136231,0
			34.4365615850001,-106.455741882,0
			34.4444503790002,-106.412330628,0
			34.4194602960001,-106.412200927,0
			34.391738892,-106.41204834,0
			34.3485794070001,-106.411819459,0
			34.2622489940001,-106.411911011,0
			34.2601699840002,-106.133972167,0
			34.2597694400001,-106.078376769,0
			34.2602310190002,-106.060600281,0
			34.2606811530001,-105.922737121,0
			34.1729698180001,-105.921157837,0
			34.1425209040001,-105.92063141,0
			34.1284294130001,-105.920089722,0
			34.0861587530001,-105.919578553,0
			34.0561599740001,-105.91960907,0
			34.0284309400002,-105.919631958,0
			33.9993400570001,-105.918556213,0
			33.9407005320001,-105.919166566,0
			33.9111518870001,-105.919746398,0
			33.8961486820001,-105.919769287,0
			33.8274993900001,-105.919853211,0
			33.8279800420001,-106.029296874,0
			33.8279685970002,-106.046981811,0
			33.7670402540001,-106.04750061,0
			33.7515907300001,-106.047492982,0
			33.7379493710002,-106.047492982,0
			33.667911529,-106.048545837,0
			33.6533584590001,-106.048530578,0
			33.653350829,-106.065078736,0
			33.6533393860001,-106.083831787,0
			33.6533317560001,-106.100929261,0
			33.6523590100001,-106.152786256,0
			33.6550903330001,-106.152236938,0
			33.6612586970001,-106.261466981,0
			33.6627807610001,-106.369049072,0
			33.481311798,-106.369293214,0
			33.4827690130001,-106.468368531,0
			33.4782218930001,-106.468353271,0
			33.4772186280001,-106.744056702,0
			33.4771118160002,-106.761672973,0
			33.4774284360001,-106.780929565,0
			33.4773216250002,-106.797439576,0
			33.477199555,-106.814498901,0
			33.4770812990002,-106.831008912,0
			33.477149963,-106.883300782,0
			33.4757308960001,-106.999946593,0
			33.4788398740001,-107.107322692,0
			33.4795799260001,-107.125495911,0
			33.4794197090001,-107.140907288,0
			33.479270935,-107.156860351,0
			33.4790916440002,-107.173919678,0
			33.479370117,-107.190986633,0
			33.4791793830001,-107.209136963,0
			33.4785499580001,-107.225646972,0
			33.4781799310002,-107.260307311,0
			33.4777107240001,-107.302139281,0
			33.47890091,-107.394630433,0
			33.4786796570001,-107.449111938,0
			33.4777107240001,-107.489822388,0
			33.4779891970002,-107.503585816,0
			33.4775390630001,-107.603752137,0
			33.4772605900002,-107.623558045,0
			33.4774894710001,-107.640083312,0
			33.477439881,-107.674751282,0
			33.4773521420001,-107.711616516,0
		</coordinates>
	</polygon>
</kml>
