<?xml version="1.0" encoding="UTF-8"?>
<kml xmlns="http://earth.google.com/kml/2.2">
	<polygon id="USA_MI_Allegan" samplingProbability="1">
		<coordinates>
			42.7677001960002,-85.54850769,0
			42.6813201910002,-85.5459365839999,0
			42.5940399180001,-85.5446472159999,0
			42.5085792540002,-85.5427169809999,0
			42.4195098870002,-85.5420684809999,0
			42.4196090700001,-85.766349793,0
			42.4184608460002,-85.8974533079999,0
			42.4193305970001,-85.9949722279999,0
			42.4191093440002,-86.2248306269999,0
			42.4201202390001,-86.2745285029999,0
			42.431011201,-86.2688980089999,0
			42.4568901060001,-86.2582473749999,0
			42.4945793150001,-86.2469177239999,0
			42.5068511970001,-86.2456359869999,0
			42.5295715320001,-86.2436828599999,0
			42.568180084,-86.234832763,0
			42.5927009580001,-86.2272567749999,0
			42.5945205680001,-86.2272567749999,0
			42.6217994690002,-86.2321319589999,0
			42.6404304500001,-86.2295684809999,0
			42.6581306460002,-86.2201461799999,0
			42.6776695250001,-86.2138366689999,0
			42.681301117,-86.21257019,0
			42.6940193180001,-86.2093963629998,0
			42.7381095890001,-86.2079696659999,0
			42.766288757,-86.208480835,0
			42.7690200800001,-86.209091187,0
			42.7679290770002,-86.137290955,0
			42.767101288,-86.018035889,0
			42.7673912060002,-85.7838973999999,0
			42.7677001960002,-85.54850769,0
		</coordinates>
	</polygon>
</kml>
