<?xml version="1.0" encoding="UTF-8"?>
<kml xmlns="http://earth.google.com/kml/2.2">
	<polygon id="USA_AL_Barbour" samplingProbability="1">
		<coordinates>
			31.6196212770001,-85.4160690309998,0
			31.620782852,-85.4913330079999,0
			31.6182994850002,-85.691360474,0
			31.6185703280001,-85.7295303349999,0
			31.6182403580002,-85.7483520519999,0
			31.627271653,-85.73374939,0
			31.6299896240001,-85.73210907,0
			31.6372814180002,-85.7309570319999,0
			31.6427307130001,-85.72606659,0
			31.6559104930001,-85.7189559939999,0
			31.6604709620001,-85.7183685289999,0
			31.6645793920002,-85.7194061279999,0
			31.6732406620001,-85.7187805179999,0
			31.688301086,-85.7186431889999,0
			31.6956100460001,-85.7201919549999,0
			31.6983299260001,-85.71800995,0
			31.7028408050001,-85.7109680169999,0
			31.7064704900001,-85.7082366939999,0
			31.7101097100001,-85.7065963749999,0
			31.7142295830002,-85.708168029,0
			31.717409135,-85.706520081,0
			31.7219696040001,-85.7064666739999,0
			31.7347412120001,-85.705810546,0
			31.7397403710001,-85.7036132809999,0
			31.7442798610002,-85.699790954,0
			31.7519512180001,-85.688407898,0
			31.760070801,-85.6759414659999,0
			31.7659606930001,-85.6704864499999,0
			31.7695999150001,-85.6688385009999,0
			31.7773399360001,-85.667137146,0
			31.7832508100001,-85.6643905649999,0
			31.7864494320001,-85.6648864749999,0
			31.7905597700002,-85.6664733879999,0
			31.7969799040001,-85.6707229619999,0
			31.8075008390001,-85.6749191279998,0
			31.8111400600002,-85.6737976079999,0
			31.8170604720002,-85.67212677,0
			31.8198127760001,-85.673706054,0
			31.8225498190002,-85.674758911,0
			31.8353195200001,-85.674087524,0
			31.8444404600002,-85.6739959719998,0
			31.856750489,-85.673332214,0
			31.864940643,-85.670547486,0
			31.8758411410001,-85.6650466929999,0
			31.8803710940002,-85.6601409909999,0
			31.8830776230002,-85.657417298,0
			31.8858108530001,-85.655769348,0
			31.8899192810002,-85.656806947,0
			31.8926506040001,-85.6562423709998,0
			31.8971900940002,-85.6529464709999,0
			31.9003696430001,-85.651298524,0
			31.9090194710001,-85.6501312259999,0
			31.9303417200001,-85.634796143,0
			31.940309525,-85.627128601,0
			31.9443607320001,-85.6195297249999,0
			31.9479694360001,-85.615707398,0
			31.959768296,-85.6085586539999,0
			31.9743194580001,-85.602462768,0
			31.9797496800001,-85.5970001219999,0
			31.9833698280001,-85.59424591,0
			31.9915618890001,-85.591461182,0
			31.9965400700002,-85.5870819099999,0
			31.998029709,-85.5470962529999,0
			31.9984207150001,-85.5389862059999,0
			31.995180131,-85.5341567999999,0
			31.999700546,-85.5292511,0
			31.9999999990002,-85.5119628899999,0
			32.0141487120001,-85.5123214719999,0
			32.014560699,-85.5074539179999,0
			32.0142288210001,-85.470710754,0
			32.0224418640001,-85.4711532599999,0
			32.022369385,-85.4630432129999,0
			32.0146102910001,-85.4620590209999,0
			32.014869691,-85.4415283189999,0
			32.0152015690001,-85.4285583489999,0
			32.0521507260001,-85.4302215569999,0
			32.124610901,-85.4276428209999,0
			32.135559082,-85.4274902339999,0
			32.1396598810001,-85.4274291989999,0
			32.1399803160001,-85.413902282,0
			32.1399421690001,-85.409568787,0
			32.1467819220001,-85.4100189199999,0
			32.1477508550001,-85.3699569699999,0
			32.1474914560002,-85.3434371949999,0
			32.1484107960001,-85.2589874279999,0
			32.1402206420001,-85.259666442,0
			32.137420654,-85.2543029779999,0
			32.1332397460001,-85.2473297119999,0
			32.1263008130001,-85.2377014159999,0
			32.1242713930002,-85.2365264899999,0
			32.123878479,-85.246086121,0
			32.1184806830001,-85.246391295,0
			32.1192321790002,-85.2336425779999,0
			32.1189498910001,-85.2334823599999,0
			32.1084098820001,-85.2287826529998,0
			32.1006317150002,-85.2256622309999,0
			32.096019746,-85.2213973989999,0
			32.094089508,-85.21170044,0
			32.0908393860001,-85.206886292,0
			32.0867195130002,-85.2053298959999,0
			32.0857696530001,-85.20210266,0
			32.0852890010001,-85.199401856,0
			32.0839004510001,-85.197257995,0
			32.080680847,-85.195686339,0
			32.0783691410001,-85.193016052,0
			32.0729217540001,-85.194732667,0
			32.0697288520001,-85.1942367559999,0
			32.0651016250001,-85.1883697509999,0
			32.062339783,-85.1862564099999,0
			32.0628890990002,-85.117576599,0
			32.062831879,-85.113258362,0
			32.0696601860001,-85.112602234,0
			32.0700187680001,-85.1044769279999,0
			32.0631904600002,-85.105140686,0
			32.0630798350002,-85.0964965809999,0
			32.0631408700002,-85.06513977,0
			32.0630416880001,-85.0595016479999,0
			32.0586586000002,-85.0601882929999,0
			32.0499610900001,-85.0621261599999,0
			32.0444908140001,-85.0619888319999,0
			32.0394706740001,-85.0618591309999,0
			32.0339889520002,-85.0622558589999,0
			32.0307998650001,-85.062171936,0
			32.0267105110001,-85.061531068,0
			32.0235404970002,-85.06035614,0
			32.0212707510001,-85.0597686779999,0
			32.0189895640001,-85.0597076419999,0
			32.0162391660001,-85.0607070919999,0
			32.0134696960001,-85.062271118,0
			32.0093421940002,-85.065559387,0
			32.006629945,-85.067756652,0
			32.0025596620001,-85.070541382,0
			31.9964027410001,-85.073165893,0
			31.9930400860001,-85.073532105,0
			31.9922904980001,-85.073608399,0
			31.9880199430002,-85.0740432739999,0
			31.9790706640002,-85.0732574469999,0
			31.9759197230001,-85.071022033,0
			31.973190308,-85.070411682,0
			31.9706611640001,-85.0716476439999,0
			31.968551636,-85.0746231089999,0
			31.965730668,-85.078216552,0
			31.9638309470002,-85.0831375129999,0
			31.9617195130001,-85.0863876349999,0
			31.9591808320001,-85.087882995,0
			31.9550819400001,-85.0877685549999,0
			31.9515094770001,-85.086875915,0
			31.950330734,-85.086585999,0
			31.9489402770002,-85.086112977,0
			31.9469184870001,-85.0853958129999,0
			31.9430198670001,-85.0856399529998,0
			31.9407405850001,-85.0862197869999,0
			31.9381809230001,-85.08895111,0
			31.9358692170001,-85.0910491939999,0
			31.9330806730002,-85.093666076,0
			31.931289672,-85.0960998529999,0
			31.9295005810001,-85.098831176,0
			31.9272594460002,-85.1015701289999,0
			31.9251403810001,-85.1037216199999,0
			31.9228401190002,-85.1047363279999,0
			31.9205207830001,-85.1068420409999,0
			31.918649675,-85.1094894399999,0
			31.9169006350001,-85.1119995129999,0
			31.915100098,-85.114189148,0
			31.913948059,-85.116378783,0
			31.9124011990001,-85.117477417,0
			31.9107494350001,-85.1168365469998,0
			31.9096508030001,-85.1159133909998,0
			31.9082527150001,-85.1137695309999,0
			31.9067211160001,-85.1129531849999,0
			31.9041309370001,-85.112762451,0
			31.9012393960001,-85.113349914,0
			31.89730835,-85.1139602669999,0
			31.8961906430002,-85.1148376459999,0
			31.8952407830001,-85.116966248,0
			31.894729614,-85.1201858519999,0
			31.8946304320002,-85.125045777,0
			31.8943004610001,-85.129119873,0
			31.8940105450001,-85.133666993,0
			31.893060683,-85.135803223,0
			31.891220092,-85.1368331909999,0
			31.8884906770001,-85.13622284,0
			31.8862400060001,-85.1345367439999,0
			31.8839893330002,-85.1328582749999,0
			31.8812694560001,-85.1322479239999,0
			31.8776206970001,-85.132148742,0
			31.874410629,-85.1331405639999,0
			31.8702011120002,-85.134925842,0
			31.866121293,-85.1372375479999,0
			31.8633594510001,-85.1387863159999,0
			31.8611412050001,-85.1399307239999,0
			31.857490539,-85.13999176,0
			31.8547496800002,-85.139495849,0
			31.8523998260001,-85.1390304569999,0
			31.8492794040001,-85.1395874029999,0
			31.8478107450001,-85.1405258169999,0
			31.845199585,-85.142356873,0
			31.8429298390001,-85.1429367069999,0
			31.8383808140001,-85.143547058,0
			31.8347206120001,-85.142532349,0
			31.8322982790002,-85.140663146,0
			31.8305683150002,-85.1393661499999,0
			31.8273696900001,-85.138343812,0
			31.8241710670001,-85.1378631599999,0
			31.8209705350001,-85.137367249,0
			31.812290191,-85.1364364629999,0
			31.805000304,-85.1366882319999,0
			31.7981681820002,-85.1382980349998,0
			31.792261125,-85.14000702,0
			31.7881908420001,-85.1422424319999,0
			31.7850112920001,-85.1439132679999,0
			31.7818298340001,-85.1445007329999,0
			31.7807407380001,-85.1439971919999,0
			31.7795295710001,-85.1434631349999,0
			31.778139115,-85.1418685919999,0
			31.7762794510002,-85.1381301869999,0
			31.774421692,-85.1354675299999,0
			31.771760941,-85.133651733,0
			31.7676906590001,-85.131385804,0
			31.763860704,-85.1302566529999,0
			31.7680301670001,-85.1350402829999,0
			31.7713203430002,-85.143600464,0
			31.7736701960002,-85.1489486689999,0
			31.7746906290001,-85.1575469969999,0
			31.7683811180001,-85.164657593,0
			31.7638492580001,-85.1674270629999,0
			31.7517623900001,-85.18647766,0
			31.7459602350001,-85.1978759769999,0
			31.7446899410002,-85.2059783939999,0
			31.7410697940001,-85.2087326049999,0
			31.7110004420001,-85.212440492,0
			31.7033004760002,-85.2174072269999,0
			31.7063407910001,-85.328247071,0
			31.7076683060001,-85.4148864759999,0
			31.6196212770001,-85.4160690309998,0
		</coordinates>
	</polygon>
</kml>
