<?xml version="1.0" encoding="UTF-8"?>
<kml xmlns="http://earth.google.com/kml/2.2">
	<polygon id="USA_MT_Roosevelt" samplingProbability="1">
		<coordinates>
			48.5642318720001,-105.805023193,0
			48.5648002630001,-105.671997071,0
			48.5651397720001,-105.628326415,0
			48.5652122500002,-105.538299561,0
			48.5646095270001,-105.495376588,0
			48.5651092530001,-105.406677246,0
			48.5651397720001,-105.281860352,0
			48.5639419560001,-105.103927612,0
			48.5643310540001,-105.018623352,0
			48.5633811950001,-104.970947266,0
			48.562740327,-104.839340209,0
			48.5621299740001,-104.756149293,0
			48.4765586860001,-104.755607605,0
			48.4761505120001,-104.623435974,0
			48.389709474,-104.623847961,0
			48.390419007,-104.574783325,0
			48.389720917,-104.536743164,0
			48.3899612430002,-104.235870361,0
			48.3892097480001,-104.046646119,0
			48.0069618230002,-104.04485321,0
			48.0005187990001,-104.044807435,0
			48.000869751,-104.062377929,0
			48.0013999930001,-104.07382965,0
			48.00069046,-104.07863617,0
			48.0005493160001,-104.085411073,0
			48.0013198850002,-104.092102051,0
			48.0044517510001,-104.099906922,0
			48.0105514520001,-104.102027894,0
			48.0214920050001,-104.09890747,0
			48.0317497250001,-104.091133118,0
			48.035640717,-104.095466614,0
			48.030349732,-104.11090088,0
			48.0319709780001,-104.116157531,0
			48.0397300720001,-104.124191285,0
			48.0504608150002,-104.126518249,0
			48.054050445,-104.134292603,0
			48.0553092970001,-104.141616821,0
			48.0459022530001,-104.158119202,0
			48.0396194460001,-104.162117005,0
			48.036491395,-104.174606323,0
			48.0447998040001,-104.184631347,0
			48.0536499020002,-104.186477661,0
			48.061470033,-104.185707093,0
			48.0660400390001,-104.1845932,0
			48.0697212220002,-104.18422699,0
			48.0703315730001,-104.197723388,0
			48.0649909980001,-104.202301025,0
			48.0445785520001,-104.20022583,0
			48.0379600530001,-104.19680786,0
			48.0311203010001,-104.219131469,0
			48.030170441,-104.238845825,0
			48.0368690500001,-104.254463197,0
			48.0410919180001,-104.266242981,0
			48.0467185970002,-104.278556823,0
			48.0513687140001,-104.289627075,0
			48.0494804390001,-104.309440613,0
			48.0495986940002,-104.322296143,0
			48.0485992420001,-104.331192017,0
			48.0471496590001,-104.340126038,0
			48.048400878,-104.347457885,0
			48.0620918270001,-104.354286194,0
			48.0677299510002,-104.356460571,0
			48.072052001,-104.360107422,0
			48.0774192800001,-104.377212524,0
			48.0759315500001,-104.385482789,0
			48.0763511650001,-104.394920349,0
			48.0790290830001,-104.4034729,0
			48.084739686,-104.41783905,0
			48.090789794,-104.429466247,0
			48.094451904,-104.439292908,0
			48.0985107430002,-104.447723388,0
			48.108371735,-104.451538087,0
			48.1154212960001,-104.45426941,0
			48.1237297050001,-104.465011596,0
			48.124290467,-104.477836609,0
			48.1174011240001,-104.489318847,0
			48.1140403740002,-104.497093201,0
			48.1095008860001,-104.50969696,0
			48.1201095580002,-104.520240784,0
			48.124340057,-104.532730102,0
			48.12638092,-104.54812622,0
			48.1204414360001,-104.560195923,0
			48.1131095880001,-104.572387695,0
			48.1066398620002,-104.583152771,0
			48.109771729,-104.591667175,0
			48.1244087220001,-104.588302613,0
			48.1282806410001,-104.592689514,0
			48.1336593630002,-104.59966278,0
			48.140159608,-104.611259461,0
			48.129402161,-104.619018555,0
			48.1208801270001,-104.625205994,0
			48.1157112120001,-104.62297058,0
			48.1113700860001,-104.629463196,0
			48.1107292180001,-104.647148133,0
			48.108280182,-104.654823303,0
			48.1067199710001,-104.661743164,0
			48.1061401360001,-104.669921875,0
			48.104179382,-104.678230287,0
			48.1192398070001,-104.685012817,0
			48.119689941,-104.695808411,0
			48.1202507020001,-104.70929718,0
			48.1148605350001,-104.724021912,0
			48.111919404,-104.731056212,0
			48.1103019710001,-104.736618043,0
			48.1111488340001,-104.746032714,0
			48.118789674,-104.752128602,0
			48.1278991710001,-104.760116577,0
			48.1305618280001,-104.768699646,0
			48.1301422130001,-104.780937195,0
			48.124931336,-104.800369263,0
			48.120731355,-104.821746827,0
			48.1206512460001,-104.831253052,0
			48.1216621410001,-104.844711303,0
			48.1255607610001,-104.849792481,0
			48.1314888010002,-104.859436035,0
			48.1426696780001,-104.873367311,0
			48.1496315010001,-104.885643006,0
			48.1506118780001,-104.8984375,0
			48.142978668,-104.915367126,0
			48.1368103030001,-104.922676086,0
			48.1295013430002,-104.924659729,0
			48.1174507140001,-104.923667908,0
			48.108341217,-104.926490783,0
			48.0998115540001,-104.932640076,0
			48.0946998600001,-104.943237305,0
			48.0960998530001,-104.955307008,0
			48.100700379,-104.966430664,0
			48.1032485960001,-104.974060059,0
			48.1031303400001,-104.97593689,0
			48.101902008,-104.983421325,0
			48.1006507870002,-104.983833312,0
			48.0971298220001,-104.982116699,0
			48.0920295720001,-104.976707458,0
			48.0873909,-104.97366333,0
			48.082698823,-104.974441527,0
			48.0788002020001,-104.97705841,0
			48.0756492620002,-104.979446411,0
			48.0707893370002,-104.984123231,0
			48.0680618290001,-104.986846923,0
			48.0667610180002,-104.989639282,0
			48.06552887,-104.993431092,0
			48.0660400390001,-104.996086121,0
			48.0680389410001,-104.998497009,0
			48.0709190380001,-104.998252868,0
			48.0747108460002,-104.994377136,0
			48.0786399850001,-104.99230957,0
			48.082260132,-104.992889404,0
			48.084270477,-104.995162963,0
			48.0858001710001,-104.997680664,0
			48.0860519420001,-105.00276947,0
			48.0856018060002,-105.005332947,0
			48.0816192620001,-105.010566712,0
			48.0775909430002,-105.013557435,0
			48.0745010380001,-105.013160706,0
			48.071571351,-105.011993409,0
			48.0693702700001,-105.012466431,0
			48.0676193240001,-105.016357421,0
			48.0659790040002,-105.024017335,0
			48.064689636,-105.030822754,0
			48.0636291510002,-105.037345887,0
			48.061389924,-105.040206909,0
			48.0556488050001,-105.040626526,0
			48.0535697930001,-105.041328431,0
			48.0536689750001,-105.046867371,0
			48.055980683,-105.051460266,0
			48.0595893870002,-105.052307128,0
			48.0648918160001,-105.050453186,0
			48.0706405650001,-105.047439575,0
			48.0749893190001,-105.049346924,0
			48.076911926,-105.054077149,0
			48.077690125,-105.057533263,0
			48.0781517020001,-105.060752869,0
			48.0777816770001,-105.064666748,0
			48.0759887710001,-105.069641113,0
			48.0731506350001,-105.072425841,0
			48.0673599240002,-105.078796387,0
			48.0641708370002,-105.085220338,0
			48.062419892,-105.090789794,0
			48.06163025,-105.095222474,0
			48.0602111810001,-105.099166869,0
			48.0605201730001,-105.103431701,0
			48.059879303,-105.107772827,0
			48.059101104,-105.116500854,0
			48.0601692200001,-105.119377136,0
			48.0618591310001,-105.11844635,0
			48.0632896430001,-105.116119386,0
			48.0651016230001,-105.10936737,0
			48.067520141,-105.106826783,0
			48.0758094800001,-105.107849121,0
			48.0783805850002,-105.109588623,0
			48.0788116460002,-105.115173339,0
			48.0786514280001,-105.11882019,0
			48.077579498,-105.122093201,0
			48.0757102970002,-105.12576294,0
			48.0745391850001,-105.129806518,0
			48.0740394590001,-105.13381958,0
			48.07378006,-105.136909485,0
			48.0737495430001,-105.138656617,0
			48.0746192940001,-105.142631531,0
			48.0736007690001,-105.147407532,0
			48.073501587,-105.149726868,0
			48.0741119380002,-105.152671814,0
			48.0748214730002,-105.158622742,0
			48.0763511650001,-105.160865783,0
			48.0770797740001,-105.161796569,0
			48.0778999330001,-105.162796021,0
			48.0797195430001,-105.165199281,0
			48.0805816660001,-105.167503356,0
			48.0816497810001,-105.172050477,0
			48.08462143,-105.175117493,0
			48.088481904,-105.176719666,0
			48.0924987790002,-105.174461365,0
			48.0942916880001,-105.170745851,0
			48.095970154,-105.166267396,0
			48.097358704,-105.166732788,0
			48.0992889400002,-105.168136596,0
			48.101928711,-105.170516968,0
			48.103290558,-105.173316956,0
			48.103549957,-105.177780151,0
			48.1017913820001,-105.180603028,0
			48.098869323,-105.181297303,0
			48.0918006890001,-105.182037353,0
			48.0812606800001,-105.180892944,0
			48.0749816890001,-105.182250977,0
			48.0710296630002,-105.187957765,0
			48.0684890740002,-105.190246582,0
			48.0654602050001,-105.194168091,0
			48.0626907350001,-105.203422547,0
			48.0628204340001,-105.212142945,0
			48.0635795590001,-105.218948364,0
			48.0651817320001,-105.221542359,0
			48.070671082,-105.223991393,0
			48.0738105780001,-105.22226715,0
			48.0831604020001,-105.217002868,0
			48.0877990720001,-105.218406677,0
			48.0915794370001,-105.222579957,0
			48.093219758,-105.230720521,0
			48.0936317450001,-105.239822388,0
			48.0894393930001,-105.244796753,0
			48.0893287660002,-105.249389648,0
			48.0894012440001,-105.262107849,0
			48.0868797310001,-105.266036988,0
			48.085159303,-105.272216798,0
			48.08419037,-105.277801515,0
			48.084381104,-105.287826537,0
			48.0818786620001,-105.294998168,0
			48.080768585,-105.29988861,0
			48.079139711,-105.318176269,0
			48.0803489680002,-105.322425843,0
			48.0826606760002,-105.323730469,0
			48.0869293210001,-105.323455811,0
			48.0899505620001,-105.32470703,0
			48.0922203060001,-105.33013916,0
			48.0947303770001,-105.343727112,0
			48.0923004150001,-105.350563049,0
			48.0889091490001,-105.362716674,0
			48.0893707280001,-105.372680663,0
			48.090869903,-105.37613678,0
			48.0928497310001,-105.388267516,0
			48.091659545,-105.398773193,0
			48.092140198,-105.40991211,0
			48.0927505490002,-105.422599792,0
			48.0891990670002,-105.433090209,0
			48.0889320370001,-105.450286865,0
			48.0938110360001,-105.466026307,0
			48.0905418400001,-105.486579895,0
			48.0982513440001,-105.497192383,0
			48.0965614320001,-105.506446839,0
			48.0918388360002,-105.514808656,0
			48.0824813850002,-105.520301818,0
			48.072608947,-105.524085998,0
			48.066200257,-105.534973145,0
			48.0674514780001,-105.540298463,0
			48.0733985900001,-105.554733277,0
			48.0833816520001,-105.567138673,0
			48.0797195430001,-105.581382751,0
			48.081562042,-105.588737488,0
			48.0794105530001,-105.60597229,0
			48.0755500800001,-105.614387512,0
			48.0726585400002,-105.624076843,0
			48.0760612490001,-105.642097473,0
			48.0763893120001,-105.651542663,0
			48.0753593440002,-105.652130128,0
			48.0704116820001,-105.649467468,0
			48.0698814400001,-105.646797181,0
			48.0671806330002,-105.639312745,0
			48.0604896550001,-105.63759613,0
			48.049049378,-105.643882752,0
			48.0455017100001,-105.658859253,0
			48.047870636,-105.664016723,0
			48.0564003,-105.663963318,0
			48.0608100890001,-105.667716981,0
			48.0585899350001,-105.682189942,0
			48.0505218500002,-105.700271606,0
			48.0395011910001,-105.70690918,0
			48.032649995,-105.717597961,0
			48.0318603530001,-105.730850219,0
			48.0308418280001,-105.735443115,0
			48.0257301330001,-105.74798584,0
			48.027568817,-105.761383057,0
			48.031261445,-105.761108397,0
			48.0401802070001,-105.76586914,0
			48.0477485650001,-105.771400452,0
			48.0498008730002,-105.77733612,0
			48.0416603090002,-105.781990051,0
			48.0301284790001,-105.782157898,0
			48.0238189710001,-105.78666687,0
			48.0246887220001,-105.798782348,0
			48.0254707340001,-105.808189391,0
			48.020099639,-105.826843262,0
			48.0143394470001,-105.834007263,0
			48.0104904170001,-105.843078613,0
			48.217128754,-105.840393067,0
			48.2172584530001,-105.803077699,0
			48.3068199150001,-105.80267334,0
			48.39319992,-105.803176881,0
			48.4801406860001,-105.805686951,0
			48.5642318720001,-105.805023193,0
		</coordinates>
	</polygon>
</kml>
