<?xml version="1.0" encoding="UTF-8"?>
<kml xmlns="http://earth.google.com/kml/2.2">
	<polygon id="USA_MI_Isabella" samplingProbability="1">
		<coordinates>
			43.8123588570002,-85.088897705,0
			43.8128585810001,-84.970336914,0
			43.815769195,-84.728675843,0
			43.8145484930001,-84.6076126099999,0
			43.6405906690001,-84.6073608409999,0
			43.5991592400001,-84.6078720099998,0
			43.4657821650002,-84.6083984369999,0
			43.4656295780001,-84.728256226,0
			43.4659614560002,-84.787551879,0
			43.4658088690001,-84.846862793,0
			43.466350556,-84.9666976939999,0
			43.466300964,-85.0846633919999,0
			43.5536994940001,-85.0853805549999,0
			43.6406822210002,-85.088012696,0
			43.7267494210002,-85.0894012459999,0
			43.8123588570002,-85.088897705,0
		</coordinates>
	</polygon>
</kml>
