<?xml version="1.0" encoding="UTF-8"?>
<kml xmlns="http://earth.google.com/kml/2.2">
	<polygon id="USA_WY_Natrona" samplingProbability="1">
		<coordinates>
			42.4324798580001,-106.074920655,0
			42.43247223,-106.105377197,0
			42.4322700500002,-106.122779847,0
			42.4327697760002,-106.126502992,0
			42.4326095590001,-106.146392822,0
			42.4320793160001,-106.239006043,0
			42.4317321780001,-106.2470932,0
			42.4315185550001,-106.26512146,0
			42.431381226,-106.323532104,0
			42.4311790470001,-106.343429565,0
			42.4308586120001,-106.354621886,0
			42.4309997560001,-106.36579895,0
			42.4304618830001,-106.432296753,0
			42.4305992120001,-106.443496704,0
			42.4305000300001,-106.473953248,0
			42.4305915840001,-106.481399537,0
			42.4309616090002,-106.513702393,0
			42.431190492,-106.533576965,0
			42.431381226,-106.59200287,0
			42.4314689630001,-106.600692749,0
			42.4311103830001,-106.608772278,0
			42.4312095650001,-106.618713379,0
			42.4314613350002,-106.686447143,0
			42.4316787720001,-106.707572938,0
			42.4322204600002,-106.716880799,0
			42.4324302680001,-106.738006592,0
			42.4324111940002,-106.783370972,0
			42.43252182,-106.795791627,0
			42.4327621460001,-106.821891785,0
			42.4324302680001,-106.83618927,0
			42.4320907590002,-106.849243164,0
			42.4322319030001,-106.86415863,0
			42.432319642,-106.874717713,0
			42.4333190920001,-106.938713074,0
			42.4333305350001,-106.941192627,0
			42.4333686840001,-106.945541381,0
			42.4330101020001,-106.957351685,0
			42.4331092840002,-106.970397949,0
			42.4343490600001,-107.074157716,0
			42.434478761,-107.093421936,0
			42.434558868,-107.172958373,0
			42.434680938,-107.191596984,0
			42.4343299870002,-107.288536071,0
			42.4348907480002,-107.308418273,0
			42.4346389760001,-107.345703125,0
			42.4343795790001,-107.387336731,0
			42.434459686,-107.40410614,0
			42.434089661,-107.42337799,0
			42.4341812150001,-107.442642212,0
			42.4335784920001,-107.520942689,0
			42.4332008360001,-107.540832519,0
			42.4472885140001,-107.541358948,0
			42.465011597,-107.541236878,0
			42.4790992740001,-107.541152954,0
			42.491821288,-107.541061402,0
			42.518180848,-107.541511536,0
			42.520000459,-107.542121887,0
			42.5340805060002,-107.542030335,0
			42.5486297600002,-107.541931153,0
			42.5931587220002,-107.541641234,0
			42.607711791,-107.542167664,0
			42.6222496030001,-107.542068482,0
			42.6349792490001,-107.54197693,0
			42.656799317,-107.541839599,0
			42.6968002310001,-107.541572571,0
			42.711341858,-107.541481019,0
			42.781349183,-107.542877197,0
			42.7811889650001,-107.499176025,0
			42.8243789670001,-107.49886322,0
			42.8393821720001,-107.499366761,0
			42.8539314270001,-107.499282837,0
			42.8675689700001,-107.499801636,0
			42.9107704170002,-107.499488831,0
			42.9403305050001,-107.499900818,0
			42.9566993720001,-107.499778748,0
			42.9994506830001,-107.501976013,0
			43.014011383,-107.502487182,0
			43.0285606390001,-107.502388,0
			43.0431098940001,-107.501663208,0
			43.129501342,-107.494132995,0
			43.129570008,-107.514205933,0
			43.2023506160001,-107.513069153,0
			43.214630126,-107.512992859,0
			43.255119323,-107.512702943,0
			43.2992515560001,-107.512390136,0
			43.3420219430002,-107.512077331,0
			43.3565788280002,-107.51135254,0
			43.386161804,-107.512397766,0
			43.4280090330001,-107.510841369,0
			43.4721603390001,-107.510528564,0
			43.471790314,-107.535133362,0
			43.4990921030001,-107.534309388,0
			43.4994697580001,-107.511596679,0
			43.4993896490001,-107.491401672,0
			43.4997711180002,-107.473098755,0
			43.4996795660001,-107.450386048,0
			43.4987792960002,-107.35131073,0
			43.4999504090002,-107.231407165,0
			43.4997787480001,-107.203010559,0
			43.4996719360001,-107.184707641,0
			43.4994201660001,-107.145591736,0
			43.4996299740001,-107.107719421,0
			43.4941711430002,-107.107788086,0
			43.4946594230001,-107.047836305,0
			43.494869233,-107.014389038,0
			43.494880676,-106.901428222,0
			43.4951095590001,-106.874290465,0
			43.4943008430001,-106.833290101,0
			43.4942207350001,-106.773979187,0
			43.4937896720002,-106.594757079,0
			43.493839264,-106.556892395,0
			43.493839264,-106.5152359,0
			43.4941406260001,-106.501976014,0
			43.4939193730002,-106.482429505,0
			43.4941406260001,-106.462852478,0
			43.4939193730002,-106.443298339,0
			43.4943618770002,-106.404159545,0
			43.4937095640001,-106.388397217,0
			43.49433136,-106.328430176,0
			43.4945297240001,-106.308860779,0
			43.4942703250001,-106.288673401,0
			43.4941902160001,-106.247657776,0
			43.4943885800002,-106.067146301,0
			43.473449707,-106.067108154,0
			43.3869895930001,-106.068283081,0
			43.3706092830001,-106.068748473,0
			43.3414917000001,-106.069557191,0
			43.2850799570001,-106.070510863,0
			43.2709808340001,-106.070907592,0
			43.2409515390002,-106.071121216,0
			43.2268486030001,-106.071517945,0
			43.15404892,-106.071678163,0
			43.1394996650001,-106.072082519,0
			43.0971908580001,-106.072006226,0
			43.082641601,-106.072425843,0
			43.0389709470002,-106.072402954,0
			43.023498535,-106.07219696,0
			43.0089492800001,-106.072608949,0
			42.8588294980001,-106.069923401,0
			42.779232026,-106.068389893,0
			42.7788887030002,-106.076522827,0
			42.6642990110001,-106.075340272,0
			42.5897521970001,-106.075538636,0
			42.5751991280001,-106.075317383,0
			42.5192909250001,-106.074996948,0
			42.461090088,-106.073509216,0
			42.4324798580001,-106.074920655,0
		</coordinates>
	</polygon>
</kml>
