<?xml version="1.0" encoding="UTF-8"?>
<kml xmlns="http://earth.google.com/kml/2.2">
	<polygon id="USA_NJ_Morris" samplingProbability="1">
		<coordinates>
			40.8953897290002,-74.272857589,0
			40.894500732,-74.28137207,0
			40.8958587650001,-74.285011291,0
			40.89768219,-74.2856063839999,0
			40.8990402220001,-74.2856063839999,0
			40.8999519350002,-74.2868270879999,0
			40.900859832,-74.29107666,0
			40.9008636,-74.291086563,0
			40.9008921350002,-74.2911615539999,0
			40.9013214110001,-74.292289734,0
			40.9019952410001,-74.292588794,0
			40.9021831490001,-74.292672191,0
			40.902679289,-74.292892385,0
			40.9040490000002,-74.2947159999999,0
			40.9049606510002,-74.295318771,0
			40.905410768,-74.2989730829999,0
			40.905416787,-74.3002494039999,0
			40.9054195290001,-74.300830761,0
			40.9054222110001,-74.3013992309999,0
			40.9058050420001,-74.304449125,0
			40.905837031,-74.3047039689999,0
			40.9058799750002,-74.3050460819999,0
			40.9049797050001,-74.309303284,0
			40.9036216740001,-74.312957763,0
			40.903356618,-74.3158688,0
			40.903306109,-74.3164235309999,0
			40.9031791680001,-74.3178176879999,0
			40.9045410170001,-74.319030762,0
			40.9072609900002,-74.3208469929999,0
			40.907301719,-74.321035264,0
			40.9081800000002,-74.325096,0
			40.9074671310001,-74.3308916239999,0
			40.9073622790001,-74.331743772,0
			40.9072799680001,-74.3324127189999,0
			40.9064316770002,-74.3333597609999,0
			40.9059270000001,-74.333923,0
			40.9045600000001,-74.3354489999999,0
			40.9045508040001,-74.335454507,0
			40.902503079,-74.33668073,0
			40.9004821770001,-74.337890626,0
			40.8971816170001,-74.336870801,0
			40.8967520330001,-74.3367380659999,0
			40.8945808400001,-74.3360671999999,0
			40.8930811530001,-74.336525324,0
			40.8912660560001,-74.3370798,0
			40.8805198670001,-74.340362549,0
			40.8769127150001,-74.3379594639999,0
			40.8768760470001,-74.337935035,0
			40.875068776,-74.3367310309999,0
			40.8705408310001,-74.3373489089999,0
			40.8690154140001,-74.336533785,0
			40.8682709810001,-74.3361359209999,0
			40.8679838110001,-74.334990805,0
			40.8676701320002,-74.333739585,0
			40.8669013980002,-74.3306732179998,0
			40.8637199410001,-74.3246078489999,0
			40.8636648300001,-74.3245707999999,0
			40.8635452100001,-74.324490383,0
			40.862812042,-74.3239974969999,0
			40.8587364380001,-74.325614034,0
			40.85743597,-74.3261298479999,0
			40.8550987250002,-74.3270568859999,0
			40.8514709480001,-74.3282775879999,0
			40.8500837360001,-74.3291273349999,0
			40.848562261,-74.330059327,0
			40.8464889990001,-74.3313289999999,0
			40.8423999520001,-74.328911014,0
			40.8383216860001,-74.33013153,0
			40.8328884840002,-74.3305475189999,0
			40.831653135,-74.330642102,0
			40.8301507180001,-74.3307571319999,0
			40.8251593350001,-74.3344204479999,0
			40.8239340000001,-74.3346039999999,0
			40.823717004,-74.3346365149999,0
			40.8210906990001,-74.335029602,0
			40.8197037030001,-74.3350319369999,0
			40.8182256890001,-74.3350344249999,0
			40.8165588390001,-74.3350372319999,0
			40.8133811950001,-74.33808899,0
			40.811569213,-74.341133118,0
			40.8118154210002,-74.3450154539999,0
			40.811963044,-74.34734327,0
			40.8120307920001,-74.3484115589999,0
			40.8102188120001,-74.3508529659999,0
			40.8096262230001,-74.350975015,0
			40.8057641690001,-74.3517704389999,0
			40.8043289560001,-74.3520660319999,0
			40.802520752,-74.3587570189999,0
			40.7993507380001,-74.36239624,0
			40.7948188780001,-74.3678665159999,0
			40.790279388,-74.367881774,0
			40.7831316580002,-74.367893234,0
			40.7820076460001,-74.3678950359999,0
			40.7807618410001,-74.3678970339999,0
			40.7757720950001,-74.3721466059999,0
			40.7730826420001,-74.3726099159999,0
			40.7721410000001,-74.3727719999999,0
			40.7676010010001,-74.3703460009999,0
			40.7648888950001,-74.370346046,0
			40.761260986,-74.373397827,0
			40.7604998090002,-74.3741638109999,0
			40.7594490000002,-74.375220999,0
			40.7585300010001,-74.3728029999999,0
			40.7585300010001,-74.3697589999999,0
			40.7570484320001,-74.3665915779999,0
			40.7562600000001,-74.364906,0
			40.7553520000001,-74.3618769999999,0
			40.7553132670002,-74.361623139,0
			40.7548904420001,-74.358848571,0
			40.753070832,-74.3594589239999,0
			40.7524695550001,-74.36054258,0
			40.7519290890002,-74.3615166389999,0
			40.751720428,-74.3618927009999,0
			40.7511561920001,-74.363400492,0
			40.7507920680001,-74.36437353,0
			40.7503585820002,-74.365531921,0
			40.7489112700001,-74.3658105849998,0
			40.7477786150001,-74.3660286649999,0
			40.7471885690001,-74.3661422719999,0
			40.744793341,-74.3667863679999,0
			40.7427086660001,-74.367346954,0
			40.7426490760001,-74.3673629789999,0
			40.7415998480002,-74.3683872829999,0
			40.7400161480001,-74.369933362,0
			40.7376709290001,-74.37222287,0
			40.7258911130001,-74.389831543,0
			40.7254409790002,-74.3910369869999,0
			40.7252482970001,-74.3912953029999,0
			40.7223832610001,-74.3951362619999,0
			40.716381073,-74.403182983,0
			40.7154693600002,-74.4037933339999,0
			40.7100410460001,-74.41229248,0
			40.710041,-74.412902889,0
			40.7080441110001,-74.415393681,0
			40.703239,-74.421387,0
			40.703239,-74.421996999,0
			40.696188592,-74.4289573219999,0
			40.6946297330001,-74.430496153,0
			40.6932601940002,-74.4310989389999,0
			40.6910860570002,-74.4369261749999,0
			40.689031927,-74.442431762,0
			40.687831879,-74.4456481929999,0
			40.685569764,-74.451713562,0
			40.6833000180001,-74.4529266359999,0
			40.6819305430001,-74.4529266359999,0
			40.681615294,-74.4527129099999,0
			40.681180166,-74.4524179079999,0
			40.681030273,-74.4523162849999,0
			40.6801185610001,-74.4517211919999,0
			40.6792106630001,-74.4517211919999,0
			40.674678848,-74.4541473149999,0
			40.6742286670002,-74.4553604129999,0
			40.6746788030001,-74.4583892819999,0
			40.6746788030001,-74.4589920029999,0
			40.6746788030001,-74.460212708,0
			40.6710508910002,-74.4620289119999,0
			40.6674308790001,-74.472930909,0
			40.6660690300001,-74.4789962779999,0
			40.6651611320002,-74.4838409429998,0
			40.6647109990001,-74.488082886,0
			40.6628990170001,-74.4929275509999,0
			40.6619911190002,-74.4953460689999,0
			40.6610794060001,-74.497169495,0
			40.6597213750001,-74.5026168819999,0
			40.6583595280001,-74.5044403079999,0
			40.6560897820001,-74.5056533819999,0
			40.6529197690001,-74.507469177,0
			40.6501998910001,-74.510513305,0
			40.648830414,-74.515350342,0
			40.6492805480001,-74.5214080809999,0
			40.651550292,-74.5262603749999,0
			40.656539918,-74.5274658199999,0
			40.6588096620001,-74.528076173,0
			40.6610794060001,-74.5286865239999,0
			40.6633491520001,-74.5298995979999,0
			40.6651611320002,-74.532333375,0
			40.6669693,-74.532928468,0
			40.668338776,-74.5311126699999,0
			40.6706008920001,-74.528076173,0
			40.6746788030001,-74.526870727,0
			40.6783103940001,-74.5286865239999,0
			40.684661866,-74.5286865239999,0
			40.687839508,-74.5244522099999,0
			40.6887512200001,-74.5183868409999,0
			40.6991806040001,-74.5159683229999,0
			40.7041702280001,-74.5202178949999,0
			40.7091522210002,-74.5256729129999,0
			40.714141845,-74.5268859869999,0
			40.7177696230002,-74.5305328379999,0
			40.719131469,-74.5329513539999,0
			40.7204895020002,-74.5335617069999,0
			40.7223091130001,-74.532348633,0
			40.7245788570001,-74.5329589839999,0
			40.7277488700001,-74.5317459099999,0
			40.7291107190001,-74.535392761,0
			40.7309188840002,-74.5408401489999,0
			40.7327308660002,-74.5487289429998,0
			40.7363586430001,-74.5499420169999,0
			40.7409019470001,-74.5487365709999,0
			40.7486114500002,-74.5517730709999,0
			40.7526893610001,-74.553596496,0
			40.7572288520001,-74.5554199219999,0
			40.7590408340001,-74.5572433469998,0
			40.7508506780002,-74.591201783,0
			40.749488831,-74.5972671499999,0
			40.7490310670001,-74.6027297959999,0
			40.7444801340001,-74.6191024779999,0
			40.7216491690002,-74.7276077279999,0
			40.7216491690002,-74.7312469479999,0
			40.7216415410001,-74.7336730949999,0
			40.727970123,-74.744010926,0
			40.72977066,-74.7512969979999,0
			40.7414588930002,-74.8004684449999,0
			40.7423210150001,-74.8174514779999,0
			40.7423095700001,-74.8217010499999,0
			40.7423095700001,-74.823516845,0
			40.7468299870001,-74.8296127329999,0
			40.7499885570002,-74.8344726559999,0
			40.754058838,-74.839950562,0
			40.7572212210001,-74.8442230219999,0
			40.7621994020002,-74.8502960199999,0
			40.764900208,-74.8545684819999,0
			40.7748489370001,-74.8673629769999,0
			40.7780113230001,-74.87223053,0
			40.7816200270001,-74.8771133409999,0
			40.7888603210001,-74.885032654,0
			40.7920608510001,-74.875343323,0
			40.7952613840002,-74.8668594359999,0
			40.8007202150002,-74.863853455,0
			40.8007202150002,-74.8632431029999,0
			40.802558898,-74.853538514,0
			40.8062019340002,-74.8480987539999,0
			40.8102989210001,-74.8432464589999,0
			40.8143806470002,-74.8414459219999,0
			40.818481445,-74.8360061649999,0
			40.8234786990001,-74.8323898309999,0
			40.8321189880001,-74.8263473519999,0
			40.8334884650002,-74.822113036,0
			40.8362197880002,-74.818481446,0
			40.842571258,-74.819107055,0
			40.8461914060001,-74.8209533689999,0
			40.8484687820001,-74.8203582769999,0
			40.8493804920001,-74.8173217769998,0
			40.8525695790001,-74.8094406129999,0
			40.8571090700001,-74.8100662239999,0
			40.8602905280001,-74.8088684079999,0
			40.861660005,-74.804016113,0
			40.864830016,-74.804016113,0
			40.8680114750001,-74.804039002,0
			40.87253952,-74.8058929439999,0
			40.8770790100001,-74.807121276,0
			40.8843307500001,-74.8065414439999,0
			40.8879814160001,-74.799873352,0
			40.8898086540001,-74.7931900029999,0
			40.890720367,-74.7895507809999,0
			40.8975410460001,-74.787147523,0
			40.9020919800002,-74.7804794309999,0
			40.9071006770001,-74.771987915,0
			40.9111900330001,-74.7683563219999,0
			40.9125595100002,-74.759849549,0
			40.9125709530001,-74.7555923469999,0
			40.9144020090001,-74.7507324219999,0
			40.9157600400001,-74.7470932009999,0
			40.9189491270001,-74.742233276,0
			40.9189605720001,-74.7385864249999,0
			40.9180603030001,-74.7355422969999,0
			40.9162406930002,-74.7343215949999,0
			40.9144401560001,-74.7300567629999,0
			40.9149017330001,-74.725196838,0
			40.9121894830002,-74.7191085819999,0
			40.908569336,-74.7148361199999,0
			40.9049415580001,-74.7136230469999,0
			40.9017715450001,-74.712387085,0
			40.899501801,-74.7105560309999,0
			40.899059295,-74.7050933829999,0
			40.9045104980001,-74.697799683,0
			40.9067916870001,-74.6905059819999,0
			40.911350251,-74.673492432,0
			40.9159011840001,-74.6637802119999,0
			40.9172592160002,-74.661956787,0
			40.9195289620002,-74.658920289,0
			40.9199905410001,-74.657707215,0
			40.9199905410001,-74.657096864,0
			40.9204521180002,-74.654663085,0
			40.9209022530001,-74.6534500129999,0
			40.9213600150001,-74.6528472899999,0
			40.9236297610001,-74.652236939,0
			40.924530029,-74.6528472899999,0
			40.9267997750001,-74.654083252,0
			40.9290695190001,-74.6528625479999,0
			40.9299812320001,-74.6522521969999,0
			40.930889129,-74.651039123,0
			40.931800842,-74.6498260499999,0
			40.9363403320001,-74.6413192749999,0
			40.936801911,-74.6407165529999,0
			40.9372520450002,-74.6401061999999,0
			40.9408798220002,-74.6370697029998,0
			40.9454193120001,-74.635246277,0
			40.9463310250001,-74.635261536,0
			40.9476890560001,-74.635261536,0
			40.9495086670001,-74.635261536,0
			40.9517707830001,-74.6358795169999,0
			40.9526786800001,-74.636482238,0
			40.9549407960001,-74.638916017,0
			40.9562988280002,-74.64074707,0
			40.9590187070001,-74.6425933839999,0
			40.9617500300002,-74.6425933839999,0
			40.9626503000001,-74.64137268,0
			40.9921722410002,-74.6110000609999,0
			40.994899751,-74.60735321,0
			40.9971694950001,-74.6043090829999,0
			40.9985313410002,-74.6030960079999,0
			40.9999008180001,-74.6012573249999,0
			41.0017089850002,-74.599449157,0
			41.0030708320002,-74.5976181039999,0
			41.045749664,-74.548950196,0
			41.046661377,-74.5477294919999,0
			41.0484695440002,-74.546508789,0
			41.0579986580001,-74.5355529779999,0
			41.0629920970002,-74.5300674439999,0
			41.071609498,-74.520317077,0
			41.0856819150001,-74.5026473989999,0
			41.0829620350001,-74.492897034,0
			41.076610565,-74.485588074,0
			41.0711593620001,-74.48436737,0
			41.0693511970002,-74.4837570189999,0
			41.066619874,-74.485588074,0
			41.0638999940001,-74.4874191279999,0
			41.061630248,-74.4904632579999,0
			41.061630248,-74.4922866829999,0
			41.0611801150001,-74.4935073859999,0
			41.0575485240001,-74.497169495,0
			41.0452995300001,-74.5020370479999,0
			41.0407714850002,-74.503257752,0
			41.0353202830001,-74.501434327,0
			41.034420013,-74.4983825689999,0
			41.0353202830001,-74.4953384389999,0
			41.03804016,-74.49167633,0
			41.0403099060001,-74.489250183,0
			41.042579651,-74.486206054,0
			41.0452995300001,-74.481925965,0
			41.049381257,-74.4673233039999,0
			41.0543708800001,-74.455726623,0
			41.05255127,-74.450256349,0
			41.0502815240002,-74.4465866089999,0
			41.0466499330001,-74.4423294069999,0
			41.0375709530002,-74.4325942989998,0
			41.0344009400002,-74.430770873,0
			41.031669617,-74.431991578,0
			41.0280494690002,-74.4344329829999,0
			41.0253295900001,-74.436256408,0
			41.0217018120002,-74.436256408,0
			41.0203285230001,-74.4319992059999,0
			41.0221405030001,-74.4271316529999,0
			41.023960113,-74.4259109499999,0
			41.0266799930002,-74.4240798949999,0
			41.028491975,-74.4204330439999,0
			41.028491975,-74.4161605839999,0
			41.0271301270001,-74.4106826789998,0
			41.0257606500001,-74.407028198,0
			41.0234909060001,-74.4015502939999,0
			41.0171318050001,-74.3948593129999,0
			41.014411926,-74.394256592,0
			41.0125885000002,-74.3893890389999,0
			41.0121307380002,-74.3826904299999,0
			41.0121307380002,-74.3796462999999,0
			41.0125694270001,-74.371726989,0
			41.0148391730002,-74.364418029,0
			41.0143814090001,-74.3607711779999,0
			41.0152816780001,-74.356506348,0
			41.0139198300002,-74.3558959969998,0
			41.0080184930002,-74.3534698489999,0
			41.0080108650001,-74.350433349,0
			41.0075492860001,-74.3443374629999,0
			41.0079994200001,-74.338249208,0
			41.0070915220001,-74.3352127079999,0
			41.002552032,-74.332176208,0
			41.0020790100002,-74.323036195,0
			41.0016212460001,-74.3157424929999,0
			40.9979820260001,-74.310882568,0
			40.9993286140001,-74.3011398309999,0
			40.9979591370001,-74.295661927,0
			40.9943199160001,-74.2932357789999,0
			40.9893302930002,-74.292037965,0
			40.9866104130001,-74.2956924439999,0
			40.9834403990001,-74.2981262199999,0
			40.9811706550001,-74.2987518319999,0
			40.979820252,-74.2987594599999,0
			40.9780006420001,-74.2969360349999,0
			40.9779891960002,-74.2920684809998,0
			40.977519989,-74.285980224,0
			40.9752502450002,-74.2841567999999,0
			40.9688987730001,-74.2811431889999,0
			40.9652709950001,-74.2799377449999,0
			40.9602813720002,-74.2817764289999,0
			40.9589195250001,-74.281166076,0
			40.953918458,-74.278762818,0
			40.946208954,-74.2799987779999,0
			40.9375991830001,-74.2830657969999,0
			40.9308013920001,-74.2873382569999,0
			40.9280815130001,-74.2891693109999,0
			40.9249114990001,-74.2891769409999,0
			40.9199104320002,-74.2855529779999,0
			40.91809082,-74.2837295529999,0
			40.9162712090001,-74.2800903319999,0
			40.9149017330001,-74.2752304069999,0
			40.9144401560001,-74.2721862799999,0
			40.9135284430001,-74.26914978,0
			40.912158966,-74.2667160029999,0
			40.9098892220002,-74.265518189,0
			40.9067192090002,-74.267349243,0
			40.903999329,-74.2679672239999,0
			40.901279449,-74.2697982779999,0
			40.8994712840001,-74.271018982,0
			40.8953897290002,-74.272857589,0
		</coordinates>
	</polygon>
</kml>
