<?xml version="1.0" encoding="UTF-8"?>
<kml xmlns="http://earth.google.com/kml/2.2">
	<polygon id="USA_OH_Licking" samplingProbability="1">
		<coordinates>
			40.2393493660001,-82.196311951,0
			40.2388687140001,-82.183059692,0
			40.1667785640001,-82.1875915519998,0
			40.0770187380002,-82.1921768189999,0
			40.0738410960001,-82.1921920779999,0
			39.9754600530001,-82.1974182129999,0
			39.9727401740001,-82.1968231199999,0
			39.9673004160001,-82.1974487309999,0
			39.955520629,-82.1986999499999,0
			39.9500808720002,-82.198722839,0
			39.9510192880002,-82.213127136,0
			39.9510612500001,-82.2317199699999,0
			39.947891236,-82.231742859,0
			39.9206886290002,-82.2336273189999,0
			39.9170608520001,-82.234252929,0
			39.9134292610001,-82.2342605589999,0
			39.9162788400001,-82.3014068599999,0
			39.9162788400001,-82.30619812,0
			39.9176902770001,-82.3367767329999,0
			39.9186096190001,-82.348770142,0
			39.919071198,-82.3559570319999,0
			39.9200019850002,-82.3745498649999,0
			39.9209213250001,-82.389541626,0
			39.9218406680002,-82.408729552,0
			39.9223022470001,-82.4183273319999,0
			39.927742005,-82.4177169809999,0
			39.9300308220002,-82.462692261,0
			39.9245910650001,-82.4735031119999,0
			39.9268608090001,-82.5082702639999,0
			39.9282112120001,-82.5436630249998,0
			39.9331207270001,-82.6492233289999,0
			39.9348907470002,-82.6816177369999,0
			39.9375114450002,-82.7397994999999,0
			39.937950135,-82.750000001,0
			39.9396896370001,-82.7829971319999,0
			39.9741592400001,-82.779533385,0
			39.9764213560002,-82.7795410159999,0
			39.976440429,-82.772941589,0
			40.1256294250001,-82.762077332,0
			40.2272109980001,-82.754020692,0
			40.2770996100002,-82.7505874639999,0
			40.272720338,-82.6523513799999,0
			40.2646522520002,-82.476387025,0
			40.2456092830001,-82.476997376,0
			40.2451515210001,-82.461326599,0
			40.2400589000002,-82.338462829,0
			40.2390708930002,-82.281227112,0
			40.2399787910002,-82.281227112,0
			40.2393493660001,-82.196311951,0
		</coordinates>
	</polygon>
</kml>
