<?xml version="1.0" encoding="UTF-8"?>
<kml xmlns="http://earth.google.com/kml/2.2">
	<polygon id="USA_NJ_Bergen" samplingProbability="1">
		<coordinates>
			40.8785819540001,-73.9357757799999,0
			40.8535690310001,-73.948547364,0
			40.8294906620001,-73.9624328619999,0
			40.8268699650001,-73.9639434809999,0
			40.816410065,-73.9699707029999,0
			40.8065109260002,-73.9768524179999,0
			40.7961120610001,-73.9848175039999,0
			40.7937889300002,-73.986557052,0
			40.7943576250001,-73.9878595489999,0
			40.794952836,-73.9892227719999,0
			40.7956810010002,-73.9908905029999,0
			40.7988510140001,-73.9896469119999,0
			40.8093414310001,-74.002326964,0
			40.8111801150002,-74.0083770749999,0
			40.811665073,-74.008849557,0
			40.814949336,-74.012049325,0
			40.8180007940001,-74.0150222769999,0
			40.8184699350001,-74.0174480789999,0
			40.8157680000001,-74.0207359999999,0
			40.8146789850002,-74.022061627,0
			40.813949585,-74.022949218,0
			40.8125648830001,-74.030281067,0
			40.8130569450001,-74.030281067,0
			40.813331605,-74.029998779,0
			40.8136100760001,-74.029998779,0
			40.8138885490001,-74.0297241209999,0
			40.8141670220002,-74.0297241209999,0
			40.814445495,-74.0294418329999,0
			40.8147239680001,-74.0294418329999,0
			40.814998626,-74.0291671749999,0
			40.8161125180002,-74.0291671749999,0
			40.816387176,-74.0288925169999,0
			40.816665649,-74.0288925169999,0
			40.8169441220001,-74.0291671749999,0
			40.8183326720001,-74.0291671749999,0
			40.8186111450001,-74.0294418329999,0
			40.8188896180001,-74.0294418329999,0
			40.8194427490001,-74.029998779,0
			40.819999695,-74.029998779,0
			40.8202781680001,-74.030281067,0
			40.8205566410001,-74.0305557249999,0
			40.8205566410001,-74.030830383,0
			40.8227767950002,-74.033058167,0
			40.8230552680002,-74.033058167,0
			40.823333741,-74.0333328249999,0
			40.8236122120001,-74.0333328249999,0
			40.8241653450001,-74.033889771,0
			40.8244438160001,-74.033889771,0
			40.825000762,-74.033607483,0
			40.825279235,-74.033889771,0
			40.8261108390001,-74.033889771,0
			40.8263893120002,-74.0341644289999,0
			40.8269462590001,-74.0341644289999,0
			40.827220916,-74.033889771,0
			40.8274993890001,-74.033889771,0
			40.8277778620001,-74.033607483,0
			40.8280563360001,-74.033607483,0
			40.8280563360001,-74.0333328249999,0
			40.828887939,-74.0325012209999,0
			40.828887939,-74.0322189329999,0
			40.8297233590001,-74.0313873289999,0
			40.8300018320001,-74.0313873289999,0
			40.830276489,-74.031112671,0
			40.8308334360001,-74.031112671,0
			40.83166504,-74.030281067,0
			40.83166504,-74.029998779,0
			40.8325004590001,-74.0291671749999,0
			40.832778932,-74.0291671749999,0
			40.833057405,-74.0288925169999,0
			40.8333320630001,-74.0288925169999,0
			40.8336105360001,-74.0286102289999,0
			40.8341674820002,-74.0286102289999,0
			40.8344459530002,-74.028335571,0
			40.8358345030002,-74.028335571,0
			40.836112976,-74.0286102289999,0
			40.8363876340002,-74.0286102289999,0
			40.836666107,-74.0288925169999,0
			40.8369445800001,-74.0288925169999,0
			40.8372230530001,-74.0291671749999,0
			40.8375015260002,-74.0294418329999,0
			40.8383331300002,-74.0294418329999,0
			40.8386116030001,-74.0297241209999,0
			40.8391685490001,-74.0297241209999,0
			40.8394432070001,-74.029998779,0
			40.83972168,-74.029998779,0
			40.840000153,-74.0297241209999,0
			40.8405570990001,-74.0297241209999,0
			40.8411102300001,-74.0291671749999,0
			40.8413887030002,-74.0291671749999,0
			40.841667176,-74.0288925169999,0
			40.8419456490001,-74.0288925169999,0
			40.8422241220001,-74.0286102289999,0
			40.8436126720001,-74.0286102289999,0
			40.84388733,-74.0288925169999,0
			40.84527588,-74.0288925169999,0
			40.845554353,-74.0286102289999,0
			40.8463897700001,-74.0286102289999,0
			40.8466682430002,-74.0288925169999,0
			40.8469429030002,-74.0288925169999,0
			40.847221374,-74.0291671749999,0
			40.8488883970001,-74.0291671749999,0
			40.8497238160002,-74.029998779,0
			40.8497238160002,-74.030281067,0
			40.8494453430001,-74.030281067,0
			40.8488883970001,-74.030830383,0
			40.8469429030002,-74.030830383,0
			40.8463897700001,-74.0313873289999,0
			40.8461112990001,-74.0313873289999,0
			40.84527588,-74.0305557249999,0
			40.8444442760001,-74.0305557249999,0
			40.8441658030001,-74.030830383,0
			40.8436126720001,-74.030830383,0
			40.843334199,-74.0305557249999,0
			40.8424987800001,-74.0305557249999,0
			40.8422241220001,-74.030830383,0
			40.841667176,-74.030830383,0
			40.8413887030002,-74.031112671,0
			40.8405570990001,-74.031112671,0
			40.840278626,-74.0313873289999,0
			40.83972168,-74.0313873289999,0
			40.8394432070001,-74.0316696169999,0
			40.8386116030001,-74.0316696169999,0
			40.8383331300002,-74.0319442749999,0
			40.8372230530001,-74.0319442749999,0
			40.8369445800001,-74.0316696169999,0
			40.836666107,-74.0316696169999,0
			40.8363876340002,-74.0313873289999,0
			40.836112976,-74.0313873289999,0
			40.8355560300001,-74.030830383,0
			40.8347206130002,-74.030830383,0
			40.8344459530002,-74.0305557249999,0
			40.833057405,-74.0305557249999,0
			40.83166504,-74.0319442749999,0
			40.83166504,-74.0322189329999,0
			40.8313903820001,-74.0325012209999,0
			40.8313903820001,-74.032775879,0
			40.8308334360001,-74.0333328249999,0
			40.8308334360001,-74.0344467169999,0
			40.830276489,-74.0350036629999,0
			40.830276489,-74.0352783209999,0
			40.8291664130002,-74.0363922129999,0
			40.828887939,-74.0363922129999,0
			40.8286094660002,-74.036666871,0
			40.826667785,-74.036666871,0
			40.8263893120002,-74.0369415289999,0
			40.8261108390001,-74.0369415289999,0
			40.8258323660001,-74.036666871,0
			40.825279235,-74.036666871,0
			40.822971345,-74.036384583,0
			40.8216667180002,-74.035552979,0
			40.8211097720001,-74.0347213749999,0
			40.8208351140001,-74.0344467169999,0
			40.8205566410001,-74.0344467169999,0
			40.8202781680001,-74.0341644289999,0
			40.819999695,-74.0341644289999,0
			40.8191680910002,-74.0333328249999,0
			40.8188896180001,-74.0333328249999,0
			40.8188896180001,-74.033058167,0
			40.8186111450001,-74.032775879,0
			40.8186111450001,-74.0325012209999,0
			40.8183326720001,-74.0322189329999,0
			40.8180541990002,-74.0319442749999,0
			40.816665649,-74.0319442749999,0
			40.816387176,-74.0322189329999,0
			40.8152770990001,-74.0322189329999,0
			40.814998626,-74.0325012209999,0
			40.8147239680001,-74.0322189329999,0
			40.8141670220002,-74.032775879,0
			40.8138885490001,-74.033058167,0
			40.813331605,-74.033058167,0
			40.8130569450001,-74.032775879,0
			40.8119430550001,-74.033889771,0
			40.8116683950001,-74.033889771,0
			40.8113899240001,-74.0341644289999,0
			40.811111451,-74.0341644289999,0
			40.8108329780002,-74.0344467169999,0
			40.8105545050001,-74.0344467169999,0
			40.8100013740001,-74.0350036629999,0
			40.809444428,-74.035552979,0
			40.809444428,-74.035835267,0
			40.809165955,-74.0361099249999,0
			40.809165955,-74.036666871,0
			40.8088874820002,-74.0369415289999,0
			40.8088874820002,-74.039169311,0
			40.8086128240001,-74.0394439689999,0
			40.8086128240001,-74.0411148069999,0
			40.8088874820002,-74.0413894649999,0
			40.8088874820002,-74.041664123,0
			40.809165955,-74.041946411,0
			40.809165955,-74.042778015,0
			40.8088874820002,-74.0430526729999,0
			40.8088874820002,-74.0436096189999,0
			40.8086128240001,-74.0438919069999,0
			40.8086128240001,-74.044723511,0
			40.8083343510001,-74.0449981689999,0
			40.8083343510001,-74.045555115,0
			40.8088874820002,-74.046112061,0
			40.8086128240001,-74.0463867189999,0
			40.8086128240001,-74.0466690069999,0
			40.8083343510001,-74.0469436649998,0
			40.8083343510001,-74.0472259529998,0
			40.8086128240001,-74.0475006109999,0
			40.8086128240001,-74.0480575569999,0
			40.8083343510001,-74.048332215,0
			40.8083343510001,-74.0491638189999,0
			40.8080558780001,-74.0494461069999,0
			40.8080558780001,-74.0500030509999,0
			40.807777405,-74.0502777109999,0
			40.807777405,-74.052223205,0
			40.8080558780001,-74.0524978629999,0
			40.8080558780001,-74.0533370969999,0
			40.807777405,-74.0536117549999,0
			40.807777405,-74.0558319089999,0
			40.8074989320002,-74.0561141969999,0
			40.8074989320002,-74.056663513,0
			40.8072204590001,-74.056945801,0
			40.8072204590001,-74.0572204589999,0
			40.8069458010002,-74.0575027469999,0
			40.8069458010002,-74.0591659549999,0
			40.8066673280001,-74.0594482429999,0
			40.8066673280001,-74.060554505,0
			40.8069458010002,-74.060836791,0
			40.8069458010002,-74.061386109,0
			40.8066673280001,-74.0616683949999,0
			40.8066673280001,-74.0624999989999,0
			40.806110382,-74.063056945,0
			40.806110382,-74.0633316029999,0
			40.8058319090002,-74.063613891,0
			40.8058319090002,-74.063888549,0
			40.8052787780002,-74.064445495,0
			40.8052787780002,-74.0647201529999,0
			40.8044433590001,-74.065551757,0
			40.804023742,-74.0666961679999,0
			40.8025016780001,-74.0683364869998,0
			40.8020515440001,-74.0687713629999,0
			40.8016662590001,-74.0691680909999,0
			40.8011093150001,-74.069725037,0
			40.8008346550001,-74.069725037,0
			40.8005561840002,-74.069999695,0
			40.8002777110001,-74.069999695,0
			40.7997207650001,-74.069442749,0
			40.798889161,-74.0702743529999,0
			40.7986106880002,-74.0702743529999,0
			40.7986106880002,-74.0713882449999,0
			40.7983322150001,-74.0716629029999,0
			40.7983322150001,-74.072219849,0
			40.7986106880002,-74.072502135,0
			40.7986106880002,-74.073333739,0
			40.7980537420001,-74.0738906849999,0
			40.7980537420001,-74.0741653429999,0
			40.7983322150001,-74.0744476309999,0
			40.7983322150001,-74.0747222889999,0
			40.7986106880002,-74.074996949,0
			40.7975006110001,-74.076110839,0
			40.7975006110001,-74.0763854969999,0
			40.7969436650002,-74.0774993889999,0
			40.7969436650002,-74.0777740469998,0
			40.7961120610001,-74.0783309929999,0
			40.795555115,-74.078887939,0
			40.795555115,-74.0794448849999,0
			40.7944450380001,-74.0805587769999,0
			40.793888092,-74.0805587769999,0
			40.7936096190002,-74.080833435,0
			40.793334961,-74.080833435,0
			40.7930564880002,-74.0811080929999,0
			40.7927780150001,-74.0811080929999,0
			40.7924995420001,-74.0813903809999,0
			40.7919425960002,-74.0813903809999,0
			40.7913894650002,-74.081947327,0
			40.790000915,-74.081947327,0
			40.7894439710001,-74.082496643,0
			40.7888870250001,-74.082496643,0
			40.78799057,-74.0832748419999,0
			40.788055421,-74.0836105349999,0
			40.7874984750001,-74.0841674809999,0
			40.7874984750001,-74.084442139,0
			40.7872238170001,-74.084724426,0
			40.7869453440001,-74.084724426,0
			40.7866668710002,-74.0849990849999,0
			40.786434,-74.0850449999999,0
			40.7841911320001,-74.0875244139999,0
			40.7839279180002,-74.0878143299998,0
			40.78366464,-74.0880739829999,0
			40.7836456300001,-74.0881500239999,0
			40.7835446790002,-74.0881865119998,0
			40.7833329400002,-74.0882630449998,0
			40.7832022240001,-74.0883102919998,0
			40.783012,-74.0883789999999,0
			40.781665802,-74.0897216799999,0
			40.781387329,-74.0897216799999,0
			40.7802429200001,-74.0905990599999,0
			40.779998779,-74.09111023,0
			40.7775001540002,-74.092254638,0
			40.7763900770001,-74.0924987799999,0
			40.7752532960001,-74.092178345,0
			40.7743835450001,-74.09197998,0
			40.7719459540002,-74.0916671759999,0
			40.7713890080001,-74.0916671759999,0
			40.769165039,-74.0908355719999,0
			40.768890381,-74.0908355719999,0
			40.768611908,-74.090553283,0
			40.7683334350001,-74.090553283,0
			40.767776489,-74.0899963369999,0
			40.7663879410001,-74.0899963369999,0
			40.7661094670001,-74.0897216799999,0
			40.7641677870001,-74.0897216799999,0
			40.763889314,-74.0899963369999,0
			40.7636108400001,-74.0899963369999,0
			40.763053894,-74.090553283,0
			40.7624740600002,-74.0921173089999,0
			40.7625007630002,-74.0933303839999,0
			40.7625007630002,-74.09388733,0
			40.7622222900001,-74.094169618,0
			40.7622222900001,-74.094718934,0
			40.7627792370001,-74.0952758799999,0
			40.7627792370001,-74.0955581659999,0
			40.763332367,-74.0961074839999,0
			40.763889314,-74.0961074839999,0
			40.7641677870001,-74.09638977,0
			40.764720917,-74.09638977,0
			40.7663879410001,-74.0980529779999,0
			40.7666664140002,-74.0980529779999,0
			40.7669448850002,-74.0983352659999,0
			40.7672233580002,-74.0983352659999,0
			40.7675018310001,-74.0980529779999,0
			40.7680549620001,-74.0980529779999,0
			40.7683334350001,-74.0977783199999,0
			40.7694435120001,-74.0977783199999,0
			40.7697219850001,-74.097503662,0
			40.7700004580001,-74.097503662,0
			40.7702789310002,-74.097221374,0
			40.7702789310002,-74.0969467159999,0
			40.771110535,-74.0961074839999,0
			40.7719459540002,-74.0969467159999,0
			40.7722206120001,-74.0969467159999,0
			40.7724990850002,-74.09666443,0
			40.772777558,-74.09666443,0
			40.7733345040001,-74.0961074839999,0
			40.7736129770001,-74.0961074839999,0
			40.774166108,-74.0955581659999,0
			40.774444581,-74.0955581659999,0
			40.7750015270001,-74.0961074839999,0
			40.7750015270001,-74.09638977,0
			40.7758331310002,-74.097221374,0
			40.7761116040001,-74.097221374,0
			40.7766685500001,-74.0977783199999,0
			40.7766685500001,-74.09916687,0
			40.7761116040001,-74.0997238159999,0
			40.7761116040001,-74.099998474,0
			40.7758331310002,-74.100280762,0
			40.7755546580001,-74.100280762,0
			40.7752761850001,-74.10055542,0
			40.7750015270001,-74.10055542,0
			40.774723054,-74.1008300779999,0
			40.774444581,-74.1008300779999,0
			40.774166108,-74.1011123659999,0
			40.7738876350002,-74.1011123659999,0
			40.773445,-74.101555,0
			40.773466264,-74.1015535499999,0
			40.7734894210001,-74.1015521029999,0
			40.7736288460001,-74.101543389,0
			40.7742996220001,-74.101501464,0
			40.7748790970001,-74.1016533929999,0
			40.775459,-74.101806,0
			40.7765689110001,-74.1020975779999,0
			40.7763044100002,-74.1038213109998,0
			40.7747990000001,-74.1136319999999,0
			40.7711548680001,-74.1196755469999,0
			40.7689285270002,-74.1233673089999,0
			40.7698516850002,-74.1276168829999,0
			40.7757491200001,-74.1312331599999,0
			40.7759370000002,-74.1314829999999,0
			40.7764138450001,-74.132115067,0
			40.777045588,-74.1329532739999,0
			40.7784805300001,-74.1348571769999,0
			40.7809757980002,-74.1372631249999,0
			40.7834891210002,-74.1396876419999,0
			40.783515227,-74.1398250679999,0
			40.7848700520001,-74.14695707,0
			40.7912101740002,-74.1438903799998,0
			40.7993621830001,-74.1377792359999,0
			40.8014097260001,-74.1380442109999,0
			40.8026258490001,-74.138201592,0
			40.8039016730002,-74.138366699,0
			40.8067407080001,-74.1383475649999,0
			40.8079370430001,-74.1383395019998,0
			40.8084297180001,-74.138336182,0
			40.815681458,-74.134666443,0
			40.8188510140001,-74.132828025,0
			40.8202018750001,-74.1279602059999,0
			40.8206520080001,-74.126136781,0
			40.821102142,-74.1255264269999,0
			40.8219985970001,-74.124313355,0
			40.8229103090002,-74.1237030019998,0
			40.8242721560001,-74.123077393,0
			40.8256301890002,-74.1224670409999,0
			40.826530457,-74.1218566899998,0
			40.8274421690002,-74.12184906,0
			40.8292503360001,-74.1212310789999,0
			40.8301620490001,-74.1212234499999,0
			40.8310699470001,-74.1212234499999,0
			40.8324317930002,-74.1212234499999,0
			40.8333396910002,-74.121818543,0
			40.8387908940001,-74.1248168939999,0
			40.8478508000001,-74.122962952,0
			40.848758698,-74.1229476939999,0
			40.8510284420001,-74.1229400639999,0
			40.8542099010002,-74.123527526,0
			40.8578300480001,-74.122901917,0
			40.8587303160002,-74.119247436,0
			40.859180451,-74.118637085,0
			40.8582687390001,-74.1174316399999,0
			40.852821351,-74.113197327,0
			40.855979919,-74.1095428459999,0
			40.8723297120001,-74.114929198,0
			40.8773307800001,-74.119155884,0
			40.8777809150002,-74.1197586069999,0
			40.882339477,-74.1239929199999,0
			40.882339477,-74.1246032709999,0
			40.8827896130002,-74.1251983639999,0
			40.8832511900001,-74.1264114389999,0
			40.883708953,-74.1270217899999,0
			40.8841590890001,-74.1282272339999,0
			40.885070802,-74.129440308,0
			40.8859787000001,-74.1300430289999,0
			40.8873405460002,-74.1306533819998,0
			40.896419526,-74.1324157719999,0
			40.897331239,-74.1330261239999,0
			40.8987007140001,-74.133628845,0
			40.8996009830001,-74.1336212159999,0
			40.9018707270001,-74.1336059559999,0
			40.911399841,-74.132957458,0
			40.9177398680001,-74.1317062369999,0
			40.920009614,-74.131690979,0
			40.922279358,-74.132896423,0
			40.9227409370001,-74.1341094969999,0
			40.9231987010002,-74.136543274,0
			40.9245719910001,-74.1407928469999,0
			40.9268493650001,-74.142601013,0
			40.9282112110001,-74.142585754,0
			40.929569245,-74.1419830329999,0
			40.9309196480002,-74.1407623289999,0
			40.9313812250001,-74.1401519779999,0
			40.932739258,-74.139526368,0
			40.9336395260001,-74.139526368,0
			40.934551238,-74.1401290889999,0
			40.9381904610001,-74.1425476069999,0
			40.9404602050002,-74.1437530509999,0
			40.9409217840001,-74.1449661259999,0
			40.9413795480002,-74.1461791999999,0
			40.9413795480002,-74.1480026249998,0
			40.9431991580001,-74.1504287719999,0
			40.9450111390001,-74.1498107899999,0
			40.9463691720002,-74.147979737,0
			40.9472694390001,-74.146759032,0
			40.9540786760002,-74.1448974599999,0
			40.9576988230001,-74.141838074,0
			40.9608688360001,-74.141220093,0
			40.9640388500001,-74.1393661509999,0
			40.967681886,-74.1448287969999,0
			40.969509124,-74.1490859989999,0
			40.9772605900001,-74.1618270879999,0
			40.9790802000001,-74.1648559579999,0
			40.9786300660001,-74.168510437,0
			40.9736595160001,-74.173408508,0
			40.976440431,-74.1983413689999,0
			40.9773712170002,-74.208076478,0
			40.978321077,-74.2251129139999,0
			40.9824218760002,-74.23665619,0
			40.9910697940002,-74.2494125369999,0
			40.993339538,-74.251228333,0
			40.9978904740001,-74.2554779039999,0
			41.0010719300001,-74.2578964229999,0
			41.0033416740002,-74.259117127,0
			41.0124206550001,-74.2645568849999,0
			41.0142402650002,-74.2669982909999,0
			41.0174217220001,-74.271247863,0
			41.0183296210001,-74.273071289,0
			41.0233192450002,-74.2706222539999,0
			41.025588989,-74.269386291,0
			41.0396308900002,-74.2620391839999,0
			41.0532302870002,-74.25528717,0
			41.054592133,-74.254066468,0
			41.0609397880001,-74.2509994519999,0
			41.0627517710001,-74.250389098,0
			41.0641098020002,-74.2497711189999,0
			41.066379548,-74.248542786,0
			41.0704612740001,-74.2460861209999,0
			41.072269439,-74.244857789,0
			41.079071045,-74.241790771,0
			41.0804290770001,-74.2405624379999,0
			41.0894889830001,-74.236259461,0
			41.0990104670001,-74.231346131,0
			41.1021804810001,-74.2295074469999,0
			41.1212196350001,-74.219680787,0
			41.134361266,-74.212921143,0
			41.1097602840001,-74.153282165,0
			41.0520706180001,-74.024589538,0
			41.0409011840001,-74.0004577639999,0
			41.0339088440001,-73.984146117,0
			40.999370576,-73.905746461,0
			40.9975891120001,-73.9015197749999,0
			40.9965019650001,-73.8936310059999,0
			40.994018,-73.894077,0
			40.988942632,-73.8949880129999,0
			40.9808197020001,-73.8964462279999,0
			40.9725799550002,-73.8992233279999,0
			40.9521598810001,-73.906097412,0
			40.9492318800001,-73.907082638,0
			40.946872,-73.9078769999999,0
			40.9400520000001,-73.9101719999999,0
			40.924291,-73.9157409999999,0
			40.920509127,-73.917076841,0
			40.9201010000001,-73.917221,0
			40.9083400000001,-73.9213789999999,0
			40.9031620040001,-73.9239967669998,0
			40.8961906430002,-73.927520751,0
			40.8862486460001,-73.9321743359998,0
			40.882270813,-73.934036254,0
			40.880776661,-73.9347408389999,0
			40.8785819540001,-73.9357757799999,0
		</coordinates>
	</polygon>
</kml>
