<?xml version="1.0" encoding="UTF-8"?>
<kml xmlns="http://earth.google.com/kml/2.2">
	<polygon id="USA_NJ_Salem" samplingProbability="1">
		<coordinates>
			39.3722496030001,-75.467193604,0
			39.3906898490001,-75.4887466439999,0
			39.405101777,-75.502746583,0
			39.4306297310002,-75.5212783809999,0
			39.4502601630001,-75.542572021,0
			39.4506607070002,-75.5417633059999,0
			39.4582595830001,-75.5507965089999,0
			39.4612503050001,-75.553894042,0
			39.4706115720001,-75.5622177119999,0
			39.4796791090001,-75.5675888059999,0
			39.483299256,-75.567596436,0
			39.4860801690002,-75.5666427619999,0
			39.4919204720001,-75.5646209719999,0
			39.49420166,-75.5633773809999,0
			39.4973602300001,-75.5616531379999,0
			39.4973602300001,-75.5589828479999,0
			39.4973602300001,-75.553894042,0
			39.4978218090002,-75.543167114,0
			39.4983406060001,-75.532173157,0
			39.4991188050002,-75.530357361,0
			39.4998092650001,-75.5287704469999,0
			39.5006484990001,-75.5268325809999,0
			39.5030784610001,-75.527938843,0
			39.5060691830001,-75.5292968749999,0
			39.5069694530002,-75.5299072259999,0
			39.5092315690001,-75.5305328369999,0
			39.511959077,-75.5299758909999,0
			39.513320923,-75.529396057,0
			39.5156021120001,-75.52823639,0
			39.5178718560001,-75.527671813,0
			39.5192184440002,-75.5282897949999,0
			39.52104187,-75.528312683,0
			39.5233001710001,-75.5283508299999,0
			39.5269393910001,-75.5272064209999,0
			39.5319290170002,-75.526679992,0
			39.5355606080001,-75.5267257689999,0
			39.5364608770001,-75.52733612,0
			39.5372314460002,-75.5289001459999,0
			39.538238526,-75.530937194,0
			39.540050508,-75.532173157,0
			39.5414009090001,-75.53277588,0
			39.5441207890001,-75.5322265619999,0
			39.5459518440002,-75.5304565439999,0
			39.548709869,-75.52632141,0
			39.551460265,-75.5227813719999,0
			39.5537414550001,-75.520416261,0
			39.5558815000002,-75.5187835689999,0
			39.5583000180001,-75.5169067389999,0
			39.5610389710001,-75.515151977,0
			39.5642204280001,-75.514007568,0
			39.5672187810001,-75.512260436,0
			39.5692291250001,-75.511093139,0
			39.5728607180001,-75.510536193,0
			39.5760307310001,-75.5111923209999,0
			39.5791893020001,-75.513023377,0
			39.5814399720002,-75.515441895,0
			39.5836792000001,-75.519050599,0
			39.5845489510001,-75.5232467659999,0
			39.5854187010001,-75.5274429319999,0
			39.5867614740001,-75.529838562,0
			39.5881118780001,-75.531646729,0
			39.5899085990002,-75.532867432,0
			39.5917091360002,-75.534698487,0
			39.5930709850002,-75.5347061149999,0
			39.5944213860001,-75.535331727,0
			39.5957717890001,-75.537139892,0
			39.5961990360001,-75.539512633,0
			39.5966300970001,-75.541931152,0
			39.5979690550001,-75.5443267809999,0
			39.600200654,-75.549140929,0
			39.6028900150001,-75.552757264,0
			39.605140686,-75.554588317,0
			39.606609344,-75.555168152,0
			39.6082992560001,-75.5558319099999,0
			39.6147193920002,-75.557739257,0
			39.62097168,-75.5596008299999,0
			39.6254997250001,-75.5602569579999,0
			39.627449036,-75.5594406119999,0
			39.6295890810001,-75.558532714,0
			39.632320404,-75.557380676,0
			39.6350593570001,-75.5556259159998,0
			39.6373405470002,-75.553268433,0
			39.63917923,-75.5503082269999,0
			39.6405601500001,-75.5485382079999,0
			39.642379761,-75.546775818,0
			39.6442108160001,-75.5444107049999,0
			39.6460495000002,-75.541442871,0
			39.6474494930001,-75.5372772209999,0
			39.6492919920001,-75.533721924,0
			39.6501998900001,-75.5331268309999,0
			39.651119233,-75.5319595339999,0
			39.6529502860001,-75.5301895139999,0
			39.6552200320001,-75.5290298469999,0
			39.6570510860001,-75.527259826,0
			39.65932846,-75.5254974359999,0
			39.661209108,-75.5230865479999,0
			39.6630020140001,-75.520767212,0
			39.6652603150001,-75.518432618,0
			39.6675720210001,-75.5160598759999,0
			39.6703109740001,-75.5137023929999,0
			39.673038482,-75.5119476319999,0
			39.6757698050002,-75.511390685,0
			39.6798515320001,-75.5108489999999,0
			39.6821289060001,-75.510276795,0
			39.6862106320001,-75.5097122189999,0
			39.6898422250001,-75.5092010499999,0
			39.693470002,-75.5086517339999,0
			39.6962013250001,-75.5074920649999,0
			39.6984786990001,-75.5057296749999,0
			39.700000763,-75.503219605,0
			39.7030105590001,-75.4992828379999,0
			39.7044410710001,-75.498039245,0
			39.7077293400001,-75.4959259029998,0
			39.7085685720001,-75.495391846,0
			39.7126388550002,-75.4927673349999,0
			39.714458466,-75.492202759,0
			39.7162818910002,-75.4910430919999,0
			39.716751098,-75.4892425529998,0
			39.716300964,-75.4880371089999,0
			39.7158699040001,-75.4850540159999,0
			39.7158889780001,-75.4838485719999,0
			39.715900421,-75.4820632939999,0
			39.717269897,-75.4808807379999,0
			39.7186317440002,-75.4803009029999,0
			39.7204513560001,-75.4797286989999,0
			39.7231712340001,-75.479766846,0
			39.7272605900002,-75.478622437,0
			39.7299804680002,-75.478073119,0
			39.7331619270001,-75.477508545,0
			39.7358894350002,-75.476348876,0
			39.739540101,-75.4740066529999,0
			39.7427215580001,-75.472251891,0
			39.7463722230001,-75.4699096689999,0
			39.7504692080001,-75.4675827029999,0
			39.754558564,-75.465843201,0
			39.7572898870002,-75.4646759039999,0
			39.7600212100001,-75.462905883,0
			39.7627487180002,-75.4617462159999,0
			39.764579774,-75.4599838259999,0
			39.7664108280001,-75.4576110829999,0
			39.76733017,-75.4552307139999,0
			39.7700691220002,-75.452873231,0
			39.7728195200002,-75.4493179319999,0
			39.7787704470001,-75.4422073359999,0
			39.7838096630001,-75.4350967399999,0
			39.7860488900002,-75.4320983899999,0
			39.7847595220001,-75.429733276,0
			39.7861900340001,-75.4201660159999,0
			39.7866897580001,-75.413589477,0
			39.7880821230001,-75.4088058479999,0
			39.7881011960002,-75.4058227539999,0
			39.7840309150001,-75.404571533,0
			39.7808799750002,-75.400939942,0
			39.773181915,-75.400253295,0
			39.770900726,-75.4026107779999,0
			39.7677001950001,-75.405563354,0
			39.764991761,-75.404930114,0
			39.7645607010001,-75.4019317629999,0
			39.7636489880001,-75.40132141,0
			39.7614021300001,-75.3989028939999,0
			39.7587013240001,-75.3970718379999,0
			39.756019593,-75.391647339,0
			39.7546920780001,-75.38685608,0
			39.748359679,-75.384376526,0
			39.7479400640001,-75.3801879869999,0
			39.7456817640001,-75.3783569339999,0
			39.738449097,-75.3746871949999,0
			39.7375488280001,-75.374076843,0
			39.7357406630001,-75.3740615849999,0
			39.732559204,-75.374618531,0
			39.7302894600002,-75.3751907349999,0
			39.7271194460001,-75.3739471429999,0
			39.7253189090001,-75.372138977,0
			39.723541261,-75.3679428109999,0
			39.721290588,-75.366111755,0
			39.7181205750001,-75.3654785159999,0
			39.714962007,-75.3624496459999,0
			39.713630677,-75.3582458489999,0
			39.7132186900001,-75.3522567759999,0
			39.7118797300002,-75.349845886,0
			39.7100791930001,-75.3480377209999,0
			39.7073822020002,-75.3438186649999,0
			39.7069587720001,-75.3396301269999,0
			39.7069702150001,-75.337242127,0
			39.7038192750002,-75.3348083509999,0
			39.698860169,-75.3299713139999,0
			39.6966209420001,-75.3269577029999,0
			39.693908692,-75.3257293699999,0
			39.6920890800001,-75.325111389,0
			39.6921119690002,-75.322120666,0
			39.6935119640001,-75.3167572019999,0
			39.692611694,-75.3155517579999,0
			39.6885604870001,-75.3113327029999,0
			39.6899490370001,-75.305961609,0
			39.6899909970002,-75.299392701,0
			39.6886596690002,-75.295188904,0
			39.685070038,-75.2897567749999,0
			39.6819419870001,-75.283157348,0
			39.682868958,-75.278388977,0
			39.6847496030001,-75.268249512,0
			39.6834297190001,-75.261062623,0
			39.6816596990001,-75.2550659189999,0
			39.679859162,-75.2526474009999,0
			39.677139282,-75.2514266959999,0
			39.673980714,-75.2508010869998,0
			39.6699104310001,-75.247772217,0
			39.6658515930002,-75.2453384409999,0
			39.6640815730001,-75.238136291,0
			39.6627502450001,-75.2327499389999,0
			39.664150238,-75.2249984749999,0
			39.6641693120002,-75.2232131959999,0
			39.6632995610001,-75.2166290279999,0
			39.6669502270001,-75.2112808219999,0
			39.6674308770001,-75.2059097279999,0
			39.6670112620001,-75.2005310059999,0
			39.6571197510002,-75.1866912849999,0
			39.6382217410001,-75.1596298219999,0
			39.590511322,-75.090553283,0
			39.5697898430001,-75.0617291409999,0
			39.5652500000001,-75.0646819999999,0
			39.5627060000002,-75.065997,0
			39.55843,-75.0682069999999,0
			39.5583625960001,-75.0681620399999,0
			39.5566215520001,-75.0670013419999,0
			39.5552599360001,-75.0669860849999,0
			39.5548100000001,-75.0675809999999,0
			39.5544210000001,-75.0683359999999,0
			39.5543041810001,-75.068562599,0
			39.5538902290002,-75.069366455,0
			39.5533592870001,-75.070747793,0
			39.5527950000001,-75.0722169999999,0
			39.5525176960001,-75.072929522,0
			39.5508180000001,-75.0731979999999,0
			39.548889,-75.0735019999999,0
			39.546566076,-75.0732035449999,0
			39.5439,-75.072861,0
			39.5438815630002,-75.072858646,0
			39.5385819650001,-75.072182283,0
			39.5289497380001,-75.0709533689999,0
			39.5189590450001,-75.075653077,0
			39.5121612560001,-75.076187134,0
			39.5067472730001,-75.076152139,0
			39.506263523,-75.076149022,0
			39.5037595090001,-75.077918994,0
			39.5012571890001,-75.0796894569999,0
			39.5011600000001,-75.0797139999999,0
			39.4990287200001,-75.0802509919999,0
			39.4989890000001,-75.080261,0
			39.4978370000001,-75.0790059999999,0
			39.4940265590001,-75.0748614889999,0
			39.4928790000001,-75.0753579999999,0
			39.492671999,-75.0754469999999,0
			39.492158543,-75.0754421569999,0
			39.489491,-75.0754169999999,0
			39.487052,-75.0751069999999,0
			39.4845090000001,-75.074783,0
			39.4822500000001,-75.0747680009999,0
			39.4704280000001,-75.0812299999999,0
			39.4631808500001,-75.0811690649999,0
			39.4625060590001,-75.0814572939999,0
			39.4590911870001,-75.0829162599999,0
			39.462267447,-75.0878345739999,0
			39.5598110000001,-75.2388759989999,0
			39.5596397300001,-75.239078144,0
			39.5101464050001,-75.297493811,0
			39.5027198790001,-75.306259155,0
			39.4931411750002,-75.3156890869998,0
			39.490829469,-75.322807311,0
			39.489799187,-75.3300989509999,0
			39.489654,-75.331127,0
			39.489402109,-75.33290999,0
			39.4893990040001,-75.3329319779999,0
			39.4902610000001,-75.3406909999999,0
			39.4897670000001,-75.3414559999999,0
			39.4879680000001,-75.344238,0
			39.484564,-75.3457969999999,0
			39.4816020000001,-75.3471529999999,0
			39.4815702450001,-75.3471759949999,0
			39.4758058860002,-75.3513502139999,0
			39.4743118670001,-75.352432224,0
			39.4739584930002,-75.353028154,0
			39.4683546870001,-75.3624784089999,0
			39.4683490000001,-75.362488,0
			39.467881581,-75.3627375529999,0
			39.4628909030001,-75.365402063,0
			39.4583400000001,-75.3683319999999,0
			39.457840079,-75.373688525,0
			39.4578480000001,-75.3737409999999,0
			39.4587100000002,-75.379646,0
			39.4614570000001,-75.3971299999999,0
			39.4621810000001,-75.4017409999999,0
			39.4617000000001,-75.404716,0
			39.4607167770002,-75.4055306789999,0
			39.4553180000001,-75.410004,0
			39.4546690000001,-75.4103579999999,0
			39.4521560030001,-75.411728276,0
			39.4521290000001,-75.4117429999999,0
			39.4485090000001,-75.4116969999999,0
			39.4461760000001,-75.4120109999998,0
			39.4444200000002,-75.412247,0
			39.4435120000001,-75.413422,0
			39.4422844710001,-75.414608634,0
			39.4416810000002,-75.4151919999999,0
			39.4398690000002,-75.4151689999999,0
			39.4371413930002,-75.4163208339999,0
			39.4363791120001,-75.4173095649999,0
			39.4362940000001,-75.4174199999999,0
			39.4362300000001,-75.417503,0
			39.4350520710001,-75.4185132669999,0
			39.4348600000001,-75.4186779999999,0
			39.4348485030002,-75.4186803789999,0
			39.4330190000001,-75.4190589999999,0
			39.4321290000001,-75.4192429999999,0
			39.4320159210001,-75.4190139789999,0
			39.4303510000001,-75.4156419999999,0
			39.4293740000001,-75.412131,0
			39.4291610310001,-75.4113651549999,0
			39.4290199280001,-75.4108581539999,0
			39.4282040380001,-75.410851269,0
			39.4279290000001,-75.410849,0
			39.4272120000001,-75.4108429999998,0
			39.4247580000001,-75.4129399999999,0
			39.42173,-75.4155269999999,0
			39.4201110000001,-75.4158079999999,0
			39.4185545640001,-75.4160792979998,0
			39.4178480000002,-75.416378,0
			39.4171910000001,-75.4166559999999,0
			39.416116,-75.4166499999999,0
			39.415864664,-75.4166491239999,0
			39.4158290000001,-75.4166489999999,0
			39.4151626500002,-75.416201074,0
			39.4122263850002,-75.414227291,0
			39.4121772420001,-75.414211146,0
			39.4108711570001,-75.4138490519999,0
			39.4099617000001,-75.413597108,0
			39.4083062320001,-75.4131813389999,0
			39.4058670000001,-75.4125689999999,0
			39.4049800000002,-75.4123459999998,0
			39.4044756010001,-75.411207303,0
			39.4036542240001,-75.4093530179999,0
			39.4021829730002,-75.410094428,0
			39.401371,-75.4105069999999,0
			39.4004838560002,-75.410495235,0
			39.3991090000001,-75.4104769999999,0
			39.3970250000002,-75.410457,0
			39.3962983480001,-75.410449694,0
			39.3959312450002,-75.410446168,0
			39.3954391490001,-75.4151992799999,0
			39.3949810000001,-75.4163819999998,0
			39.394658985,-75.4163777829999,0
			39.3941407170001,-75.4163711779999,0
			39.3925743100001,-75.4163513189999,0
			39.3926124570002,-75.416496276,0
			39.3931007390001,-75.416885377,0
			39.3934631340001,-75.4171981809999,0
			39.393829346,-75.417434693,0
			39.3943786620002,-75.41758728,0
			39.394680023,-75.41758728,0
			39.3951072690002,-75.4176635739999,0
			39.3952903750001,-75.417434693,0
			39.3957176220001,-75.4171981809999,0
			39.3957748420001,-75.4168090809999,0
			39.3957748420001,-75.41594696,0
			39.396080017,-75.415794373,0
			39.396324158,-75.4160308839999,0
			39.3964462290001,-75.4166488659999,0
			39.396324158,-75.4173507689999,0
			39.3962020870002,-75.4179000849999,0
			39.3951683040002,-75.4182891849999,0
			39.3948020940001,-75.4188385009999,0
			39.3940124520001,-75.4186019899999,0
			39.3934020990001,-75.418365479,0
			39.3929786690001,-75.4182128909999,0
			39.3923683180001,-75.41758728,0
			39.3917920000001,-75.4164049999999,0
			39.3915690000001,-75.416388,0
			39.3913205870001,-75.416368486,0
			39.3910978480002,-75.4163513029999,0
			39.390899781,-75.416336069,0
			39.3898960000002,-75.4166489999999,0
			39.3896904000001,-75.41696167,0
			39.3893852230001,-75.41758728,0
			39.3890838620002,-75.417823791,0
			39.388778687,-75.4179000849999,0
			39.3882904060001,-75.417823791,0
			39.3879241940001,-75.4177474969999,0
			39.3875007620001,-75.4177780159999,0
			39.387222289,-75.418052674,0
			39.3869056690002,-75.418281555,0
			39.3869438180002,-75.4191665639999,0
			39.3869400030001,-75.4198074339999,0
			39.3868865960001,-75.420341491,0
			39.3867149350002,-75.420845032,0
			39.386608123,-75.4214019779999,0
			39.3863868720001,-75.421897889,0
			39.386165619,-75.422409058,0
			39.386119842,-75.422988891,0
			39.3861618040002,-75.4235839839999,0
			39.3863334650001,-75.4241256709999,0
			39.3865127560001,-75.424667359,0
			39.3867073050001,-75.4252090449999,0
			39.3869514460001,-75.425735474,0
			39.387222289,-75.4262695319999,0
			39.3875007620001,-75.4266662599999,0
			39.3875007620001,-75.426940918,0
			39.3877792350001,-75.427223206,0
			39.3877792350001,-75.4274978639999,0
			39.3883323660002,-75.4280548099999,0
			39.3883323660002,-75.4283370959999,0
			39.3886108390002,-75.4286117559999,0
			39.3886108390002,-75.428886414,0
			39.3888893120001,-75.4291686999999,0
			39.3888893120001,-75.4294433599999,0
			39.3891677850001,-75.4294433599999,0
			39.3894462580001,-75.429725646,0
			39.3894462580001,-75.430000304,0
			39.3897209160001,-75.4302749639999,0
			39.3899993890001,-75.4302749639999,0
			39.3902778620002,-75.430000304,0
			39.390556335,-75.4302749639999,0
			39.391109466,-75.4302749639999,0
			39.3916664120001,-75.4308319099999,0
			39.3927764890001,-75.4319457999999,0
			39.3927764890001,-75.432220458,0
			39.393611908,-75.4330520619999,0
			39.393890381,-75.4333343499999,0
			39.393611908,-75.4333343499999,0
			39.3933334350002,-75.4330520619999,0
			39.3930549620001,-75.4333343499999,0
			39.3933334350002,-75.4336090079998,0
			39.3932456970002,-75.434204101,0
			39.3925018310001,-75.434997558,0
			39.3925018310001,-75.4361114499999,0
			39.3922233580002,-75.4361114499999,0
			39.3919448850002,-75.436386108,0
			39.3919448850002,-75.436668396,0
			39.3927764890001,-75.4374999999999,0
			39.3927764890001,-75.437774658,0
			39.3933334350002,-75.438331604,0
			39.3930549620001,-75.438613892,0
			39.3930549620001,-75.4388885499999,0
			39.3927764890001,-75.439163208,0
			39.3927764890001,-75.4397201539999,0
			39.3919448850002,-75.4397201539999,0
			39.3908348080001,-75.4408340459999,0
			39.3908348080001,-75.4413909899999,0
			39.391109466,-75.4416656499999,0
			39.3908348080001,-75.441947936,0
			39.3908348080001,-75.4422225939999,0
			39.3902778620002,-75.4427795399999,0
			39.3897209160001,-75.4427795399999,0
			39.3894462580001,-75.4430541979999,0
			39.3891677850001,-75.4427795399999,0
			39.3888893120001,-75.4430541979999,0
			39.3886108390002,-75.4430541979999,0
			39.3883323660002,-75.4427795399999,0
			39.3880538930001,-75.4427795399999,0
			39.3877792350001,-75.4430541979999,0
			39.3877792350001,-75.4433364859999,0
			39.3875007620001,-75.443611144,0
			39.3875007620001,-75.4449996939999,0
			39.3877792350001,-75.445274352,0
			39.3877792350001,-75.4455566399999,0
			39.3869438180002,-75.4463882439999,0
			39.3869438180002,-75.4466629019999,0
			39.3858337410001,-75.4466629019999,0
			39.3844451910001,-75.448059083,0
			39.3844451910001,-75.4486083979999,0
			39.3841667180001,-75.448890687,0
			39.3841667180001,-75.4494476329999,0
			39.383888245,-75.4497222899999,0
			39.383888245,-75.450279237,0
			39.3830566410002,-75.45111084,0
			39.3827781680001,-75.45111084,0
			39.3824996950001,-75.4513854979999,0
			39.3822212220001,-75.4513854979999,0
			39.3819427490002,-75.451667787,0
			39.3816680910001,-75.451667787,0
			39.3816680910001,-75.4519424439999,0
			39.3819427490002,-75.4522247309999,0
			39.3819427490002,-75.4524993899999,0
			39.3822212220001,-75.452774048,0
			39.3822212220001,-75.4536132809999,0
			39.3819427490002,-75.453887939,0
			39.3813896180002,-75.453887939,0
			39.3808326720001,-75.4544448849999,0
			39.3805541990001,-75.4544448849999,0
			39.380279541,-75.454170227,0
			39.380001068,-75.454170227,0
			39.379722595,-75.4544448849999,0
			39.3794441220002,-75.4544448849999,0
			39.379722595,-75.454719543,0
			39.379722595,-75.456665039,0
			39.3794441220002,-75.456947327,0
			39.3791656490001,-75.456947327,0
			39.3788871760001,-75.4572219849999,0
			39.3786125180001,-75.4572219849999,0
			39.3774986260001,-75.4583358769999,0
			39.3774986260001,-75.4586105349999,0
			39.3772239680001,-75.4588851929999,0
			39.3772239680001,-75.4591674809999,0
			39.376667022,-75.459724427,0
			39.3763885490002,-75.459442139,0
			39.3755569450001,-75.459442139,0
			39.3752784740001,-75.459724427,0
			39.375000001,-75.459724427,0
			39.375000001,-75.4599990849999,0
			39.3747215280002,-75.4602813729999,0
			39.3747215280002,-75.4608306889999,0
			39.375000001,-75.460556031,0
			39.3752784740001,-75.4608306889999,0
			39.3752784740001,-75.4613876349999,0
			39.375000001,-75.461669923,0
			39.375000001,-75.4619445809999,0
			39.3747215280002,-75.462219239,0
			39.3747215280002,-75.462501527,0
			39.375000001,-75.4627761849999,0
			39.375000001,-75.463333131,0
			39.3747215280002,-75.4636077889999,0
			39.3747215280002,-75.4638900749999,0
			39.3741683970002,-75.4644470209999,0
			39.3738899240001,-75.4644470209999,0
			39.373054505,-75.4652786249999,0
			39.3733329780001,-75.4655532849999,0
			39.3727760320002,-75.466110229,0
			39.3725013740002,-75.466392517,0
			39.3725013740002,-75.4669418329999,0
			39.3722496030001,-75.467193604,0
		</coordinates>
	</polygon>
</kml>
