<?xml version="1.0" encoding="UTF-8"?>
<kml xmlns="http://earth.google.com/kml/2.2">
	<polygon id="USA_CO_Chaffee" samplingProbability="1">
		<coordinates>
			38.6906585690002,-105.96459961,0
			38.688850404,-105.960479737,0
			38.686580658,-105.952812195,0
			38.6833992010001,-105.941619873,0
			38.681579591,-105.938079835,0
			38.6734199530001,-105.927482606,0
			38.6670684810002,-105.924537658,0
			38.660270692,-105.91924286,0
			38.6552886960001,-105.915122987,0
			38.652561188,-105.913360596,0
			38.6308097840001,-105.911026002,0
			38.6271820070001,-105.90750122,0
			38.624900817,-105.901016236,0
			38.6226310730002,-105.892189027,0
			38.618091583,-105.885131836,0
			38.614009857,-105.883369446,0
			38.6090202330002,-105.881019591,0
			38.6026802060001,-105.878089904,0
			38.5985984800002,-105.878097534,0
			38.5954284660001,-105.88104248,0
			38.586830139,-105.890480042,0
			38.5818405150002,-105.893417359,0
			38.577308655,-105.893432618,0
			38.5732307440001,-105.891677856,0
			38.5686988840001,-105.88697052,0
			38.566429138,-105.88520813,0
			38.5641593930001,-105.886390685,0
			38.5623512260001,-105.889923096,0
			38.5591812130001,-105.893463134,0
			38.5519294750001,-105.895828247,0
			38.5478591920001,-105.898773193,0
			38.5460510250001,-105.905250549,0
			38.5415191650001,-105.907608032,0
			38.5320014960002,-105.90762329,0
			38.5270118720002,-105.90762329,0
			38.5242919930001,-105.908218383,0
			38.5188598630001,-105.910575866,0
			38.5138702390001,-105.910575866,0
			38.507068633,-105.908241272,0
			38.5048103330001,-105.908241272,0
			38.50389862,-105.911186217,0
			38.5012016310001,-105.937057495,0
			38.5002899180001,-105.940589905,0
			38.4944000250001,-105.945877075,0
			38.4889717100001,-105.954696656,0
			38.4871597300001,-105.957649232,0
			38.4749221800001,-105.972938538,0
			38.4590606690001,-105.995277405,0
			38.450000764,-106.007026673,0
			38.4477310180002,-106.012321472,0
			38.449089051,-106.019966125,0
			38.450000764,-106.02584076,0
			38.4522590650001,-106.03112793,0
			38.454978942,-106.039360046,0
			38.4554290780001,-106.042877198,0
			38.454521179,-106.046409606,0
			38.4531593320001,-106.054046631,0
			38.4518013010001,-106.056976319,0
			38.4499893190001,-106.057571412,0
			38.4477195750001,-106.057571412,0
			38.4440917970001,-106.058151244,0
			38.4409217840001,-106.059326172,0
			38.4341201780001,-106.064613342,0
			38.4286804200001,-106.069892884,0
			38.4232406620001,-106.075759887,0
			38.421421052,-106.080451966,0
			38.4209709160001,-106.086906434,0
			38.4209594730002,-106.101600647,0
			38.4212112430002,-106.244926453,0
			38.4266395570001,-106.245536805,0
			38.4298210140001,-106.24495697,0
			38.432540893,-106.24495697,0
			38.435260773,-106.243797303,0
			38.4370689400001,-106.244392396,0
			38.4379806530002,-106.244987489,0
			38.4388809210001,-106.246749879,0
			38.4397811900002,-106.248512269,0
			38.4402313240001,-106.251457215,0
			38.4402198780001,-106.256156922,0
			38.4402122500002,-106.261436462,0
			38.4420089720002,-106.265556335,0
			38.4432487500001,-106.266853333,0
			38.4460105900001,-106.271209717,0
			38.448188782,-106.271408082,0
			38.4499588020001,-106.271057128,0
			38.4551696790001,-106.271537781,0
			38.454341888,-106.275047302,0
			38.454319001,-106.281860352,0
			38.4551086430002,-106.283241272,0
			38.4587287910001,-106.286186219,0
			38.4637107840001,-106.287376403,0
			38.4700508110001,-106.289176942,0
			38.472320557,-106.290359497,0
			38.4741287220002,-106.293296815,0
			38.4754714970001,-106.298599244,0
			38.4772796630002,-106.301536561,0
			38.479541778,-106.303909302,0
			38.4881401060002,-106.307472229,0
			38.4931221020001,-106.310432433,0
			38.4949302670001,-106.313377381,0
			38.495368958,-106.317497254,0
			38.4958114630002,-106.321022034,0
			38.4948997500001,-106.324546814,0
			38.493068695,-106.329246522,0
			38.493968964,-106.330421447,0
			38.4962387080001,-106.332199096,0
			38.4980506900001,-106.333381653,0
			38.500301361,-106.338676452,0
			38.504821778,-106.343406678,0
			38.5079803460001,-106.345191955,0
			38.510700226,-106.344612122,0
			38.514789582,-106.342277528,0
			38.519779206,-106.341133117,0
			38.523860932,-106.342323303,0
			38.5265693670001,-106.345275878,0
			38.5292701730001,-106.350585937,0
			38.5360603340001,-106.354148864,0
			38.539230348,-106.354156494,0
			38.542400361,-106.354179383,0
			38.5464897160001,-106.353019714,0
			38.5496711740001,-106.35069275,0
			38.5542106620002,-106.348350525,0
			38.5587387090001,-106.346603393,0
			38.5623703000001,-106.343681336,0
			38.5660095220001,-106.343109132,0
			38.5687217720002,-106.343711853,0
			38.570991516,-106.344306946,0
			38.5732498170001,-106.346672059,0
			38.5764122,-106.34903717,0
			38.5800285340001,-106.350227356,0
			38.587730408,-106.354988098,0
			38.5904388430002,-106.356773377,0
			38.5940589900001,-106.358551025,0
			38.5976791390001,-106.359146118,0
			38.5994987490002,-106.360336304,0
			38.602661133,-106.362121583,0
			38.6058311460002,-106.362716675,0
			38.6094589240001,-106.362747192,0
			38.610759735,-106.363243103,0
			38.6139717100002,-106.363082885,0
			38.6185302740002,-106.368026734,0
			38.6208686830001,-106.374977112,0
			38.6200485230002,-106.379325866,0
			38.6260604860001,-106.38494873,0
			38.63199997,-106.384597778,0
			38.6335601810001,-106.382476807,0
			38.638542176,-106.378547668,0
			38.6385917660001,-106.383766174,0
			38.640659333,-106.389183044,0
			38.6397209170001,-106.396537781,0
			38.6398696910001,-106.4006958,0
			38.6425399790002,-106.400726319,0
			38.644401551,-106.400253297,0
			38.6468200690001,-106.403030395,0
			38.647399902,-106.406387329,0
			38.647560119,-106.408996582,0
			38.6445884700001,-106.417442322,0
			38.6450805680001,-106.420066833,0
			38.648239136,-106.424217225,0
			38.6503906240001,-106.425903321,0
			38.6516189570002,-106.42917633,0
			38.6568603520001,-106.428459167,0
			38.6654396070001,-106.429702759,0
			38.6677093510001,-106.431396484,0
			38.6717796340002,-106.433189393,0
			38.6799316410001,-106.435012818,0
			38.6821899420002,-106.436790467,0
			38.686248779,-106.441528321,0
			38.689868927,-106.445091248,0
			38.6908302310002,-106.445716858,0
			38.6913986210001,-106.446762084,0
			38.6982498170001,-106.452262879,0
			38.7023010260001,-106.449172974,0
			38.7073898320001,-106.443572997,0
			38.7085113530001,-106.431106568,0
			38.7099304190001,-106.424377442,0
			38.7204589850001,-106.422851563,0
			38.7253608700001,-106.416893005,0
			38.7284393310001,-106.415962218,0
			38.738311767,-106.419570922,0
			38.7407913200001,-106.416679382,0
			38.750999451,-106.418670655,0
			38.7564697270002,-106.414581299,0
			38.758220672,-106.413528442,0
			38.765609741,-106.417945861,0
			38.7696304320001,-106.41658783,0
			38.774379729,-106.413948059,0
			38.7876815800001,-106.415962218,0
			38.7900199900001,-106.412086487,0
			38.790149688,-106.41204834,0
			38.7951316840001,-106.413261414,0
			38.802360535,-106.418022155,0
			38.805740356,-106.418441772,0
			38.8121795660001,-106.417846679,0
			38.8144989020001,-106.414207458,0
			38.8236618040001,-106.415176391,0
			38.829200745,-106.405982971,0
			38.8258705140001,-106.399375916,0
			38.8226089490001,-106.395622253,0
			38.8224906910001,-106.3902359,0
			38.8244705210001,-106.382392883,0
			38.8310699460001,-106.382316589,0
			38.8359413140001,-106.377571107,0
			38.8383598320002,-106.369537353,0
			38.8413887020001,-106.368347167,0
			38.8442192070001,-106.364143372,0
			38.8530616760002,-106.364730835,0
			38.8558807380002,-106.352645874,0
			38.854831696,-106.347976685,0
			38.8633003240001,-106.348747253,0
			38.8678207400001,-106.344650269,0
			38.8714294440001,-106.335586547,0
			38.8742904660002,-106.335731506,0
			38.87902069,-106.334815978,0
			38.883899689,-106.325241089,0
			38.889209748,-106.324996948,0
			38.894439698,-106.319648743,0
			38.899250031,-106.322639465,0
			38.9096717840002,-106.324447632,0
			38.9108390810001,-106.325523376,0
			38.9113998420002,-106.331626891,0
			38.9085998540001,-106.336517333,0
			38.9068984990001,-106.34424591,0
			38.9126892100001,-106.35559845,0
			38.9119110110001,-106.361251832,0
			38.906581879,-106.366981506,0
			38.9061508190001,-106.374191283,0
			38.9112815870001,-106.375183105,0
			38.9226303110001,-106.375717162,0
			38.925300599,-106.379768372,0
			38.9184608460001,-106.391937255,0
			38.9118499760001,-106.393188476,0
			38.9104003910002,-106.402008057,0
			38.9143218990001,-106.405319214,0
			38.915241242,-106.411346435,0
			38.9188308710001,-106.415428161,0
			38.9272499080001,-106.417121887,0
			38.9277687070002,-106.42012024,0
			38.9243011470001,-106.4298172,0
			38.9147796630001,-106.434761047,0
			38.915649414,-106.439315795,0
			38.9124107370001,-106.450073242,0
			38.9103622440001,-106.460006714,0
			38.9122810360001,-106.466819764,0
			38.9180412290002,-106.479148864,0
			38.9254302970001,-106.487953186,0
			38.930931092,-106.492492677,0
			38.9373893750002,-106.504356385,0
			38.9448394770002,-106.504646301,0
			38.947898865,-106.51384735,0
			38.9529991140001,-106.519317626,0
			38.9558105460001,-106.526412964,0
			38.9608802810001,-106.527290345,0
			38.9673995970001,-106.522087096,0
			38.9737319960001,-106.525543213,0
			38.9782218940001,-106.530197144,0
			38.9822006230001,-106.533767701,0
			38.987892152,-106.541358947,0
			38.9915390020001,-106.55104065,0
			38.998580933,-106.553787232,0
			38.9985618590001,-106.559242249,0
			38.996650697,-106.562377929,0
			38.9943389890001,-106.568443298,0
			38.9905204770001,-106.577270507,0
			38.9917602530001,-106.579795838,0
			38.9909706110001,-106.59487915,0
			38.9980010980001,-106.598922729,0
			39.000728608,-106.594398499,0
			39.0068588260001,-106.593276977,0
			39.0110206610001,-106.595123291,0
			39.0163803090002,-106.594207763,0
			39.0185089110001,-106.594406128,0
			39.0226402280001,-106.593933105,0
			39.0259704590002,-106.589851379,0
			39.0283889770001,-106.590858459,0
			39.031108857,-106.595298767,0
			39.0319786080001,-106.59792328,0
			39.0346603410001,-106.598716737,0
			39.0415496830001,-106.596748352,0
			39.0453186030002,-106.59590149,0
			39.0464897150001,-106.58380127,0
			39.0504608160001,-106.577690124,0
			39.0549812330001,-106.576576232,0
			39.0566711420001,-106.575912476,0
			39.0573616020002,-106.575920106,0
			39.0576095590002,-106.519042969,0
			39.0577201840002,-106.492378234,0
			39.0578498850002,-106.456817627,0
			39.05765152,-106.383346557,0
			39.057189942,-106.190177918,0
			39.0454101570001,-106.183631896,0
			39.0417900100002,-106.181251525,0
			39.0395202640001,-106.180648804,0
			39.037261963,-106.181236267,0
			39.0345306400001,-106.18360138,0
			39.0281791690001,-106.187728881,0
			39.0227394100001,-106.190086364,0
			39.0191192630001,-106.188896178,0
			39.0173110960002,-106.187705995,0
			39.0173110960002,-106.184150696,0
			39.0173187260001,-106.181190492,0
			39.0154991150001,-106.180000306,0
			39.0132408150001,-106.17881012,0
			39.0096206670001,-106.176429749,0
			39.007808685,-106.1746521,0
			39.0050888070001,-106.172866822,0
			38.996940613,-106.169296265,0
			38.9924087530001,-106.165145875,0
			38.9906005860001,-106.161003113,0
			38.9901504520001,-106.159217835,0
			38.9910697930001,-106.15448761,0
			38.9933395390001,-106.149162293,0
			38.993350983,-106.142059326,0
			38.9924507150001,-106.130805969,0
			38.9915504460002,-106.123703003,0
			38.9892921450001,-106.118370056,0
			38.986579895,-106.11126709,0
			38.9838600150001,-106.107711791,0
			38.9811515810002,-106.106521606,0
			38.9761619570002,-106.10533142,0
			38.9748001110001,-106.104736329,0
			38.9734420770001,-106.104141236,0
			38.968910217,-106.103546143,0
			38.9661903380001,-106.103538513,0
			38.9616508490001,-106.107666016,0
			38.9553108220002,-106.111808776,0
			38.9525909430001,-106.111801148,0
			38.9489593500001,-106.110618592,0
			38.942619323,-106.110603332,0
			38.9394493110001,-106.109420776,0
			38.9376296990002,-106.107643128,0
			38.9380912780001,-106.105278015,0
			38.9385490420001,-106.099357605,0
			38.9371910110001,-106.095207215,0
			38.9344787590001,-106.088706971,0
			38.9340209970002,-106.083381654,0
			38.9349403380002,-106.077468872,0
			38.934490204,-106.074508668,0
			38.9326705940001,-106.069778441,0
			38.9331321710002,-106.065048217,0
			38.9349403380002,-106.062088013,0
			38.938121797,-106.057357789,0
			38.9403915410001,-106.050262452,0
			38.9408493050001,-106.04434967,0
			38.9399414070001,-106.037841797,0
			38.9372215270001,-106.02659607,0
			38.9349594110002,-106.019500733,0
			38.9313316340002,-106.014183044,0
			38.923629761,-106.005897523,0
			38.920909883,-106.002937317,0
			38.9177398690001,-105.998207092,0
			38.9159202570002,-105.994659424,0
			38.9159202570002,-105.991111755,0
			38.91683197,-105.984596252,0
			38.9163703930001,-105.978096008,0
			38.9150199890001,-105.976325989,0
			38.910480499,-105.972190856,0
			38.906398773,-105.966857911,0
			38.9050407420002,-105.964492798,0
			38.9032287600002,-105.963912963,0
			38.901420593,-105.965087891,0
			38.8937110910001,-105.973381042,0
			38.8909912110001,-105.975151062,0
			38.8882713310001,-105.975151062,0
			38.880111694,-105.968063355,0
			38.8787498470001,-105.965103149,0
			38.8787498470001,-105.96156311,0
			38.880111694,-105.957412721,0
			38.8837318430002,-105.946182252,0
			38.8837318430002,-105.94026947,0
			38.8837318430002,-105.936126709,0
			38.8819122310001,-105.93258667,0
			38.8801002510001,-105.93081665,0
			38.878742217,-105.929626464,0
			38.874198914,-105.927276611,0
			38.8692207330002,-105.926101684,0
			38.8660507200001,-105.927276611,0
			38.8619689940001,-105.93083191,0
			38.8565292360001,-105.935569763,0
			38.8520011910001,-105.937927245,0
			38.837039948,-105.937347413,0
			38.8356819150002,-105.936767578,0
			38.82888031,-105.929092407,0
			38.8143692030001,-105.914939881,0
			38.8102912900002,-105.910797119,0
			38.8053016660002,-105.909629822,0
			38.8012199400001,-105.909637452,0
			38.795330048,-105.911422729,0
			38.791252137,-105.913780212,0
			38.7831001280001,-105.922653197,0
			38.774040223,-105.932098389,0
			38.7686004640001,-105.937416076,0
			38.7649803160001,-105.939186097,0
			38.7577285770001,-105.939788818,0
			38.7513809210001,-105.939788818,0
			38.7436790480002,-105.942749024,0
			38.7386894220001,-105.944519044,0
			38.7355194080002,-105.943336486,0
			38.7300796510002,-105.940986634,0
			38.723739624,-105.941581726,0
			38.7196617130001,-105.943359375,0
			38.7142219550001,-105.946899413,0
			38.7074203490001,-105.954566955,0
			38.700180055,-105.962242127,0
			38.693828582,-105.965187073,0
			38.6906585690002,-105.96459961,0
		</coordinates>
	</polygon>
</kml>
