<?xml version="1.0" encoding="UTF-8"?>
<kml xmlns="http://earth.google.com/kml/2.2">
	<polygon id="USA_MA_Franklin" samplingProbability="1">
		<coordinates>
			42.5559310920002,-72.9754028309999,0
			42.6416702280002,-72.950431823,0
			42.6507415780001,-72.9524917599999,0
			42.6511688230001,-72.9543685899999,0
			42.6552391060002,-72.955696105,0
			42.6647987360001,-72.9546585089999,0
			42.666599273,-72.9565734859999,0
			42.6674690240001,-72.960327149,0
			42.6660804740002,-72.962791442,0
			42.6642494210001,-72.963996887,0
			42.6637115480001,-72.970840454,0
			42.6609420780001,-72.97453308,0
			42.6609191900001,-72.977020264,0
			42.6649589540001,-72.9814681999999,0
			42.6666984560001,-72.9877395639999,0
			42.672080995,-72.9940872189999,0
			42.67388916,-72.9953765869999,0
			42.6743888860001,-72.991027833,0
			42.6748809810001,-72.988540649,0
			42.678050995,-72.988609315,0
			42.6791114820001,-72.9761581409999,0
			42.68408966,-72.9775161749999,0
			42.6886787430001,-72.9744873049999,0
			42.6874389650002,-72.963241576,0
			42.6902313230001,-72.957061767,0
			42.6902809150001,-72.9533233639999,0
			42.6957588200001,-72.950942992,0
			42.6984596260001,-72.953491211,0
			42.7039604190001,-72.9486160279999,0
			42.7048110960002,-72.9542465219999,0
			42.701141357,-72.9978408819999,0
			42.702659608,-73.0228271479999,0
			42.7397193920002,-73.0230331429999,0
			42.7380294800001,-72.9301605229999,0
			42.7376213090002,-72.9076919549999,0
			42.736461639,-72.843818665,0
			42.7309417730002,-72.6099929809999,0
			42.727611542,-72.456626892,0
			42.7247009280001,-72.348747254,0
			42.7229309080002,-72.2832031249999,0
			42.6742706300001,-72.2720565799999,0
			42.6752586370001,-72.2583541879999,0
			42.667999269,-72.257019043,0
			42.669441224,-72.2426986689999,0
			42.6617202770001,-72.241989136,0
			42.662700653,-72.229537963,0
			42.638641358,-72.2249221809999,0
			42.6381607060001,-72.2286529539999,0
			42.6331787120001,-72.225486755,0
			42.6290893560002,-72.2260665899999,0
			42.6263504020002,-72.2279129039999,0
			42.6267890930002,-72.230400086,0
			42.6249694830001,-72.2316284179999,0
			42.6236190790001,-72.229125976,0
			42.6217994690002,-72.229728699,0
			42.6218109140002,-72.2272262569999,0
			42.6149902350001,-72.2277832029998,0
			42.6140213020001,-72.2383728019999,0
			42.6135406490002,-72.2420959459999,0
			42.6116485610002,-72.254539489,0
			42.6053009030002,-72.253219605,0
			42.6043586740001,-72.25819397,0
			42.600719451,-72.260017396,0
			42.5997886650001,-72.2631301869999,0
			42.600669861,-72.2668762199999,0
			42.575710297,-72.2616195679999,0
			42.5774993900002,-72.26661682,0
			42.5778999320001,-72.2747192379999,0
			42.5774307250001,-72.277206421,0
			42.5701599120001,-72.2764968879999,0
			42.543392182,-72.270599364,0
			42.5329513560002,-72.268623352,0
			42.5135421760001,-72.2447586059999,0
			42.4796409600002,-72.2916564939999,0
			42.4410591120002,-72.2831268309999,0
			42.4369506840001,-72.2874374379999,0
			42.4355812080001,-72.288665771,0
			42.4342117310002,-72.2898864749999,0
			42.4300994880002,-72.294197083,0
			42.4259796150001,-72.2978668219998,0
			42.4232292170001,-72.3021926869999,0
			42.4177589430001,-72.305847168,0
			42.4144783020001,-72.307495118,0
			42.414112092,-72.3076782219999,0
			42.4086494460001,-72.3094787589999,0
			42.4018096930001,-72.3131332399999,0
			42.3954315190001,-72.314910888,0
			42.3886299130001,-72.3129730219999,0
			42.3831787120002,-72.312904359,0
			42.379089356,-72.3122406009999,0
			42.3736419680001,-72.3127975469999,0
			42.3627395620001,-72.3120498659999,0
			42.358200074,-72.3113708499998,0
			42.3522911070001,-72.3119277959999,0
			42.3431892410002,-72.314300537,0
			42.3395309450001,-72.3179931649998,0
			42.3344993590001,-72.3228912349999,0
			42.329029083,-72.3259277339999,0
			42.3199195860001,-72.328918457,0
			42.3194389350001,-72.3326263429999,0
			42.3148803720001,-72.335678101,0
			42.3088989270001,-72.3473968499998,0
			42.3061409000001,-72.3523330689999,0
			42.3029403700002,-72.3560028079999,0
			42.306098938,-72.358528137,0
			42.3088188180002,-72.360420228,0
			42.3111190810002,-72.3561019909999,0
			42.3238487250001,-72.353782654,0
			42.327941894,-72.3532104499999,0
			42.3297691350002,-72.3526229849999,0
			42.332038879,-72.3526382439999,0
			42.3365821840002,-72.3526916509999,0
			42.3374786380001,-72.3533172599999,0
			42.3479003920002,-72.3584213249999,0
			42.3497085570001,-72.3590621949999,0
			42.355621338,-72.3591384879999,0
			42.3647003170001,-72.359252929,0
			42.3678817750001,-72.359909057,0
			42.3701400760002,-72.361183166,0
			42.3719520560001,-72.3630599969999,0
			42.3773803710001,-72.3656158439999,0
			42.38056183,-72.366897584,0
			42.3851013180001,-72.36756897,0
			42.391910554,-72.3676605219999,0
			42.400989532,-72.369010926,0
			42.4082412720001,-72.3715896609999,0
			42.4132308960001,-72.3735122689999,0
			42.4144783020001,-72.3737182609999,0
			42.4173088070002,-72.3741760249999,0
			42.4200286870001,-72.375473023,0
			42.4171104430001,-72.403381349,0
			42.4144783020001,-72.4253158569999,0
			42.4074401870002,-72.4840087889999,0
			42.4144783020001,-72.4856338499999,0
			42.4332885750002,-72.4899673459999,0
			42.4225502020001,-72.5830078129998,0
			42.421070098,-72.597267151,0
			42.414951324,-72.6220169059999,0
			42.4144783020001,-72.6261444099999,0
			42.4055786140001,-72.7038574219999,0
			42.4144783020001,-72.7031936649999,0
			42.4528808590001,-72.700340271,0
			42.4518814090001,-72.7096405029999,0
			42.445968627,-72.757392883,0
			42.4523391730001,-72.7568893439999,0
			42.4518013000001,-72.765579224,0
			42.4559021000001,-72.7650375359999,0
			42.4564094540002,-72.7588272099999,0
			42.4605102540002,-72.7582778939999,0
			42.459991454,-72.7644882199999,0
			42.463630677,-72.763931274,0
			42.4653587330001,-72.773277282,0
			42.4667320250001,-72.7726898189999,0
			42.4839096070001,-72.871269226,0
			42.5083999630002,-72.8748626719999,0
			42.5243492130002,-72.870826721,0
			42.5252189630002,-72.8745727539999,0
			42.5274810790001,-72.875862121,0
			42.541110993,-72.8767471309999,0
			42.5559310920002,-72.9754028309999,0
		</coordinates>
	</polygon>
</kml>
