<?xml version="1.0" encoding="UTF-8"?>
<kml xmlns="http://earth.google.com/kml/2.2">
	<polygon id="Peru_Callao" samplingProbability="1">
		<coordinates>
			-11.827379,-77.1865619999999,0
			-11.826541,-77.1854099999999,0
			-11.8270639999999,-77.1830989999999,0
			-11.8273819999999,-77.1816939999999,0
			-11.8274389999999,-77.180328,0
			-11.826967,-77.177917,0
			-11.8254469999999,-77.173546,0
			-11.8256519999999,-77.1719059999999,0
			-11.8269599999999,-77.1673129999999,0
			-11.826874,-77.1652379999999,0
			-11.8268229999999,-77.1640239999999,0
			-11.8267379999999,-77.163798,0
			-11.826342,-77.16275,0
			-11.8234819999999,-77.157631,0
			-11.8218689999999,-77.152476,0
			-11.820667,-77.148636,0
			-11.8204722579999,-77.14580461,0
			-11.8202856089999,-77.1430908739999,0
			-11.8205649999999,-77.1413249999999,0
			-11.8205984849999,-77.14111467,0
			-11.820629111,-77.1409225949999,0
			-11.821351003,-77.138282948,0
			-11.8215970979999,-77.1341857909998,0
			-11.8215703429999,-77.133870068,0
			-11.8214826579999,-77.132835388,0
			-11.820821762,-77.1304550159999,0
			-11.8207768669999,-77.129525668,0
			-11.82076183,-77.129214377,0
			-11.8207292549999,-77.128540039,0
			-11.820228194,-77.127330617,0
			-11.8198955519998,-77.1265273349999,0
			-11.8200033499999,-77.126277198,0
			-11.8201112399999,-77.1260298779999,0
			-11.826001,-77.122192,0
			-11.8301429999999,-77.1180449999999,0
			-11.8310913939999,-77.1170956139999,0
			-11.8310989999999,-77.1170879989999,0
			-11.8311119679999,-77.1170785559999,0
			-11.8323979999999,-77.116142,0
			-11.834348399,-77.1156555319999,0
			-11.8367080689998,-77.1150665279999,0
			-11.838413239,-77.1142425539999,0
			-11.8405046469999,-77.113746643,0
			-11.84151443,-77.113351203,0
			-11.8422009999999,-77.1130819999999,0
			-11.8436409999999,-77.112518,0
			-11.8443939999999,-77.112577,0
			-11.8453909999999,-77.112656,0
			-11.8454576519999,-77.112677721,0
			-11.8474501039999,-77.1133270039999,0
			-11.848986,-77.113402999,0
			-11.8492439999999,-77.113329,0
			-11.849284183,-77.1133174829999,0
			-11.8497285839999,-77.1131896969999,0
			-11.8504162569999,-77.1124492179999,0
			-11.8510129999999,-77.1118059999999,0
			-11.8519375819999,-77.1108105259999,0
			-11.8533349999998,-77.1104539999999,0
			-11.8539895939999,-77.110287925,0
			-11.8545492129999,-77.1101456179999,0
			-11.8545544529999,-77.1101362419999,0
			-11.8548339999999,-77.1096359999999,0
			-11.8548572019999,-77.109594505,0
			-11.8548860039999,-77.109542937,0
			-11.8548945679999,-77.109428641,0
			-11.8549779859999,-77.108315182,0
			-11.8551809999999,-77.107945,0
			-11.8553719999999,-77.1075969999999,0
			-11.8565549999999,-77.106483,0
			-11.8578239999999,-77.1060409999999,0
			-11.8582979999999,-77.1055449999999,0
			-11.8585679899999,-77.104963585,0
			-11.8587017049999,-77.104675293,0
			-11.858718148,-77.104419316,0
			-11.858738,-77.1041049999999,0
			-11.8587719999999,-77.103577,0
			-11.8582979999999,-77.102287,0
			-11.8578359999998,-77.101028,0
			-11.8579545449999,-77.1006106819999,0
			-11.8580569999999,-77.10025,0
			-11.8605069999999,-77.0998769999999,0
			-11.8608619999999,-77.099823,0
			-11.8609198939998,-77.0998215839999,0
			-11.862742999,-77.099776999,0
			-11.8634524829999,-77.100064893,0
			-11.8651371929999,-77.1007462439999,0
			-11.8658678369999,-77.1007748709999,0
			-11.8663052989999,-77.1007919289999,0
			-11.8663469999999,-77.100782,0
			-11.866762143,-77.100685529,0
			-11.8672552099999,-77.1005706779998,0
			-11.8690423959999,-77.0996475219998,0
			-11.8702248359999,-77.098820824,0
			-11.870941,-77.0983199999999,0
			-11.871654,-77.097616,0
			-11.8735459999999,-77.095749,0
			-11.8741609169999,-77.0949366099999,0
			-11.8747759999999,-77.094124,0
			-11.8753419999999,-77.0937239999999,0
			-11.875446,-77.093651,0
			-11.8793439999999,-77.0935899989999,0
			-11.882107,-77.0929279999999,0
			-11.8852273349999,-77.0921810319999,0
			-11.8852399999999,-77.092178,0
			-11.8871269999999,-77.092247,0
			-11.887733,-77.092404,0
			-11.88870965,-77.092657592,0
			-11.888950188,-77.092719991,0
			-11.890973999,-77.0926279989999,0
			-11.891564,-77.0924469999999,0
			-11.8916954259999,-77.092407064,0
			-11.891744613,-77.092391967,0
			-11.8933937489999,-77.091452669,0
			-11.894677999,-77.0907209999999,0
			-11.896964,-77.090652,0
			-11.8999519999999,-77.089874,0
			-11.9003783749999,-77.0899040099999,0
			-11.9010050599999,-77.0899481199999,0
			-11.901046,-77.089951,0
			-11.9058745689999,-77.092018095,0
			-11.9109637089999,-77.0923247869999,0
			-11.9120789999999,-77.0923919999999,0
			-11.914267863,-77.0928184239999,0
			-11.9146249999999,-77.0928879999999,0
			-11.9152601639999,-77.093236968,0
			-11.9164186229999,-77.093874552,0
			-11.917373262,-77.094802891,0
			-11.918848,-77.096237,0
			-11.9198600539999,-77.096253663,0
			-11.922128001,-77.096291,0
			-11.9236869999999,-77.09684,0
			-11.9240199999999,-77.0972279999999,0
			-11.9251479999999,-77.098541,0
			-11.9260917739999,-77.1004775059999,0
			-11.9264009999999,-77.1011119999999,0
			-11.9275249999999,-77.1020889999999,0
			-11.9281319999999,-77.102362,0
			-11.929220001,-77.1028519989999,0
			-11.9312202279999,-77.1028371099999,0
			-11.9312349999999,-77.1028369999999,0
			-11.931585888,-77.102753088,0
			-11.9330539999999,-77.102402,0
			-11.9338489999999,-77.1025089999999,0
			-11.9349460009999,-77.103034999,0
			-11.935055253,-77.1030226949999,0
			-11.9358959999999,-77.1029279999999,0
			-11.936794,-77.1023559999999,0
			-11.9386699999998,-77.099365,0
			-11.9398640009999,-77.098282,0
			-11.9413769999999,-77.0977249999999,0
			-11.9413872889999,-77.0977248629999,0
			-11.9427319999999,-77.097707,0
			-11.943121,-77.097702,0
			-11.943380996,-77.0976109539999,0
			-11.9450599999999,-77.0970229999999,0
			-11.9471409999999,-77.095612,0
			-11.9486009999999,-77.0954839999999,0
			-11.949587702,-77.0953967469999,0
			-11.949664034,-77.0953900329999,0
			-11.9498989379999,-77.095619916,0
			-11.9507399999999,-77.096443,0
			-11.950865,-77.096913,0
			-11.9510137569999,-77.0974725199999,0
			-11.9510200009999,-77.097496,0
			-11.9503479949999,-77.099281032,0
			-11.950279,-77.0997269999999,0
			-11.9498456009998,-77.102513704,0
			-11.9498439999999,-77.102524,0
			-11.9496473999999,-77.1027739099999,0
			-11.9491469999999,-77.1034099999999,0
			-11.948686,-77.1039959999999,0
			-11.948593987,-77.104255536,0
			-11.9485020069999,-77.104515195,0
			-11.948559283,-77.106012725,0
			-11.948591232,-77.1068420419999,0
			-11.948753321,-77.1073411529999,0
			-11.9490969999999,-77.108398,0
			-11.948905,-77.109612,0
			-11.9482559999999,-77.1108019999999,0
			-11.9462022709999,-77.1131516899999,0
			-11.9460630409999,-77.1164169309999,0
			-11.945256233,-77.1179962149999,0
			-11.9445772159999,-77.1203613279999,0
			-11.9443517059999,-77.1208608869999,0
			-11.9441199999999,-77.1213749999999,0
			-11.943789,-77.122108,0
			-11.9433763279999,-77.1225894499999,0
			-11.9423370359999,-77.1238021839999,0
			-11.9396133409998,-77.1253051749999,0
			-11.9392684609999,-77.1255898189999,0
			-11.939088,-77.1257389999998,0
			-11.9385599999999,-77.1261749999999,0
			-11.9380449999999,-77.127266,0
			-11.937936007,-77.1287689059999,0
			-11.938482865,-77.12872064,0
			-11.9391459999999,-77.1286619989999,0
			-11.940356,-77.1281629999999,0
			-11.9413563219999,-77.1277507649999,0
			-11.9422731399999,-77.1273727419999,0
			-11.943519592,-77.1263656619999,0
			-11.9458255769999,-77.1239471439999,0
			-11.9465173199999,-77.1235498139999,0
			-11.9471139999999,-77.1232069989999,0
			-11.947966557,-77.1224550699999,0
			-11.9495709999999,-77.1210399999999,0
			-11.9502125679998,-77.1207370359999,0
			-11.9505061759999,-77.1205983899999,0
			-11.9508349509999,-77.1205520109999,0
			-11.9531739999999,-77.120223999,0
			-11.9543819999999,-77.1193389999999,0
			-11.9557949999999,-77.1178439999999,0
			-11.9572279999999,-77.117643,0
			-11.9573215349999,-77.1176300639999,0
			-11.9612809999998,-77.1177439999998,0
			-11.966607,-77.117065,0
			-11.9674739739999,-77.116765535,0
			-11.9692559989999,-77.116149999,0
			-11.969998425,-77.115713511,0
			-11.9728499989999,-77.1140369989999,0
			-11.9756011329999,-77.11311037,0
			-11.9762939999999,-77.1128769999999,0
			-11.9795029999999,-77.112656,0
			-11.979525547,-77.1126599839998,0
			-11.981279931,-77.1129699099999,0
			-11.9820049999999,-77.1130979999999,0
			-11.9846219999999,-77.114517,0
			-11.9852580179999,-77.1153968149999,0
			-11.9866962419999,-77.117385864,0
			-11.9869589969999,-77.1176583069999,0
			-11.9873739999999,-77.1180879999999,0
			-11.9875507979999,-77.118271523,0
			-11.987746634,-77.118399515,0
			-11.989382743,-77.119468689,0
			-11.9910526269999,-77.1198349009999,0
			-11.9917704049999,-77.11957568,0
			-11.992605,-77.119274,0
			-11.9927215949999,-77.1192321459999,0
			-11.992960474,-77.119033915,0
			-11.993525,-77.118565,0
			-11.9935398299999,-77.1185531359999,0
			-11.993569409,-77.1185165889999,0
			-11.9938129999999,-77.1182149999999,0
			-11.9958508839999,-77.115697085,0
			-11.9987756739999,-77.1097587479999,0
			-11.999159581,-77.1089788529999,0
			-11.999615682,-77.1077631209999,0
			-12.0008309999999,-77.104523,0
			-12.0014129999999,-77.103689,0
			-12.0016879999999,-77.1032939999999,0
			-12.0021979999999,-77.101624,0
			-12.002544229,-77.100923655,0
			-12.004876,-77.0962069999999,0
			-12.0058199999999,-77.0953289999999,0
			-12.008769124,-77.092585973,0
			-12.0090109999998,-77.092361,0
			-12.0099339999999,-77.090858,0
			-12.0107629999998,-77.0899459999999,0
			-12.0116199999999,-77.089005,0
			-12.0124749999999,-77.088295,0
			-12.012512,-77.0882809999999,0
			-12.013428,-77.0879359999999,0
			-12.0159035419999,-77.088344858,0
			-12.015971,-77.0883559999999,0
			-12.0167119999999,-77.088829,0
			-12.0181569999999,-77.089752,0
			-12.01965425,-77.0904806679999,0
			-12.021983146,-77.0916137689999,0
			-12.0239481959999,-77.0923627179999,0
			-12.0245709999999,-77.0925999999999,0
			-12.025967,-77.0931319999999,0
			-12.029325,-77.0937649999999,0
			-12.032204889,-77.0954589349999,0
			-12.032271293,-77.0954462859999,0
			-12.0325649999999,-77.0953899999999,0
			-12.033058447,-77.09483306,0
			-12.0335519989999,-77.094276,0
			-12.0345389999999,-77.093741999,0
			-12.0363381579999,-77.0937499829999,0
			-12.0381450649999,-77.0937576289999,0
			-12.038210869,-77.093482971,0
			-12.0380617699999,-77.0932463979999,0
			-12.0380179999999,-77.0931769999999,0
			-12.0375322159999,-77.092406615,0
			-12.0375229999999,-77.0923919999999,0
			-12.0375288069999,-77.0916138829999,0
			-12.0375385269999,-77.090248107,0
			-12.037324246,-77.0896435619999,0
			-12.037113,-77.089049,0
			-12.0369459999999,-77.088577,0
			-12.0368189999999,-77.0853919999999,0
			-12.036809478,-77.0851415669999,0
			-12.0368089739999,-77.0851289189999,0
			-12.0358819999998,-77.082207,0
			-12.0359249109999,-77.0813217159999,0
			-12.0391159619999,-77.081139002,0
			-12.0392679999999,-77.0827179999999,0
			-12.039503,-77.08296,0
			-12.039519023,-77.0829769969999,0
			-12.0422343279999,-77.082692666,0
			-12.043740273,-77.08253479,0
			-12.046547889,-77.0819625859999,0
			-12.0467796329999,-77.081359863,0
			-12.0464840189999,-77.0785902549999,0
			-12.0469769999999,-77.0784339999999,0
			-12.0475430769999,-77.0782552909999,0
			-12.0485409999998,-77.0781899999999,0
			-12.0500030759999,-77.078094527,0
			-12.0501459999999,-77.079085,0
			-12.0509178659998,-77.0844454299999,0
			-12.0513591769999,-77.087509156,0
			-12.0516099919999,-77.087821961,0
			-12.0616500919999,-77.0880737559999,0
			-12.0634198069999,-77.1080250059999,0
			-12.063434,-77.1081849989999,0
			-12.0654489999998,-77.108100999,0
			-12.066388,-77.1082989999999,0
			-12.0670689999999,-77.1088329999999,0
			-12.068564,-77.1108319999999,0
			-12.0690429989999,-77.1111679989999,0
			-12.0698799999999,-77.1089099989999,0
			-12.0708439999999,-77.107086,0
			-12.0730409999999,-77.1067959999999,0
			-12.0735899999999,-77.1071469999999,0
			-12.073615,-77.1086579999998,0
			-12.0738200009999,-77.10907,0
			-12.0744670019999,-77.1091830599999,0
			-12.074604001,-77.109207,0
			-12.0748399999999,-77.1091842019999,0
			-12.0770469999999,-77.1089709999999,0
			-12.0772402929999,-77.1099982759999,0
			-12.0774029999998,-77.1108629999999,0
			-12.0786249999999,-77.1108399989999,0
			-12.0794519989999,-77.1110839989999,0
			-12.0803301189999,-77.1101309429999,0
			-12.0803660669999,-77.1100920319999,0
			-12.0804159999999,-77.11097,0
			-12.08014,-77.11097,0
			-12.08014,-77.111526,0
			-12.0798599999998,-77.111526,0
			-12.0798599999998,-77.112083,0
			-12.0795839999999,-77.112083,0
			-12.0795839999999,-77.1126399999999,0
			-12.079306,-77.1126399999999,0
			-12.079306,-77.1134719999999,0
			-12.0790279999999,-77.1134719999999,0
			-12.0790279999999,-77.114029,0
			-12.0787499999999,-77.114029,0
			-12.0787499999999,-77.1145859999999,0
			-12.0784699999999,-77.1145859999999,0
			-12.078472,-77.1154169999999,0
			-12.0781939999998,-77.1154169999999,0
			-12.0781939999998,-77.1159739999999,0
			-12.0779159999999,-77.1159739999999,0
			-12.0779179999999,-77.116531,0
			-12.077638,-77.116531,0
			-12.077638,-77.117081,0
			-12.0773599999998,-77.117081,0
			-12.0773619999999,-77.1179199999999,0
			-12.0770839999999,-77.1179199999999,0
			-12.0770839999999,-77.1184689999999,0
			-12.0768039999999,-77.1184689999999,0
			-12.076806,-77.119026,0
			-12.0765279999998,-77.119026,0
			-12.0765279999998,-77.119858,0
			-12.0762499999999,-77.119858,0
			-12.0762499999999,-77.1204149999999,0
			-12.075972,-77.1204149999999,0
			-12.075972,-77.1209719999999,0
			-12.0756939999998,-77.1209719999999,0
			-12.0756939999998,-77.121246,0
			-12.0754159999999,-77.121246,0
			-12.0754159999999,-77.121529,0
			-12.0756939999998,-77.121529,0
			-12.0756939999998,-77.1218029999999,0
			-12.0754159999999,-77.1218029999999,0
			-12.0754159999999,-77.122643,0
			-12.0751369999999,-77.122643,0
			-12.07514,-77.123192,0
			-12.0748619999998,-77.123192,0
			-12.0748619999998,-77.1237489999999,0
			-12.0745809999999,-77.1237489999999,0
			-12.0745839999999,-77.1245799999999,0
			-12.074306,-77.1245799999999,0
			-12.074306,-77.1251369999999,0
			-12.0740279999998,-77.1251369999999,0
			-12.0740279999998,-77.1259689999999,0
			-12.0737489999999,-77.1259689999999,0
			-12.0737489999999,-77.126526,0
			-12.0734709999999,-77.126526,0
			-12.0734709999999,-77.127357,0
			-12.0731929999999,-77.127357,0
			-12.0731929999999,-77.12764,0
			-12.0729149999999,-77.12764,0
			-12.0729179999999,-77.1284709999999,0
			-12.07264,-77.1284709999999,0
			-12.07264,-77.1293029999999,0
			-12.0723589999999,-77.1293029999999,0
			-12.0723609999999,-77.12986,0
			-12.0720829999999,-77.12986,0
			-12.0720829999999,-77.1304169999999,0
			-12.0718049999999,-77.1304169999999,0
			-12.0718049999999,-77.130974,0
			-12.0715269999999,-77.130974,0
			-12.0715269999999,-77.131805,0
			-12.0712489999999,-77.131805,0
			-12.0712489999999,-77.1323619999999,0
			-12.0709729999999,-77.1323619999999,0
			-12.0709729999999,-77.1331939999999,0
			-12.0706929999999,-77.1331939999999,0
			-12.0706929999999,-77.134308,0
			-12.0704169999999,-77.134308,0
			-12.0704169999999,-77.135139,0
			-12.0701369999999,-77.135139,0
			-12.0701389999999,-77.1356959999999,0
			-12.0700189999999,-77.1356959999999,0
			-12.0698609999999,-77.1356959999999,0
			-12.0698609999999,-77.1361239999999,0
			-12.0698609999999,-77.136803,0
			-12.0696129999999,-77.136803,0
			-12.0695829999999,-77.1381909999998,0
			-12.0693049999999,-77.1381909999998,0
			-12.0693049999999,-77.1395799999999,0
			-12.0690269999999,-77.1395799999999,0
			-12.0690269999999,-77.1406939999999,0
			-12.0687509999999,-77.1406939999999,0
			-12.0687509999999,-77.142639,0
			-12.0684709999999,-77.142639,0
			-12.0684709999999,-77.1445849999999,0
			-12.0681949999999,-77.1445849999999,0
			-12.0681949999999,-77.1465299999999,0
			-12.0679169999999,-77.1465299999999,0
			-12.0679169999999,-77.148476,0
			-12.0676389999999,-77.148476,0
			-12.0676389999999,-77.149216,0
			-12.0676389999999,-77.150055,0
			-12.0676389999999,-77.154305,0
			-12.0679169999999,-77.154305,0
			-12.0679169999999,-77.156731,0
			-12.0679169999999,-77.1570819999999,0
			-12.0681949999999,-77.1570819999999,0
			-12.0681949999999,-77.1573639999999,0
			-12.068346,-77.1573639999999,0
			-12.0687509999999,-77.1573639999999,0
			-12.0687509999999,-77.157639,0
			-12.0690269999999,-77.157639,0
			-12.0690269999999,-77.157913,0
			-12.0695809999999,-77.157913,0
			-12.0695809999999,-77.1581949999999,0
			-12.0698609999999,-77.1581949999999,0
			-12.0698609999999,-77.15847,0
			-12.0701389999999,-77.15847,0
			-12.0701369999999,-77.1587519999999,0
			-12.0706929999999,-77.1587519999999,0
			-12.0706929999999,-77.1590269999999,0
			-12.0709729999999,-77.1590269999999,0
			-12.0709729999999,-77.159302,0
			-12.0712489999999,-77.1593089999999,0
			-12.0712489999999,-77.1595839999999,0
			-12.0715269999999,-77.1595839999999,0
			-12.0715269999999,-77.1598589999999,0
			-12.0718049999999,-77.1598589999999,0
			-12.0718049999999,-77.1601409999998,0
			-12.0720829999999,-77.1601409999998,0
			-12.0720829999999,-77.1604159999999,0
			-12.0723609999999,-77.1604159999999,0
			-12.0723589999999,-77.1606979999999,0
			-12.0729149999999,-77.1606979999999,0
			-12.0729149999999,-77.160973,0
			-12.0734709999999,-77.160973,0
			-12.0734709999999,-77.1612469999999,0
			-12.0737489999999,-77.1612469999999,0
			-12.0737489999999,-77.161804,0
			-12.0740279999998,-77.161804,0
			-12.0740279999998,-77.1623609999999,0
			-12.074306,-77.1623609999999,0
			-12.074306,-77.162636,0
			-12.0745839999999,-77.162636,0
			-12.0745809999999,-77.1631929999999,0
			-12.0748619999998,-77.1631929999999,0
			-12.0748619999998,-77.1648639999999,0
			-12.0745809999999,-77.1648639999999,0
			-12.0745839999999,-77.166252,0
			-12.074306,-77.166252,0
			-12.074306,-77.1679149999999,0
			-12.0745839999999,-77.1679149999999,0
			-12.0745809999999,-77.1684719999999,0
			-12.0748619999998,-77.1684719999999,0
			-12.0748619999998,-77.1693039999998,0
			-12.0745809999999,-77.1693039999998,0
			-12.0745839999999,-77.169586,0
			-12.074306,-77.169586,0
			-12.074306,-77.1698609999999,0
			-12.0740279999998,-77.1698609999999,0
			-12.0740279999998,-77.170135,0
			-12.0737489999999,-77.170135,0
			-12.0737489999999,-77.170418,0
			-12.0734709999999,-77.170418,0
			-12.0734709999999,-77.1706919999999,0
			-12.0732889999999,-77.1706919999999,0
			-12.0729149999999,-77.1706919999999,0
			-12.0729179999999,-77.170418,0
			-12.072512,-77.170418,0
			-12.0723589999999,-77.170418,0
			-12.0723609999999,-77.170288,0
			-12.0723609999999,-77.1698609999999,0
			-12.0720829999999,-77.1698609999999,0
			-12.0720829999999,-77.169586,0
			-12.0718049999999,-77.169586,0
			-12.0718049999999,-77.169212,0
			-12.0718049999999,-77.1687469999999,0
			-12.0715269999999,-77.1687469999999,0
			-12.0715269999999,-77.16864,0
			-12.0715269999999,-77.168198,0
			-12.0712489999999,-77.168198,0
			-12.0712489999999,-77.1680679999999,0
			-12.0712489999999,-77.1676409999999,0
			-12.0709729999999,-77.1676409999999,0
			-12.0709729999999,-77.167496,0
			-12.0709729999999,-77.167084,0
			-12.0707569999999,-77.167053,0
			-12.0706929999999,-77.1669239999999,0
			-12.0706929999999,-77.1668089999999,0
			-12.0704169999999,-77.1668089999999,0
			-12.0704169999999,-77.1663589999999,0
			-12.0704169999999,-77.166252,0
			-12.0701369999999,-77.166252,0
			-12.0701389999999,-77.16597,0
			-12.0698609999999,-77.16597,0
			-12.0698609999999,-77.1646879999999,0
			-12.0698609999999,-77.1643069999999,0
			-12.0697449999999,-77.1643069999999,0
			-12.0695809999999,-77.1643069999999,0
			-12.0695829999999,-77.1638409999999,0
			-12.0695829999999,-77.1634749999999,0
			-12.0694169999999,-77.1634749999999,0
			-12.0693049999999,-77.1634749999999,0
			-12.0693049999999,-77.163223,0
			-12.0693049999999,-77.1629179999999,0
			-12.0691679999999,-77.1629179999999,0
			-12.0690269999999,-77.1629179999999,0
			-12.0690269999999,-77.162605,0
			-12.0690269999999,-77.1623609999999,0
			-12.0689179999999,-77.1623609999999,0
			-12.0687509999999,-77.1623609999999,0
			-12.0687509999999,-77.1619799999999,0
			-12.0687509999999,-77.161804,0
			-12.0684709999999,-77.161804,0
			-12.0684709999999,-77.1613619999999,0
			-12.0684709999999,-77.1612469999999,0
			-12.0681949999999,-77.1612469999999,0
			-12.0681949999999,-77.1608889999999,0
			-12.0681949999999,-77.1606979999999,0
			-12.0680489999999,-77.1606979999999,0
			-12.0679169999999,-77.1606979999999,0
			-12.0679169999999,-77.1605219999999,0
			-12.0679169999999,-77.1601409999998,0
			-12.0676389999999,-77.1601409999998,0
			-12.0676389999999,-77.1595839999999,0
			-12.0673609999999,-77.1595839999999,0
			-12.0673609999999,-77.159302,0
			-12.0670829999999,-77.159302,0
			-12.0670829999999,-77.1590269999999,0
			-12.0667939999999,-77.1590269999999,0
			-12.066527,-77.1590269999999,0
			-12.066527,-77.1587519999999,0
			-12.0662489999999,-77.1587519999999,0
			-12.0662489999999,-77.15847,0
			-12.0659729999999,-77.15847,0
			-12.0659729999999,-77.157913,0
			-12.0656949999999,-77.157913,0
			-12.0656949999999,-77.157639,0
			-12.0654169999999,-77.157639,0
			-12.0654169999999,-77.1571959999999,0
			-12.0654169999999,-77.1570819999999,0
			-12.0651389999999,-77.1570819999999,0
			-12.0651389999999,-77.156807,0
			-12.064861,-77.156807,0
			-12.064861,-77.156525,0
			-12.0645829999999,-77.156525,0
			-12.0645829999999,-77.1562499999999,0
			-12.0643049999999,-77.1562499999999,0
			-12.0643049999999,-77.155975,0
			-12.064027,-77.155975,0
			-12.064027,-77.1556929999999,0
			-12.0637509999999,-77.1556929999999,0
			-12.0637509999999,-77.1554179999999,0
			-12.063195,-77.1554179999999,0
			-12.063195,-77.155136,0
			-12.0629169999999,-77.155136,0
			-12.0629169999999,-77.1548609999999,0
			-12.0626359999999,-77.1548609999999,0
			-12.0626389999999,-77.1531679999999,0
			-12.0626389999999,-77.1529159999999,0
			-12.0624679999999,-77.1529159999999,0
			-12.062361,-77.1529159999999,0
			-12.062361,-77.1527629999999,0
			-12.062361,-77.152641,0
			-12.0618069999999,-77.152641,0
			-12.0618069999999,-77.152359,0
			-12.0612509999999,-77.152359,0
			-12.0612509999999,-77.1520839999999,0
			-12.060695,-77.1520839999999,0
			-12.060695,-77.152359,0
			-12.05986,-77.152359,0
			-12.05986,-77.1520839999999,0
			-12.0593039999999,-77.1520839999999,0
			-12.0593039999999,-77.1512529999999,0
			-12.059029,-77.1512529999999,0
			-12.059029,-77.1501689999999,0
			-12.059029,-77.149582,0
			-12.05886,-77.149582,0
			-12.0584719999999,-77.149582,0
			-12.0584719999999,-77.149307,0
			-12.057916,-77.149307,0
			-12.057916,-77.1491549999999,0
			-12.057916,-77.1490249999999,0
			-12.05736,-77.1490249999999,0
			-12.05736,-77.149307,0
			-12.057082,-77.149307,0
			-12.057082,-77.149582,0
			-12.0568059999999,-77.149582,0
			-12.0568059999999,-77.1498639999999,0
			-12.0557509999999,-77.1498639999999,0
			-12.055416,-77.1498639999999,0
			-12.055416,-77.150139,0
			-12.054584,-77.150139,0
			-12.054584,-77.1490249999999,0
			-12.0559719999999,-77.1490249999999,0
			-12.0559719999999,-77.1481929999999,0
			-12.055694,-77.1481929999999,0
			-12.055694,-77.147636,0
			-12.0554689999999,-77.147636,0
			-12.0551379999999,-77.147636,0
			-12.0551379999999,-77.147362,0
			-12.054997,-77.147362,0
			-12.0543059999999,-77.147362,0
			-12.0543059999999,-77.1470869999999,0
			-12.054028,-77.1470869999999,0
			-12.054028,-77.146805,0
			-12.05375,-77.146805,0
			-12.05375,-77.1465299999999,0
			-12.0534719999999,-77.1465299999999,0
			-12.0534719999999,-77.146248,0
			-12.053194,-77.146248,0
			-12.053194,-77.1456909999999,0
			-12.052916,-77.1456909999999,0
			-12.052916,-77.145416,0
			-12.0526379999999,-77.145416,0
			-12.0526399999999,-77.145142,0
			-12.052362,-77.145142,0
			-12.052362,-77.1456909999999,0
			-12.0520819999999,-77.1456909999999,0
			-12.052084,-77.146248,0
			-12.0501379999999,-77.146248,0
			-12.0501379999999,-77.146019,0
			-12.0501379999999,-77.1445849999999,0
			-12.0493059999999,-77.1445849999999,0
			-12.0493059999999,-77.145416,0
			-12.049028,-77.145416,0
			-12.049028,-77.145889,0
			-12.049028,-77.146248,0
			-12.0484719999999,-77.146248,0
			-12.0484719999999,-77.145973,0
			-12.0476369999999,-77.145973,0
			-12.0476399999999,-77.1456909999999,0
			-12.047362,-77.1456909999999,0
			-12.047362,-77.145416,0
			-12.0470809999998,-77.145416,0
			-12.0470839999999,-77.145142,0
			-12.0469669999999,-77.145142,0
			-12.0468059999999,-77.145142,0
			-12.0468059999999,-77.1448589999999,0
			-12.0462489999999,-77.1448589999999,0
			-12.0462489999999,-77.145142,0
			-12.0459709999999,-77.145142,0
			-12.0459709999999,-77.145416,0
			-12.045693,-77.145416,0
			-12.045693,-77.1456909999999,0
			-12.0454179999999,-77.1456909999999,0
			-12.0454179999999,-77.145973,0
			-12.0451389999999,-77.145973,0
			-12.0451389999999,-77.146248,0
			-12.0443049999999,-77.146248,0
			-12.0443049999999,-77.145973,0
			-12.044027,-77.145973,0
			-12.044027,-77.1456909999999,0
			-12.0434709999999,-77.1456909999999,0
			-12.0434709999999,-77.145416,0
			-12.043195,-77.145416,0
			-12.043195,-77.145142,0
			-12.0429169999999,-77.145142,0
			-12.0429169999999,-77.1448589999999,0
			-12.042361,-77.1448589999999,0
			-12.042361,-77.1445849999999,0
			-12.0429169999999,-77.1445849999999,0
			-12.0429169999999,-77.144302,0
			-12.043195,-77.144302,0
			-12.043195,-77.1440279999999,0
			-12.0437489999998,-77.1440279999999,0
			-12.0437489999998,-77.1437529999999,0
			-12.044027,-77.1437529999999,0
			-12.044027,-77.143471,0
			-12.0443049999999,-77.143471,0
			-12.0443049999999,-77.143196,0
			-12.044861,-77.143196,0
			-12.044861,-77.1429139999999,0
			-12.0451389999999,-77.1429139999999,0
			-12.0451389999999,-77.142639,0
			-12.0454179999999,-77.142639,0
			-12.0454179999999,-77.141808,0
			-12.0451389999999,-77.141808,0
			-12.0451389999999,-77.1415249999999,0
			-12.044861,-77.1415249999999,0
			-12.044861,-77.141808,0
			-12.0443049999999,-77.141808,0
			-12.0443049999999,-77.1415249999999,0
			-12.044027,-77.1415249999999,0
			-12.044027,-77.141251,0
			-12.043195,-77.141251,0
			-12.043195,-77.140976,0
			-12.0426389999999,-77.140976,0
			-12.0426389999999,-77.141251,0
			-12.0420829999998,-77.141251,0
			-12.0420829999998,-77.1415249999999,0
			-12.041527,-77.1415249999999,0
			-12.041527,-77.141808,0
			-12.0409709999999,-77.141808,0
			-12.0409709999999,-77.1420819999999,0
			-12.0406929999999,-77.1420819999999,0
			-12.0406929999999,-77.1423649999999,0
			-12.0401389999999,-77.1423649999999,0
			-12.0401389999999,-77.142639,0
			-12.0395829999998,-77.142639,0
			-12.0395829999998,-77.1429139999999,0
			-12.0393049999999,-77.1429139999999,0
			-12.0393049999999,-77.143196,0
			-12.039029,-77.143196,0
			-12.039029,-77.143471,0
			-12.0387489999999,-77.143471,0
			-12.0387489999999,-77.1448589999999,0
			-12.039029,-77.1448589999999,0
			-12.039029,-77.145416,0
			-12.0393049999999,-77.145416,0
			-12.0393049999999,-77.145973,0
			-12.0395829999998,-77.145973,0
			-12.0395829999998,-77.1465299999999,0
			-12.039861,-77.1465299999999,0
			-12.039861,-77.146805,0
			-12.0404169999998,-77.146805,0
			-12.0404169999998,-77.1470869999999,0
			-12.040695,-77.1470869999999,0
			-12.040695,-77.1487499999999,0
			-12.0404169999998,-77.1487499999999,0
			-12.0404169999998,-77.1490249999999,0
			-12.0401389999999,-77.1490249999999,0
			-12.0401389999999,-77.149307,0
			-12.0387489999999,-77.149307,0
			-12.0387489999999,-77.1490249999999,0
			-12.0379149999999,-77.1490249999999,0
			-12.0379169999998,-77.1487499999999,0
			-12.0365269999999,-77.1487499999999,0
			-12.0365269999999,-77.148476,0
			-12.0356919999999,-77.148476,0
			-12.0356919999999,-77.1479189999999,0
			-12.0351389999999,-77.1479189999999,0
			-12.0351389999999,-77.1481929999999,0
			-12.0348609999999,-77.1481929999999,0
			-12.0348609999999,-77.1479189999999,0
			-12.0345829999999,-77.1479189999999,0
			-12.0345829999999,-77.1481929999999,0
			-12.0334699999999,-77.1481929999999,0
			-12.0334729999999,-77.148476,0
			-12.0331949999999,-77.148476,0
			-12.0331949999999,-77.1487499999999,0
			-12.0315279999999,-77.1487499999999,0
			-12.0315279999999,-77.1490249999999,0
			-12.0309719999999,-77.1490249999999,0
			-12.0309719999999,-77.148476,0
			-12.0304159999999,-77.148476,0
			-12.0304159999999,-77.1481929999999,0
			-12.0298619999999,-77.1481929999999,0
			-12.0298619999999,-77.1479189999999,0
			-12.0293059999999,-77.1479189999999,0
			-12.0293059999999,-77.147636,0
			-12.0290259999999,-77.147636,0
			-12.0290259999999,-77.1475139999999,0
			-12.0290279999999,-77.147362,0
			-12.028556,-77.147362,0
			-12.0281939999999,-77.147362,0
			-12.0281939999999,-77.147636,0
			-12.0270839999999,-77.147636,0
			-12.0270839999999,-77.147362,0
			-12.0265279999999,-77.147362,0
			-12.0265279999999,-77.146805,0
			-12.0256939999999,-77.146805,0
			-12.0256939999999,-77.1465299999999,0
			-12.0248619999999,-77.1465299999999,0
			-12.0248619999999,-77.146248,0
			-12.0243059999999,-77.146248,0
			-12.0243059999999,-77.145973,0
			-12.0237499999999,-77.145973,0
			-12.0237499999999,-77.145416,0
			-12.023472,-77.145416,0
			-12.023472,-77.145142,0
			-12.0226399999999,-77.145142,0
			-12.0226399999999,-77.1448589999999,0
			-12.022081,-77.1448589999999,0
			-12.022081,-77.144302,0
			-12.0215279999999,-77.144302,0
			-12.0215279999999,-77.1440279999999,0
			-12.020972,-77.1440279999999,0
			-12.020972,-77.1437529999999,0
			-12.0206959999999,-77.1437529999999,0
			-12.0206959999999,-77.143471,0
			-12.02014,-77.143471,0
			-12.02014,-77.143196,0
			-12.0198589999999,-77.143196,0
			-12.0198589999999,-77.1429139999999,0
			-12.019303,-77.1429139999999,0
			-12.019305,-77.142639,0
			-12.0190269999999,-77.142639,0
			-12.0190269999999,-77.1423649999999,0
			-12.018474,-77.1423649999999,0
			-12.018474,-77.1420819999999,0
			-12.0181929999999,-77.1420819999999,0
			-12.0181929999999,-77.141808,0
			-12.017917,-77.141808,0
			-12.017917,-77.1415249999999,0
			-12.017639,-77.1415249999999,0
			-12.017639,-77.141251,0
			-12.017083,-77.141251,0
			-12.017083,-77.140976,0
			-12.016805,-77.140976,0
			-12.016805,-77.1406939999999,0
			-12.015139,-77.1406939999999,0
			-12.015139,-77.140976,0
			-12.014305,-77.140976,0
			-12.014305,-77.1406939999999,0
			-12.013749,-77.1406939999999,0
			-12.013749,-77.140419,0
			-12.0131929999999,-77.140419,0
			-12.0131929999999,-77.140137,0
			-12.012639,-77.140137,0
			-12.012639,-77.1398619999999,0
			-12.012083,-77.1398619999999,0
			-12.012083,-77.1395799999999,0
			-12.0115269999999,-77.1395799999999,0
			-12.0115269999999,-77.139305,0
			-12.010417,-77.139305,0
			-12.010417,-77.1390299999999,0
			-12.009583,-77.1390299999999,0
			-12.009583,-77.1387479999999,0
			-12.008749,-77.1387479999999,0
			-12.008749,-77.138474,0
			-12.0076389999999,-77.138474,0
			-12.0076389999999,-77.1381909999998,0
			-12.0068039999998,-77.1381909999998,0
			-12.0068039999998,-77.1379169999999,0
			-12.0059699999999,-77.1379169999999,0
			-12.0059729999999,-77.137642,0
			-12.0045819999999,-77.137642,0
			-12.0045819999999,-77.1373599999999,0
			-12.0029159999999,-77.1373599999999,0
			-12.0029159999999,-77.137085,0
			-12.0012499999999,-77.137085,0
			-12.0012499999999,-77.1373599999999,0
			-12.0009719999999,-77.1373599999999,0
			-12.0009719999999,-77.137085,0
			-12.0006939999999,-77.137085,0
			-12.0006939999999,-77.136803,0
			-12.0001379999999,-77.136803,0
			-12.0001399999998,-77.1365279999999,0
			-11.9998599999999,-77.1365279999999,0
			-11.9995819999999,-77.1365279999999,0
			-11.9995839999999,-77.136253,0
			-11.9990279999999,-77.136253,0
			-11.9990279999999,-77.135971,0
			-11.9981939999999,-77.135971,0
			-11.9981939999999,-77.1356959999999,0
			-11.9956939999999,-77.1356959999999,0
			-11.9956939999999,-77.1354139999999,0
			-11.9926399999999,-77.1354139999999,0
			-11.9926399999999,-77.135139,0
			-11.9912489999999,-77.135139,0
			-11.9912489999999,-77.1348649999999,0
			-11.9895809999999,-77.1348649999999,0
			-11.9895829999999,-77.1345829999999,0
			-11.9881949999998,-77.1345829999999,0
			-11.9881949999998,-77.134308,0
			-11.9868049999999,-77.134308,0
			-11.9868049999999,-77.1340259999998,0
			-11.9851389999999,-77.1340259999998,0
			-11.9851389999999,-77.1337509999999,0
			-11.9834729999999,-77.1337509999999,0
			-11.9834729999999,-77.1334689999999,0
			-11.9812509999999,-77.1334689999999,0
			-11.9812509999999,-77.1331939999999,0
			-11.979029,-77.1331939999999,0
			-11.979029,-77.1329189999999,0
			-11.976806,-77.1329189999999,0
			-11.976806,-77.1331939999999,0
			-11.972638,-77.1331939999999,0
			-11.972638,-77.1334689999999,0
			-11.9681939999998,-77.1334689999999,0
			-11.9681939999998,-77.1337509999999,0
			-11.9659709999999,-77.1337509999999,0
			-11.9659709999999,-77.1340259999998,0
			-11.9637489999999,-77.1340259999998,0
			-11.9637489999999,-77.1337509999999,0
			-11.9627509999999,-77.1337509999999,0
			-11.9623609999999,-77.1337509999999,0
			-11.9623609999999,-77.1340259999998,0
			-11.9620829999999,-77.1340259999998,0
			-11.9620829999999,-77.134308,0
			-11.9615269999999,-77.134308,0
			-11.9615269999999,-77.1345829999999,0
			-11.9612509999999,-77.1345829999999,0
			-11.9612509999999,-77.1348649999999,0
			-11.9584729999999,-77.1348649999999,0
			-11.9584729999999,-77.135139,0
			-11.9568049999999,-77.135139,0
			-11.9568049999999,-77.1354139999999,0
			-11.9554169999998,-77.1354139999999,0
			-11.9554169999998,-77.1356959999999,0
			-11.9537509999998,-77.1356959999999,0
			-11.9537509999998,-77.135971,0
			-11.9514259999999,-77.135971,0
			-11.9509719999999,-77.135971,0
			-11.9509719999999,-77.136253,0
			-11.949238,-77.136253,0
			-11.9484699999999,-77.136253,0
			-11.9484699999999,-77.1365279999999,0
			-11.947916,-77.1365279999999,0
			-11.947916,-77.136803,0
			-11.947084,-77.136803,0
			-11.947084,-77.137085,0
			-11.9459719999999,-77.137085,0
			-11.9459719999999,-77.1373599999999,0
			-11.9448619999999,-77.1373599999999,0
			-11.9448619999999,-77.137642,0
			-11.94375,-77.137642,0
			-11.94375,-77.1379169999999,0
			-11.9426399999999,-77.1379169999999,0
			-11.9426379999999,-77.1381909999998,0
			-11.9415279999999,-77.1381909999998,0
			-11.9415279999999,-77.138474,0
			-11.940415,-77.138474,0
			-11.940415,-77.1387479999999,0
			-11.9393059999999,-77.1387479999999,0
			-11.9393059999999,-77.1390299999999,0
			-11.937083,-77.1390299999999,0
			-11.937083,-77.139305,0
			-11.9343029999999,-77.139305,0
			-11.9343049999999,-77.1395799999999,0
			-11.932511,-77.1395799999999,0
			-11.9315269999999,-77.1395799999999,0
			-11.9315269999999,-77.1398619999999,0
			-11.9293049999999,-77.1398619999999,0
			-11.9293049999999,-77.140137,0
			-11.9284729999999,-77.140137,0
			-11.9284729999999,-77.140419,0
			-11.9276389999999,-77.140419,0
			-11.9276389999999,-77.1406939999999,0
			-11.9265259999999,-77.1406939999999,0
			-11.9265289999999,-77.140976,0
			-11.9256949999999,-77.140976,0
			-11.9256949999999,-77.141251,0
			-11.9245819999999,-77.141251,0
			-11.9245819999999,-77.1415249999999,0
			-11.9237479999999,-77.1415249999999,0
			-11.9237499999999,-77.141808,0
			-11.9229159999999,-77.141808,0
			-11.9229159999999,-77.1420819999999,0
			-11.922337,-77.1420819999999,0
			-11.9218059999999,-77.1420819999999,0
			-11.9218059999999,-77.1423649999999,0
			-11.9209719999998,-77.1423649999999,0
			-11.9209719999998,-77.142639,0
			-11.9198599999999,-77.142639,0
			-11.9198599999999,-77.1429139999999,0
			-11.9190279999999,-77.1429139999999,0
			-11.9190279999999,-77.143196,0
			-11.9184719999998,-77.143196,0
			-11.9184719999998,-77.143471,0
			-11.917638,-77.143471,0
			-11.917638,-77.1437529999999,0
			-11.9170839999999,-77.1437529999999,0
			-11.9170839999999,-77.1440279999999,0
			-11.9162499999999,-77.1440279999999,0
			-11.9162499999999,-77.144302,0
			-11.9156939999999,-77.144302,0
			-11.9156939999999,-77.1445849999999,0
			-11.9148619999999,-77.1445849999999,0
			-11.9148619999999,-77.1448589999999,0
			-11.914306,-77.1448589999999,0
			-11.914306,-77.145142,0
			-11.913472,-77.145142,0
			-11.913472,-77.145416,0
			-11.9129149999999,-77.145416,0
			-11.9129149999999,-77.1456909999999,0
			-11.9120839999999,-77.1456909999999,0
			-11.9120839999999,-77.145973,0
			-11.9112489999999,-77.145973,0
			-11.9112489999999,-77.146248,0
			-11.9104169999999,-77.146248,0
			-11.9104169999999,-77.1465299999999,0
			-11.9098609999999,-77.1465299999999,0
			-11.9098609999999,-77.146805,0
			-11.9096179999999,-77.146805,0
			-11.9090269999999,-77.146805,0
			-11.9090269999999,-77.1470869999999,0
			-11.9081949999999,-77.1470869999999,0
			-11.9081949999999,-77.147362,0
			-11.9073609999999,-77.147362,0
			-11.9073609999999,-77.147636,0
			-11.9056929999999,-77.147636,0
			-11.9056929999999,-77.1479189999999,0
			-11.9040269999999,-77.1479189999999,0
			-11.9040269999999,-77.1481929999999,0
			-11.9031949999999,-77.1481929999999,0
			-11.9031949999999,-77.148476,0
			-11.9023609999999,-77.148476,0
			-11.9023609999999,-77.1487499999999,0
			-11.901807,-77.1487499999999,0
			-11.901807,-77.1490249999999,0
			-11.900973,-77.1490249999999,0
			-11.900973,-77.149307,0
			-11.900139,-77.149307,0
			-11.900139,-77.149582,0
			-11.899304,-77.149582,0
			-11.899304,-77.1498639999999,0
			-11.8987509999999,-77.1498639999999,0
			-11.8987509999999,-77.150139,0
			-11.8981939999999,-77.150139,0
			-11.8981939999999,-77.150414,0
			-11.8973599999999,-77.150414,0
			-11.8973599999999,-77.1506959999999,0
			-11.896806,-77.1506959999999,0
			-11.896806,-77.15097,0
			-11.89625,-77.15097,0
			-11.89625,-77.1512529999999,0
			-11.8956939999999,-77.1512529999999,0
			-11.8956939999999,-77.151527,0
			-11.8948599999999,-77.151527,0
			-11.8948599999999,-77.151802,0
			-11.894304,-77.151802,0
			-11.894304,-77.1520839999999,0
			-11.8937479999999,-77.1520839999999,0
			-11.8937499999999,-77.152359,0
			-11.893472,-77.152359,0
			-11.893472,-77.152641,0
			-11.8931939999999,-77.152641,0
			-11.8931939999999,-77.1529159999999,0
			-11.89264,-77.1529159999999,0
			-11.89264,-77.1531909999999,0
			-11.8920839999999,-77.1531979999999,0
			-11.8920839999999,-77.153473,0
			-11.8912499999999,-77.153473,0
			-11.8912499999999,-77.153748,0
			-11.8906939999999,-77.153748,0
			-11.8906939999999,-77.1540299999999,0
			-11.8898599999999,-77.1540299999999,0
			-11.8898599999999,-77.154305,0
			-11.8887499999999,-77.154305,0
			-11.8887499999999,-77.1545869999999,0
			-11.887638,-77.1545869999999,0
			-11.887638,-77.1548609999999,0
			-11.8865279999999,-77.1548609999999,0
			-11.8865279999999,-77.155136,0
			-11.8843049999999,-77.155136,0
			-11.8843049999999,-77.1554179999999,0
			-11.8820809999999,-77.1554179999999,0
			-11.8820829999999,-77.1556929999999,0
			-11.8818049999999,-77.1556929999999,0
			-11.8818049999999,-77.155975,0
			-11.8804169999999,-77.155975,0
			-11.8804169999999,-77.1562499999999,0
			-11.8798609999999,-77.1562499999999,0
			-11.8798609999999,-77.156525,0
			-11.8793049999999,-77.156525,0
			-11.8793049999999,-77.156807,0
			-11.8787489999999,-77.156807,0
			-11.8787489999999,-77.1570819999999,0
			-11.8776389999999,-77.1570819999999,0
			-11.8776389999999,-77.1573639999999,0
			-11.8768049999999,-77.1573639999999,0
			-11.8768049999999,-77.157639,0
			-11.8762509999999,-77.157639,0
			-11.8762509999999,-77.157913,0
			-11.8754169999999,-77.157913,0
			-11.8754169999999,-77.1581949999999,0
			-11.874861,-77.1581949999999,0
			-11.874861,-77.15847,0
			-11.874027,-77.15847,0
			-11.874029,-77.1587519999999,0
			-11.873195,-77.1587519999999,0
			-11.873195,-77.1590269999999,0
			-11.8726389999999,-77.1590269999999,0
			-11.8726389999999,-77.159302,0
			-11.8718039999999,-77.159302,0
			-11.8718039999999,-77.1595839999999,0
			-11.871248,-77.1595839999999,0
			-11.8712509999999,-77.1598589999999,0
			-11.870694,-77.1598589999999,0
			-11.870694,-77.1601409999998,0
			-11.8701379999999,-77.1601409999998,0
			-11.8701379999999,-77.1604159999999,0
			-11.869582,-77.1604159999999,0
			-11.869582,-77.1606979999999,0
			-11.869026,-77.1606979999999,0
			-11.869026,-77.160973,0
			-11.8684699999999,-77.160973,0
			-11.8684699999999,-77.1612469999999,0
			-11.867916,-77.1612469999999,0
			-11.867916,-77.1615299999999,0
			-11.86736,-77.1615299999999,0
			-11.86736,-77.161804,0
			-11.866528,-77.161804,0
			-11.866528,-77.162086,0
			-11.86625,-77.162086,0
			-11.86625,-77.1623609999999,0
			-11.865694,-77.1623609999999,0
			-11.865694,-77.162636,0
			-11.8651379999999,-77.162636,0
			-11.8651379999999,-77.1629179999999,0
			-11.8645819999999,-77.1629179999999,0
			-11.8645819999999,-77.1631929999999,0
			-11.864028,-77.1631929999999,0
			-11.864028,-77.1634749999999,0
			-11.8634719999999,-77.1634749999999,0
			-11.8634719999999,-77.1637499999999,0
			-11.863194,-77.1637499999999,0
			-11.863194,-77.1640239999999,0
			-11.8626379999999,-77.1640239999999,0
			-11.8626379999999,-77.1643069999999,0
			-11.862084,-77.1643069999999,0
			-11.862084,-77.1645809999999,0
			-11.8618059999999,-77.1645809999999,0
			-11.8618059999999,-77.1648639999999,0
			-11.8612499999999,-77.1648639999999,0
			-11.8612499999999,-77.165138,0
			-11.8609719999999,-77.165138,0
			-11.8609719999999,-77.1654129999999,0
			-11.8604159999999,-77.1654129999999,0
			-11.8604159999999,-77.1656949999999,0
			-11.859862,-77.1656949999999,0
			-11.859862,-77.16597,0
			-11.8595809999999,-77.16597,0
			-11.8595839999999,-77.166252,0
			-11.859028,-77.166252,0
			-11.859028,-77.1665269999999,0
			-11.8584709999999,-77.1665269999999,0
			-11.8584709999999,-77.1668089999999,0
			-11.858193,-77.1668089999999,0
			-11.858193,-77.167084,0
			-11.8579179999999,-77.167084,0
			-11.8579179999999,-77.1673579999999,0
			-11.8570829999999,-77.1673579999999,0
			-11.8570829999999,-77.1676409999999,0
			-11.8568049999999,-77.1676409999999,0
			-11.8568049999999,-77.1679149999999,0
			-11.8562489999999,-77.1679149999999,0
			-11.8562489999999,-77.168198,0
			-11.8559709999999,-77.168198,0
			-11.8559709999999,-77.1684719999999,0
			-11.8554169999999,-77.1684719999999,0
			-11.8554169999999,-77.1687469999999,0
			-11.854861,-77.1687469999999,0
			-11.854861,-77.1690289999999,0
			-11.8545829999999,-77.1690289999999,0
			-11.8545829999999,-77.1693039999998,0
			-11.854027,-77.1693039999998,0
			-11.854027,-77.169586,0
			-11.8534709999999,-77.169586,0
			-11.8534709999999,-77.1698609999999,0
			-11.853193,-77.1698609999999,0
			-11.853193,-77.170135,0
			-11.8526389999999,-77.170135,0
			-11.8526389999999,-77.170418,0
			-11.8520829999999,-77.170418,0
			-11.8520829999999,-77.1706919999999,0
			-11.8518049999999,-77.1706919999999,0
			-11.8518049999999,-77.1709749999999,0
			-11.8512489999998,-77.1709749999999,0
			-11.8512489999998,-77.171249,0
			-11.8509729999999,-77.171249,0
			-11.8509729999999,-77.1715239999999,0
			-11.8504149999998,-77.1715239999999,0
			-11.8504149999998,-77.1718059999999,0
			-11.8498589999999,-77.1718059999999,0
			-11.849861,-77.1720809999999,0
			-11.8495829999998,-77.1720809999999,0
			-11.8495829999998,-77.172363,0
			-11.849027,-77.172363,0
			-11.849027,-77.1726379999999,0
			-11.8484729999999,-77.1726379999999,0
			-11.8484729999999,-77.17292,0
			-11.8481929999999,-77.17292,0
			-11.848195,-77.1734699999999,0
			-11.8479169999998,-77.1734699999999,0
			-11.8479169999998,-77.173752,0
			-11.8476389999999,-77.173752,0
			-11.8476389999999,-77.1740259999999,0
			-11.8470829999998,-77.1740259999999,0
			-11.8470829999998,-77.174583,0
			-11.8465259999999,-77.174583,0
			-11.846529,-77.1751399999999,0
			-11.8462509999998,-77.1751399999999,0
			-11.8462509999998,-77.175415,0
			-11.8459699999999,-77.175415,0
			-11.8459729999999,-77.1759719999999,0
			-11.845695,-77.1759719999999,0
			-11.845695,-77.1781919999999,0
			-11.8454169999998,-77.1781919999999,0
			-11.8454169999998,-77.1801379999999,0
			-11.845695,-77.1801379999999,0
			-11.845695,-77.181526,0
			-11.8459729999999,-77.181526,0
			-11.8459699999999,-77.182083,0
			-11.8462509999998,-77.182083,0
			-11.8462509999998,-77.1823579999999,0
			-11.846529,-77.1823579999999,0
			-11.8465259999999,-77.1826399999999,0
			-11.8468049999999,-77.1826399999999,0
			-11.8468049999999,-77.182915,0
			-11.8470829999998,-77.182915,0
			-11.8470829999998,-77.183197,0
			-11.847361,-77.183197,0
			-11.847361,-77.183746,0
			-11.8476389999999,-77.183746,0
			-11.8476389999999,-77.184029,0
			-11.8479169999998,-77.184029,0
			-11.8479169999998,-77.18486,0
			-11.847361,-77.18486,0
			-11.847361,-77.1851429999999,0
			-11.8459699999999,-77.1851429999999,0
			-11.8459699999999,-77.185417,0
			-11.8454169999998,-77.185417,0
			-11.8454169999998,-77.1851429999999,0
			-11.8448599999999,-77.1851429999999,0
			-11.8448599999999,-77.18486,0
			-11.8437479999999,-77.18486,0
			-11.8437479999999,-77.184586,0
			-11.8431919999999,-77.184586,0
			-11.8431919999999,-77.1843029999999,0
			-11.8426379999999,-77.1843029999999,0
			-11.8426379999999,-77.184029,0
			-11.8420819999999,-77.184029,0
			-11.8420819999999,-77.183746,0
			-11.8415259999999,-77.183746,0
			-11.8415259999999,-77.184029,0
			-11.8409699999999,-77.184029,0
			-11.8409719999999,-77.1843029999999,0
			-11.8406939999999,-77.1843029999999,0
			-11.8406939999999,-77.1868059999999,0
			-11.8395839999999,-77.1868059999999,0
			-11.8395839999999,-77.18708,0
			-11.8387499999999,-77.18708,0
			-11.8387499999999,-77.1868059999999,0
			-11.8381939999999,-77.1868059999999,0
			-11.8381939999999,-77.1865309999999,0
			-11.8376379999999,-77.1865309999999,0
			-11.8376379999999,-77.186249,0
			-11.8370839999999,-77.186249,0
			-11.837082,-77.1859739999999,0
			-11.8365279999999,-77.1859739999999,0
			-11.8365279999999,-77.185692,0
			-11.8362499999999,-77.185692,0
			-11.8362499999999,-77.185417,0
			-11.8356939999999,-77.185417,0
			-11.8356939999999,-77.185692,0
			-11.8351399999999,-77.185692,0
			-11.8351399999999,-77.1859739999999,0
			-11.8348619999999,-77.1859739999999,0
			-11.8348619999999,-77.186249,0
			-11.8334719999999,-77.186249,0
			-11.8334719999999,-77.1865309999999,0
			-11.8331959999999,-77.1865309999999,0
			-11.8331959999999,-77.1868059999999,0
			-11.832084,-77.1868059999999,0
			-11.832084,-77.18708,0
			-11.8315269999999,-77.18708,0
			-11.8315269999999,-77.1873629999999,0
			-11.831249,-77.1873629999999,0
			-11.831249,-77.1876369999999,0
			-11.8306929999999,-77.1876369999999,0
			-11.8306929999999,-77.188194,0
			-11.830418,-77.188194,0
			-11.830418,-77.1884689999999,0
			-11.8301399999999,-77.1884689999999,0
			-11.8301399999999,-77.188751,0
			-11.8298609999999,-77.188751,0
			-11.8298609999999,-77.1891329999999,0
			-11.8296559999999,-77.188952,0
			-11.8281499999999,-77.187622,0
			-11.827379,-77.1865619999999,0
		</coordinates>
	</polygon>
</kml>
