<?xml version="1.0" encoding="UTF-8"?>
<kml xmlns="http://earth.google.com/kml/2.2">
	<polygon id="Uruguay_Rocha_Castillos" samplingProbability="1">
		<coordinates>
			-34.502578,-53.9988109999999,0
			-34.502086,-53.997979,0
			-34.5015489999998,-53.997132,0
			-34.5011809999999,-53.9964419999999,0
			-34.500864,-53.9957949999999,0
			-34.50033,-53.994652,0
			-34.4999799999999,-53.9938699999999,0
			-34.4997299999999,-53.9935599999999,0
			-34.4991439999999,-53.992688,0
			-34.4984899999999,-53.9916499999999,0
			-34.49592,-53.9865899999999,0
			-34.4952999999999,-53.9856399999999,0
			-34.4940599999999,-53.98373,0
			-34.4936329999999,-53.9824559999999,0
			-34.4930729999999,-53.9814549999999,0
			-34.4923269999999,-53.9801179999999,0
			-34.4589119999999,-54.008251,0
			-34.440219,-54.026798,0
			-34.4380419999999,-54.0313109999999,0
			-34.4369259999999,-54.033625,0
			-34.435165,-54.0334819999999,0
			-34.4337389999999,-54.0333669999999,0
			-34.431996,-54.0323529999999,0
			-34.4284269999999,-54.030276,0
			-34.4255729999998,-54.0227609999999,0
			-34.4247089999999,-54.0204869999999,0
			-34.4220539999999,-54.0201559999999,0
			-34.4174839999999,-54.0195859999999,0
			-34.413247,-54.0176899999999,0
			-34.412363,-54.0134859999999,0
			-34.4131789999999,-54.01093,0
			-34.413247,-54.007715,0
			-34.4107359999999,-54.0055299999999,0
			-34.4105939999999,-54.0054069999999,0
			-34.4071259999999,-54.0026049999998,0
			-34.4063499999999,-54.0010379999999,0
			-34.405086,-53.9984829999999,0
			-34.4048139999999,-53.9937019999999,0
			-34.405494,-53.9900749999999,0
			-34.4120229999999,-53.9844699999999,0
			-34.416783,-53.9822439999999,0
			-34.4163069999999,-53.9748249999999,0
			-34.415695,-53.96922,0
			-34.415247,-53.9688789999999,0
			-34.4122269999999,-53.9665819999999,0
			-34.4016169999999,-53.967654,0
			-34.3977399999999,-53.9621309999999,0
			-34.3950869999998,-53.9577619999999,0
			-34.3935789999999,-53.9581929999999,0
			-34.3901899999999,-53.9591629999999,0
			-34.384,-53.951992,0
			-34.3822309999999,-53.948117,0
			-34.378207,-53.948584,0
			-34.374646,-53.9476009999999,0
			-34.371141,-53.9466339999999,0
			-34.368688,-53.9486499999999,0
			-34.364341,-53.9522229999999,0
			-34.358554,-53.9539309999999,0
			-34.3566709999999,-53.953563,0
			-34.355091,-53.9532539999999,0
			-34.354347,-53.9481019999999,0
			-34.3543269999999,-53.9436239999999,0
			-34.3543239999999,-53.942944,0
			-34.352433,-53.9424349999999,0
			-34.350093,-53.9435939999999,0
			-34.3486549999998,-53.9453359999999,0
			-34.3484979999999,-53.945526,0
			-34.347009,-53.9478439999999,0
			-34.3448819999999,-53.953898,0
			-34.344529,-53.958097,0
			-34.344351,-53.9602089999999,0
			-34.3428989999999,-53.961807,0
			-34.342011,-53.9627849999999,0
			-34.3322269999999,-53.9676789999999,0
			-34.322038,-53.9732169999999,0
			-34.3120129999999,-53.9786669999999,0
			-34.3096349999999,-53.978648,0
			-34.3071219999999,-53.9786269999999,0
			-34.299884,-53.973598,0
			-34.2959789999999,-53.9734659999999,0
			-34.2924379999999,-53.9733469999999,0
			-34.288924,-53.9739,0
			-34.2849869999999,-53.97452,0
			-34.2811609999999,-53.9744169999999,0
			-34.2779439999999,-53.9743309999999,0
			-34.271473,-53.9707039999999,0
			-34.2709379999999,-53.9696689999999,0
			-34.2669089999999,-53.9618829999999,0
			-34.2590059999999,-53.9626249999999,0
			-34.253637,-53.9559239999999,0
			-34.2450719999999,-53.955057,0
			-34.2447539999999,-53.9515449999999,0
			-34.2442209999999,-53.9456549999999,0
			-34.2427319999999,-53.9445709999999,0
			-34.2332529999999,-53.937669,0
			-34.2317619999999,-53.9325169999999,0
			-34.2310259999999,-53.9304389999999,0
			-34.2308039999999,-53.9298119999999,0
			-34.228983,-53.930289,0
			-34.226864,-53.930843,0
			-34.2245129999999,-53.9336269999999,0
			-34.222405,-53.936123,0
			-34.2223399999999,-53.9361119999999,0
			-34.21845,-53.9354789999999,0
			-34.2164139999998,-53.9323679999999,0
			-34.215044,-53.932131,0
			-34.2120599999999,-53.931615,0
			-34.2110279999999,-53.933254,0
			-34.2103559999999,-53.93432,0
			-34.20471,-53.939859,0
			-34.199171,-53.9423059999999,0
			-34.1871419999999,-53.9381509999999,0
			-34.1842559999999,-53.937154,0
			-34.1737069999999,-53.9379269999999,0
			-34.1690179999998,-53.944238,0
			-34.1646299999999,-53.9459729999999,0
			-34.1631569999999,-53.9465559999999,0
			-34.147975,-53.9426839999999,0
			-34.1411459999999,-53.9529479999999,0
			-34.1382639999999,-53.9535169999999,0
			-34.123821,-53.9563689999998,0
			-34.1235149999999,-53.9631619999998,0
			-34.123322,-53.967438,0
			-34.116324,-53.976897,0
			-34.1106589999999,-53.980318,0
			-34.106052,-53.979101,0
			-34.0969479999999,-53.9766949999999,0
			-34.096911,-53.9763879999999,0
			-34.096201,-53.9705129999999,0
			-34.0867779999999,-53.9656289999999,0
			-34.073587,-53.9587919999999,0
			-34.067017,-53.9506339999999,0
			-34.059402,-53.9411779999999,0
			-34.0568719999999,-53.940951,0
			-34.0533139999999,-53.9406309999999,0
			-34.0484049999998,-53.9457829999999,0
			-34.0435799999998,-53.947239,0
			-34.042855,-53.947458,0
			-34.041263,-53.949113,0
			-34.035918,-53.9546709999999,0
			-34.0267679999999,-53.949203,0
			-34.02471,-53.9479729999999,0
			-34.0164629999999,-53.939464,0
			-34.013838,-53.9469999999998,0
			-34.011626,-53.9533499999999,0
			-33.9911039999999,-53.9642179999999,0
			-33.9685419999999,-53.9720589999999,0
			-33.9624529999999,-53.9897039999999,0
			-33.9555559999999,-54.004088,0
			-33.9553859999999,-54.0080689999999,0
			-33.9552819999998,-54.0105179999999,0
			-33.947692,-54.02008,0
			-33.9472719999999,-54.027869,0
			-33.9386939999999,-54.0286179999999,0
			-33.9386939999999,-54.0326429999999,0
			-33.9399809999999,-54.0362939999998,0
			-33.9443699999999,-54.0487429999999,0
			-33.9350929999999,-54.0723319999999,0
			-33.9321819999999,-54.079735,0
			-33.9319649999999,-54.0830999999999,0
			-33.93082,-54.100893,0
			-33.922497,-54.102677,0
			-33.9218289999999,-54.1242109999999,0
			-33.9176329999999,-54.132539,0
			-33.9104719999999,-54.1467509999999,0
			-33.9093029999999,-54.164864,0
			-33.9095953569999,-54.1976381489999,0
			-33.9030239739999,-54.1934430249999,0
			-33.8775727709998,-54.17719513,0
			-33.8775113629999,-54.1772287499999,0
			-33.8738089999999,-54.179256,0
			-33.869316,-54.1792099999999,0
			-33.869316,-54.169133137,0
			-33.8686019589999,-54.167781771,0
			-33.8677829999999,-54.166232,0
			-33.8637645639999,-54.1660419309999,0
			-33.8610809999999,-54.165915,0
			-33.8602006419999,-54.164928666,0
			-33.85981,-54.1644909999999,0
			-33.859021,-54.1614309999999,0
			-33.8578202159999,-54.1592424519999,0
			-33.857312908,-54.1583182599999,0
			-33.8541588799999,-54.1575270069999,0
			-33.8530955689999,-54.1575909109998,0
			-33.85153,-54.157685,0
			-33.8482879999999,-54.1600059999999,0
			-33.8465950389999,-54.1599741149998,0
			-33.8455269999999,-54.159954,0
			-33.844962784,-54.158005865,0
			-33.844212651,-54.155416756,0
			-33.8420219999999,-54.1538869999999,0
			-33.8392609999999,-54.1534649999999,0
			-33.8349907969999,-54.1499441879999,0
			-33.831198,-54.1468169999999,0
			-33.8283901779999,-54.142498486,0
			-33.8256759999999,-54.138324,0
			-33.82309,-54.1374269999999,0
			-33.8207229999999,-54.1362659999999,0
			-33.820698449,-54.1338263499999,0
			-33.8206796439999,-54.1319928999999,0
			-33.8193649999999,-54.1316239999999,0
			-33.816922355,-54.1324543659999,0
			-33.815332,-54.1329949999999,0
			-33.8117819999999,-54.134261,0
			-33.8102039999999,-54.131254,0
			-33.8102479999999,-54.1267699999999,0
			-33.8123959999999,-54.124501,0
			-33.812615754,-54.124207769,0
			-33.8140169999999,-54.122338,0
			-33.8134909999999,-54.1194899999999,0
			-33.8109706389999,-54.1192257959999,0
			-33.8104668679999,-54.1191730719999,0
			-33.807092,-54.1210199999999,0
			-33.8055576559999,-54.121119326,0
			-33.8054699999998,-54.1211249999999,0
			-33.8049299999998,-54.1165249999999,0
			-33.8036089899999,-54.115731704,0
			-33.8030149999998,-54.115375,0
			-33.8015445199999,-54.1154014219999,0
			-33.8001213319999,-54.1154273719999,0
			-33.79818949,-54.1179634299999,0
			-33.7967459999999,-54.1198589999999,0
			-33.7932379999999,-54.120756,0
			-33.7910195269999,-54.118575485,0
			-33.7906079999999,-54.118171,0
			-33.7914409999999,-54.1142139999999,0
			-33.7908229999999,-54.1106469999999,0
			-33.7863269999999,-54.1085859999999,0
			-33.778619087,-54.106525023,0
			-33.778146869,-54.1054543489999,0
			-33.775835703,-54.10021418,0
			-33.7728379539999,-54.0944181989999,0
			-33.7712845889999,-54.0942248869999,0
			-33.769733,-54.0940319999999,0
			-33.7690030219999,-54.0960583179999,0
			-33.7669489999999,-54.10176,0
			-33.7634159999999,-54.1044649999999,0
			-33.7609969539999,-54.1046464109999,0
			-33.759989,-54.104722,0
			-33.758911551,-54.1004921909999,0
			-33.757954809,-54.0967369999999,0
			-33.7506729999999,-54.0967369999999,0
			-33.7437827459999,-54.0934630369999,0
			-33.741997851,-54.0926150039999,0
			-33.7413385329999,-54.0924507859999,0
			-33.7339179999998,-54.0906029999999,0
			-33.730858,-54.086304,0
			-33.7320369999998,-54.0830839999999,0
			-33.737071,-54.0787049999999,0
			-33.737607,-54.076515,0
			-33.7321439999999,-54.0747119999999,0
			-33.733751,-54.066453,0
			-33.7213649999999,-54.0531699999999,0
			-33.7181839999999,-54.0418999999999,0
			-33.713832,-54.037875,0
			-33.7148359999998,-54.0324409999999,0
			-33.7029499999999,-54.0221779999999,0
			-33.703117,-54.0183539999999,0
			-33.699936,-54.010707,0
			-33.6952879999999,-53.9954999999999,0
			-33.6917599999999,-53.991756,0
			-33.6822139999999,-53.9918939999999,0
			-33.677926,-53.985067,0
			-33.6750319999999,-53.978241,0
			-33.670852,-53.9746349999999,0
			-33.671602,-53.9703839999999,0
			-33.671174,-53.9656189999999,0
			-33.668279,-53.9622699999999,0
			-33.6690299999999,-53.9586629999999,0
			-33.675676,-53.938957,0
			-33.6735319999999,-53.932131,0
			-33.672674,-53.926206,0
			-33.676319,-53.922342,0
			-33.688858,-53.922342,0
			-33.6963599999999,-53.9131969999999,0
			-33.6995749999999,-53.9116519999999,0
			-33.7032179999998,-53.9059839999999,0
			-33.705005,-53.900637,0
			-33.7060339999999,-53.8929699999999,0
			-33.7095999999999,-53.8861289999999,0
			-33.7165249999999,-53.8788749999999,0
			-33.7192679999999,-53.8783799999999,0
			-33.7226959999999,-53.8712079999999,0
			-33.7311279999998,-53.8674169999999,0
			-33.7357899999998,-53.8623059999999,0
			-33.7357209999999,-53.852744,0
			-33.741822,-53.8458189999999,0
			-33.741411,-53.837906,0
			-33.743193,-53.8356799999999,0
			-33.7438789999999,-53.8304049999999,0
			-33.7492929999999,-53.820431,0
			-33.7550509999999,-53.8194409999999,0
			-33.766838,-53.8155669999999,0
			-33.7741699999999,-53.8034499999999,0
			-33.7780839999999,-53.7926409999999,0
			-33.7782979999999,-53.7877459999999,0
			-33.775729,-53.7795029999999,0
			-33.7747649999999,-53.7708739999999,0
			-33.7763709999999,-53.7658499999999,0
			-33.7769059999999,-53.7614709999999,0
			-33.765343,-53.7483339999998,0
			-33.7574189999999,-53.7478179999999,0
			-33.7562419999999,-53.740012,0
			-33.7501369999999,-53.7380299999999,0
			-33.7501369999999,-53.7353249999999,0
			-33.7484239999999,-53.7321049999999,0
			-33.748531,-53.7284989999999,0
			-33.7534569999999,-53.719869,0
			-33.7559419999999,-53.7109609999999,0
			-33.755325,-53.7068399999999,0
			-33.7532229999999,-53.702848,0
			-33.7455919999999,-53.6999979999999,0
			-33.7451809999999,-53.68211,0
			-33.7486769999999,-53.6766699999999,0
			-33.7479229999999,-53.6739489999999,0
			-33.747785,-53.6720529999999,0
			-33.7492929999999,-53.670899,0
			-33.7592309999999,-53.662821,0
			-33.7636169999999,-53.6572979999999,0
			-33.7612189999999,-53.6513629999999,0
			-33.7572969999999,-53.6469299999999,0
			-33.7553849999999,-53.646067,0
			-33.745532,-53.6325429999999,0
			-33.7448899999999,-53.6282919999999,0
			-33.7414619999999,-53.6250719999999,0
			-33.7388919999999,-53.6222389999999,0
			-33.7362139999999,-53.617216,0
			-33.7354639999999,-53.614382,0
			-33.7371779999999,-53.61142,0
			-33.7422119999999,-53.6097449999999,0
			-33.7475669999999,-53.6125789999999,0
			-33.7519579999999,-53.612836,0
			-33.7561339999999,-53.6109039999999,0
			-33.75924,-53.6071689999999,0
			-33.762131,-53.606396,0
			-33.7637369999999,-53.607298,0
			-33.7642719999999,-53.6094879999999,0
			-33.7650219999998,-53.6137379999999,0
			-33.766093,-53.617087,0
			-33.7685549999999,-53.619792,0
			-33.7847209999999,-53.6195339999999,0
			-33.7895379999999,-53.6214659999999,0
			-33.7905019999999,-53.6387249999999,0
			-33.7908229999999,-53.6567569999999,0
			-33.7928569999999,-53.6628109999999,0
			-33.7958539999999,-53.6642279999999,0
			-33.8025969999999,-53.663197,0
			-33.8086969999999,-53.6546959999999,0
			-33.8190769999999,-53.6553399999999,0
			-33.8304189999999,-53.66178,0
			-33.8354479999999,-53.6581739999999,0
			-33.842188,-53.6567569999999,0
			-33.8494619999999,-53.663326,0
			-33.8543349999999,-53.6740159999999,0
			-33.8551709999999,-53.67945,0
			-33.8523299999999,-53.685689,0
			-33.8538339999999,-53.689512,0
			-33.860018,-53.6933359999999,0
			-33.862859,-53.6977639999999,0
			-33.8673699999999,-53.708631,0
			-33.878257,-53.7085709999999,0
			-33.88469,-53.7079939999999,0
			-33.886811,-53.7051089999999,0
			-33.8864009999999,-53.699091,0
			-33.8857159999999,-53.6882099999999,0
			-33.893517,-53.675351,0
			-33.8929009999999,-53.670487,0
			-33.8873589999999,-53.663151,0
			-33.885511,-53.655072,0
			-33.8831159999999,-53.6446859999999,0
			-33.879968,-53.638256,0
			-33.8739459999999,-53.6373499999999,0
			-33.8685389999999,-53.6322389999999,0
			-33.8675799999999,-53.62787,0
			-33.8673749999999,-53.620286,0
			-33.8708659999999,-53.599349,0
			-33.869976,-53.5812139999999,0
			-33.8684019999999,-53.5778339999999,0
			-33.8666219999999,-53.574372,0
			-33.8683329999999,-53.570827,0
			-33.871067,-53.568529,0
			-33.8817599999999,-53.5656959999999,0
			-33.8843259999999,-53.5635059999999,0
			-33.8991879999999,-53.543156,0
			-33.914367,-53.5403219999999,0
			-33.9203259999999,-53.5413929999999,0
			-33.9238329999998,-53.5510529999999,0
			-33.931574,-53.5651809999999,0
			-33.938734,-53.568272,0
			-33.9508079999999,-53.5628619999999,0
			-33.9546539999998,-53.563893,0
			-33.954868,-53.575227,0
			-33.9503799999999,-53.5826969999999,0
			-33.945572,-53.5897809999998,0
			-33.945572,-53.599184,0
			-33.9520499999999,-53.6072009999999,0
			-33.961398,-53.607805,0
			-33.9674069999999,-53.6216909999999,0
			-33.9719129999999,-53.6249109999999,0
			-33.9722469999999,-53.627125,0
			-33.9802579999999,-53.630345,0
			-33.980758,-53.633766,0
			-33.9750839999999,-53.6422189999999,0
			-33.9720799999999,-53.652281,0
			-33.9632339999998,-53.652281,0
			-33.956724,-53.6742179999999,0
			-33.9527179999999,-53.6909209999999,0
			-33.9608969999998,-53.699776,0
			-33.9729139999999,-53.7160769999999,0
			-33.975585,-53.724932,0
			-33.981759,-53.7462649999999,0
			-33.9961099999999,-53.7535099999999,0
			-34.0025229999999,-53.7603149999999,0
			-34.0160769999999,-53.763774,0
			-34.0259809999999,-53.7599999999999,0
			-34.06298,-53.756856,0
			-34.080432,-53.7348439999999,0
			-34.0921509999999,-53.737988,0
			-34.111419,-53.707172,0
			-34.133524,-53.688184,0
			-34.1454629999999,-53.708921,0
			-34.165473,-53.6792519999999,0
			-34.1679509999999,-53.6816679999999,0
			-34.1689029999999,-53.682827,0
			-34.1700999999998,-53.68389,0
			-34.1704539999999,-53.684445,0
			-34.1711,-53.6851599999999,0
			-34.1722469999999,-53.6863959999999,0
			-34.172967,-53.6870839999999,0
			-34.1734729999999,-53.6870839999999,0
			-34.1734729999999,-53.6875679999998,0
			-34.17563,-53.6896299999999,0
			-34.177341,-53.6918639999999,0
			-34.17797,-53.6924129999999,0
			-34.1786039999999,-53.6931099999999,0
			-34.1793479999999,-53.6942519999999,0
			-34.1803139999999,-53.694858,0
			-34.1807469999999,-53.6953599999999,0
			-34.1813629999999,-53.6960429999999,0
			-34.182127,-53.6967779999999,0
			-34.1827929999999,-53.6974769999999,0
			-34.1839099999999,-53.69855,0
			-34.1842429999999,-53.698973,0
			-34.1845749999999,-53.6992419999999,0
			-34.18497,-53.6998,0
			-34.18567,-53.70046,0
			-34.186297,-53.7009969999999,0
			-34.1870479999999,-53.7017039999999,0
			-34.1881139999999,-53.702552,0
			-34.1891269999999,-53.7037139999999,0
			-34.1896829999999,-53.7041649999999,0
			-34.1901329999999,-53.704641,0
			-34.1907709999999,-53.70534,0
			-34.1913889999998,-53.7059959999999,0
			-34.1922389999999,-53.7067439999999,0
			-34.1936999999999,-53.708179,0
			-34.1943049999999,-53.708704,0
			-34.194961,-53.7091939999999,0
			-34.1955289999999,-53.7098659999999,0
			-34.1957829999999,-53.7101509999999,0
			-34.1962779999999,-53.7106159999999,0
			-34.1968419999998,-53.711214,0
			-34.1972659999999,-53.7116809999999,0
			-34.1977499999999,-53.71198,0
			-34.198473,-53.7126509999999,0
			-34.199,-53.7132599999999,0
			-34.199379,-53.713561,0
			-34.2000219999999,-53.7142939999999,0
			-34.2011079999999,-53.7151519999999,0
			-34.2020439999999,-53.7161369999999,0
			-34.2030399999999,-53.7167899999999,0
			-34.2038119999999,-53.717621,0
			-34.204709,-53.7184859999999,0
			-34.2054779999999,-53.71926,0
			-34.205993,-53.7198539999999,0
			-34.206826,-53.7206439999999,0
			-34.2075599999999,-53.72126,0
			-34.2078969999999,-53.721549,0
			-34.2083239999999,-53.7219019999999,0
			-34.2088269999999,-53.722548,0
			-34.2112089999998,-53.7245229999999,0
			-34.2122469999999,-53.7254019999999,0
			-34.2130999999999,-53.72639,0
			-34.2144709999999,-53.727637,0
			-34.2162629999999,-53.7291499999999,0
			-34.2175809999998,-53.730291,0
			-34.21915,-53.73153,0
			-34.2196699999999,-53.732129,0
			-34.22041,-53.7328099999999,0
			-34.220567,-53.733155,0
			-34.2209099999999,-53.7334399999999,0
			-34.2213019999999,-53.733795,0
			-34.2219199999999,-53.7340999999999,0
			-34.2229429999999,-53.7350199999999,0
			-34.22469,-53.73666,0
			-34.2251769999999,-53.737321,0
			-34.2261329999999,-53.738215,0
			-34.2266109999999,-53.7387329999999,0
			-34.22694,-53.739042,0
			-34.2274669999999,-53.7393469999999,0
			-34.2277089999999,-53.739655,0
			-34.228441,-53.740302,0
			-34.229362,-53.7411439999999,0
			-34.2303219999999,-53.7417139999999,0
			-34.2311529999999,-53.742446,0
			-34.232874,-53.7441009999999,0
			-34.23432,-53.745413,0
			-34.2410029999999,-53.751004,0
			-34.2421289999999,-53.7520109999999,0
			-34.245559,-53.7548839999999,0
			-34.2461029999999,-53.755331,0
			-34.2479479999998,-53.756729,0
			-34.249341,-53.758119,0
			-34.250569,-53.759114,0
			-34.2512209999999,-53.7593509999999,0
			-34.2527389999998,-53.7607,0
			-34.253429,-53.76145,0
			-34.254604,-53.76215,0
			-34.2552689999999,-53.76278,0
			-34.2615259999999,-53.767436,0
			-34.2621849999998,-53.7679149999999,0
			-34.2635399999999,-53.7687099999999,0
			-34.263837,-53.7689669999999,0
			-34.2644549999999,-53.7693219999998,0
			-34.2649769999998,-53.7698009999999,0
			-34.2652889999999,-53.7701379999999,0
			-34.2654149999999,-53.7701379999999,0
			-34.2654149999999,-53.7702389999999,0
			-34.265643,-53.7704159999999,0
			-34.265972,-53.7704159999999,0
			-34.265972,-53.7706719999999,0
			-34.266002,-53.7706949999999,0
			-34.266251,-53.7706949999999,0
			-34.266251,-53.770888,0
			-34.2663599999998,-53.770973,0
			-34.266804,-53.770973,0
			-34.266804,-53.7712519999999,0
			-34.2670819999999,-53.7712519999999,0
			-34.2670819999999,-53.7715259999999,0
			-34.2673609999999,-53.7715259999999,0
			-34.2673609999999,-53.7717279999999,0
			-34.267468,-53.7718049999999,0
			-34.267639,-53.7718049999999,0
			-34.267639,-53.7719269999999,0
			-34.2678569999999,-53.7720829999999,0
			-34.267918,-53.7720829999999,0
			-34.267918,-53.7721269999999,0
			-34.2682459999999,-53.772362,0
			-34.268471,-53.772362,0
			-34.268471,-53.772523,0
			-34.2684949999999,-53.7725399999999,0
			-34.2686179999999,-53.77264,0
			-34.268749,-53.77264,0
			-34.268749,-53.772747,0
			-34.2689549999999,-53.7729149999999,0
			-34.2690279999999,-53.7729149999999,0
			-34.2690279999999,-53.772975,0
			-34.2692959999999,-53.7731929999999,0
			-34.2695849999999,-53.7731929999999,0
			-34.2695849999999,-53.7734389999999,0
			-34.2696219999999,-53.773472,0
			-34.270138,-53.773472,0
			-34.270138,-53.7737499999999,0
			-34.2706949999999,-53.7737499999999,0
			-34.2706949999999,-53.774029,0
			-34.270973,-53.774029,0
			-34.270973,-53.7744769999999,0
			-34.2719489999999,-53.775139,0
			-34.272915,-53.775139,0
			-34.272915,-53.7754169999999,0
			-34.2731929999999,-53.7754169999999,0
			-34.2731929999999,-53.775696,0
			-34.2740289999999,-53.775696,0
			-34.2740289999999,-53.7759699999999,0
			-34.274307,-53.7759699999999,0
			-34.274307,-53.7762489999999,0
			-34.274582,-53.7762489999999,0
			-34.274582,-53.7765269999998,0
			-34.2748599999999,-53.7765269999998,0
			-34.2748599999999,-53.776806,0
			-34.2754169999999,-53.776806,0
			-34.2754169999999,-53.7770839999999,0
			-34.2756959999999,-53.7770839999999,0
			-34.2756959999999,-53.777363,0
			-34.276249,-53.777363,0
			-34.276249,-53.777812,0
			-34.2764019999999,-53.7779159999999,0
			-34.2765269999999,-53.7779159999999,0
			-34.2765269999999,-53.7780009999999,0
			-34.2768139999999,-53.778194,0
			-34.2770839999999,-53.778194,0
			-34.2770839999999,-53.7783469999999,0
			-34.2773629999999,-53.778473,0
			-34.2773629999999,-53.778194,0
			-34.2779159999999,-53.778194,0
			-34.2779159999999,-53.778473,0
			-34.2787509999999,-53.778473,0
			-34.2787509999999,-53.7787509999999,0
			-34.279305,-53.7787509999999,0
			-34.279305,-53.7790259999998,0
			-34.2795829999999,-53.7790259999998,0
			-34.2795829999999,-53.779305,0
			-34.2804179999999,-53.779305,0
			-34.2804179999999,-53.7795829999999,0
			-34.280972,-53.7795829999999,0
			-34.280972,-53.779861,0
			-34.2812499999999,-53.779861,0
			-34.2812499999999,-53.780389,0
			-34.2813099999998,-53.7804179999999,0
			-34.2815279999999,-53.7804179999999,0
			-34.2815279999999,-53.780526,0
			-34.281595,-53.780559,0
			-34.282428,-53.780972,0
			-34.282639,-53.780972,0
			-34.282639,-53.781076,0
			-34.28275,-53.7811309999999,0
			-34.283,-53.7812499999999,0
			-34.2831949999999,-53.7812499999999,0
			-34.2831949999999,-53.7813439999999,0
			-34.2839469999999,-53.7817029999999,0
			-34.2841519999999,-53.781807,0
			-34.284306,-53.781807,0
			-34.284306,-53.7818859999999,0
			-34.2849179999999,-53.7821979999999,0
			-34.2862019999999,-53.7828279999999,0
			-34.2866859999999,-53.782934,0
			-34.287972,-53.7834069999999,0
			-34.2884539999999,-53.783735,0
			-34.28914,-53.78394,0
			-34.2903699999999,-53.784593,0
			-34.2918479999998,-53.785314,0
			-34.293756,-53.785975,0
			-34.2956439999999,-53.786687,0
			-34.2965199999999,-53.7869699999999,0
			-34.297539,-53.7873689999999,0
			-34.2984299999999,-53.7876899999999,0
			-34.3007939999999,-53.7883909999999,0
			-34.3017409999999,-53.788733,0
			-34.302612,-53.7889309999999,0
			-34.3032899999999,-53.7892019999999,0
			-34.3038499999999,-53.7894859999998,0
			-34.304453,-53.7896169999999,0
			-34.3056589999999,-53.789936,0
			-34.3069879999999,-53.7901169999999,0
			-34.3101759999999,-53.7908339999999,0
			-34.313751,-53.7912039999999,0
			-34.3207719999999,-53.791688,0
			-34.3221749999999,-53.7917209999999,0
			-34.3252969999999,-53.7918069999999,0
			-34.327189,-53.7916039999999,0
			-34.3290689999999,-53.791171,0
			-34.33212,-53.7906409999999,0
			-34.334851,-53.7899389999999,0
			-34.3379599999999,-53.7892069999999,0
			-34.33991,-53.7882499999999,0
			-34.3402409999999,-53.787933,0
			-34.3407819999999,-53.7877579999999,0
			-34.341016,-53.7876429999999,0
			-34.341238,-53.787386,0
			-34.3414619999999,-53.7872609999999,0
			-34.3437499999999,-53.7858419999999,0
			-34.3437499999999,-53.785694,0
			-34.3438899999999,-53.785694,0
			-34.344028,-53.785525,0
			-34.344028,-53.785137,0
			-34.344307,-53.785137,0
			-34.344307,-53.784863,0
			-34.34457,-53.784863,0
			-34.3445819999999,-53.784849,0
			-34.3445819999999,-53.7845839999999,0
			-34.3447979999999,-53.7845839999999,0
			-34.3454169999999,-53.7838279999999,0
			-34.3454169999999,-53.7837489999999,0
			-34.3454819999999,-53.7837489999999,0
			-34.345695,-53.783487,0
			-34.345695,-53.783474,0
			-34.3457069999999,-53.783474,0
			-34.345974,-53.783147,0
			-34.345974,-53.7829169999999,0
			-34.346111,-53.7829169999999,0
			-34.3462489999999,-53.7825359999999,0
			-34.3462489999999,-53.7820819999999,0
			-34.3464129999999,-53.7820819999999,0
			-34.346527,-53.7817669999999,0
			-34.346527,-53.780972,0
			-34.346773,-53.780972,0
			-34.346806,-53.780862,0
			-34.346806,-53.78014,0
			-34.3469509999999,-53.78014,0
			-34.3469569999999,-53.7789319999999,0
			-34.3466789999999,-53.7779419999999,0
			-34.346436,-53.77753,0
			-34.3462159999999,-53.7774119999999,0
			-34.346058,-53.7772519999999,0
			-34.3454359999999,-53.7770799999999,0
			-34.344816,-53.777024,0
			-34.3447209999999,-53.776911,0
			-34.3445809999999,-53.7768389999999,0
			-34.344524,-53.7766099999999,0
			-34.3442999999999,-53.7758499999999,0
			-34.3439729999999,-53.774981,0
			-34.344307,-53.7742289999999,0
			-34.344307,-53.773472,0
			-34.3444599999999,-53.773472,0
			-34.3444969999999,-53.7728089999999,0
			-34.344354,-53.771896,0
			-34.3439489999998,-53.771396,0
			-34.3440419999999,-53.7707569999999,0
			-34.3440229999999,-53.7701229999999,0
			-34.3442729999999,-53.769953,0
			-34.3445159999999,-53.7700819999999,0
			-34.3446559999999,-53.770326,0
			-34.3448109999999,-53.7703789999999,0
			-34.345269,-53.770477,0
			-34.3462489999999,-53.770439,0
			-34.3462489999999,-53.7704159999999,0
			-34.346527,-53.7704159999999,0
			-34.346527,-53.7701379999999,0
			-34.3470839999999,-53.7701379999999,0
			-34.3470839999999,-53.7698589999999,0
			-34.347363,-53.7698589999999,0
			-34.347363,-53.7695849999999,0
			-34.34903,-53.7695849999999,0
			-34.34903,-53.7693059999999,0
			-34.349861,-53.7693059999999,0
			-34.349861,-53.7690279999999,0
			-34.3512499999999,-53.7690279999999,0
			-34.3512499999999,-53.7687489999999,0
			-34.3520849999999,-53.7687489999999,0
			-34.3520849999999,-53.7684709999999,0
			-34.35236,-53.7684709999999,0
			-34.35236,-53.7679179999999,0
			-34.352638,-53.7679179999999,0
			-34.352638,-53.7676389999999,0
			-34.3529169999999,-53.7676389999999,0
			-34.3529169999999,-53.7668039999999,0
			-34.3537479999999,-53.7668039999999,0
			-34.3537479999999,-53.7665289999999,0
			-34.354027,-53.7665289999999,0
			-34.354027,-53.7662509999999,0
			-34.354305,-53.7662509999999,0
			-34.354305,-53.7659719999999,0
			-34.3545839999999,-53.7659719999999,0
			-34.3545839999999,-53.7654149999998,0
			-34.354862,-53.7654149999998,0
			-34.354862,-53.7646569999999,0
			-34.3548489999999,-53.7646689999999,0
			-34.354812,-53.7647939999999,0
			-34.3547199999999,-53.7651299999999,0
			-34.3545439999999,-53.7652569999999,0
			-34.3545039999999,-53.7651959999999,0
			-34.3541,-53.765231,0
			-34.354023,-53.765024,0
			-34.3537909999999,-53.764873,0
			-34.3538639999999,-53.76482,0
			-34.3538279999999,-53.764531,0
			-34.3538309999999,-53.7643379999999,0
			-34.3537229999999,-53.764062,0
			-34.353846,-53.76391,0
			-34.3539749999999,-53.76379,0
			-34.3541599999999,-53.7640559999999,0
			-34.3545169999999,-53.7637939999999,0
			-34.3545839999999,-53.763859,0
			-34.3545839999999,-53.763748,0
			-34.354862,-53.763748,0
			-34.354862,-53.7634739999999,0
			-34.3562509999999,-53.7634739999999,0
			-34.3562509999999,-53.763748,0
			-34.3581959999999,-53.763748,0
			-34.3581959999999,-53.7631949999999,0
			-34.3581609999999,-53.7629679999999,0
			-34.358179,-53.762395,0
			-34.3582439999999,-53.7620149999999,0
			-34.3585809999999,-53.7618769999999,0
			-34.3588819999999,-53.7622929999999,0
			-34.358894,-53.7623599999999,0
			-34.3590279999999,-53.7623599999999,0
			-34.3590279999999,-53.7629239999999,0
			-34.3591779999999,-53.7632629999999,0
			-34.359386,-53.7640269999999,0
			-34.3595849999999,-53.7640269999999,0
			-34.3595849999999,-53.7643049999999,0
			-34.359859,-53.7643049999999,0
			-34.359859,-53.7645839999999,0
			-34.3601379999999,-53.7645839999999,0
			-34.3601379999999,-53.7648619999999,0
			-34.3604159999999,-53.7648619999999,0
			-34.3604159999999,-53.7651409999999,0
			-34.360558,-53.7651409999999,0
			-34.3606949999999,-53.7651409999999,0
			-34.3606949999999,-53.7654149999998,0
			-34.3612519999999,-53.7654149999998,0
			-34.3612519999999,-53.7656939999999,0
			-34.361526,-53.7656939999999,0
			-34.361526,-53.7659719999999,0
			-34.3618049999999,-53.7659719999999,0
			-34.3618049999999,-53.7662509999999,0
			-34.3620829999999,-53.7662509999999,0
			-34.3620829999999,-53.7665289999999,0
			-34.3623619999999,-53.7665289999999,0
			-34.3623619999999,-53.7668039999999,0
			-34.3626399999999,-53.7668039999999,0
			-34.3626399999999,-53.7670819999999,0
			-34.3629149999999,-53.7670819999999,0
			-34.3629149999999,-53.7673609999999,0
			-34.3631939999999,-53.7673609999999,0
			-34.3631939999999,-53.7676389999999,0
			-34.3634719999999,-53.7676389999999,0
			-34.3634719999999,-53.7679179999999,0
			-34.3637499999999,-53.7679179999999,0
			-34.3637499999999,-53.7681959999999,0
			-34.3640289999999,-53.7681959999999,0
			-34.3640289999999,-53.7684709999999,0
			-34.3645819999999,-53.7684709999999,0
			-34.3645819999999,-53.7687489999999,0
			-34.3648609999999,-53.7687489999999,0
			-34.3648609999999,-53.7690279999999,0
			-34.3651389999999,-53.7690279999999,0
			-34.3651389999999,-53.7693059999999,0
			-34.3654169999999,-53.7693059999999,0
			-34.3654169999999,-53.7695849999999,0
			-34.3656959999999,-53.7695849999999,0
			-34.3656959999999,-53.7698589999999,0
			-34.3659709999999,-53.7698589999999,0
			-34.3659709999999,-53.7701379999999,0
			-34.3662489999999,-53.7701379999999,0
			-34.3662489999999,-53.7704159999999,0
			-34.3668059999999,-53.7704159999999,0
			-34.3668059999999,-53.7706949999999,0
			-34.3670849999999,-53.7706949999999,0
			-34.3670849999999,-53.770973,0
			-34.3676379999999,-53.770973,0
			-34.3676379999999,-53.7712519999999,0
			-34.3679159999999,-53.7712519999999,0
			-34.3679159999999,-53.7715259999999,0
			-34.3681949999999,-53.7715259999999,0
			-34.3681949999999,-53.7718049999999,0
			-34.368752,-53.7718049999999,0
			-34.368752,-53.7720829999999,0
			-34.3690259999999,-53.7720829999999,0
			-34.3690259999999,-53.772362,0
			-34.3695829999999,-53.772362,0
			-34.3695829999999,-53.77264,0
			-34.3698619999999,-53.77264,0
			-34.3698619999999,-53.7729149999999,0
			-34.3704149999999,-53.7729149999999,0
			-34.370419,-53.7731929999999,0
			-34.3706929999999,-53.7731929999999,0
			-34.3706929999999,-53.773472,0
			-34.3709719999999,-53.773472,0
			-34.3709719999999,-53.7737499999999,0
			-34.3715289999999,-53.7737499999999,0
			-34.3715289999999,-53.774029,0
			-34.3718069999998,-53.774029,0
			-34.3718069999998,-53.774307,0
			-34.3723599999999,-53.774307,0
			-34.3723599999999,-53.7745819999999,0
			-34.3726389999998,-53.7745819999999,0
			-34.3726389999998,-53.7748599999999,0
			-34.3731959999999,-53.7748599999999,0
			-34.3731959999999,-53.775139,0
			-34.3734699999999,-53.775139,0
			-34.3734739999999,-53.7754169999999,0
			-34.3737489999999,-53.7754169999999,0
			-34.3737489999999,-53.775696,0
			-34.3743059999998,-53.775696,0
			-34.3743059999998,-53.7759699999999,0
			-34.374584,-53.7759699999999,0
			-34.374584,-53.7762489999999,0
			-34.3751369999999,-53.7762489999999,0
			-34.3751369999999,-53.7765269999998,0
			-34.375416,-53.7765269999998,0
			-34.375416,-53.776806,0
			-34.3759729999999,-53.776806,0
			-34.3759729999999,-53.7770839999999,0
			-34.376251,-53.7770839999999,0
			-34.376251,-53.777363,0
			-34.3765259999999,-53.777363,0
			-34.3765259999999,-53.777637,0
			-34.377083,-53.777637,0
			-34.377083,-53.7779159999999,0
			-34.3773609999999,-53.7779159999999,0
			-34.3773609999999,-53.778194,0
			-34.377918,-53.778194,0
			-34.377918,-53.778473,0
			-34.3781929999999,-53.778473,0
			-34.3781929999999,-53.7787509999999,0
			-34.37875,-53.7787509999999,0
			-34.37875,-53.7790259999998,0
			-34.3790279999999,-53.7790259999998,0
			-34.3790279999999,-53.7791979999998,0
			-34.379217,-53.779305,0
			-34.379307,-53.779305,0
			-34.379307,-53.779355,0
			-34.3797089999999,-53.7795829999999,0
			-34.3798599999999,-53.7795829999999,0
			-34.3798649999999,-53.7796709999999,0
			-34.3802939999999,-53.779861,0
			-34.380417,-53.779861,0
			-34.380417,-53.7799159999999,0
			-34.3809209999999,-53.78014,0
			-34.3815269999999,-53.78014,0
			-34.3815269999999,-53.7804089999998,0
			-34.3815489999999,-53.7804179999999,0
			-34.3826369999999,-53.7804179999999,0
			-34.3826369999999,-53.780693,0
			-34.383751,-53.780693,0
			-34.383751,-53.780972,0
			-34.3848609999999,-53.780972,0
			-34.3848609999999,-53.7812499999999,0
			-34.3865279999999,-53.7812499999999,0
			-34.3865279999999,-53.781528,0
			-34.388748,-53.781528,0
			-34.388748,-53.781807,0
			-34.3945849999999,-53.781807,0
			-34.3945849999999,-53.781528,0
			-34.3956949999999,-53.781528,0
			-34.3956949999999,-53.7812499999999,0
			-34.3962519999999,-53.7812499999999,0
			-34.3962519999999,-53.780972,0
			-34.3965259999999,-53.780972,0
			-34.3965259999999,-53.780693,0
			-34.3973619999999,-53.780693,0
			-34.3973619999999,-53.7804179999999,0
			-34.397915,-53.7804179999999,0
			-34.397915,-53.78014,0
			-34.3981929999999,-53.78014,0
			-34.3981929999999,-53.779861,0
			-34.3990289999999,-53.779861,0
			-34.3990289999999,-53.7795829999999,0
			-34.4004169999999,-53.7795829999999,0
			-34.4004169999999,-53.779305,0
			-34.4006959999999,-53.779305,0
			-34.4006959999999,-53.7790259999998,0
			-34.4009699999999,-53.7790259999998,0
			-34.4009699999999,-53.7787509999999,0
			-34.401249,-53.7787509999999,0
			-34.401249,-53.778194,0
			-34.4015269999999,-53.778194,0
			-34.4015269999999,-53.7779199999999,0
			-34.4015269999999,-53.777637,0
			-34.4018059999999,-53.777637,0
			-34.4018059999999,-53.777071,0
			-34.4017619999999,-53.777029,0
			-34.4016559999999,-53.776599,0
			-34.4018059999999,-53.776558,0
			-34.4018059999999,-53.7765269999998,0
			-34.401914,-53.7765269999998,0
			-34.4020189999999,-53.7764979999999,0
			-34.402159,-53.7765269999998,0
			-34.4023019999998,-53.7765269999998,0
			-34.4024959999999,-53.776353,0
			-34.4026369999999,-53.7764589999999,0
			-34.4026369999999,-53.7762489999999,0
			-34.4029159999999,-53.7762489999999,0
			-34.4029159999999,-53.7765269999998,0
			-34.4059719999999,-53.7765269999998,0
			-34.4059719999999,-53.776784,0
			-34.4061169999999,-53.77672,0
			-34.406108,-53.776806,0
			-34.4062499999999,-53.776806,0
			-34.4062499999999,-53.7770839999999,0
			-34.4065279999999,-53.7770839999999,0
			-34.4065279999999,-53.778196,0
			-34.4066579999999,-53.7782509999999,0
			-34.406572,-53.778316,0
			-34.4065579999999,-53.7785009999999,0
			-34.4063839999999,-53.778601,0
			-34.4063889999999,-53.778721,0
			-34.4063089999999,-53.778856,0
			-34.4062959999999,-53.778988,0
			-34.4063219999999,-53.7790259999998,0
			-34.4065279999999,-53.7790259999998,0
			-34.4065279999999,-53.7793359999999,0
			-34.4065279999999,-53.779366,0
			-34.4065279999999,-53.779715,0
			-34.4065469999999,-53.779824,0
			-34.406577,-53.779861,0
			-34.4068069999999,-53.779861,0
			-34.4068069999999,-53.7804179999999,0
			-34.4070819999999,-53.7804179999999,0
			-34.4070819999999,-53.7815689999999,0
			-34.4071929999999,-53.781573,0
			-34.407281,-53.7822849999999,0
			-34.4072859999999,-53.782688,0
			-34.407293,-53.7829229999999,0
			-34.4072449999999,-53.783065,0
			-34.4072859999999,-53.783155,0
			-34.4072689999999,-53.783356,0
			-34.407207,-53.7834139999999,0
			-34.407162,-53.7835689999998,0
			-34.4070819999999,-53.783601,0
			-34.4070819999999,-53.7839559999999,0
			-34.407157,-53.783936,0
			-34.4071369999999,-53.78407,0
			-34.4070889999999,-53.7841659999999,0
			-34.4070989999999,-53.784306,0
			-34.4073599999999,-53.784306,0
			-34.4073599999999,-53.7846219999999,0
			-34.4073769999998,-53.7846289999999,0
			-34.4073599999999,-53.784682,0
			-34.4073599999999,-53.78489,0
			-34.407411,-53.784994,0
			-34.4074699999999,-53.785184,0
			-34.407574,-53.7852439999999,0
			-34.4076089999999,-53.7854959999999,0
			-34.4077989999999,-53.785726,0
			-34.407706,-53.785808,0
			-34.407657,-53.78577,0
			-34.4075989999999,-53.785856,0
			-34.4074749999999,-53.7859159999999,0
			-34.4075109999999,-53.78599,0
			-34.40737,-53.786101,0
			-34.4073599999999,-53.786101,0
			-34.4073599999999,-53.7862509999999,0
			-34.4068069999999,-53.7862509999999,0
			-34.4068069999999,-53.7860669999999,0
			-34.406697,-53.785973,0
			-34.4054179999998,-53.785973,0
			-34.4054179999998,-53.7862509999999,0
			-34.4042059999999,-53.7862509999999,0
			-34.4034019999999,-53.7878349999999,0
			-34.402952,-53.789971,0
			-34.402825,-53.7918809999999,0
			-34.404536,-53.8009769999999,0
			-34.4053099999999,-53.80421,0
			-34.4055959999999,-53.805131,0
			-34.4073279999999,-53.8098219999999,0
			-34.4085249999999,-53.812294,0
			-34.4091969999999,-53.814298,0
			-34.4099019999999,-53.815669,0
			-34.411333,-53.818544,0
			-34.4116589999999,-53.8201799999999,0
			-34.41261,-53.82213,0
			-34.4136099999999,-53.8241419999999,0
			-34.41577,-53.8299799999999,0
			-34.4173299999998,-53.8340259999999,0
			-34.417362,-53.8340259999999,0
			-34.417362,-53.83411,0
			-34.4174369999999,-53.8343049999999,0
			-34.4176409999999,-53.8343049999999,0
			-34.4176409999999,-53.8348319999999,0
			-34.418194,-53.8362499999999,0
			-34.418194,-53.8362669999999,0
			-34.4186159999999,-53.8373599999999,0
			-34.4187509999999,-53.8373599999999,0
			-34.4187509999999,-53.837711,0
			-34.4189199999999,-53.8381499999999,0
			-34.4192459999999,-53.838749,0
			-34.4193039999999,-53.838749,0
			-34.4193039999999,-53.8388559999999,0
			-34.4195479999999,-53.8393059999999,0
			-34.4195819999999,-53.8393059999999,0
			-34.4195819999999,-53.839368,0
			-34.4195939999999,-53.8393889999999,0
			-34.4202169999999,-53.8408029999999,0
			-34.420418,-53.8412509999999,0
			-34.420418,-53.8412649999999,0
			-34.4222249999999,-53.8454169999998,0
			-34.422359,-53.8454169999998,0
			-34.422359,-53.8457269999999,0
			-34.4224669999999,-53.8459739999999,0
			-34.4226379999999,-53.8459739999999,0
			-34.4226379999999,-53.8463659999999,0
			-34.4227079999999,-53.846527,0
			-34.4229159999999,-53.846527,0
			-34.4229159999999,-53.8470059999999,0
			-34.42295,-53.8470839999999,0
			-34.423195,-53.8470839999999,0
			-34.423195,-53.8475949999999,0
			-34.4232159999999,-53.8476369999999,0
			-34.4234729999999,-53.8476369999999,0
			-34.4234729999999,-53.8481489999999,0
			-34.4234959999998,-53.848194,0
			-34.423752,-53.848194,0
			-34.423752,-53.8487039999999,0
			-34.423776,-53.8487509999999,0
			-34.424026,-53.8487509999999,0
			-34.424026,-53.84925,0
			-34.4240539999999,-53.8493039999999,0
			-34.4243049999999,-53.8493039999999,0
			-34.4243049999999,-53.8498049999999,0
			-34.4243329999999,-53.849861,0
			-34.424583,-53.849861,0
			-34.424583,-53.850359,0
			-34.424613,-53.8504179999999,0
			-34.424862,-53.8504179999999,0
			-34.424862,-53.8509369999999,0
			-34.424877,-53.8509709999999,0
			-34.4251399999999,-53.8509709999999,0
			-34.4251399999999,-53.851528,0
			-34.4254149999999,-53.851528,0
			-34.4254149999999,-53.8520849999999,0
			-34.425694,-53.8520849999999,0
			-34.425694,-53.8526379999999,0
			-34.4259719999999,-53.8526379999999,0
			-34.4259719999999,-53.853195,0
			-34.42625,-53.853195,0
			-34.42625,-53.8537479999999,0
			-34.426529,-53.8537479999999,0
			-34.426529,-53.8543049999999,0
			-34.4268069999999,-53.8543049999999,0
			-34.4268069999999,-53.854862,0
			-34.427082,-53.854862,0
			-34.427082,-53.8554149999999,0
			-34.427361,-53.8554149999999,0
			-34.427361,-53.8559719999999,0
			-34.4276389999999,-53.8559719999999,0
			-34.4276389999999,-53.856529,0
			-34.427917,-53.856529,0
			-34.427917,-53.8570819999999,0
			-34.428196,-53.8570819999999,0
			-34.428196,-53.8578229999999,0
			-34.4282459999999,-53.857918,0
			-34.4284709999999,-53.857918,0
			-34.4284709999999,-53.858402,0
			-34.4284979999999,-53.8584709999999,0
			-34.428749,-53.8584709999999,0
			-34.428749,-53.859028,0
			-34.429028,-53.859028,0
			-34.429028,-53.859585,0
			-34.4293059999999,-53.859585,0
			-34.4293059999999,-53.8601379999999,0
			-34.4295849999999,-53.8601379999999,0
			-34.4295849999999,-53.860695,0
			-34.429863,-53.860695,0
			-34.429863,-53.861252,0
			-34.4301379999999,-53.861252,0
			-34.4301379999999,-53.8618049999999,0
			-34.430416,-53.8618049999999,0
			-34.430416,-53.862362,0
			-34.430695,-53.862362,0
			-34.430695,-53.862915,0
			-34.4309729999999,-53.862915,0
			-34.4309729999999,-53.8634719999999,0
			-34.4312519999999,-53.8634719999999,0
			-34.4312519999999,-53.864029,0
			-34.431526,-53.864029,0
			-34.431526,-53.864582,0
			-34.4318049999999,-53.864582,0
			-34.4318049999999,-53.8651389999999,0
			-34.4320829999999,-53.8651389999999,0
			-34.4320829999999,-53.865696,0
			-34.432362,-53.865696,0
			-34.432362,-53.866249,0
			-34.4326399999999,-53.866249,0
			-34.4326399999999,-53.8668059999999,0
			-34.432915,-53.8668059999999,0
			-34.4329189999999,-53.867363,0
			-34.433193,-53.867363,0
			-34.433193,-53.867916,0
			-34.4334719999999,-53.867916,0
			-34.4334719999999,-53.868195,0
			-34.4337499999999,-53.868195,0
			-34.4337499999999,-53.8687519999999,0
			-34.434029,-53.8687519999999,0
			-34.434029,-53.8693049999999,0
			-34.4343069999999,-53.8693049999999,0
			-34.4343069999999,-53.869862,0
			-34.4345819999999,-53.869862,0
			-34.4345819999999,-53.8704189999999,0
			-34.43486,-53.8704189999999,0
			-34.43486,-53.8709719999999,0
			-34.4351389999999,-53.8709719999999,0
			-34.4351389999999,-53.871529,0
			-34.4354169999999,-53.871529,0
			-34.4354169999999,-53.8720819999999,0
			-34.435696,-53.8720819999999,0
			-34.435696,-53.8726389999999,0
			-34.4359699999999,-53.8726389999999,0
			-34.4359739999999,-53.873196,0
			-34.4362489999999,-53.873196,0
			-34.4362489999999,-53.8737489999999,0
			-34.436527,-53.8737489999999,0
			-34.436527,-53.8743059999999,0
			-34.4368059999999,-53.8743059999999,0
			-34.4368059999999,-53.8748629999999,0
			-34.4370839999999,-53.8748629999999,0
			-34.4370839999999,-53.8754159999999,0
			-34.4373629999999,-53.8754159999999,0
			-34.4373629999999,-53.875694,0
			-34.4376369999999,-53.875694,0
			-34.4376369999999,-53.8762509999999,0
			-34.4379159999999,-53.8762509999999,0
			-34.4379159999999,-53.8768039999999,0
			-34.438194,-53.8768039999999,0
			-34.438194,-53.877361,0
			-34.4384729999999,-53.877361,0
			-34.4384729999999,-53.8779179999999,0
			-34.4387509999999,-53.8779179999999,0
			-34.4387509999999,-53.8784709999999,0
			-34.439026,-53.8784709999999,0
			-34.439026,-53.8790279999999,0
			-34.4393039999999,-53.8790279999999,0
			-34.4393039999999,-53.8795809999999,0
			-34.4395829999999,-53.8795849999999,0
			-34.4395829999999,-53.8801379999999,0
			-34.439861,-53.8801379999999,0
			-34.439861,-53.8806949999998,0
			-34.4401399999999,-53.8806949999998,0
			-34.4401399999999,-53.8812479999999,0
			-34.4404179999999,-53.8812479999999,0
			-34.4404179999999,-53.881805,0
			-34.440693,-53.881805,0
			-34.440693,-53.8823619999999,0
			-34.4409709999999,-53.8823619999999,0
			-34.4409709999999,-53.8829149999999,0
			-34.4412499999999,-53.8829149999999,0
			-34.4412499999999,-53.883472,0
			-34.4415279999999,-53.883472,0
			-34.4415279999999,-53.884304,0
			-34.441807,-53.884304,0
			-34.441807,-53.8848609999999,0
			-34.4420809999999,-53.8848609999999,0
			-34.4420809999999,-53.8854179999999,0
			-34.44236,-53.8854179999999,0
			-34.44236,-53.885971,0
			-34.4426379999999,-53.885971,0
			-34.4426379999999,-53.8865279999999,0
			-34.4429169999999,-53.8865279999999,0
			-34.4429169999999,-53.8870849999999,0
			-34.4431949999998,-53.8870849999999,0
			-34.4431949999998,-53.887638,0
			-34.443474,-53.887638,0
			-34.443474,-53.8881949999999,0
			-34.4437479999999,-53.8881949999999,0
			-34.4437479999999,-53.8887479999999,0
			-34.4440269999999,-53.8887479999999,0
			-34.4440269999999,-53.8890269999999,0
			-34.4443049999999,-53.8890269999999,0
			-34.4443049999999,-53.8895839999999,0
			-34.4445839999999,-53.8895839999999,0
			-34.4445839999999,-53.890141,0
			-34.4448619999998,-53.890141,0
			-34.4448619999998,-53.8904149999999,0
			-34.4451369999999,-53.8904149999999,0
			-34.4451369999999,-53.890972,0
			-34.4454149999999,-53.890972,0
			-34.4454149999999,-53.891251,0
			-34.4456939999998,-53.891251,0
			-34.4456939999998,-53.891804,0
			-34.445972,-53.891804,0
			-34.445972,-53.8923609999999,0
			-34.4462509999999,-53.8923609999999,0
			-34.4462509999999,-53.892639,0
			-34.4465289999999,-53.892639,0
			-34.4465289999999,-53.8931959999999,0
			-34.4468039999999,-53.8931959999999,0
			-34.4468039999999,-53.8937489999999,0
			-34.4470829999999,-53.8937489999999,0
			-34.4470829999999,-53.8940279999999,0
			-34.4473609999998,-53.8940279999999,0
			-34.4473609999998,-53.8945849999999,0
			-34.447639,-53.8945849999999,0
			-34.447639,-53.895138,0
			-34.4479179999999,-53.895138,0
			-34.4479179999999,-53.895416,0
			-34.4481929999998,-53.895416,0
			-34.4481929999998,-53.8962519999999,0
			-34.448471,-53.8962519999999,0
			-34.448471,-53.897083,0
			-34.4487499999999,-53.897083,0
			-34.4487499999999,-53.8981929999999,0
			-34.4490279999999,-53.8981929999999,0
			-34.4490279999999,-53.899029,0
			-34.449306,-53.899029,0
			-34.449306,-53.8998599999999,0
			-34.4495849999999,-53.8998599999999,0
			-34.4495849999999,-53.9006959999999,0
			-34.4498599999998,-53.9006959999999,0
			-34.4498599999998,-53.9015269999999,0
			-34.450138,-53.9015269999999,0
			-34.450138,-53.9020839999999,0
			-34.4504169999999,-53.9020839999999,0
			-34.4504169999999,-53.902565,0
			-34.4504659999999,-53.902637,0
			-34.4506949999999,-53.902637,0
			-34.4506949999999,-53.902972,0
			-34.4507899999999,-53.9031099999999,0
			-34.4508389999999,-53.903194,0
			-34.450974,-53.903194,0
			-34.450974,-53.903423,0
			-34.4511669999999,-53.9037509999999,0
			-34.4512479999999,-53.9037509999999,0
			-34.4512479999999,-53.9038899999998,0
			-34.4514909999999,-53.904305,0
			-34.4515269999999,-53.904305,0
			-34.4515269999999,-53.9043649999999,0
			-34.4522419999999,-53.9055819999999,0
			-34.452891,-53.9070819999999,0
			-34.4529149999999,-53.9070819999999,0
			-34.4529149999999,-53.907138,0
			-34.4530109999999,-53.9073599999999,0
			-34.4531939999999,-53.9073599999999,0
			-34.4531939999999,-53.9077719999999,0
			-34.4532619999999,-53.9079169999999,0
			-34.453472,-53.9079169999999,0
			-34.453472,-53.9083599999999,0
			-34.4535259999998,-53.908474,0
			-34.4537509999999,-53.908474,0
			-34.4537509999999,-53.9089489999999,0
			-34.4537879999999,-53.9090269999999,0
			-34.4540289999999,-53.9090269999999,0
			-34.4540289999999,-53.9095369999999,0
			-34.4540509999999,-53.9095839999999,0
			-34.454304,-53.9095839999999,0
			-34.454304,-53.910137,0
			-34.4545819999999,-53.910137,0
			-34.4545819999999,-53.9106939999999,0
			-34.4548609999999,-53.9106939999999,0
			-34.4548609999999,-53.9112509999999,0
			-34.455139,-53.9112509999999,0
			-34.455139,-53.911804,0
			-34.455418,-53.911804,0
			-34.455418,-53.9123609999999,0
			-34.4556959999999,-53.9123609999999,0
			-34.4556959999999,-53.9129179999999,0
			-34.455971,-53.9129179999999,0
			-34.455971,-53.913471,0
			-34.4562489999999,-53.913471,0
			-34.4562489999999,-53.9137499999999,0
			-34.4565279999999,-53.9137499999999,0
			-34.4565279999999,-53.9143069999998,0
			-34.456806,-53.9143069999998,0
			-34.456806,-53.9148599999999,0
			-34.4570849999999,-53.9148599999999,0
			-34.4570849999999,-53.9154169999999,0
			-34.4573589999999,-53.9154169999999,0
			-34.4573589999999,-53.9156949999999,0
			-34.457638,-53.9156949999999,0
			-34.457638,-53.9162479999999,0
			-34.4579159999999,-53.9162479999999,0
			-34.4579159999999,-53.916805,0
			-34.4581949999999,-53.916805,0
			-34.4581949999999,-53.9173619999999,0
			-34.458473,-53.9173619999999,0
			-34.458473,-53.9176409999999,0
			-34.4587519999999,-53.9176409999999,0
			-34.4587519999999,-53.9181939999999,0
			-34.4590259999999,-53.9181939999999,0
			-34.4590259999999,-53.918751,0
			-34.459305,-53.918751,0
			-34.459305,-53.9190289999999,0
			-34.459583,-53.9190289999999,0
			-34.459583,-53.9195819999999,0
			-34.4598619999999,-53.9195819999999,0
			-34.4598619999999,-53.9201389999999,0
			-34.46014,-53.9201389999999,0
			-34.46014,-53.9206959999999,0
			-34.4604149999999,-53.9206959999999,0
			-34.4604149999999,-53.9209709999998,0
			-34.4606929999999,-53.9209709999998,0
			-34.4606929999999,-53.9215279999999,0
			-34.460972,-53.9215279999999,0
			-34.460972,-53.922085,0
			-34.4612499999999,-53.922085,0
			-34.4612499999999,-53.9226379999999,0
			-34.461529,-53.9226379999999,0
			-34.461529,-53.922916,0
			-34.461807,-53.922916,0
			-34.461807,-53.9234729999999,0
			-34.462082,-53.9234729999999,0
			-34.462082,-53.9240259999999,0
			-34.4623599999999,-53.9240259999999,0
			-34.4623599999999,-53.924583,0
			-34.462639,-53.924583,0
			-34.462639,-53.9248619999999,0
			-34.4629169999999,-53.9248619999999,0
			-34.4629169999999,-53.925415,0
			-34.4631959999999,-53.925415,0
			-34.4631959999999,-53.9259719999999,0
			-34.46347,-53.9259719999999,0
			-34.46347,-53.92625,0
			-34.463749,-53.92625,0
			-34.463749,-53.9268069999999,0
			-34.4640269999999,-53.9268069999999,0
			-34.4640269999999,-53.9273609999999,0
			-34.464306,-53.9273609999999,0
			-34.464306,-53.927917,0
			-34.4645839999999,-53.927917,0
			-34.4645839999999,-53.928196,0
			-34.4648629999999,-53.928196,0
			-34.4648629999999,-53.928749,0
			-34.465137,-53.928749,0
			-34.465137,-53.9293059999999,0
			-34.4654159999999,-53.9293059999999,0
			-34.4654159999999,-53.929863,0
			-34.4656939999999,-53.929863,0
			-34.4656939999999,-53.9301379999999,0
			-34.465973,-53.9301379999999,0
			-34.465973,-53.930695,0
			-34.4662509999999,-53.930695,0
			-34.4662509999999,-53.931252,0
			-34.4665259999999,-53.931252,0
			-34.4665259999999,-53.9318049999999,0
			-34.466805,-53.9318049999999,0
			-34.466805,-53.932083,0
			-34.4670829999999,-53.932083,0
			-34.4670829999999,-53.9326399999999,0
			-34.4673609999999,-53.9326399999999,0
			-34.4673609999999,-53.933193,0
			-34.46764,-53.933193,0
			-34.46764,-53.93375,0
			-34.4679179999999,-53.93375,0
			-34.4679179999999,-53.9343069999999,0
			-34.4681929999999,-53.9343069999999,0
			-34.4681929999999,-53.93486,0
			-34.468472,-53.93486,0
			-34.468472,-53.9351389999999,0
			-34.4687499999999,-53.9351389999999,0
			-34.4687499999999,-53.935696,0
			-34.4690279999999,-53.935696,0
			-34.4690279999999,-53.936249,0
			-34.469307,-53.936249,0
			-34.469307,-53.9368059999999,0
			-34.4695819999999,-53.9368059999999,0
			-34.4695819999999,-53.9373629999999,0
			-34.4698599999999,-53.9373629999999,0
			-34.4698599999999,-53.9376369999999,0
			-34.470139,-53.9376369999999,0
			-34.470139,-53.938194,0
			-34.4704169999999,-53.938194,0
			-34.4704169999999,-53.938751,0
			-34.4706949999999,-53.938751,0
			-34.4706949999999,-53.9393039999999,0
			-34.470974,-53.9393039999999,0
			-34.470974,-53.939861,0
			-34.4712489999999,-53.939861,0
			-34.4712489999999,-53.940418,0
			-34.4715269999999,-53.940418,0
			-34.4715269999999,-53.940693,0
			-34.471806,-53.940693,0
			-34.471806,-53.94125,0
			-34.4720839999999,-53.94125,0
			-34.4720839999999,-53.9418069999999,0
			-34.4723629999999,-53.9418069999999,0
			-34.4723629999999,-53.94236,0
			-34.472637,-53.94236,0
			-34.472637,-53.942917,0
			-34.4729159999999,-53.942917,0
			-34.4729159999999,-53.9434739999999,0
			-34.4731939999999,-53.9434739999999,0
			-34.4731939999999,-53.943748,0
			-34.473473,-53.943748,0
			-34.473473,-53.9443049999999,0
			-34.4737509999999,-53.9443049999999,0
			-34.4737509999999,-53.944584,0
			-34.4740299999999,-53.944584,0
			-34.4740299999999,-53.9448619999999,0
			-34.474304,-53.9448619999999,0
			-34.474304,-53.945415,0
			-34.4745829999999,-53.945415,0
			-34.4745829999999,-53.9459719999999,0
			-34.4748609999999,-53.9459719999999,0
			-34.4748609999999,-53.9465289999999,0
			-34.47514,-53.9465289999999,0
			-34.47514,-53.9468039999999,0
			-34.4754179999999,-53.9468039999999,0
			-34.4754179999999,-53.9473609999999,0
			-34.4756929999999,-53.9473609999999,0
			-34.4756929999999,-53.947918,0
			-34.475971,-53.947918,0
			-34.475971,-53.9484709999999,0
			-34.4762499999999,-53.9484709999999,0
			-34.4762499999999,-53.94875,0
			-34.4765279999999,-53.94875,0
			-34.4765279999999,-53.9493059999999,0
			-34.4768069999998,-53.9493059999999,0
			-34.4768069999998,-53.9498599999999,0
			-34.4770849999999,-53.9498599999999,0
			-34.4770849999999,-53.950417,0
			-34.4773599999999,-53.950417,0
			-34.4773599999999,-53.9506949999999,0
			-34.477638,-53.9506949999999,0
			-34.477638,-53.951248,0
			-34.4779169999999,-53.951248,0
			-34.4779169999999,-53.9518049999999,0
			-34.4781949999999,-53.9518049999999,0
			-34.4781949999999,-53.9523619999999,0
			-34.4784739999998,-53.9523619999999,0
			-34.4784739999998,-53.9526409999999,0
			-34.4787479999999,-53.9526409999999,0
			-34.4787479999999,-53.9531939999999,0
			-34.4790269999999,-53.9531939999999,0
			-34.4790269999999,-53.9537509999999,0
			-34.479305,-53.9537509999999,0
			-34.479305,-53.9543039999999,0
			-34.4795839999999,-53.9543039999999,0
			-34.4795839999999,-53.954582,0
			-34.4798619999999,-53.954582,0
			-34.4798619999999,-53.9551389999999,0
			-34.4801409999999,-53.9551389999999,0
			-34.4801409999999,-53.9556959999999,0
			-34.4804149999999,-53.9556959999999,0
			-34.4804149999999,-53.9562489999998,0
			-34.4806939999999,-53.9562489999998,0
			-34.4806939999999,-53.9565279999999,0
			-34.4809719999998,-53.9565279999999,0
			-34.4809719999998,-53.9570849999999,0
			-34.4812509999999,-53.9570849999999,0
			-34.4812509999999,-53.9576379999999,0
			-34.4815289999999,-53.9576379999999,0
			-34.4815289999999,-53.9581949999999,0
			-34.481804,-53.9581949999999,0
			-34.481804,-53.9584729999999,0
			-34.4820819999999,-53.9584729999999,0
			-34.4820819999999,-53.9590259999999,0
			-34.4823609999999,-53.9590259999999,0
			-34.4823609999999,-53.9595829999999,0
			-34.4826389999998,-53.9595829999999,0
			-34.4826389999998,-53.9601399999999,0
			-34.482918,-53.9601399999999,0
			-34.482918,-53.9604149999999,0
			-34.4831959999999,-53.9604149999999,0
			-34.4831959999999,-53.9609719999999,0
			-34.4834709999998,-53.9609719999999,0
			-34.4834709999998,-53.961529,0
			-34.4837489999999,-53.961529,0
			-34.4837489999999,-53.9620819999999,0
			-34.4840279999999,-53.9620819999999,0
			-34.4840279999999,-53.9626389999999,0
			-34.4843059999999,-53.9626389999999,0
			-34.4843059999999,-53.9629169999999,0
			-34.484585,-53.9629169999999,0
			-34.484585,-53.9634699999999,0
			-34.4848589999999,-53.9634699999999,0
			-34.4848589999999,-53.9640269999999,0
			-34.4851379999998,-53.9640269999999,0
			-34.4851379999998,-53.9645839999999,0
			-34.4854159999999,-53.9645839999999,0
			-34.4854159999999,-53.964863,0
			-34.4856949999999,-53.964863,0
			-34.4856949999999,-53.9654159999999,0
			-34.4859729999999,-53.9654159999999,0
			-34.4859729999999,-53.965973,0
			-34.486252,-53.965973,0
			-34.486252,-53.9665259999999,0
			-34.4865259999999,-53.9665259999999,0
			-34.4865259999999,-53.966805,0
			-34.4868049999999,-53.966805,0
			-34.4868049999999,-53.967361,0
			-34.487083,-53.967361,0
			-34.487083,-53.9679179999999,0
			-34.4873619999999,-53.9679179999999,0
			-34.4873619999999,-53.968472,0
			-34.4876399999999,-53.968472,0
			-34.4876399999999,-53.969028,0
			-34.4879149999999,-53.969028,0
			-34.4879149999999,-53.969307,0
			-34.4881939999999,-53.969307,0
			-34.4881939999999,-53.96986,0
			-34.4884719999999,-53.96986,0
			-34.4884719999999,-53.9704169999999,0
			-34.48875,-53.9704169999999,0
			-34.48875,-53.970974,0
			-34.4890289999999,-53.970974,0
			-34.4890289999999,-53.9712489999999,0
			-34.4893069999999,-53.9712489999999,0
			-34.4893069999999,-53.971806,0
			-34.489582,-53.971806,0
			-34.489582,-53.972363,0
			-34.4898609999999,-53.972363,0
			-34.4898609999999,-53.9729159999999,0
			-34.4901389999999,-53.9729159999999,0
			-34.4901389999999,-53.973473,0
			-34.490417,-53.973473,0
			-34.490417,-53.97403,0
			-34.490696,-53.97403,0
			-34.490696,-53.974304,0
			-34.4909709999999,-53.974304,0
			-34.4909709999999,-53.974861,0
			-34.491249,-53.974861,0
			-34.491249,-53.9754179999999,0
			-34.4915279999999,-53.9754179999999,0
			-34.4915279999999,-53.975971,0
			-34.4918059999999,-53.975971,0
			-34.4918059999999,-53.976528,0
			-34.492085,-53.976528,0
			-34.492085,-53.9770849999999,0
			-34.492363,-53.9770849999999,0
			-34.492363,-53.97736,0
			-34.4926379999999,-53.97736,0
			-34.4926379999999,-53.9779169999999,0
			-34.492916,-53.9779169999999,0
			-34.492916,-53.9784739999999,0
			-34.493195,-53.9784739999999,0
			-34.493195,-53.979027,0
			-34.4934729999999,-53.979027,0
			-34.4934729999999,-53.9795839999999,0
			-34.493752,-53.9795839999999,0
			-34.493752,-53.979862,0
			-34.4940259999999,-53.979862,0
			-34.4940259999999,-53.9804149999999,0
			-34.4943049999999,-53.9804149999999,0
			-34.4943049999999,-53.980972,0
			-34.494583,-53.980972,0
			-34.494583,-53.9812509999999,0
			-34.494862,-53.9812509999999,0
			-34.494862,-53.981804,0
			-34.4951399999999,-53.981804,0
			-34.4951399999999,-53.9820819999999,0
			-34.495415,-53.9820819999999,0
			-34.495419,-53.9826389999999,0
			-34.4956929999999,-53.9826389999999,0
			-34.4956929999999,-53.983196,0
			-34.4959719999999,-53.983196,0
			-34.4959719999999,-53.983471,0
			-34.49625,-53.983471,0
			-34.49625,-53.984028,0
			-34.496529,-53.984028,0
			-34.496529,-53.9845849999999,0
			-34.4968069999999,-53.9845849999999,0
			-34.4968069999999,-53.984859,0
			-34.497082,-53.984859,0
			-34.497082,-53.9854159999999,0
			-34.49736,-53.9854159999999,0
			-34.49736,-53.9859729999999,0
			-34.4976389999999,-53.9859729999999,0
			-34.4976389999999,-53.986526,0
			-34.497917,-53.986526,0
			-34.497917,-53.9870829999999,0
			-34.498196,-53.9870829999999,0
			-34.498196,-53.9876399999999,0
			-34.4984699999999,-53.9876399999999,0
			-34.4984739999999,-53.9884719999999,0
			-34.498749,-53.9884719999999,0
			-34.498749,-53.9890289999999,0
			-34.499027,-53.9890289999999,0
			-34.499027,-53.9895819999999,0
			-34.4993059999999,-53.9895819999999,0
			-34.4993059999999,-53.9901389999999,0
			-34.499584,-53.9901389999999,0
			-34.499584,-53.9906959999999,0
			-34.4998629999999,-53.9906959999999,0
			-34.4998629999999,-53.9912489999999,0
			-34.5001369999999,-53.9912489999999,0
			-34.5001369999999,-53.9918059999999,0
			-34.500416,-53.9918059999999,0
			-34.500416,-53.9923629999999,0
			-34.500694,-53.9923629999999,0
			-34.500694,-53.9929159999999,0
			-34.5009729999999,-53.9929159999999,0
			-34.5009729999999,-53.9934729999999,0
			-34.501251,-53.9934729999999,0
			-34.501251,-53.9940259999998,0
			-34.501526,-53.9940259999998,0
			-34.501526,-53.9945829999999,0
			-34.5018039999999,-53.9945829999999,0
			-34.5018039999999,-53.9948619999999,0
			-34.502083,-53.9948619999999,0
			-34.502083,-53.995419,0
			-34.502361,-53.995419,0
			-34.502361,-53.9959719999999,0
			-34.5026399999999,-53.9959719999999,0
			-34.5026399999999,-53.9965289999999,0
			-34.502918,-53.9965289999999,0
			-34.502918,-53.9970819999999,0
			-34.503193,-53.9970819999999,0
			-34.503193,-53.9976389999999,0
			-34.5034709999999,-53.9976389999999,0
			-34.5034709999999,-53.9981959999999,0
			-34.50375,-53.9981959999999,0
			-34.50375,-53.9987489999999,0
			-34.5040279999999,-53.9987489999999,0
			-34.5040279999999,-53.9993059999999,0
			-34.5043069999999,-53.9993059999999,0
			-34.5043069999999,-53.9998629999999,0
			-34.5043069999999,-54.0001369999999,0
			-34.5043069999999,-54.0004159999999,0
			-34.5034939999999,-54.0004159999999,0
			-34.503419,-54.0001239999999,0
			-34.5031009999999,-53.99968,0
			-34.502578,-53.9988109999999,0
		</coordinates>
	</polygon>
</kml>
