<?xml version="1.0" encoding="UTF-8"?>
<kml xmlns="http://earth.google.com/kml/2.2">
	<polygon id="Uruguay_Rocha_La_Paloma" samplingProbability="1">
		<coordinates>
			-34.679702,-54.269145,0
			-34.6766549999999,-54.270101,0
			-34.675581,-54.2698389999999,0
			-34.6693239999999,-54.268315,0
			-34.6681089999999,-54.2583439999999,0
			-34.6672299999998,-54.2548629999999,0
			-34.6669369999998,-54.253702,0
			-34.6639859999999,-54.2474759999999,0
			-34.6602549999999,-54.244364,0
			-34.6582459999999,-54.2463479999999,0
			-34.658172,-54.2464209999999,0
			-34.6512349999999,-54.256816,0
			-34.6511399999999,-54.2569569999999,0
			-34.6488409999999,-54.2604019999999,0
			-34.6452389999999,-54.2610879999999,0
			-34.642864,-54.262186,0
			-34.6421569999999,-54.262512,0
			-34.6393779999999,-54.2614419999999,0
			-34.6361219999999,-54.260188,0
			-34.6320869999999,-54.2594519999998,0
			-34.6280169999999,-54.2569219999999,0
			-34.6179779999999,-54.2547569999999,0
			-34.609294,-54.2550209999999,0
			-34.6081849999999,-54.255728,0
			-34.6041699999998,-54.258291,0
			-34.5982209999999,-54.2587659999999,0
			-34.5966149999999,-54.2571339999999,0
			-34.5938819999998,-54.254358,0
			-34.590424,-54.2538009999999,0
			-34.587842,-54.2533849999999,0
			-34.5874389999999,-54.2534929999999,0
			-34.5833249999999,-54.2545989999999,0
			-34.5815599999999,-54.253686,0
			-34.580974,-54.2533829999999,0
			-34.580507,-54.2525659999999,0
			-34.5786939999999,-54.249399,0
			-34.5778599999999,-54.244908,0
			-34.5813629999999,-54.240451,0
			-34.581599,-54.2391249999998,0
			-34.581669,-54.2387289999999,0
			-34.5776969999999,-54.239405,0
			-34.5761089999999,-54.2396749999999,0
			-34.57458,-54.2386959999999,0
			-34.5703259999999,-54.236366,0
			-34.5702319999999,-54.2363809999999,0
			-34.57021,-54.236384,0
			-34.5664889999999,-54.2369739999999,0
			-34.563959,-54.241836,0
			-34.5631929999999,-54.2440799999998,0
			-34.56193,-54.247778,0
			-34.560395,-54.2490439999999,0
			-34.5582869999999,-54.250783,0
			-34.555552,-54.2508119999999,0
			-34.5551169999999,-54.250817,0
			-34.5536149999999,-54.2467649999999,0
			-34.5520849999999,-54.2469139999998,0
			-34.5510469999999,-54.2470149999999,0
			-34.5490369999999,-54.2508299999998,0
			-34.547312,-54.254104,0
			-34.5376189999999,-54.2547569999999,0
			-34.5326469999999,-54.257437,0
			-34.532114,-54.257398,0
			-34.529231,-54.2571839999999,0
			-34.5277969999999,-54.2534909999999,0
			-34.5289359999999,-54.249782,0
			-34.5295789999998,-54.2476869999999,0
			-34.5295789999998,-54.2439419999999,0
			-34.5284149999999,-54.2431089999999,0
			-34.52545,-54.240987,0
			-34.5240039999999,-54.241115,0
			-34.522527,-54.2412449999999,0
			-34.5213799999999,-54.2438289999999,0
			-34.5196739999999,-54.2476739999999,0
			-34.515789,-54.248024,0
			-34.5105049999999,-54.248499,0
			-34.5104369999999,-54.2587199999999,0
			-34.506293,-54.261028,0
			-34.50575,-54.254022,0
			-34.503081,-54.2525449999999,0
			-34.5011309999999,-54.2514659999999,0
			-34.4990249999999,-54.2417389999999,0
			-34.497666,-54.2362159999999,0
			-34.4952709999999,-54.23317,0
			-34.492027,-54.229045,0
			-34.490464,-54.1963189999999,0
			-34.4894839999999,-54.195759,0
			-34.481636,-54.1912759999999,0
			-34.4750529999999,-54.1912759999999,0
			-34.4754779999999,-54.184063,0
			-34.4730359999999,-54.180585,0
			-34.4712009999999,-54.1806619999999,0
			-34.4637969999999,-54.1809719999999,0
			-34.464148,-54.1740579999999,0
			-34.4646469999998,-54.164228,0
			-34.4750529999999,-54.147999,0
			-34.4750529999999,-54.1409149999999,0
			-34.5226079999999,-54.072651,0
			-34.5306689999999,-54.0637669999999,0
			-34.537856,-54.0558459999999,0
			-34.5381899999999,-54.0561999999998,0
			-34.5383169999999,-54.05645,0
			-34.5385099999999,-54.0568299999999,0
			-34.5393419999999,-54.058322,0
			-34.540736,-54.0601749999999,0
			-34.54139,-54.0610599999999,0
			-34.5417539999999,-54.061933,0
			-34.5422039999999,-54.0625829999999,0
			-34.5430439999999,-54.0640119999999,0
			-34.544102,-54.0655649999999,0
			-34.5449869999999,-54.0673629999999,0
			-34.5457519999999,-54.068193,0
			-34.5459299999999,-54.06866,0
			-34.5463379999999,-54.0690979999999,0
			-34.5470819999999,-54.070393,0
			-34.5477899999999,-54.0713379999999,0
			-34.5485169999999,-54.072599,0
			-34.5488699999999,-54.0732099999999,0
			-34.5492639999999,-54.073615,0
			-34.5501999999999,-54.07503,0
			-34.5507099999999,-54.075723,0
			-34.551769,-54.0774319999999,0
			-34.5523499999999,-54.0783699999999,0
			-34.5528639999999,-54.078927,0
			-34.55421,-54.0814099999999,0
			-34.5548259999999,-54.0817919999999,0
			-34.5550669999998,-54.0823389999999,0
			-34.555306,-54.0828799999999,0
			-34.5559179999999,-54.0834659999999,0
			-34.5564239999999,-54.0842059999999,0
			-34.5568499999999,-54.08473,0
			-34.5572439999999,-54.0855579999999,0
			-34.55871,-54.08714,0
			-34.559884,-54.0892429999999,0
			-34.5611,-54.09048,0
			-34.56272,-54.0931559999999,0
			-34.5634899999999,-54.0938199999999,0
			-34.564,-54.0947829999999,0
			-34.56456,-54.0953299999999,0
			-34.5648459999999,-54.0959369999999,0
			-34.56589,-54.09684,0
			-34.5664539999999,-54.0979469999999,0
			-34.5669439999999,-54.0986219999999,0
			-34.5673209999999,-54.09914,0
			-34.56827,-54.1001699999999,0
			-34.5686929999999,-54.100941,0
			-34.5693299999999,-54.1016899999999,0
			-34.569589,-54.102296,0
			-34.5704279999999,-54.1033399999999,0
			-34.5727899999999,-54.1065399999999,0
			-34.573223,-54.1067659999999,0
			-34.57346,-54.1073139999999,0
			-34.573798,-54.1076849999999,0
			-34.57406,-54.1080499999999,0
			-34.5750269999999,-54.108965,0
			-34.575667,-54.1098489999999,0
			-34.5778,-54.1119499999999,0
			-34.5788469999999,-54.113264,0
			-34.5794819999999,-54.1137739999999,0
			-34.579917,-54.1142719999999,0
			-34.5804429999999,-54.114626,0
			-34.5808189999999,-54.115102,0
			-34.58122,-54.1152399999999,0
			-34.5820859999999,-54.1162659999999,0
			-34.5827899999999,-54.11675,0
			-34.583413,-54.1174879999999,0
			-34.5867199999998,-54.11972,0
			-34.5869369999999,-54.1199289999998,0
			-34.5872459999999,-54.1202269999999,0
			-34.5880789999999,-54.120804,0
			-34.588749,-54.121009,0
			-34.588749,-54.1206929999999,0
			-34.5893059999999,-54.1206929999999,0
			-34.5893059999999,-54.120419,0
			-34.5895839999999,-54.120419,0
			-34.5895839999999,-54.1201399999999,0
			-34.5898629999999,-54.1201399999999,0
			-34.5898629999999,-54.119862,0
			-34.590137,-54.119862,0
			-34.590137,-54.119583,0
			-34.5909729999999,-54.119583,0
			-34.5909729999999,-54.119862,0
			-34.5915259999999,-54.119862,0
			-34.5915259999999,-54.1201399999999,0
			-34.5934719999999,-54.1201399999999,0
			-34.5934719999999,-54.120419,0
			-34.5943069999999,-54.120419,0
			-34.5943069999999,-54.1206929999999,0
			-34.5945819999999,-54.1206929999999,0
			-34.5945819999999,-54.1209719999999,0
			-34.5948599999999,-54.1209719999999,0
			-34.5948599999999,-54.12125,0
			-34.5951389999999,-54.12125,0
			-34.5951389999999,-54.1218069999999,0
			-34.5954169999999,-54.1218069999999,0
			-34.5954169999999,-54.122082,0
			-34.5956949999999,-54.122082,0
			-34.5956949999999,-54.1226389999999,0
			-34.5954169999999,-54.1226389999999,0
			-34.5954169999999,-54.122917,0
			-34.5952569999998,-54.122917,0
			-34.5953179999999,-54.123075,0
			-34.5954779999999,-54.123366,0
			-34.5956799999999,-54.123753,0
			-34.5961649999999,-54.1243019999999,0
			-34.5963399999999,-54.12467,0
			-34.5970939999999,-54.1253579999999,0
			-34.5974759999999,-54.1258519999999,0
			-34.5984689999999,-54.126994,0
			-34.598785,-54.1274819999999,0
			-34.5995099999999,-54.1285999999999,0
			-34.59984,-54.1289759999999,0
			-34.6000499999999,-54.12951,0
			-34.6024649999999,-54.132165,0
			-34.6047629999999,-54.1346859999999,0
			-34.6053919999999,-54.1354779999999,0
			-34.6065119999999,-54.1363509999999,0
			-34.6068999999999,-54.1367299999999,0
			-34.6072139999999,-54.1371449999999,0
			-34.6074299999999,-54.1373399999999,0
			-34.6094179999998,-54.1392259999999,0
			-34.6106839999999,-54.1403789999999,0
			-34.6117589999999,-54.1411889999999,0
			-34.612537,-54.1418789999998,0
			-34.6135949999999,-54.1427279999999,0
			-34.6146829999999,-54.1435789999998,0
			-34.615825,-54.1444279999999,0
			-34.6193379999999,-54.1468079999999,0
			-34.6223499999999,-54.148456,0
			-34.6242099999999,-54.1494639999999,0
			-34.6252099999999,-54.1500059999999,0
			-34.6282919999999,-54.1515449999999,0
			-34.6299139999999,-54.152366,0
			-34.631653,-54.1529859999999,0
			-34.634037,-54.1537919999999,0
			-34.636682,-54.15419,0
			-34.63865,-54.1544499999999,0
			-34.6393709999999,-54.154488,0
			-34.640365,-54.1545399999999,0
			-34.642346,-54.1543399999999,0
			-34.6437049999999,-54.154122,0
			-34.6453089999999,-54.153769,0
			-34.6457609999999,-54.153576,0
			-34.646936,-54.153072,0
			-34.648266,-54.1523029999999,0
			-34.649217,-54.151449,0
			-34.650182,-54.150405,0
			-34.650977,-54.149192,0
			-34.651103,-54.148941,0
			-34.652188,-54.146202,0
			-34.6523389999999,-54.145835,0
			-34.6524509999999,-54.145522,0
			-34.6526039999998,-54.1451689999999,0
			-34.6529159999999,-54.144911,0
			-34.6529159999999,-54.1431959999999,0
			-34.6531939999999,-54.1431959999999,0
			-34.6531939999999,-54.1426389999999,0
			-34.653473,-54.1426389999999,0
			-34.653473,-54.142082,0
			-34.6537509999999,-54.142082,0
			-34.6537509999999,-54.1415289999999,0
			-34.6540249999999,-54.1415289999999,0
			-34.6538309999999,-54.1413459999999,0
			-34.653543,-54.1413559999999,0
			-34.653314,-54.141249,0
			-34.6533049999999,-54.1408949999999,0
			-34.6532329999999,-54.1404919999999,0
			-34.6530819999999,-54.140352,0
			-34.653003,-54.1402879999999,0
			-34.6529069999999,-54.140284,0
			-34.6529129999999,-54.139914,0
			-34.653094,-54.139737,0
			-34.6532589999999,-54.1396319999999,0
			-34.6533609999998,-54.1396309999999,0
			-34.653426,-54.1397739999999,0
			-34.6536829999999,-54.1397639999999,0
			-34.653939,-54.1398129999999,0
			-34.6540859999999,-54.139855,0
			-34.654234,-54.13991,0
			-34.654376,-54.1399919999999,0
			-34.654508,-54.1400829999999,0
			-34.6546659999999,-54.1402229999999,0
			-34.654799,-54.140373,0
			-34.6549579999999,-54.140575,0
			-34.6550879999999,-54.1408019999999,0
			-34.6551889999998,-54.140999,0
			-34.6552779999999,-54.1412129999999,0
			-34.6555059999999,-54.14125,0
			-34.6556479999999,-54.1411899999999,0
			-34.655717,-54.141083,0
			-34.6558469999999,-54.141406,0
			-34.656058,-54.1417609999999,0
			-34.656087,-54.1418039999999,0
			-34.6562499999999,-54.1418039999999,0
			-34.6562499999999,-54.1420479999999,0
			-34.6562729999999,-54.142082,0
			-34.656807,-54.142082,0
			-34.656807,-54.1423609999999,0
			-34.6570819999999,-54.1423609999999,0
			-34.6570819999999,-54.1426389999999,0
			-34.65736,-54.1426389999999,0
			-34.65736,-54.1429179999998,0
			-34.657639,-54.1429179999998,0
			-34.657639,-54.1431959999999,0
			-34.6581949999999,-54.1431959999999,0
			-34.6581949999999,-54.143951,0
			-34.658267,-54.1440279999999,0
			-34.658474,-54.1440279999999,0
			-34.658474,-54.1445849999999,0
			-34.6582519999999,-54.1445849999999,0
			-34.6581949999999,-54.1447019999999,0
			-34.6581949999999,-54.1448589999999,0
			-34.6581699999999,-54.1448589999999,0
			-34.6581519999999,-54.1449799999999,0
			-34.658015,-54.1452399999999,0
			-34.6576739999999,-54.14525,0
			-34.657345,-54.1451379999999,0
			-34.6570819999999,-54.1451379999999,0
			-34.6570819999999,-54.145416,0
			-34.6562499999999,-54.145416,0
			-34.6562499999999,-54.1451379999999,0
			-34.655766,-54.1451379999999,0
			-34.6556469999999,-54.145278,0
			-34.6555409999999,-54.1453969999999,0
			-34.655384,-54.1458269999999,0
			-34.655298,-54.1462949999999,0
			-34.6553079999999,-54.1472269999999,0
			-34.655473,-54.1481759999999,0
			-34.6557369999999,-54.1491369999999,0
			-34.6560719999999,-54.149862,0
			-34.6565439999999,-54.150479,0
			-34.657231,-54.1511889999999,0
			-34.658175,-54.151823,0
			-34.659146,-54.152143,0
			-34.6601719999999,-54.152114,0
			-34.6609089999999,-54.1517919999999,0
			-34.661669,-54.1513209999999,0
			-34.6619729999998,-54.1510469999999,0
			-34.6621569999999,-54.1509689999999,0
			-34.6624479999999,-54.1511189999998,0
			-34.662721,-54.151354,0
			-34.66284,-54.151419,0
			-34.6630959999999,-54.1515269999999,0
			-34.664057,-54.1515269999999,0
			-34.6640829999999,-54.1515109999999,0
			-34.664187,-54.151374,0
			-34.6642329999999,-54.1512489999999,0
			-34.6640279999999,-54.1512489999999,0
			-34.6640279999999,-54.1498599999999,0
			-34.664307,-54.1498599999999,0
			-34.664307,-54.1495819999998,0
			-34.6645849999999,-54.1495819999998,0
			-34.6645849999999,-54.1493069999999,0
			-34.6654169999999,-54.1493069999999,0
			-34.6654169999999,-54.1495819999998,0
			-34.6656949999999,-54.1495819999998,0
			-34.6656949999999,-54.1498599999999,0
			-34.6659739999999,-54.1498599999999,0
			-34.6659739999999,-54.1501389999999,0
			-34.666805,-54.1501389999999,0
			-34.666805,-54.1504169999999,0
			-34.6670839999999,-54.1504169999999,0
			-34.6670839999999,-54.1501389999999,0
			-34.6673619999999,-54.1501389999999,0
			-34.6673619999999,-54.150696,0
			-34.6676409999998,-54.150696,0
			-34.6676409999998,-54.1512489999999,0
			-34.6698609999999,-54.1512489999999,0
			-34.6698609999999,-54.1518059999999,0
			-34.6701389999999,-54.1518059999999,0
			-34.6701389999999,-54.1520839999999,0
			-34.670418,-54.1520839999999,0
			-34.670418,-54.1540259999999,0
			-34.6701389999999,-54.1540259999999,0
			-34.6701389999999,-54.1543049999999,0
			-34.6698609999999,-54.1543049999999,0
			-34.6698609999999,-54.15514,0
			-34.669639,-54.15514,0
			-34.6695819999999,-54.1551929999999,0
			-34.6695819999999,-54.1554179999999,0
			-34.669339,-54.1554229999999,0
			-34.6690289999999,-54.155562,0
			-34.6690289999999,-54.1559719999999,0
			-34.6687509999999,-54.1559719999999,0
			-34.6687509999999,-54.1562499999999,0
			-34.668472,-54.1562499999999,0
			-34.668472,-54.156528,0
			-34.6682269999999,-54.156528,0
			-34.6681549999999,-54.156619,0
			-34.66788,-54.1571809999999,0
			-34.667838,-54.157815,0
			-34.6677739999999,-54.158537,0
			-34.6677439999999,-54.1587489999999,0
			-34.6679149999999,-54.1587489999999,0
			-34.6679149999999,-54.1601369999999,0
			-34.6676409999998,-54.1601369999999,0
			-34.6676409999998,-54.1604159999999,0
			-34.6673619999999,-54.1604159999999,0
			-34.6673619999999,-54.160973,0
			-34.6670839999999,-54.160973,0
			-34.6670839999999,-54.16153,0
			-34.666805,-54.16153,0
			-34.666805,-54.161804,0
			-34.6664129999999,-54.161804,0
			-34.6662479999999,-54.161979,0
			-34.6662479999999,-54.1620829999999,0
			-34.6657959999999,-54.1620829999999,0
			-34.665634,-54.1624849999999,0
			-34.6653589999999,-54.162774,0
			-34.665207,-54.1637139999999,0
			-34.6650139999998,-54.1644609999999,0
			-34.664888,-54.165158,0
			-34.6648949999999,-54.1659679999999,0
			-34.6649099999999,-54.1668359999999,0
			-34.6648639999999,-54.1674529999999,0
			-34.6650319999999,-54.1679149999999,0
			-34.665138,-54.1679149999999,0
			-34.665138,-54.169861,0
			-34.6648599999999,-54.169861,0
			-34.6648599999999,-54.1701389999999,0
			-34.6647419999999,-54.1701389999999,0
			-34.664685,-54.1704179999999,0
			-34.6648599999999,-54.1704179999999,0
			-34.6648599999999,-54.170971,0
			-34.6654169999999,-54.170971,0
			-34.6654169999999,-54.173195,0
			-34.6648599999999,-54.173195,0
			-34.6648599999999,-54.1737519999999,0
			-34.6645849999999,-54.1737519999999,0
			-34.6645849999999,-54.174026,0
			-34.664307,-54.174026,0
			-34.664307,-54.1737519999999,0
			-34.6640279999999,-54.1737519999999,0
			-34.6640279999999,-54.1733839999999,0
			-34.6639489999999,-54.1735009999999,0
			-34.6638139999999,-54.174021,0
			-34.6638389999999,-54.1745289999998,0
			-34.6638409999999,-54.1745829999999,0
			-34.6640279999999,-54.1745829999999,0
			-34.6640279999999,-54.174862,0
			-34.664307,-54.174862,0
			-34.664307,-54.1762499999999,0
			-34.6637499999999,-54.1762499999999,0
			-34.6637499999999,-54.176529,0
			-34.6631929999999,-54.176529,0
			-34.6631929999999,-54.1762499999999,0
			-34.66264,-54.1762499999999,0
			-34.66264,-54.1759719999999,0
			-34.66263,-54.1759719999999,0
			-34.662315,-54.1764939999999,0
			-34.6620269999999,-54.177184,0
			-34.661873,-54.178176,0
			-34.6618189999999,-54.179028,0
			-34.6618309999999,-54.1798669999999,0
			-34.661775,-54.1806269999999,0
			-34.661802,-54.1813229999999,0
			-34.661848,-54.182218,0
			-34.6618799999999,-54.182848,0
			-34.6617859999999,-54.1833119999999,0
			-34.66139,-54.1840429999999,0
			-34.6609989999999,-54.184768,0
			-34.660792,-54.185907,0
			-34.660633,-54.1870799999999,0
			-34.6605389999999,-54.1882879999999,0
			-34.6605979999999,-54.189474,0
			-34.6605989999998,-54.1910309999999,0
			-34.6606199999999,-54.192335,0
			-34.660716,-54.193298,0
			-34.6606869999999,-54.1941639999999,0
			-34.6609839999999,-54.195462,0
			-34.6609189999999,-54.1962169999999,0
			-34.6608329999999,-54.196962,0
			-34.6609169999999,-54.1976319999999,0
			-34.6610219999999,-54.198434,0
			-34.661189,-54.1993419999999,0
			-34.6615299999999,-54.200888,0
			-34.663673,-54.2134129999999,0
			-34.6645679999999,-54.2165429999999,0
			-34.6658239999999,-54.22076,0
			-34.666103,-54.2227579999999,0
			-34.6673509999999,-54.2258989999999,0
			-34.6742379999999,-54.247961,0
			-34.6787729999999,-54.2606629999999,0
			-34.680961,-54.266944,0
			-34.6817279999999,-54.2685099999999,0
			-34.679702,-54.269145,0
		</coordinates>
	</polygon>
</kml>
