<?xml version="1.0" encoding="UTF-8"?>
<kml xmlns="http://earth.google.com/kml/2.2">
	<polygon id="Uruguay_Maldonado_Punta_del_Este" samplingProbability="1">
		<coordinates>
			-34.9309881369999,-54.9557185679999,0
			-34.9307143419999,-54.9552214839999,0
			-34.9284309289999,-54.9538004939999,0
			-34.9241845739999,-54.9539693819999,0
			-34.9241435299999,-54.9539710139999,0
			-34.923120777,-54.954270086,0
			-34.9209109999999,-54.9549159999999,0
			-34.9182709999999,-54.954198,0
			-34.918163008,-54.9540638189999,0
			-34.915801103,-54.9511290359999,0
			-34.914356238,-54.9144106759999,0
			-34.913610493,-54.888037117,0
			-34.9131910199998,-54.8783178309999,0
			-34.913349608,-54.876989463,0
			-34.913890147,-54.8724630739999,0
			-34.9156117289999,-54.8706389239999,0
			-34.9167332499999,-54.869450586,0
			-34.919048056,-54.8655621089999,0
			-34.919117,-54.8656959999999,0
			-34.919304,-54.8656959999999,0
			-34.919304,-54.8660609999999,0
			-34.919392,-54.866233,0
			-34.9198749999999,-54.866231,0
			-34.920331,-54.8662929999999,0
			-34.9204549999999,-54.866767,0
			-34.920476,-54.8675259999999,0
			-34.9205989999999,-54.8680419999999,0
			-34.9208659999999,-54.8682869999999,0
			-34.9210379999999,-54.8688769999999,0
			-34.921239,-54.870192,0
			-34.9218269999998,-54.870761,0
			-34.9220879999999,-54.871607,0
			-34.9222589999999,-54.8725359999999,0
			-34.9225409999999,-54.8730419999999,0
			-34.9227599999999,-54.8736249999999,0
			-34.9232289999999,-54.874136,0
			-34.9235419999999,-54.8748259999999,0
			-34.9239559999999,-54.8754109999999,0
			-34.9243809999999,-54.875594,0
			-34.9247319999999,-54.875639,0
			-34.9250089999999,-54.8756209999999,0
			-34.9252299999999,-54.8757029999999,0
			-34.925036,-54.876004,0
			-34.9247199999999,-54.8762879999999,0
			-34.9243769999999,-54.876457,0
			-34.924271,-54.87715,0
			-34.9244299999999,-54.8780449999999,0
			-34.9246479999999,-54.8789909999999,0
			-34.9250099999999,-54.879922,0
			-34.9253389999999,-54.8807029999999,0
			-34.9257029999999,-54.88172,0
			-34.9260949999999,-54.8827919999999,0
			-34.9265389999999,-54.8839819999999,0
			-34.926936,-54.8848679999999,0
			-34.927315,-54.885599,0
			-34.9277499999999,-54.8865049999999,0
			-34.9282679999999,-54.8874489999999,0
			-34.9289939999999,-54.8889119999999,0
			-34.929814,-54.890464,0
			-34.930403,-54.89142,0
			-34.930967,-54.8924869999999,0
			-34.9314559999999,-54.893469,0
			-34.9320309999999,-54.8944719999998,0
			-34.9327019999999,-54.895709,0
			-34.9332669999999,-54.896509,0
			-34.933859,-54.8975409999999,0
			-34.934559,-54.8986899999999,0
			-34.9352289999999,-54.89962,0
			-34.9358099999999,-54.9008589999999,0
			-34.936273,-54.901754,0
			-34.9369419999999,-54.902968,0
			-34.9376099999998,-54.903963,0
			-34.938343,-54.905119,0
			-34.9392339999998,-54.9065439999999,0
			-34.9397119999999,-54.907249,0
			-34.939969,-54.9076269999999,0
			-34.9403419999999,-54.9082729999999,0
			-34.9408799999999,-54.908987,0
			-34.9417569999999,-54.910246,0
			-34.9422109999999,-54.911168,0
			-34.942648,-54.911664,0
			-34.9429619999999,-54.912425,0
			-34.9435129999999,-54.913622,0
			-34.943727,-54.9140419999999,0
			-34.944269,-54.914926,0
			-34.9446219999999,-54.9156769999999,0
			-34.9451569999999,-54.916668,0
			-34.945724,-54.91786,0
			-34.9462919999999,-54.9188959999999,0
			-34.9468159999998,-54.9197179999999,0
			-34.947466,-54.9208599999999,0
			-34.9478269999999,-54.92159,0
			-34.948361,-54.9223439999999,0
			-34.949103,-54.9233399999999,0
			-34.9494159999999,-54.9237019999999,0
			-34.9498639999999,-54.9244699999999,0
			-34.9506549999999,-54.9253939999999,0
			-34.951379,-54.9265549999999,0
			-34.9520469999999,-54.927242,0
			-34.9528689999999,-54.928077,0
			-34.9532629999999,-54.9284649999999,0
			-34.9535739999999,-54.9288579999999,0
			-34.953923,-54.9288739999998,0
			-34.9541929999999,-54.9292369999999,0
			-34.9547349999999,-54.929564,0
			-34.9549299999999,-54.9299849999999,0
			-34.9553189999999,-54.930122,0
			-34.9551749999999,-54.9306399999999,0
			-34.955214,-54.931074,0
			-34.9558329999999,-54.932225,0
			-34.956172,-54.933162,0
			-34.956632,-54.933728,0
			-34.9569969999999,-54.934536,0
			-34.9577449999999,-54.935197,0
			-34.9584519999999,-54.9364209999999,0
			-34.959103,-54.937033,0
			-34.959266,-54.9373629999999,0
			-34.960415,-54.9373629999999,0
			-34.960415,-54.9376369999999,0
			-34.9606929999999,-54.9376369999999,0
			-34.9606929999999,-54.9377039999999,0
			-34.9607139999999,-54.937692,0
			-34.960855,-54.9378599999999,0
			-34.960837,-54.937916,0
			-34.960972,-54.937916,0
			-34.960972,-54.938001,0
			-34.961046,-54.9380219999999,0
			-34.9611939999999,-54.938194,0
			-34.9615289999999,-54.938194,0
			-34.9615289999999,-54.9384729999999,0
			-34.961807,-54.9384729999999,0
			-34.961807,-54.9387509999999,0
			-34.962082,-54.9387509999999,0
			-34.962082,-54.939026,0
			-34.9623599999999,-54.9390299999999,0
			-34.9623599999999,-54.9393039999999,0
			-34.9629169999999,-54.9393039999999,0
			-34.9629169999999,-54.9395829999999,0
			-34.9631959999999,-54.9395829999999,0
			-34.9631959999999,-54.939861,0
			-34.96347,-54.939861,0
			-34.96347,-54.9395829999999,0
			-34.9645839999999,-54.9395829999999,0
			-34.9645839999999,-54.9393039999999,0
			-34.9648629999999,-54.9393039999999,0
			-34.9648629999999,-54.9390299999999,0
			-34.965137,-54.939026,0
			-34.965137,-54.9387509999999,0
			-34.965973,-54.9387509999999,0
			-34.965973,-54.939026,0
			-34.9662509999999,-54.9390299999999,0
			-34.9662509999999,-54.9393039999999,0
			-34.9665259999999,-54.9393039999999,0
			-34.9665259999999,-54.9404179999999,0
			-34.9662509999999,-54.9404179999999,0
			-34.9662509999999,-54.940693,0
			-34.965973,-54.940693,0
			-34.965973,-54.9409709999999,0
			-34.9656939999999,-54.9409709999999,0
			-34.9656939999999,-54.9415279999999,0
			-34.9654159999999,-54.9415279999999,0
			-34.9654159999999,-54.9418069999999,0
			-34.9656939999999,-54.9418069999999,0
			-34.9656939999999,-54.942081,0
			-34.9662509999999,-54.9420849999999,0
			-34.9662509999999,-54.94236,0
			-34.966805,-54.94236,0
			-34.966805,-54.9426379999999,0
			-34.9670829999999,-54.9426379999999,0
			-34.9670829999999,-54.9431949999999,0
			-34.9673609999999,-54.9431949999999,0
			-34.9673609999999,-54.9437479999999,0
			-34.96764,-54.9437479999999,0
			-34.96764,-54.9448619999999,0
			-34.9679179999999,-54.9448619999999,0
			-34.9679179999999,-54.9462509999999,0
			-34.9681929999999,-54.9462509999999,0
			-34.9681929999999,-54.946472,0
			-34.9681929999999,-54.9473609999999,0
			-34.968472,-54.9473609999999,0
			-34.968472,-54.9476389999999,0
			-34.9687499999999,-54.9476389999999,0
			-34.9687499999999,-54.9479179999999,0
			-34.9693069999998,-54.9479179999999,0
			-34.9693069999998,-54.9484709999999,0
			-34.969997,-54.9484709999999,0
			-34.9704169999999,-54.9484709999999,0
			-34.9704169999999,-54.9487499999999,0
			-34.9709739999998,-54.9487499999999,0
			-34.9709739999998,-54.9490279999999,0
			-34.9718059999998,-54.9490279999999,0
			-34.9718059999998,-54.9495849999999,0
			-34.9723629999999,-54.9495849999999,0
			-34.9723629999999,-54.9498599999999,0
			-34.9729159999999,-54.9498599999999,0
			-34.9729159999999,-54.9501379999999,0
			-34.9734729999998,-54.9501379999999,0
			-34.9734729999998,-54.9498599999999,0
			-34.9737509999999,-54.9498599999999,0
			-34.9737509999999,-54.9504169999999,0
			-34.9740299999999,-54.9504169999999,0
			-34.9740299999999,-54.9506949999998,0
			-34.9737509999999,-54.9506949999998,0
			-34.9737509999999,-54.9514849999998,0
			-34.9738,-54.9515919999999,0
			-34.9737789999999,-54.951861,0
			-34.9737829999999,-54.951926,0
			-34.973878,-54.951941,0
			-34.9739309999999,-54.9520079999999,0
			-34.9737929999999,-54.952033,0
			-34.973761,-54.9521669999999,0
			-34.9738379999999,-54.952231,0
			-34.9738129999999,-54.9523319999999,0
			-34.9739339999999,-54.9524499999999,0
			-34.9738119999999,-54.9524519999999,0
			-34.9737829999999,-54.95251,0
			-34.9738809999999,-54.9526359999999,0
			-34.973758,-54.952672,0
			-34.973676,-54.9527189999999,0
			-34.973496,-54.9527019999999,0
			-34.9735039999999,-54.952896,0
			-34.9733909999999,-54.9529269999999,0
			-34.9733259999999,-54.952896,0
			-34.97326,-54.9531259999999,0
			-34.9732759999999,-54.9532929999999,0
			-34.9731389999999,-54.953343,0
			-34.9728249999999,-54.9535849999999,0
			-34.9727249999999,-54.953739,0
			-34.972502,-54.9537339999999,0
			-34.9725639999999,-54.954022,0
			-34.9724219999999,-54.954194,0
			-34.9720429999999,-54.9543839999999,0
			-34.971796,-54.954468,0
			-34.9716109999999,-54.954312,0
			-34.9713679999999,-54.954326,0
			-34.9711169999999,-54.954104,0
			-34.9706129999999,-54.9543419999999,0
			-34.9701699999999,-54.9546289999999,0
			-34.9697299999999,-54.95469,0
			-34.9695819999999,-54.9547259999999,0
			-34.9695819999999,-54.9548609999999,0
			-34.9690209999999,-54.9548609999999,0
			-34.969006,-54.954864,0
			-34.968472,-54.9549039999999,0
			-34.968472,-54.955139,0
			-34.9666449999999,-54.955139,0
			-34.9666189999999,-54.9551699999999,0
			-34.9665919999999,-54.955139,0
			-34.9654159999999,-54.955139,0
			-34.9654159999999,-54.9548609999999,0
			-34.964306,-54.9548609999999,0
			-34.964306,-54.9545819999999,0
			-34.963749,-54.9545819999999,0
			-34.963749,-54.9537509999999,0
			-34.9640269999999,-54.9537509999999,0
			-34.9640269999999,-54.953472,0
			-34.964127,-54.953472,0
			-34.9641929999999,-54.9532869999999,0
			-34.9642289999999,-54.953188,0
			-34.9642659999998,-54.9530169999999,0
			-34.9641609999999,-54.952641,0
			-34.9640269999999,-54.952641,0
			-34.9640269999999,-54.952411,0
			-34.9639969999999,-54.9523619999999,0
			-34.962639,-54.9523619999999,0
			-34.962639,-54.9522549999999,0
			-34.9625599999999,-54.9522699999999,0
			-34.9622859999999,-54.9522469999999,0
			-34.9618569999999,-54.9520839999999,0
			-34.961807,-54.9520839999999,0
			-34.961807,-54.952064,0
			-34.96113,-54.951805,0
			-34.960972,-54.951805,0
			-34.960972,-54.9517449999999,0
			-34.9597939999999,-54.9512939999999,0
			-34.9596509999999,-54.95111,0
			-34.9597869999999,-54.950976,0
			-34.96014,-54.951114,0
			-34.96014,-54.9506949999998,0
			-34.960415,-54.9506949999998,0
			-34.960415,-54.9498599999999,0
			-34.9606929999999,-54.9498599999999,0
			-34.9606929999999,-54.949306,0
			-34.960415,-54.949306,0
			-34.960415,-54.9476389999999,0
			-34.9606929999999,-54.9476389999999,0
			-34.9606929999999,-54.9473609999999,0
			-34.9612499999999,-54.9473609999999,0
			-34.9612499999999,-54.9470829999999,0
			-34.9615289999999,-54.9470829999999,0
			-34.9615289999999,-54.9468039999999,0
			-34.9612499999999,-54.9468039999999,0
			-34.9612499999999,-54.9465289999999,0
			-34.961016,-54.946535,0
			-34.9608509999999,-54.946648,0
			-34.9606049999999,-54.9465539999999,0
			-34.9605129999998,-54.9465289999999,0
			-34.96014,-54.9465289999999,0
			-34.96014,-54.9463809999999,0
			-34.9601179999999,-54.9463689999999,0
			-34.9598119999999,-54.9463499999999,0
			-34.9594349999999,-54.9463229999999,0
			-34.9593389999999,-54.9462509999999,0
			-34.9587519999999,-54.9462509999999,0
			-34.9587519999999,-54.9459719999999,0
			-34.958473,-54.9459719999999,0
			-34.958473,-54.9456939999999,0
			-34.9581949999999,-54.9456939999999,0
			-34.9581949999999,-54.9454149999999,0
			-34.957916,-54.9454149999999,0
			-34.957916,-54.9451369999999,0
			-34.957638,-54.9451369999999,0
			-34.957638,-54.9448619999999,0
			-34.9573589999999,-54.9448619999999,0
			-34.9573589999999,-54.9445909999999,0
			-34.957331,-54.944564,0
			-34.957185,-54.944239,0
			-34.9571089999999,-54.9437979999999,0
			-34.9570849999999,-54.9437479999999,0
			-34.9569319999998,-54.9433699999998,0
			-34.9568729999999,-54.9431949999999,0
			-34.956806,-54.9431949999999,0
			-34.956806,-54.9429969999999,0
			-34.9567789999999,-54.9429169999999,0
			-34.9565279999999,-54.9429169999999,0
			-34.9565279999999,-54.94236,0
			-34.956249,-54.94236,0
			-34.956249,-54.9414189999999,0
			-34.9560059999999,-54.9412849999999,0
			-34.9553699999999,-54.9411499999999,0
			-34.9545299999999,-54.9410899999999,0
			-34.953886,-54.9412,0
			-34.9533989999999,-54.9413429999999,0
			-34.9531499999999,-54.9413939999999,0
			-34.952796,-54.9413259999998,0
			-34.9519609999999,-54.941359,0
			-34.9515269999999,-54.9413939999999,0
			-34.9515269999999,-54.9415279999999,0
			-34.9503629999999,-54.9415279999999,0
			-34.950138,-54.941563,0
			-34.950138,-54.9418069999999,0
			-34.949585,-54.9418069999999,0
			-34.949585,-54.942081,0
			-34.9489799999998,-54.942081,0
			-34.9487499999999,-54.9422089999999,0
			-34.9487499999999,-54.94236,0
			-34.948471,-54.9423619999999,0
			-34.948471,-54.9429169999999,0
			-34.947918,-54.9429169999999,0
			-34.947918,-54.9434739999999,0
			-34.9473609999999,-54.9434739999999,0
			-34.9473609999999,-54.9431949999999,0
			-34.947099,-54.9431949999999,0
			-34.9468039999999,-54.9434009999999,0
			-34.9468039999999,-54.9434739999999,0
			-34.9466989999999,-54.9434739999999,0
			-34.9465289999999,-54.9435919999999,0
			-34.9465289999999,-54.9437479999999,0
			-34.9463029999999,-54.9437489999999,0
			-34.945972,-54.9439609999999,0
			-34.945972,-54.9440269999999,0
			-34.9458699999999,-54.9440269999999,0
			-34.945511,-54.9442569999999,0
			-34.944802,-54.9448779999999,0
			-34.9442739999998,-54.9455409999999,0
			-34.943766,-54.945954,0
			-34.9437429999999,-54.9459719999999,0
			-34.943474,-54.9461939999999,0
			-34.943474,-54.9462509999999,0
			-34.943405,-54.9462509999999,0
			-34.9432689999998,-54.946363,0
			-34.9426529999999,-54.9469629999999,0
			-34.9420679999998,-54.9475099999999,0
			-34.9413239999999,-54.9482969999999,0
			-34.940639,-54.9491329999999,0
			-34.9399169999999,-54.9499749999999,0
			-34.9391989999999,-54.9507649999999,0
			-34.938555,-54.951388,0
			-34.9380889999999,-54.951899,0
			-34.9374189999999,-54.95248,0
			-34.9370879999999,-54.952689,0
			-34.9367789999999,-54.9529919999999,0
			-34.9360919999999,-54.953561,0
			-34.9358989999999,-54.9538029999999,0
			-34.9357129999999,-54.9539109999999,0
			-34.9354939999999,-54.954055,0
			-34.9351559999999,-54.9545379999999,0
			-34.9347449999999,-54.954945,0
			-34.9344829999999,-54.9552949999999,0
			-34.9344069999999,-54.955361,0
			-34.934265,-54.955484,0
			-34.9340119999999,-54.9557879999999,0
			-34.9336639999999,-54.956267,0
			-34.9334069999999,-54.956676,0
			-34.932988,-54.957097,0
			-34.9326169999999,-54.9575639999999,0
			-34.932362,-54.957861,0
			-34.932362,-54.9579159999999,0
			-34.932314,-54.9579159999999,0
			-34.9322439999999,-54.9579979999999,0
			-34.9309881369999,-54.9557185679999,0
		</coordinates>
	</polygon>
</kml>
