<?xml version="1.0" encoding="UTF-8"?>
<kml xmlns="http://earth.google.com/kml/2.2">
	<polygon id="USA_NE_York" samplingProbability="1">
		<coordinates>
			40.6989517210001,-97.368476867,0
			40.6983299260001,-97.711120606,0
			40.6985092170001,-97.8245010379999,0
			41.0466804500001,-97.8276367179999,0
			41.0468711860001,-97.7644424439999,0
			41.0474815370001,-97.598060608,0
			41.0484390250001,-97.529769898,0
			41.0475387580001,-97.483489989,0
			41.0474815370001,-97.3683090219999,0
			40.9589385990002,-97.3667297359999,0
			40.6989517210001,-97.368476867,0
		</coordinates>
	</polygon>
</kml>
