<?xml version="1.0" encoding="UTF-8"?>
<kml xmlns="http://earth.google.com/kml/2.2">
	<polygon id="USA_ND_Richland" samplingProbability="1">
		<coordinates>
			46.0228195180002,-96.5766677859999,0
			46.0215415960001,-96.5757522579999,0
			46.0193099990001,-96.574882507,0
			46.018409729,-96.5745315559999,0
			46.0167808530001,-96.5745010369999,0
			46.0157318110002,-96.5745620729999,0
			46.0135688770001,-96.5746917729999,0
			46.0089797970002,-96.5751266489999,0
			45.9998703000001,-96.5734024049999,0
			45.9907302870001,-96.57232666,0
			45.9834404000001,-96.570678711,0
			45.9757003780001,-96.5690078739999,0
			45.9678688060001,-96.566825867,0
			45.9606895440001,-96.5643920909999,0
			45.9547996530001,-96.5615005499999,0
			45.9507217400001,-96.5599899299999,0
			45.9468307500001,-96.5580291749999,0
			45.9461898800001,-96.5578308109999,0
			45.9425315860001,-96.557662963,0
			45.9397506710002,-96.558853149,0
			45.9355812080001,-96.561256409,0
			45.9361305240001,-96.787399291,0
			45.9354209900001,-96.9792709339999,0
			45.9353485120002,-96.998619079,0
			45.9353599550001,-97.001525879,0
			45.9360313410001,-97.2312698359999,0
			45.9950904840002,-97.2309875489999,0
			45.9985389710001,-97.260307311,0
			46.1960105890001,-97.2618103039999,0
			46.2821617130001,-97.2615432739999,0
			46.282218933,-97.2832565309999,0
			46.300998688,-97.282997132,0
			46.3253097530001,-97.2837905889999,0
			46.457328797,-97.2826385499999,0
			46.5439910900001,-97.281707764,0
			46.5875587460002,-97.281562805,0
			46.629322051,-97.2821731559999,0
			46.6296119690001,-97.1789627069999,0
			46.6292190560001,-97.051971436,0
			46.6291503910001,-97.030807494,0
			46.6287117000001,-96.9071197509999,0
			46.6286392210001,-96.7840728749999,0
			46.6274490360001,-96.7859268189999,0
			46.6264686600001,-96.7888183599998,0
			46.6255912790001,-96.790176391,0
			46.6244697560001,-96.789093018,0
			46.624580384,-96.7869262689999,0
			46.624530792,-96.784957886,0
			46.6240005490001,-96.782341004,0
			46.6234207150001,-96.7808227529999,0
			46.6229591380002,-96.7817382809999,0
			46.6227798470002,-96.782463074,0
			46.6224594120001,-96.783699035,0
			46.6217193600001,-96.7850875849999,0
			46.6215400690001,-96.7858428949999,0
			46.6209793100002,-96.788246155,0
			46.620059967,-96.788208009,0
			46.6191597000001,-96.7874984729999,0
			46.6191902160001,-96.786178589,0
			46.6192398080001,-96.784202576,0
			46.6202011110001,-96.78225708,0
			46.6207389840002,-96.7789764409999,0
			46.6198997500002,-96.775627137,0
			46.6185302730001,-96.7755661009999,0
			46.6175613400001,-96.7774963369999,0
			46.617050171,-96.7794570909999,0
			46.6160888680002,-96.7813873289999,0
			46.6151809690001,-96.781349182,0
			46.6150016800001,-96.78060913,0
			46.6147499080001,-96.779556274,0
			46.6139411930002,-96.7753372179999,0
			46.6125793460001,-96.7746124269999,0
			46.6102600100002,-96.7758178709999,0
			46.6096191400001,-96.7766494749999,0
			46.6090812680002,-96.7771072389999,0
			46.6083793650001,-96.777709962,0
			46.6074905400002,-96.7763366699999,0
			46.6070899970002,-96.7743377689999,0
			46.606231689,-96.771652221,0
			46.6052703860001,-96.7715530409999,0
			46.6025390630001,-96.7727890009999,0
			46.6006698610001,-96.774017334,0
			46.5990104680002,-96.7744903559999,0
			46.5974502570002,-96.7745208749999,0
			46.5965805060001,-96.7724914549999,0
			46.5970993040002,-96.7698669439999,0
			46.5987205500002,-96.766716004,0
			46.5996398930001,-96.763870238,0
			46.5986099240001,-96.75995636,0
			46.5980186470001,-96.759170533,0
			46.5968894960002,-96.759277343,0
			46.5950393670001,-96.7598571779999,0
			46.5941619880001,-96.7584915159999,0
			46.5932388300001,-96.7584533689999,0
			46.5918197640001,-96.7603530879999,0
			46.5911598200001,-96.7617568969999,0
			46.5897598270001,-96.7620468129999,0
			46.5890312200002,-96.7618331899999,0
			46.5880889890001,-96.761222839,0
			46.5877304070001,-96.7588272089999,0
			46.5873298660001,-96.7534866339999,0
			46.5865020750001,-96.7533798219999,0
			46.5842704770001,-96.755493163,0
			46.5836105340002,-96.7586288449999,0
			46.5831108100001,-96.759925843,0
			46.5818214420001,-96.75654602,0
			46.5818595890001,-96.7545776379999,0
			46.581909179,-96.7525863649998,0
			46.581008912,-96.75189209,0
			46.5791206360001,-96.7544403069999,0
			46.5772399900001,-96.756332398,0
			46.5763206480001,-96.7562866209998,0
			46.5768394470001,-96.7536697379999,0
			46.5770187380001,-96.752983093,0
			46.577350616,-96.7517089839999,0
			46.5764808650001,-96.7496795659999,0
			46.5755615240001,-96.749626161,0
			46.5741500860001,-96.75089264,0
			46.5735015880001,-96.751281738,0
			46.5705490120002,-96.748069763,0
			46.5687484750002,-96.7466583239999,0
			46.5669288650001,-96.7459106439999,0
			46.5651016240001,-96.745819092,0
			46.5632209780001,-96.7477111809999,0
			46.561820983,-96.7489624019999,0
			46.5606689460002,-96.750419616,0
			46.5585594180001,-96.750778198,0
			46.55765915,-96.7500762939999,0
			46.5567588810001,-96.749366761,0
			46.5558586110002,-96.748657226,0
			46.5537605280001,-96.7473068239999,0
			46.5523719800001,-96.74672699,0
			46.552268983,-96.7451858529999,0
			46.550930023,-96.743797303,0
			46.5495719910002,-96.7430725089999,0
			46.5486488350002,-96.743026734,0
			46.54724884,-96.7442779549999,0
			46.5471801770001,-96.746917724,0
			46.5466804510002,-96.7488784779998,0
			46.5448303220001,-96.749443055,0
			46.5439109810002,-96.7493972779999,0
			46.5430107120002,-96.7487030029999,0
			46.5419120800001,-96.7464218129999,0
			46.541118623,-96.7446060179999,0
			46.5407218940002,-96.7440414439999,0
			46.5398788450001,-96.742813111,0
			46.5376892100001,-96.74117279,0
			46.537410737,-96.7417984009999,0
			46.536140442,-96.744346618,0
			46.5358009340002,-96.745033263,0
			46.535820007,-96.7456893919999,0
			46.5348091120002,-96.7459869379999,0
			46.5339012150001,-96.7462615959998,0
			46.5311698920002,-96.7454681389999,0
			46.5293502810001,-96.744720459,0
			46.527061462,-96.7446060179999,0
			46.5256614690001,-96.742958068,0
			46.5257606510002,-96.741241455,0
			46.5248909,-96.7392196659999,0
			46.5241699210001,-96.7390823369998,0
			46.5233001710001,-96.739562989,0
			46.5227508550001,-96.7405166619999,0
			46.522560121,-96.7412109369998,0
			46.52217102,-96.7430572509999,0
			46.5218391420001,-96.743751526,0
			46.519760132,-96.7429275519999,0
			46.5193519600001,-96.740928651,0
			46.5189208980001,-96.7395858759999,0
			46.517120361,-96.7381668089999,0
			46.5153007510001,-96.737426757,0
			46.5139617930002,-96.736038209,0
			46.5125999460002,-96.7353057869999,0
			46.5117721550002,-96.7384719849999,0
			46.5120506280001,-96.739250182,0
			46.5120391850001,-96.73990631,0
			46.5110893260001,-96.7399368289999,0
			46.5093307510002,-96.7377929689998,0
			46.508460998,-96.735771179,0
			46.5062217720001,-96.7336807259999,0
			46.5050506600002,-96.7330474859999,0
			46.5046386710001,-96.733726501,0
			46.5043411250002,-96.7355728149999,0
			46.5043296810001,-96.736282348,0
			46.5042991650001,-96.7375488279999,0
			46.5041008010002,-96.7382888799999,0
			46.5037689200001,-96.7394866929999,0
			46.5032806400001,-96.7399368289999,0
			46.502079011,-96.7410659799999,0
			46.5010490430001,-96.7414932249999,0
			46.5003890990002,-96.741760255,0
			46.4985084540001,-96.7398757939999,0
			46.4978790290002,-96.7372283929999,0
			46.4969406130002,-96.7359161379999,0
			46.496490479,-96.735420228,0
			46.4956588750001,-96.734481811,0
			46.4942817680001,-96.7344131479999,0
			46.492462158,-96.7336730959999,0
			46.4892501830001,-96.7335128779999,0
			46.4887313850002,-96.73449707,0
			46.4887390130001,-96.7361221309999,0
			46.4882316590001,-96.7380828849999,0
			46.4873008730002,-96.7386932379999,0
			46.4856491090001,-96.7392959589999,0
			46.4836807260002,-96.737190246,0
			46.4832191470001,-96.7365112309999,0
			46.4818496710001,-96.7364425659999,0
			46.4800987240001,-96.737632751,0
			46.4786415100002,-96.7362899779999,0
			46.4781608580001,-96.733787536,0
			46.477840423,-96.731628418,0
			46.477409363,-96.730293275,0
			46.4760513310001,-96.729560853,0
			46.4752807630002,-96.729316712,0
			46.4738197320002,-96.7268066409999,0
			46.4731597910002,-96.724746705,0
			46.4730720520001,-96.7241058349999,0
			46.4730415350002,-96.722198486,0
			46.4728813180001,-96.7215270989998,0
			46.4726295480001,-96.7188262949999,0
			46.4713096620001,-96.716789245,0
			46.4703407290002,-96.7187271129999,0
			46.4693794260001,-96.720657348,0
			46.4684219360001,-96.7225875859999,0
			46.4674720770001,-96.7238616939999,0
			46.466098785,-96.7237930299999,0
			46.4656486510001,-96.723106383,0
			46.4663505570001,-96.721260071,0
			46.4666290280001,-96.720520019,0
			46.4671211250001,-96.719223023,0
			46.467151642,-96.7179412839999,0
			46.4668502800001,-96.7168426519999,0
			46.4655990590001,-96.715232849,0
			46.4639320380001,-96.7167663579999,0
			46.4630508420001,-96.7170486439999,0
			46.4621620180001,-96.7156829829999,0
			46.4612503050001,-96.714530944,0
			46.4599304210001,-96.7129364019999,0
			46.458568572,-96.7122116099999,0
			46.4571685790001,-96.713462829,0
			46.4569892880001,-96.7145385739999,0
			46.456180573,-96.715782165,0
			46.4556694040001,-96.7165908809999,0
			46.4543418890001,-96.7166213989999,0
			46.4530105590001,-96.716239929,0
			46.4524192810001,-96.7154464719999,0
			46.4520988460001,-96.7145385739999,0
			46.4505691520002,-96.7148971559999,0
			46.4500198370001,-96.7169113149999,0
			46.4501609810001,-96.719062806,0
			46.4492797850002,-96.720367432,0
			46.44890976,-96.7209396369999,0
			46.4473609920001,-96.72090149,0
			46.4460220340002,-96.71952057,0
			46.4442520140001,-96.716789245,0
			46.4425811780001,-96.7144470219999,0
			46.441570283,-96.7140197749999,0
			46.4409790050001,-96.7161102299999,0
			46.4410285950001,-96.718086243,0
			46.441070557,-96.719406127,0
			46.4397087110002,-96.720146179,0
			46.4377594000001,-96.719772339,0
			46.4368820190001,-96.718406678,0
			46.436031341,-96.7167968749999,0
			46.435909271,-96.7149963379999,0
			46.4370002740001,-96.7131423959999,0
			46.4367904670001,-96.7104568479999,0
			46.4375610350001,-96.708549499,0
			46.4367103580001,-96.705871583,0
			46.435649873,-96.705856322,0
			46.4335212710001,-96.7050628649999,0
			46.4321212780001,-96.7063064579999,0
			46.4307289130001,-96.7069015509999,0
			46.4296989440002,-96.706207276,0
			46.4293785090001,-96.705513001,0
			46.428958892,-96.7041702279999,0
			46.4285316470001,-96.7028274529999,0
			46.427650451,-96.7014694219999,0
			46.4267997740001,-96.701087951,0
			46.4249687200002,-96.7011871339999,0
			46.422721862,-96.7026367189999,0
			46.4216194160001,-96.7044830329999,0
			46.4207000730001,-96.704429626,0
			46.419311523,-96.7050170899999,0
			46.4188804620002,-96.7036819449999,0
			46.4189987180002,-96.700866699,0
			46.4194602970001,-96.6984329219999,0
			46.42042923,-96.6965026859999,0
			46.4204711920002,-96.6945266719999,0
			46.4195709220001,-96.6938171379999,0
			46.418338777,-96.694206239,0
			46.4168090830001,-96.6943511959999,0
			46.4149398800001,-96.6955795279999,0
			46.4132804870002,-96.695503235,0
			46.4127006530002,-96.6934890749999,0
			46.412719726,-96.6928329469999,0
			46.412750245,-96.6915130619999,0
			46.4126510630002,-96.690666198,0
			46.4123687750001,-96.6882019049999,0
			46.4114608770001,-96.6874999999999,0
			46.4100914000002,-96.687431336,0
			46.4085197450001,-96.6881561279999,0
			46.4078292850002,-96.6859970089999,0
			46.4069786070001,-96.683326721,0
			46.4051284800001,-96.68057251,0
			46.402519226,-96.677841187,0
			46.399799348,-96.6763916019999,0
			46.3975296020002,-96.6756210329999,0
			46.3947906490001,-96.6748275759999,0
			46.393421174,-96.67476654,0
			46.392051698,-96.6746978749999,0
			46.3911590580001,-96.6733398439999,0
			46.3907585150001,-96.6706771839999,0
			46.3901100170001,-96.668258668,0
			46.388061523,-96.668571473,0
			46.3852806100001,-96.669761658,0
			46.3819007870001,-96.6700515749999,0
			46.3793601980001,-96.6681594859999,0
			46.3766708370001,-96.6653900139999,0
			46.3749198920001,-96.662017823,0
			46.3726921080002,-96.65927124,0
			46.3700294500001,-96.655189513,0
			46.3673896790001,-96.6522674559999,0
			46.3669204720001,-96.6517333989999,0
			46.3648109440002,-96.649291992,0
			46.362918855,-96.6456298829999,0
			46.3613891610001,-96.64530182,0
			46.3587684630002,-96.646347046,0
			46.3564605720001,-96.647300721,0
			46.354190826,-96.6466217039999,0
			46.3527984630001,-96.6460418699999,0
			46.3510704050001,-96.6424331659999,0
			46.3511505130001,-96.6391372679999,0
			46.3516998290001,-96.635223388,0
			46.3526916510001,-96.6319732669999,0
			46.352279664,-96.629966736,0
			46.350952149,-96.6279373159999,0
			46.3491516120002,-96.62652588,0
			46.3480987550002,-96.6243667609999,0
			46.34703064,-96.6191864009999,0
			46.3452186580002,-96.617782593,0
			46.3434104930001,-96.617042541,0
			46.3420219430001,-96.617630005,0
			46.3406295780001,-96.618232726,0
			46.3388099680002,-96.6174774159999,0
			46.3374900810002,-96.615440368,0
			46.333969116,-96.608695984,0
			46.3326606750001,-96.606002808,0
			46.3317909240001,-96.603981018,0
			46.330440521,-96.602600099,0
			46.3297500610001,-96.6022262559999,0
			46.3286590570001,-96.60331726,0
			46.3282585160001,-96.6053161609999,0
			46.3273391730001,-96.6053695679999,0
			46.3270301830001,-96.604667663,0
			46.3263092040001,-96.603073121,0
			46.3254013070002,-96.6015319809999,0
			46.323619843,-96.600296021,0
			46.3221397390001,-96.599746705,0
			46.3199691770001,-96.5994796749998,0
			46.3158798210002,-96.597969054,0
			46.3133888240001,-96.5982894889999,0
			46.3111000070001,-96.598426818,0
			46.3089790350001,-96.598960876,0
			46.3060798640001,-96.599380493,0
			46.3044700630001,-96.6018981929999,0
			46.3027801520001,-96.603080749,0
			46.3020706190002,-96.6035690309999,0
			46.3006210330001,-96.6038360589999,0
			46.3001289380002,-96.603080749,0
			46.2998390190001,-96.602432251,0
			46.2992591870001,-96.6010971059999,0
			46.2984199530001,-96.5997772219999,0
			46.296909332,-96.5992660519999,0
			46.2960891730002,-96.601646424,0
			46.2960586550001,-96.6029663079999,0
			46.295108795,-96.604232788,0
			46.2941818240001,-96.6048507689999,0
			46.2937393180001,-96.6041717529999,0
			46.293312073,-96.603492736,0
			46.2930603040001,-96.6027297969999,0
			46.292438507,-96.600822448,0
			46.2920417790001,-96.5981674189999,0
			46.2915992730001,-96.597488404,0
			46.2906990060001,-96.5967864989999,0
			46.2888221750002,-96.59867859,0
			46.2883300780001,-96.5999679559999,0
			46.2873916630001,-96.6012420649999,0
			46.2864608770002,-96.6018524159999,0
			46.285961151,-96.6012268069999,0
			46.2855911260001,-96.599838257,0
			46.2851600640001,-96.5985031119999,0
			46.28427887,-96.59713745,0
			46.2826385510001,-96.597473144,0
			46.2806510930002,-96.597602845,0
			46.2780685420001,-96.597740174,0
			46.2762794500001,-96.5973358149999,0
			46.2746200570002,-96.5986709599999,0
			46.2727394120001,-96.6005630489998,0
			46.2717704770001,-96.6020660409999,0
			46.270389557,-96.603073121,0
			46.2687301640001,-96.602493286,0
			46.2681198130002,-96.6022567749998,0
			46.266300202,-96.60157013,0
			46.264041902,-96.6001358029999,0
			46.2626991270002,-96.598770142,0
			46.26063919,-96.597457885,0
			46.2589912420001,-96.5966186529999,0
			46.2582817070001,-96.5963668819999,0
			46.2568092350001,-96.5958633429999,0
			46.2554397590001,-96.5958175659999,0
			46.2540512090002,-96.59638977,0
			46.252349854,-96.5959701529999,0
			46.251331329,-96.594947815,0
			46.2513618470001,-96.593643189,0
			46.2514305110001,-96.59034729,0
			46.2506103520001,-96.5863571169999,0
			46.2493019110001,-96.5856170649999,0
			46.2483520510001,-96.584953307,0
			46.246940613,-96.5861968999998,0
			46.2464408870001,-96.5881423939999,0
			46.2462692260002,-96.5917205809999,0
			46.2449722280001,-96.5944290159998,0
			46.243572235,-96.596603393,0
			46.2431602480002,-96.5971298219999,0
			46.2416114810001,-96.599098205,0
			46.2393112180002,-96.5996475229999,0
			46.2356491090001,-96.599472045,0
			46.230152131,-96.5992202759999,0
			46.2225990300001,-96.5977172849999,0
			46.216060638,-96.5939559939999,0
			46.2109718320002,-96.5918273919999,0
			46.2106590280002,-96.5897598269999,0
			46.2104110710002,-96.588516236,0
			46.2099609380002,-96.5880508419999,0
			46.2084617620001,-96.5857162479999,0
			46.2061500540001,-96.5869216919999,0
			46.2052192680001,-96.5875320429999,0
			46.2029304510001,-96.587432861,0
			46.2001991280002,-96.586647034,0
			46.1975708020001,-96.588027954,0
			46.1964797980001,-96.5890960689999,0
			46.1959991460001,-96.589736939,0
			46.19437027,-96.5882110599999,0
			46.1947212210002,-96.5857315059999,0
			46.194320679,-96.5830764769999,0
			46.1928405760001,-96.5830459599999,0
			46.190631867,-96.5842285149999,0
			46.189659119,-96.586807251,0
			46.1877899160002,-96.5880432119998,0
			46.1847610470001,-96.588783264,0
			46.181400299,-96.5889816279999,0
			46.1795387270002,-96.588310242,0
			46.1781997690001,-96.5869369499999,0
			46.1777801520001,-96.584953307,0
			46.1769409180001,-96.5816192629999,0
			46.175640107,-96.578277589,0
			46.1729812620001,-96.5776519769999,0
			46.171360016,-96.5767593379999,0
			46.1704292300001,-96.5762557989999,0
			46.1696891780002,-96.576187134,0
			46.1665306100001,-96.575881957,0
			46.1624107370002,-96.5756912229999,0
			46.1582794180001,-96.576156617,0
			46.1545791620001,-96.5779495239999,0
			46.1504402160002,-96.5784072879999,0
			46.1478004450001,-96.578475953,0
			46.1458892830001,-96.5768966669999,0
			46.143630982,-96.5754775999999,0
			46.141410828,-96.572746277,0
			46.138690948,-96.571296692,0
			46.136581421,-96.5706100469999,0
			46.1333198560001,-96.5688323969999,0
			46.1301002500002,-96.5683670049999,0
			46.127811433,-96.5684967029999,0
			46.126060486,-96.56817627,0
			46.1238517770001,-96.567497254,0
			46.1232490540001,-96.5672073359999,0
			46.1213302620002,-96.566261291,0
			46.118530273,-96.5644531259999,0
			46.1155204770001,-96.563011169,0
			46.1134414670001,-96.562789916,0
			46.1114120490001,-96.562156676,0
			46.1086807240002,-96.5613861079999,0
			46.1050300600001,-96.560562134,0
			46.1013908400001,-96.5597381599999,0
			46.095932007,-96.558166504,0
			46.090831758,-96.557037354,0
			46.0858917240002,-96.5563964839999,0
			46.0826911940001,-96.556251527,0
			46.080242157,-96.5555725099999,0
			46.076580047,-96.5557861329999,0
			46.0730895990001,-96.555152893,0
			46.0685691840001,-96.5568695059999,0
			46.0638809200001,-96.5573501579998,0
			46.0583305370002,-96.5597228999999,0
			46.0537109380001,-96.5614700319999,0
			46.0495185850001,-96.564559936,0
			46.0458107000002,-96.5670089709998,0
			46.0425415050001,-96.5694808969999,0
			46.040908813,-96.571166993,0
			46.040328979,-96.571640015,0
			46.0383796700001,-96.5732727049999,0
			46.0376396180002,-96.573738099,0
			46.035362244,-96.574516296,0
			46.0329704290001,-96.5757598879999,0
			46.032379151,-96.5762557989999,0
			46.0307502750001,-96.577156067,0
			46.0300292960002,-96.577156067,0
			46.0272789000002,-96.5771331779999,0
			46.024028778,-96.5770874029999,0
			46.0228195180002,-96.5766677859999,0
		</coordinates>
	</polygon>
</kml>
