<?xml version="1.0" encoding="UTF-8"?>
<kml xmlns="http://earth.google.com/kml/2.2">
	<polygon id="USA_MN_Le_Sueur" samplingProbability="1">
		<coordinates>
			44.1971397410001,-93.767982483,0
			44.2422599800001,-93.7694320679999,0
			44.2410888680002,-94.0118484499999,0
			44.2424392710001,-94.0163192749999,0
			44.2447090150001,-94.0188903809999,0
			44.2488098140001,-94.0195617669999,0
			44.2542800910002,-94.0183258059999,0
			44.2593002310001,-94.0183563229999,0
			44.2625007630002,-94.0139160149999,0
			44.2657089240001,-94.0094833369999,0
			44.2657203670001,-94.0062942499999,0
			44.2680015560001,-94.0056686409999,0
			44.2720909130002,-94.0082473749998,0
			44.2748413090002,-94.0057067879999,0
			44.2780494700002,-94.0006332399999,0
			44.2785301220001,-93.9942474359999,0
			44.2826385500001,-93.992370605,0
			44.287651062,-93.994316101,0
			44.2908401490002,-93.9924316409999,0
			44.2958717350002,-93.9892730699999,0
			44.2995300290002,-93.984191895,0
			44.3022995010001,-93.9759063719999,0
			44.3036918640001,-93.9701766979999,0
			44.3082618710002,-93.966377258,0
			44.3105506900001,-93.9631958009999,0
			44.3146705630002,-93.958763123,0
			44.3196907040002,-93.9549560549999,0
			44.3242607120001,-93.9517974839999,0
			44.3288307190001,-93.9499130259999,0
			44.3334007260001,-93.944831848,0
			44.338878632,-93.9429473869999,0
			44.3420791630001,-93.941696166,0
			44.343460082,-93.935951234,0
			44.3475685120002,-93.9334259029999,0
			44.3521308910001,-93.934089662,0
			44.3557510380001,-93.9411392219999,0
			44.3580093390001,-93.9469070429999,0
			44.3598213190001,-93.952026367,0
			44.3661994930001,-93.953346252,0
			44.3721199030001,-93.9540328989999,0
			44.3789520280002,-93.955986023,0
			44.3830490120001,-93.9592208869998,0
			44.3857803350002,-93.960517883,0
			44.3862609880001,-93.952209473,0
			44.3889999390001,-93.9509506219999,0
			44.3912620550001,-93.9560775749998,0
			44.391250611,-93.9605560299999,0
			44.393520355,-93.9624862669999,0
			44.3962707520001,-93.958038329,0
			44.3949203490001,-93.9528961179998,0
			44.3972091680002,-93.94972229,0
			44.4017601020001,-93.951042176,0
			44.4067802440002,-93.951072693,0
			44.4117889410001,-93.9523773189999,0
			44.4136199950001,-93.9498367299999,0
			44.4168396010002,-93.942176818,0
			44.4227790840002,-93.9371109009999,0
			44.4291801460001,-93.932670593,0
			44.4373893740001,-93.9327163699999,0
			44.4410400400001,-93.930191039,0
			44.4474296570001,-93.929588318,0
			44.4487991330001,-93.9302368159999,0
			44.4542694100002,-93.9283523559999,0
			44.4588317880002,-93.9296569819999,0
			44.4611206060002,-93.9251861569999,0
			44.4629707350001,-93.916893006,0
			44.4666213990001,-93.916267394,0
			44.4675216680001,-93.9207458489999,0
			44.4688720710002,-93.9271621699999,0
			44.471611022,-93.925903321,0
			44.4734497080001,-93.9201507559999,0
			44.4743804940001,-93.912483215,0
			44.4780502320001,-93.908660888,0
			44.484439851,-93.9054870609999,0
			44.4912910470001,-93.902336121,0
			44.4963302610001,-93.8934020999999,0
			44.5018005370001,-93.8940658559999,0
			44.5031585700002,-93.8972930899999,0
			44.505908967,-93.891532898,0
			44.5127601630001,-93.890296937,0
			44.5195999160002,-93.889053344,0
			44.5250701900002,-93.8916473379999,0
			44.527339936,-93.895500183,0
			44.5286903390001,-93.8993530269999,0
			44.5318794260001,-93.9019393929999,0
			44.5373497000001,-93.9019699089999,0
			44.5396194460001,-93.9058303829999,0
			44.540050507,-93.9115982049999,0
			44.544620514,-93.9090576169999,0
			44.546611787,-93.525856017,0
			44.198310853,-93.525093079,0
			44.1971397410001,-93.767982483,0
		</coordinates>
	</polygon>
</kml>
