<?xml version="1.0" encoding="UTF-8"?>
<kml xmlns="http://earth.google.com/kml/2.2">
	<polygon id="USA_AK_Anchorage" samplingProbability="1">
		<coordinates>
			61.4262890000002,-149.151779,0
			61.4262620000001,-149.120972,0
			61.4262890000002,-149.091125,0
			61.426311,-149.061264,0
			61.42627,-149.030472,0
			61.42627,-149.00061,0
			61.4263310000001,-148.97171,0
			61.4263310000001,-148.941864,0
			61.4263190000001,-148.912003,0
			61.4262500000002,-148.881195,0
			61.4262200000001,-148.851364,0
			61.4261890000001,-148.821503,0
			61.4262200000001,-148.792603,0
			61.4261700000001,-148.762756,0
			61.426071,-148.731949,0
			61.4264600000001,-148.701965,0
			61.4264340000001,-148.689377,0
			61.4255220000001,-148.689072,0
			61.4244800000001,-148.688019,0
			61.4234350000001,-148.686981,0
			61.4229160000002,-148.68541,0
			61.4229160000002,-148.683334,0
			61.4223940000001,-148.681763,0
			61.421356,-148.680725,0
			61.4208340000002,-148.679169,0
			61.421356,-148.677597,0
			61.4223940000001,-148.676559,0
			61.4229160000002,-148.675003,0
			61.4223940000001,-148.673431,0
			61.421356,-148.672394,0
			61.4208340000002,-148.670837,0
			61.4208340000002,-148.668747,0
			61.4208340000002,-148.666672,0
			61.4208340000002,-148.664581,0
			61.4208340000002,-148.662506,0
			61.4208340000002,-148.660416,0
			61.4208340000002,-148.65834,0
			61.4208340000002,-148.65625,0
			61.4208340000002,-148.65416,0
			61.4208340000002,-148.652084,0
			61.4203150000001,-148.650513,0
			61.4192700000001,-148.649475,0
			61.4187510000002,-148.647919,0
			61.4187510000002,-148.645828,0
			61.4187510000002,-148.643753,0
			61.4187510000002,-148.641663,0
			61.4187510000002,-148.639587,0
			61.4187510000002,-148.637497,0
			61.4182280000001,-148.635941,0
			61.417191,-148.634903,0
			61.4166680000001,-148.633331,0
			61.4161490000001,-148.631775,0
			61.415104,-148.630737,0
			61.4140630000001,-148.629684,0
			61.4130210000001,-148.628647,0
			61.412498,-148.62709,0
			61.412498,-148.625,0
			61.411976,-148.623428,0
			61.4104160000001,-148.62291,0
			61.4088520000002,-148.622391,0
			61.408333,-148.620834,0
			61.408333,-148.618744,0
			61.408333,-148.616669,0
			61.408333,-148.614578,0
			61.4078100000001,-148.613022,0
			61.4067690000001,-148.613022,0
			61.4057310000001,-148.614059,0
			61.4046900000001,-148.614059,0
			61.4041670000001,-148.612503,0
			61.4046900000001,-148.610931,0
			61.4057310000001,-148.609894,0
			61.4067690000001,-148.608856,0
			61.408333,-148.608337,0
			61.4098930000001,-148.608856,0
			61.4109380000001,-148.609894,0
			61.411976,-148.610931,0
			61.4130210000001,-148.611984,0
			61.4140630000001,-148.613022,0
			61.414585,-148.614578,0
			61.414585,-148.616669,0
			61.414585,-148.618744,0
			61.415104,-148.620316,0
			61.4161490000001,-148.621353,0
			61.417191,-148.622391,0
			61.4182280000001,-148.623428,0
			61.4192700000001,-148.624481,0
			61.4203150000001,-148.625519,0
			61.4208340000002,-148.62709,0
			61.421356,-148.628647,0
			61.4223940000001,-148.629684,0
			61.4229160000002,-148.631256,0
			61.4229160000002,-148.633331,0
			61.4234350000001,-148.634903,0
			61.4244800000001,-148.635941,0
			61.4249990000002,-148.637497,0
			61.4249990000002,-148.639587,0
			61.4249990000002,-148.641663,0
			61.4249990000002,-148.643753,0
			61.4249990000002,-148.645828,0
			61.4249990000002,-148.647919,0
			61.4249990000002,-148.649994,0
			61.4249990000002,-148.652084,0
			61.4249990000002,-148.65416,0
			61.4249990000002,-148.65625,0
			61.4249990000002,-148.65834,0
			61.4249990000002,-148.660416,0
			61.4249990000002,-148.662506,0
			61.4249990000002,-148.664581,0
			61.4249990000002,-148.666672,0
			61.4249990000002,-148.668747,0
			61.4249990000002,-148.670837,0
			61.4249990000002,-148.672913,0
			61.4249990000002,-148.675003,0
			61.4249990000002,-148.677078,0
			61.4255220000001,-148.67865,0
			61.4264140000002,-148.679535,0
			61.426399,-148.672119,0
			61.4263750000002,-148.661727,0
			61.4263310000001,-148.642258,0
			61.426322,-148.628743,0
			61.426311,-148.613358,0
			61.4262390000001,-148.583511,0
			61.4262300000001,-148.581853,0
			61.4260790000002,-148.552704,0
			61.4262640000001,-148.537379,0
			61.4264410000001,-148.52272,0
			61.4263420000001,-148.492874,0
			61.4261700000001,-148.462067,0
			61.3846470000001,-148.462461,0
			61.3415290000002,-148.462871,0
			61.3413890000001,-148.462872,0
			61.341057,-148.462875,0
			61.3404020000002,-148.462883,0
			61.339722,-148.462891,0
			61.3395960000001,-148.462891,0
			61.2529300000001,-148.462708,0
			61.208222,-148.462645,0
			61.166321,-148.462585,0
			61.1665040000001,-148.472107,0
			61.1664200000001,-148.472107,0
			61.1235120000001,-148.472397,0
			61.0944710000001,-148.472565,0
			61.0893270000001,-148.472364,0
			61.0819630000001,-148.472076,0
			61.0803940000001,-148.472007,0
			61.0798950000002,-148.471985,0
			61.067505,-148.47168,0
			60.9931030000001,-148.471802,0
			60.960349,-148.471776,0
			60.8972820000001,-148.471725,0
			60.868805,-148.471698,0
			60.8496700000001,-148.47168,0
			60.8493040000001,-148.627014,0
			60.8493040000001,-148.670898,0
			60.8493040000001,-148.677185,0
			60.8493040000001,-148.698303,0
			60.8493040000001,-148.740479,0
			60.831758,-148.740299,0
			60.8195190000001,-148.740173,0
			60.8198850000002,-148.745789,0
			60.7784930000002,-148.746318,0
			60.732872,-148.746902,0
			60.7328800000002,-148.832687,0
			60.7329220000001,-149.03717,0
			60.7329790000001,-149.038101,0
			60.7984390000001,-149.037811,0
			60.8195690000001,-149.038849,0
			60.8197290000001,-149.034073,0
			60.8298990000001,-149.033905,0
			60.8227200000001,-149.02211,0
			60.8205220000001,-149.01152,0
			60.8192210000001,-149.004608,0
			60.8219220000001,-149.002518,0
			60.8272210000002,-149.004913,0
			60.8303530000001,-149.005325,0
			60.8315120000001,-149.005478,0
			60.8307300000001,-149.004684,0
			60.8291660000002,-149.004166,0
			60.8276060000001,-149.003647,0
			60.8270840000002,-149.00209,0
			60.8270840000002,-149,0
			60.8270840000002,-148.99791,0
			60.8270840000002,-148.995834,0
			60.8265650000001,-148.994263,0
			60.8250010000002,-148.993744,0
			60.8234410000001,-148.993225,0
			60.8223990000001,-148.992188,0
			60.820835,-148.991669,0
			60.8192710000001,-148.99115,0
			60.818748,-148.989578,0
			60.8192710000001,-148.988022,0
			60.820835,-148.987503,0
			60.8223990000001,-148.986984,0
			60.8234410000001,-148.985931,0
			60.8244780000001,-148.985931,0
			60.8250010000002,-148.987503,0
			60.8255200000001,-148.989059,0
			60.8265650000001,-148.989059,0
			60.8276060000001,-148.988022,0
			60.8291660000002,-148.987503,0
			60.8307300000001,-148.988022,0
			60.8317720000001,-148.989059,0
			60.8328130000001,-148.990097,0
			60.833332,-148.991669,0
			60.833851,-148.993225,0
			60.8348960000001,-148.994263,0
			60.8359370000001,-148.995316,0
			60.836979,-148.996353,0
			60.8380240000001,-148.997391,0
			60.8386760000001,-148.997391,0
			60.839066,-148.997391,0
			60.839478,-148.996155,0
			60.8395840000001,-148.995834,0
			60.8395840000001,-148.993744,0
			60.8395840000001,-148.991669,0
			60.840107,-148.990097,0
			60.8411480000001,-148.989059,0
			60.8416670000001,-148.987503,0
			60.8416670000001,-148.985413,0
			60.8416670000001,-148.983337,0
			60.8416670000001,-148.981247,0
			60.8416670000001,-148.979172,0
			60.8416670000001,-148.977081,0
			60.8416670000001,-148.975006,0
			60.8416670000001,-148.972916,0
			60.8416670000001,-148.97084,0
			60.84219,-148.969269,0
			60.843231,-148.969269,0
			60.8442690000001,-148.970322,0
			60.8453100000001,-148.971359,0
			60.845833,-148.972916,0
			60.845833,-148.975006,0
			60.845833,-148.977081,0
			60.845833,-148.979172,0
			60.845833,-148.981247,0
			60.845833,-148.983337,0
			60.845833,-148.985413,0
			60.845833,-148.987503,0
			60.845833,-148.989578,0
			60.845833,-148.991669,0
			60.845833,-148.993744,0
			60.845833,-148.995834,0
			60.845833,-148.99791,0
			60.845833,-149,0
			60.8463520000001,-149.001572,0
			60.8479160000001,-149.00209,0
			60.849476,-149.002609,0
			60.849998,-149.004166,0
			60.849998,-149.006256,0
			60.8505210000001,-149.007813,0
			60.852085,-149.008331,0
			60.8536490000001,-149.00885,0
			60.8546910000002,-149.009903,0
			60.855728,-149.010941,0
			60.8567700000001,-149.011978,0
			60.857815,-149.013016,0
			60.8583340000002,-149.014587,0
			60.8588560000002,-149.016144,0
			60.8598940000001,-149.017181,0
			60.8604160000001,-149.018753,0
			60.8604160000001,-149.020828,0
			60.8609350000001,-149.0224,0
			60.8624990000002,-149.022919,0
			60.8640590000001,-149.023438,0
			60.864582,-149.024994,0
			60.864582,-149.027084,0
			60.8651050000001,-149.028641,0
			60.8661460000001,-149.029678,0
			60.8671870000001,-149.030731,0
			60.8687520000001,-149.03125,0
			60.8703160000002,-149.031769,0
			60.8713570000002,-149.032822,0
			60.8723980000001,-149.033859,0
			60.8729170000001,-149.035416,0
			60.8734400000002,-149.036987,0
			60.8744810000002,-149.036987,0
			60.8755190000001,-149.035934,0
			60.87656,-149.035934,0
			60.877083,-149.037506,0
			60.8776020000001,-149.039063,0
			60.8786430000001,-149.0401,0
			60.8796840000001,-149.041153,0
			60.8807260000002,-149.042191,0
			60.881248,-149.043747,0
			60.881248,-149.045837,0
			60.8817710000001,-149.047394,0
			60.883335,-149.047913,0
			60.8848990000001,-149.048431,0
			60.8859410000002,-149.049484,0
			60.8869780000002,-149.050522,0
			60.8875010000001,-149.052078,0
			60.88802,-149.05365,0
			60.8890650000002,-149.054687,0
			60.8901060000002,-149.055725,0
			60.8911440000001,-149.056763,0
			60.8916660000001,-149.058334,0
			60.892185,-149.059891,0
			60.8932300000002,-149.060928,0
			60.8937490000001,-149.0625,0
			60.8937490000001,-149.06459,0
			60.8942720000001,-149.066147,0
			60.8953090000001,-149.066147,0
			60.8963510000002,-149.065109,0
			60.8973960000001,-149.065109,0
			60.897915,-149.066666,0
			60.8984380000002,-149.068237,0
			60.8994790000001,-149.069275,0
			60.900002,-149.070831,0
			60.900002,-149.072922,0
			60.9005240000001,-149.074478,0
			60.902084,-149.074997,0
			60.9036480000001,-149.075516,0
			60.9046900000002,-149.076569,0
			60.9057310000001,-149.077606,0
			60.9062500000001,-149.079163,0
			60.9062500000001,-149.081253,0
			60.9067690000001,-149.082809,0
			60.90781,-149.083847,0
			60.9083330000001,-149.085419,0
			60.9088520000001,-149.086975,0
			60.9098930000001,-149.088013,0
			60.9104160000002,-149.089584,0
			60.9104160000002,-149.09166,0
			60.910938,-149.093231,0
			60.9119760000001,-149.094269,0
			60.9124980000001,-149.09584,0
			60.9130210000001,-149.097397,0
			60.9140630000001,-149.098434,0
			60.9145850000002,-149.100006,0
			60.9145850000002,-149.102081,0
			60.9151040000001,-149.103653,0
			60.9161490000001,-149.104691,0
			60.9166680000002,-149.106247,0
			60.9166680000002,-149.108337,0
			60.9166680000002,-149.110413,0
			60.9161490000001,-149.111984,0
			60.9151040000001,-149.113022,0
			60.9145850000002,-149.114578,0
			60.9151040000001,-149.11615,0
			60.9161490000001,-149.117188,0
			60.9166680000002,-149.118744,0
			60.9166680000002,-149.120834,0
			60.9171910000001,-149.122391,0
			60.9182280000001,-149.123428,0
			60.918751,-149.125,0
			60.918751,-149.12709,0
			60.918751,-149.129166,0
			60.918751,-149.131256,0
			60.91927,-149.132813,0
			60.9208340000001,-149.133331,0
			60.9223940000001,-149.13385,0
			60.922916,-149.135422,0
			60.922916,-149.137497,0
			60.922916,-149.139587,0
			60.922916,-149.141663,0
			60.923435,-149.143234,0
			60.9244800000001,-149.144272,0
			60.9249990000001,-149.145828,0
			60.9255220000001,-149.1474,0
			60.9265590000001,-149.148438,0
			60.9270820000002,-149.149994,0
			60.9270820000002,-149.152084,0
			60.9276050000001,-149.153641,0
			60.9286460000001,-149.154678,0
			60.9296880000001,-149.155731,0
			60.9307290000001,-149.156769,0
			60.931252,-149.15834,0
			60.931252,-149.160416,0
			60.931252,-149.162506,0
			60.9317740000001,-149.164062,0
			60.9328160000001,-149.1651,0
			60.9333340000002,-149.166672,0
			60.9333340000002,-149.168747,0
			60.9338570000001,-149.170319,0
			60.9348980000001,-149.171356,0
			60.935417,-149.172913,0
			60.935417,-149.175003,0
			60.9359400000001,-149.176559,0
			60.9375000000001,-149.177078,0
			60.93906,-149.177597,0
			60.9395830000001,-149.179169,0
			60.9395830000001,-149.181244,0
			60.9401020000001,-149.182816,0
			60.9416660000002,-149.183334,0
			60.9432260000001,-149.183853,0
			60.944271,-149.184891,0
			60.945312,-149.185928,0
			60.9458350000001,-149.1875,0
			60.945312,-149.189072,0
			60.944271,-149.190109,0
			60.9437480000001,-149.191666,0
			60.9437480000001,-149.193756,0
			60.9437480000001,-149.195831,0
			60.9437480000001,-149.197922,0
			60.9437480000001,-149.199997,0
			60.9437480000001,-149.202087,0
			60.9437480000001,-149.204163,0
			60.9432260000001,-149.205734,0
			60.942184,-149.206772,0
			60.9416660000002,-149.208328,0
			60.9416660000002,-149.210419,0
			60.9416660000002,-149.212494,0
			60.9416660000002,-149.214584,0
			60.9411430000001,-149.216141,0
			60.9401020000001,-149.217178,0
			60.9395830000001,-149.21875,0
			60.9395830000001,-149.22084,0
			60.9395830000001,-149.222916,0
			60.9395830000001,-149.225006,0
			60.9395830000001,-149.227081,0
			60.93906,-149.228653,0
			60.938019,-149.229691,0
			60.9375000000001,-149.231247,0
			60.9375000000001,-149.233337,0
			60.9375000000001,-149.235413,0
			60.938019,-149.236984,0
			60.93906,-149.238022,0
			60.9395830000001,-149.239578,0
			60.9395830000001,-149.241669,0
			60.9395830000001,-149.243744,0
			60.93906,-149.245316,0
			60.938019,-149.246353,0
			60.9375000000001,-149.24791,0
			60.9375000000001,-149.25,0
			60.9375000000001,-149.25209,0
			60.9375000000001,-149.254166,0
			60.9375000000001,-149.256256,0
			60.9375000000001,-149.258331,0
			60.9375000000001,-149.260422,0
			60.9375000000001,-149.262497,0
			60.9375000000001,-149.264587,0
			60.9369810000001,-149.266144,0
			60.9359400000001,-149.267181,0
			60.935417,-149.268753,0
			60.935417,-149.270828,0
			60.935417,-149.272919,0
			60.935417,-149.274994,0
			60.935417,-149.277084,0
			60.935417,-149.27916,0
			60.935417,-149.28125,0
			60.935417,-149.28334,0
			60.935417,-149.285416,0
			60.935417,-149.287506,0
			60.935417,-149.289581,0
			60.9348980000001,-149.291153,0
			60.9338570000001,-149.292191,0
			60.9333340000002,-149.293747,0
			60.9338570000001,-149.295319,0
			60.9348980000001,-149.296356,0
			60.935417,-149.297913,0
			60.935417,-149.300003,0
			60.935417,-149.302078,0
			60.9348980000001,-149.30365,0
			60.9338570000001,-149.304687,0
			60.9333340000002,-149.306244,0
			60.9338570000001,-149.307816,0
			60.9348980000001,-149.308853,0
			60.935417,-149.31041,0
			60.9348980000001,-149.311981,0
			60.9338570000001,-149.313019,0
			60.9333340000002,-149.31459,0
			60.9333340000002,-149.316666,0
			60.9328160000001,-149.318237,0
			60.9317740000001,-149.319275,0
			60.931252,-149.320831,0
			60.931252,-149.322922,0
			60.931252,-149.324997,0
			60.931252,-149.327087,0
			60.931252,-149.329163,0
			60.9307290000001,-149.330734,0
			60.9296880000001,-149.331772,0
			60.9291650000002,-149.333328,0
			60.9291650000002,-149.335419,0
			60.9291650000002,-149.337494,0
			60.9291650000002,-149.339584,0
			60.9291650000002,-149.34166,0
			60.9286460000001,-149.343231,0
			60.9276050000001,-149.344269,0
			60.9265590000001,-149.345322,0
			60.9255220000001,-149.346359,0
			60.9249990000001,-149.347916,0
			60.9249990000001,-149.350006,0
			60.9249990000001,-149.352081,0
			60.9255220000001,-149.353653,0
			60.9265590000001,-149.354691,0
			60.9270820000002,-149.356247,0
			60.9265590000001,-149.357819,0
			60.9255220000001,-149.358856,0
			60.9249990000001,-149.360413,0
			60.9255220000001,-149.361984,0
			60.9265590000001,-149.361984,0
			60.9276050000001,-149.360931,0
			60.9291650000002,-149.360413,0
			60.9307290000001,-149.360931,0
			60.9317740000001,-149.361984,0
			60.9328160000001,-149.363022,0
			60.9338570000001,-149.364059,0
			60.935417,-149.364578,0
			60.9369810000001,-149.365097,0
			60.938019,-149.36615,0
			60.9395830000001,-149.366669,0
			60.9411430000001,-149.367188,0
			60.9416660000002,-149.368744,0
			60.9416660000002,-149.370834,0
			60.942184,-149.372391,0
			60.9437480000001,-149.37291,0
			60.945312,-149.373428,0
			60.9458350000001,-149.375,0
			60.9458350000001,-149.37709,0
			60.9458350000001,-149.379166,0
			60.9458350000001,-149.381256,0
			60.9463540000001,-149.382813,0
			60.947399,-149.38385,0
			60.9479180000002,-149.385422,0
			60.9479180000002,-149.387497,0
			60.9479180000002,-149.389587,0
			60.9479180000002,-149.391663,0
			60.9484410000001,-149.393234,0
			60.9494780000001,-149.394272,0
			60.950001,-149.395828,0
			60.950001,-149.397919,0
			60.950001,-149.399994,0
			60.950001,-149.402084,0
			60.950001,-149.40416,0
			60.950001,-149.40625,0
			60.9505200000002,-149.407822,0
			60.9515650000001,-149.408859,0
			60.9520840000001,-149.410416,0
			60.9520840000001,-149.412506,0
			60.9520840000001,-149.414581,0
			60.9526060000001,-149.416153,0
			60.953644,-149.417191,0
			60.954166,-149.418747,0
			60.954166,-149.420837,0
			60.9546850000002,-149.422394,0
			60.9557300000001,-149.423431,0
			60.9567720000002,-149.424484,0
			60.957809,-149.425522,0
			60.9583320000001,-149.427078,0
			60.9588510000001,-149.42865,0
			60.959896,-149.429687,0
			60.9604150000002,-149.431244,0
			60.9604150000002,-149.433334,0
			60.9609370000002,-149.434891,0
			60.961979,-149.435928,0
			60.962502,-149.4375,0
			60.9630240000002,-149.439072,0
			60.9640660000001,-149.440109,0
			60.965107,-149.441147,0
			60.966148,-149.442184,0
			60.966667,-149.443756,0
			60.966667,-149.445831,0
			60.966667,-149.447922,0
			60.966667,-149.449997,0
			60.9671900000001,-149.451569,0
			60.9682310000001,-149.452606,0
			60.9687500000001,-149.454163,0
			60.9692690000002,-149.455734,0
			60.9703100000002,-149.456772,0
			60.9708330000001,-149.458328,0
			60.9708330000001,-149.460419,0
			60.971352,-149.461975,0
			60.9723930000002,-149.463013,0
			60.9729160000001,-149.464584,0
			60.9729160000001,-149.46666,0
			60.9729160000001,-149.46875,0
			60.9729160000001,-149.47084,0
			60.9729160000001,-149.472916,0
			60.9729160000001,-149.475006,0
			60.9734380000002,-149.476563,0
			60.9749980000001,-149.477081,0
			60.9765620000002,-149.4776,0
			60.9770850000001,-149.479172,0
			60.9770850000001,-149.481247,0
			60.9770850000001,-149.483337,0
			60.9770850000001,-149.485413,0
			60.977604,-149.486984,0
			60.9786490000002,-149.488022,0
			60.9796910000001,-149.489059,0
			60.981251,-149.489578,0
			60.9828150000001,-149.490097,0
			60.9833340000001,-149.491669,0
			60.9833340000001,-149.493744,0
			60.9833340000001,-149.495834,0
			60.9833340000001,-149.49791,0
			60.9838560000001,-149.499481,0
			60.9848940000002,-149.500519,0
			60.985416,-149.50209,0
			60.985416,-149.504166,0
			60.985416,-149.506256,0
			60.985416,-149.508331,0
			60.985416,-149.510422,0
			60.985416,-149.512497,0
			60.985416,-149.514587,0
			60.985416,-149.516663,0
			60.985416,-149.518753,0
			60.985416,-149.520828,0
			60.985416,-149.522919,0
			60.985416,-149.524994,0
			60.985416,-149.527084,0
			60.9848940000002,-149.528641,0
			60.9838560000001,-149.529678,0
			60.9833340000001,-149.53125,0
			60.9828150000001,-149.532822,0
			60.9817700000002,-149.533859,0
			60.981251,-149.535416,0
			60.981251,-149.537506,0
			60.981251,-149.539581,0
			60.981251,-149.541672,0
			60.981251,-149.543747,0
			60.981251,-149.545837,0
			60.981251,-149.547913,0
			60.9817700000002,-149.549484,0
			60.9828150000001,-149.550522,0
			60.9833340000001,-149.552078,0
			60.9833340000001,-149.554169,0
			60.9833340000001,-149.556244,0
			60.9833340000001,-149.558334,0
			60.9833340000001,-149.56041,0
			60.9833340000001,-149.5625,0
			60.9833340000001,-149.56459,0
			60.9833340000001,-149.566666,0
			60.9833340000001,-149.568756,0
			60.9833340000001,-149.570831,0
			60.9833340000001,-149.572922,0
			60.9833340000001,-149.574997,0
			60.9833340000001,-149.577087,0
			60.9828150000001,-149.578644,0
			60.9817700000002,-149.579681,0
			60.981251,-149.581253,0
			60.981251,-149.583328,0
			60.981251,-149.585419,0
			60.981251,-149.587494,0
			60.981251,-149.589584,0
			60.981251,-149.59166,0
			60.9817700000002,-149.593231,0
			60.9828150000001,-149.594269,0
			60.9833340000001,-149.59584,0
			60.9833340000001,-149.597916,0
			60.9833340000001,-149.600006,0
			60.9833340000001,-149.602081,0
			60.9833340000001,-149.604172,0
			60.9838560000001,-149.605728,0
			60.9848940000002,-149.606766,0
			60.985416,-149.608337,0
			60.985416,-149.610413,0
			60.9859350000002,-149.611984,0
			60.9869800000001,-149.613022,0
			60.9880220000002,-149.614059,0
			60.9890630000002,-149.615097,0
			60.9895820000001,-149.616669,0
			60.990105,-149.618225,0
			60.9911460000002,-149.619263,0
			60.9916650000001,-149.620834,0
			60.9916650000001,-149.62291,0
			60.9921870000002,-149.624481,0
			60.993229,-149.625519,0
			60.9937520000001,-149.62709,0
			60.9937520000001,-149.629166,0
			60.9942740000002,-149.630737,0
			60.9958340000001,-149.631256,0
			60.997398,-149.631775,0
			60.9979170000001,-149.633331,0
			60.9979170000001,-149.635422,0
			60.9984400000001,-149.636978,0
			60.9994810000001,-149.638016,0
			61,-149.639587,0
			60.9994810000001,-149.641144,0
			60.9984400000001,-149.642181,0
			60.9979170000001,-149.643753,0
			60.9979170000001,-149.645828,0
			60.9979170000001,-149.647919,0
			60.9984400000001,-149.649475,0
			60.9994810000001,-149.650513,0
			61.0005190000002,-149.651566,0
			61.0015600000001,-149.652603,0
			61.002083,-149.65416,0
			61.002083,-149.65625,0
			61.002083,-149.65834,0
			61.002083,-149.660416,0
			61.002083,-149.662506,0
			61.002083,-149.664581,0
			61.002083,-149.666672,0
			61.002083,-149.668747,0
			61.002083,-149.670837,0
			61.002083,-149.672913,0
			61.0026020000002,-149.674484,0
			61.0036430000002,-149.675522,0
			61.0041660000001,-149.677078,0
			61.0041660000001,-149.679169,0
			61.0041660000001,-149.681244,0
			61.0041660000001,-149.683334,0
			61.0041660000001,-149.68541,0
			61.0046840000002,-149.686981,0
			61.005726,-149.688019,0
			61.006248,-149.68959,0
			61.006248,-149.691666,0
			61.0067710000002,-149.693237,0
			61.0078130000001,-149.694275,0
			61.008335,-149.695831,0
			61.008335,-149.697922,0
			61.008854,-149.699478,0
			61.0098990000001,-149.700516,0
			61.0104180000001,-149.702087,0
			61.0109410000001,-149.703644,0
			61.0119780000001,-149.704681,0
			61.0125010000002,-149.706253,0
			61.0125010000002,-149.708328,0
			61.0125010000002,-149.710419,0
			61.0125010000002,-149.712494,0
			61.0130200000001,-149.714066,0
			61.0140650000001,-149.715103,0
			61.0145840000002,-149.71666,0
			61.0145840000002,-149.71875,0
			61.0145840000002,-149.72084,0
			61.0145840000002,-149.722916,0
			61.0145840000002,-149.725006,0
			61.0145840000002,-149.727081,0
			61.0145840000002,-149.729172,0
			61.0145840000002,-149.731247,0
			61.0151060000001,-149.732819,0
			61.0161440000001,-149.733856,0
			61.0166660000002,-149.735413,0
			61.0171850000001,-149.736984,0
			61.0182300000001,-149.738022,0
			61.0187490000002,-149.739578,0
			61.0187490000002,-149.741669,0
			61.0192720000001,-149.743225,0
			61.0203090000001,-149.744263,0
			61.021351,-149.745316,0
			61.0223960000001,-149.746353,0
			61.0229150000001,-149.74791,0
			61.0234380000001,-149.749481,0
			61.024479,-149.750519,0
			61.0255240000001,-149.751572,0
			61.026566,-149.752609,0
			61.0270840000001,-149.754166,0
			61.0270840000001,-149.756256,0
			61.027607,-149.757813,0
			61.0291670000001,-149.758331,0
			61.030731,-149.75885,0
			61.0312500000002,-149.760422,0
			61.0312500000002,-149.762497,0
			61.0312500000002,-149.764587,0
			61.0312500000002,-149.766663,0
			61.0317690000001,-149.768234,0
			61.0328100000001,-149.769272,0
			61.033333,-149.770828,0
			61.033333,-149.772919,0
			61.0338520000001,-149.774475,0
			61.0348970000001,-149.775513,0
			61.0354160000001,-149.777084,0
			61.0359340000001,-149.778641,0
			61.036976,-149.779678,0
			61.0380210000001,-149.780731,0
			61.039585,-149.78125,0
			61.0411490000001,-149.781769,0
			61.0416680000001,-149.78334,0
			61.0416680000001,-149.785416,0
			61.042191,-149.786987,0
			61.043228,-149.788025,0
			61.0437510000001,-149.789581,0
			61.0437510000001,-149.791672,0
			61.0442700000001,-149.793228,0
			61.0458340000002,-149.793747,0
			61.0473940000001,-149.794266,0
			61.0484350000001,-149.795319,0
			61.04948,-149.796356,0
			61.0499990000002,-149.797913,0
			61.0499990000002,-149.800003,0
			61.0505220000001,-149.801559,0
			61.052082,-149.802078,0
			61.0536460000001,-149.802597,0
			61.0546880000002,-149.80365,0
			61.0557290000002,-149.804687,0
			61.0562520000001,-149.806244,0
			61.0562520000001,-149.808334,0
			61.0562520000001,-149.81041,0
			61.0562520000001,-149.811523,0
			61.0562520000001,-149.8125,0
			61.0567740000001,-149.814072,0
			61.05743,-149.814285,0
			61.0583340000001,-149.81459,0
			61.0598980000001,-149.815109,0
			61.0604170000001,-149.816666,0
			61.0604170000001,-149.818756,0
			61.0609400000002,-149.820312,0
			61.0619810000002,-149.82135,0
			61.0625000000001,-149.822922,0
			61.0629040000002,-149.824127,0
			61.0630190000001,-149.824478,0
			61.06406,-149.825516,0
			61.0651020000001,-149.826569,0
			61.0661430000001,-149.827606,0
			61.0671840000001,-149.828644,0
			61.0682260000002,-149.829681,0
			61.068748,-149.831253,0
			61.0692710000001,-149.832809,0
			61.0703120000001,-149.833847,0
			61.071217,-149.834763,0
			61.0713540000002,-149.8349,0
			61.0723990000001,-149.835938,0
			61.0729180000001,-149.837494,0
			61.0729180000001,-149.839584,0
			61.0734410000002,-149.841141,0
			61.0744780000002,-149.842178,0
			61.0750010000001,-149.84375,0
			61.0750010000001,-149.84584,0
			61.0750010000001,-149.847916,0
			61.07552,-149.849487,0
			61.0765650000002,-149.850525,0
			61.0776060000002,-149.851563,0
			61.0786440000001,-149.8526,0
			61.0791660000001,-149.854172,0
			61.0791660000001,-149.856247,0
			61.0791660000001,-149.858337,0
			61.0791660000001,-149.859436,0
			61.0791660000001,-149.860413,0
			61.079685,-149.861984,0
			61.0807300000002,-149.863022,0
			61.0812490000001,-149.864578,0
			61.0817720000001,-149.86615,0
			61.0828090000001,-149.867188,0
			61.0832180000002,-149.867584,0
			61.0838550000001,-149.868225,0
			61.0848960000001,-149.869263,0
			61.0854150000001,-149.870834,0
			61.0854150000001,-149.87291,0
			61.0854150000001,-149.87471,0
			61.0854150000001,-149.875,0
			61.0854150000001,-149.87709,0
			61.0859370000001,-149.878647,0
			61.0863950000002,-149.879105,0
			61.0869790000002,-149.879684,0
			61.0875020000001,-149.881256,0
			61.0880240000001,-149.882813,0
			61.0890660000002,-149.88385,0
			61.089584,-149.885422,0
			61.089584,-149.887497,0
			61.0901070000001,-149.889069,0
			61.0911480000001,-149.890106,0
			61.0916670000001,-149.891663,0
			61.0916670000001,-149.893753,0
			61.0921900000002,-149.895309,0
			61.0932310000002,-149.896347,0
			61.0937500000001,-149.897919,0
			61.0942690000001,-149.899475,0
			61.09531,-149.900513,0
			61.0963520000001,-149.901566,0
			61.0973930000001,-149.902603,0
			61.097916,-149.90416,0
			61.097916,-149.90625,0
			61.097916,-149.90834,0
			61.097916,-149.910156,0
			61.097916,-149.910416,0
			61.0984500000001,-149.911987,0
			61.0999980000001,-149.912506,0
			61.1015620000001,-149.913025,0
			61.1020850000002,-149.914581,0
			61.1020850000002,-149.916672,0
			61.1020850000002,-149.918747,0
			61.1020850000002,-149.920837,0
			61.1026040000001,-149.922394,0
			61.1036490000001,-149.923431,0
			61.104168,-149.925003,0
			61.104168,-149.927078,0
			61.1046910000001,-149.92865,0
			61.1057280000001,-149.929687,0
			61.106251,-149.931244,0
			61.10677,-149.932816,0
			61.1078150000001,-149.933853,0
			61.1083340000001,-149.93541,0
			61.1083340000001,-149.9375,0
			61.1083340000001,-149.93959,0
			61.1083340000001,-149.941666,0
			61.1088560000001,-149.943237,0
			61.1098940000001,-149.944275,0
			61.110416,-149.945831,0
			61.110416,-149.947922,0
			61.110935,-149.949478,0
			61.1119800000001,-149.950516,0
			61.1124990000001,-149.952087,0
			61.1130220000001,-149.953644,0
			61.1140590000001,-149.954681,0
			61.1145820000002,-149.956253,0
			61.1145820000002,-149.958328,0
			61.1145820000002,-149.960419,0
			61.1145820000002,-149.961517,0
			61.1145820000002,-149.962494,0
			61.1151010000001,-149.964066,0
			61.1159360000001,-149.96489,0
			61.1161460000001,-149.965103,0
			61.1166650000002,-149.96666,0
			61.1166650000002,-149.966705,0
			61.1166650000002,-149.96875,0
			61.1171870000001,-149.970322,0
			61.118256,-149.970673,0
			61.118752,-149.97084,0
			61.1203160000001,-149.970322,0
			61.1213570000001,-149.969269,0
			61.1223980000001,-149.968231,0
			61.122917,-149.96666,0
			61.1234400000001,-149.965103,0
			61.1244810000001,-149.964066,0
			61.1255190000001,-149.963013,0
			61.12656,-149.963013,0
			61.1270830000001,-149.964584,0
			61.1270830000001,-149.96666,0
			61.1270830000001,-149.96875,0
			61.12656,-149.970322,0
			61.1255190000001,-149.971359,0
			61.1250000000001,-149.972916,0
			61.1250000000001,-149.975006,0
			61.1250000000001,-149.977081,0
			61.1244810000001,-149.978653,0
			61.1234400000001,-149.979691,0
			61.122917,-149.981247,0
			61.1234400000001,-149.982819,0
			61.1244810000001,-149.983856,0
			61.1250000000001,-149.985413,0
			61.1255190000001,-149.986984,0
			61.12656,-149.988022,0
			61.1270830000001,-149.989578,0
			61.1270830000001,-149.991669,0
			61.1276020000001,-149.993225,0
			61.1286430000001,-149.994263,0
			61.1291660000002,-149.995834,0
			61.1291660000002,-149.997437,0
			61.1291660000002,-149.99791,0
			61.1291660000002,-150,0
			61.1291660000002,-150.00209,0
			61.129688,-150.003647,0
			61.1312480000001,-150.004166,0
			61.1320340000001,-150.004425,0
			61.1328130000001,-150.004684,0
			61.1333350000002,-150.006256,0
			61.1333350000002,-150.007599,0
			61.1333350000002,-150.008331,0
			61.1333350000002,-150.010422,0
			61.1333350000002,-150.012497,0
			61.1338540000001,-150.014069,0
			61.134899,-150.015106,0
			61.1354180000002,-150.016663,0
			61.1354180000002,-150.018753,0
			61.1359410000001,-150.020309,0
			61.1369780000001,-150.021347,0
			61.137501,-150.022919,0
			61.137501,-150.024994,0
			61.13802,-150.026566,0
			61.1390650000001,-150.027603,0
			61.1395840000001,-150.02916,0
			61.1401060000001,-150.030731,0
			61.141144,-150.031769,0
			61.141666,-150.03334,0
			61.141666,-150.035416,0
			61.141666,-150.037506,0
			61.141666,-150.039581,0
			61.142185,-150.041153,0
			61.1432300000001,-150.042191,0
			61.1437490000001,-150.043747,0
			61.1437490000001,-150.045837,0
			61.144272,-150.047394,0
			61.145309,-150.048431,0
			61.1458320000001,-150.050003,0
			61.146355,-150.051559,0
			61.1469570000001,-150.05217,0
			61.147396,-150.052597,0
			61.1479150000002,-150.054169,0
			61.1479150000002,-150.054962,0
			61.1479150000002,-150.056244,0
			61.1484380000001,-150.057816,0
			61.1491280000002,-150.058502,0
			61.1494790000001,-150.058853,0
			61.150524,-150.059891,0
			61.1515660000001,-150.060928,0
			61.1520840000001,-150.0625,0
			61.1520840000001,-150.06459,0
			61.1520840000001,-150.066666,0
			61.152607,-150.068237,0
			61.153648,-150.069275,0
			61.1546900000001,-150.070313,0
			61.1557310000001,-150.07135,0
			61.1567690000002,-150.072403,0
			61.1583330000001,-150.072922,0
			61.159893,-150.072403,0
			61.1609340000002,-150.07135,0
			61.161976,-150.070313,0
			61.1624980000001,-150.068756,0
			61.1630210000002,-150.067184,0
			61.1640630000001,-150.067184,0
			61.1649630000001,-150.068085,0
			61.165104,-150.068237,0
			61.1661490000002,-150.068237,0
			61.1666680000001,-150.066666,0
			61.1671910000001,-150.065109,0
			61.1682280000001,-150.064072,0
			61.1692700000002,-150.063019,0
			61.1703150000001,-150.063019,0
			61.1713560000001,-150.064072,0
			61.1723940000002,-150.064072,0
			61.172916,-150.0625,0
			61.172916,-150.06041,0
			61.172916,-150.058334,0
			61.172916,-150.056244,0
			61.172916,-150.054428,0
			61.172916,-150.054169,0
			61.1734350000002,-150.052597,0
			61.1736410000001,-150.052399,0
			61.1744800000001,-150.051559,0
			61.1755220000002,-150.050522,0
			61.1765590000002,-150.049484,0
			61.1770820000001,-150.047913,0
			61.1770820000001,-150.045837,0
			61.1770820000001,-150.043747,0
			61.1770820000001,-150.041672,0
			61.1770820000001,-150.04158,0
			61.1770820000001,-150.039581,0
			61.177601,-150.038025,0
			61.1786460000002,-150.038025,0
			61.1788520000002,-150.038239,0
			61.1796880000001,-150.039062,0
			61.180729,-150.039062,0
			61.1812520000001,-150.037506,0
			61.1812520000001,-150.035416,0
			61.1812520000001,-150.033981,0
			61.1812520000001,-150.03334,0
			61.1817740000002,-150.031769,0
			61.1828160000001,-150.031769,0
			61.183571,-150.032532,0
			61.183857,-150.032822,0
			61.184898,-150.032822,0
			61.1853600000001,-150.031418,0
			61.1854170000001,-150.03125,0
			61.1859400000001,-150.029678,0
			61.1869810000001,-150.028641,0
			61.1880190000002,-150.027603,0
			61.1890600000002,-150.026566,0
			61.1895830000001,-150.024994,0
			61.1901020000002,-150.023437,0
			61.1911430000002,-150.023437,0
			61.1921880000001,-150.024475,0
			61.1937480000001,-150.024994,0
			61.1953120000002,-150.024475,0
			61.196354,-150.023437,0
			61.1973990000002,-150.023437,0
			61.1977120000001,-150.023743,0
			61.1984410000001,-150.024475,0
			61.1994780000001,-150.024475,0
			61.2000010000002,-150.022919,0
			61.2002490000001,-150.022171,0
			61.2005200000001,-150.021347,0
			61.2015650000001,-150.020309,0
			61.202084,-150.018753,0
			61.202084,-150.016663,0
			61.202084,-150.014587,0
			61.202084,-150.012497,0
			61.202084,-150.010422,0
			61.2015650000001,-150.00885,0
			61.2005200000001,-150.007812,0
			61.2000010000002,-150.006256,0
			61.2000010000002,-150.004166,0
			61.2000010000002,-150.00209,0
			61.2000010000002,-150,0
			61.2000010000002,-149.999481,0
			61.2000010000002,-149.99791,0
			61.2000010000002,-149.995834,0
			61.2000010000002,-149.993744,0
			61.2000010000002,-149.991669,0
			61.2000010000002,-149.989578,0
			61.2000010000002,-149.987503,0
			61.1994780000001,-149.985931,0
			61.1986810000002,-149.985138,0
			61.1984410000001,-149.984894,0
			61.1979180000001,-149.983337,0
			61.1979180000001,-149.981247,0
			61.1979180000001,-149.979172,0
			61.1979180000001,-149.977081,0
			61.1979180000001,-149.975006,0
			61.1984410000001,-149.973434,0
			61.1994020000001,-149.972473,0
			61.1994780000001,-149.972397,0
			61.2000010000002,-149.97084,0
			61.2000010000002,-149.96875,0
			61.2000010000002,-149.96666,0
			61.2000010000002,-149.964584,0
			61.2000010000002,-149.964172,0
			61.2000010000002,-149.962494,0
			61.2000010000002,-149.960419,0
			61.2000010000002,-149.958328,0
			61.2005200000001,-149.956772,0
			61.2015650000001,-149.955734,0
			61.2016260000001,-149.955536,0
			61.202084,-149.954163,0
			61.202084,-149.95311,0
			61.202084,-149.952087,0
			61.202084,-149.949997,0
			61.202084,-149.947922,0
			61.202084,-149.945831,0
			61.202084,-149.943756,0
			61.202084,-149.941666,0
			61.2026060000001,-149.940109,0
			61.2036440000001,-149.939072,0
			61.2046850000001,-149.938019,0
			61.2049830000001,-149.937729,0
			61.2057300000001,-149.936981,0
			61.206249,-149.93541,0
			61.206249,-149.933334,0
			61.206249,-149.931244,0
			61.206249,-149.931,0
			61.206249,-149.929169,0
			61.206249,-149.927078,0
			61.2057300000001,-149.925522,0
			61.2046850000001,-149.924484,0
			61.2036440000001,-149.923431,0
			61.2026060000001,-149.922394,0
			61.202084,-149.920837,0
			61.202084,-149.918747,0
			61.202084,-149.916672,0
			61.202084,-149.914581,0
			61.202084,-149.912506,0
			61.202084,-149.910416,0
			61.2015650000001,-149.908859,0
			61.2005200000001,-149.907822,0
			61.2000010000002,-149.90625,0
			61.2005200000001,-149.904678,0
			61.2015650000001,-149.904678,0
			61.2026060000001,-149.905731,0
			61.2036440000001,-149.906769,0
			61.2041660000002,-149.90834,0
			61.2041660000002,-149.910416,0
			61.2041660000002,-149.912506,0
			61.2046850000001,-149.914062,0
			61.2057300000001,-149.9151,0
			61.2067720000001,-149.916153,0
			61.2078090000001,-149.917191,0
			61.208332,-149.918747,0
			61.208332,-149.920837,0
			61.208855,-149.922394,0
			61.2099340000001,-149.92276,0
			61.2104150000001,-149.922913,0
			61.211979,-149.922394,0
			61.2125020000001,-149.920837,0
			61.2125020000001,-149.918747,0
			61.2125020000001,-149.91716,0
			61.2125020000001,-149.916672,0
			61.2125020000001,-149.914581,0
			61.2130240000001,-149.913025,0
			61.2140660000001,-149.911987,0
			61.2145840000001,-149.910416,0
			61.215107,-149.908859,0
			61.216148,-149.908859,0
			61.2162590000001,-149.908966,0
			61.2171900000001,-149.909897,0
			61.2182310000001,-149.909897,0
			61.2187500000002,-149.90834,0
			61.2187500000002,-149.90625,0
			61.2187500000002,-149.904373,0
			61.2187500000002,-149.90416,0
			61.2192690000001,-149.902603,0
			61.2203100000001,-149.902603,0
			61.2205160000001,-149.902802,0
			61.2213520000001,-149.903641,0
			61.2223930000001,-149.903641,0
			61.2229160000001,-149.902084,0
			61.2229160000001,-149.901108,0
			61.2229160000001,-149.899994,0
			61.2229160000001,-149.897919,0
			61.2234340000001,-149.896347,0
			61.224476,-149.895309,0
			61.2255210000001,-149.894272,0
			61.2265620000001,-149.894272,0
			61.227604,-149.895309,0
			61.2286490000001,-149.895309,0
			61.2291680000001,-149.893753,0
			61.229691,-149.892181,0
			61.230728,-149.891144,0
			61.2317700000001,-149.890106,0
			61.232815,-149.889069,0
			61.2333340000002,-149.887497,0
			61.233856,-149.885941,0
			61.2348940000001,-149.884903,0
			61.2359350000001,-149.88385,0
			61.2374990000002,-149.883331,0
			61.2390590000001,-149.882813,0
			61.240101,-149.881775,0
			61.2416650000001,-149.881256,0
			61.2432290000002,-149.880737,0
			61.2442740000001,-149.879684,0
			61.2453160000002,-149.879684,0
			61.2463570000002,-149.880737,0
			61.2473980000001,-149.880737,0
			61.2479170000001,-149.879166,0
			61.24844,-149.877609,0
			61.2494810000002,-149.877609,0
			61.2505190000001,-149.878647,0
			61.2515600000001,-149.878647,0
			61.252083,-149.87709,0
			61.2526020000001,-149.875519,0
			61.2536470000001,-149.875519,0
			61.2546840000001,-149.876572,0
			61.256248,-149.87709,0
			61.2578130000002,-149.876572,0
			61.258335,-149.875,0
			61.258335,-149.87291,0
			61.2588540000002,-149.871353,0
			61.2598990000001,-149.870316,0
			61.2604180000001,-149.868744,0
			61.2609410000002,-149.867188,0
			61.2619780000002,-149.867188,0
			61.26302,-149.868225,0
			61.2640650000002,-149.868225,0
			61.2645840000001,-149.866669,0
			61.2645840000001,-149.864578,0
			61.2645840000001,-149.862503,0
			61.2651060000002,-149.860931,0
			61.2661440000001,-149.859894,0
			61.267185,-149.858856,0
			61.2682300000002,-149.857819,0
			61.2692720000001,-149.856766,0
			61.270313,-149.855728,0
			61.270832,-149.854172,0
			61.270832,-149.852081,0
			61.270832,-149.850006,0
			61.2713510000002,-149.848434,0
			61.2723960000001,-149.848434,0
			61.2734380000002,-149.849487,0
			61.2744790000002,-149.849487,0
			61.2750020000001,-149.847916,0
			61.2755240000001,-149.846359,0
			61.2765660000002,-149.845322,0
			61.2776070000002,-149.844269,0
			61.2791670000001,-149.84375,0
			61.2807310000002,-149.844269,0
			61.2817690000001,-149.845322,0
			61.28281,-149.845322,0
			61.2833330000001,-149.84375,0
			61.2833330000001,-149.84166,0
			61.2833330000001,-149.839584,0
			61.2838520000001,-149.838013,0
			61.2848930000001,-149.838013,0
			61.2859340000001,-149.839066,0
			61.2869760000002,-149.839066,0
			61.2874980000001,-149.837494,0
			61.2880210000001,-149.835938,0
			61.2890630000002,-149.8349,0
			61.2901040000001,-149.833847,0
			61.2911490000001,-149.833847,0
			61.2921910000001,-149.8349,0
			61.2932280000002,-149.8349,0
			61.2937510000001,-149.833328,0
			61.2937510000001,-149.831253,0
			61.2937510000001,-149.829163,0
			61.29427,-149.827606,0
			61.2953150000002,-149.827606,0
			61.2963560000001,-149.828644,0
			61.2973940000001,-149.828644,0
			61.2979160000001,-149.827087,0
			61.298435,-149.825516,0
			61.2994800000002,-149.824478,0
			61.3005220000001,-149.823441,0
			61.3015590000001,-149.822403,0
			61.3020820000002,-149.820831,0
			61.3026010000001,-149.819275,0
			61.3036460000001,-149.819275,0
			61.3046880000001,-149.820312,0
			61.3057290000001,-149.820312,0
			61.306252,-149.818756,0
			61.3067740000001,-149.817184,0
			61.3078160000001,-149.816147,0
			61.3088570000001,-149.815109,0
			61.3098980000001,-149.815109,0
			61.3109400000001,-149.816147,0
			61.3119810000001,-149.816147,0
			61.3125000000001,-149.81459,0
			61.3125000000001,-149.8125,0
			61.3125000000001,-149.81041,0
			61.3130190000001,-149.808853,0
			61.31406,-149.807816,0
			61.3151020000001,-149.806763,0
			61.3161430000001,-149.805725,0
			61.3166660000002,-149.804169,0
			61.3166660000002,-149.802078,0
			61.3166660000002,-149.800003,0
			61.3171840000001,-149.798431,0
			61.3182260000001,-149.797394,0
			61.3187480000001,-149.795837,0
			61.3192710000001,-149.794266,0
			61.3203120000001,-149.793228,0
			61.3208350000002,-149.791672,0
			61.3208350000002,-149.789581,0
			61.3208350000002,-149.787506,0
			61.3208350000002,-149.785416,0
			61.3213540000001,-149.783859,0
			61.3223990000001,-149.782822,0
			61.3229180000002,-149.78125,0
			61.3229180000002,-149.77916,0
			61.3229180000002,-149.777084,0
			61.3234410000001,-149.775513,0
			61.3244780000001,-149.774475,0
			61.3246310000002,-149.774017,0
			61.325001,-149.772919,0
			61.325001,-149.770828,0
			61.325001,-149.768753,0
			61.325001,-149.766663,0
			61.325001,-149.764587,0
			61.325001,-149.763077,0
			61.325001,-149.762497,0
			61.325001,-149.760422,0
			61.325001,-149.758331,0
			61.325001,-149.756256,0
			61.3244780000001,-149.754684,0
			61.3234410000001,-149.753647,0
			61.3229180000002,-149.75209,0
			61.3234410000001,-149.750519,0
			61.3244780000001,-149.749481,0
			61.325001,-149.74791,0
			61.325001,-149.745834,0
			61.325001,-149.743744,0
			61.325001,-149.741669,0
			61.325001,-149.739578,0
			61.3244780000001,-149.738022,0
			61.3234410000001,-149.736984,0
			61.3223990000001,-149.735931,0
			61.3213540000001,-149.734894,0
			61.3203120000001,-149.733856,0
			61.3192710000001,-149.732819,0
			61.3187480000001,-149.731247,0
			61.3187480000001,-149.729172,0
			61.3187480000001,-149.727081,0
			61.3182260000001,-149.725525,0
			61.3171840000001,-149.725525,0
			61.3161430000001,-149.726563,0
			61.3151020000001,-149.7276,0
			61.31406,-149.728653,0
			61.3130190000001,-149.728653,0
			61.3125000000001,-149.727081,0
			61.3130190000001,-149.725525,0
			61.31406,-149.724487,0
			61.3145830000001,-149.722916,0
			61.31406,-149.721359,0
			61.3125000000001,-149.72084,0
			61.3109400000001,-149.720322,0
			61.310417,-149.71875,0
			61.310417,-149.71666,0
			61.3098980000001,-149.715103,0
			61.3088570000001,-149.714066,0
			61.3083340000002,-149.712494,0
			61.3088570000001,-149.710938,0
			61.3098980000001,-149.7099,0
			61.310417,-149.708328,0
			61.3109400000001,-149.706772,0
			61.3119810000001,-149.706772,0
			61.3130190000001,-149.707809,0
			61.31406,-149.708847,0
			61.3145830000001,-149.710419,0
			61.3145830000001,-149.712494,0
			61.3151020000001,-149.714066,0
			61.3166660000002,-149.714584,0
			61.3182260000001,-149.715103,0
			61.3192710000001,-149.716141,0
			61.3203120000001,-149.717178,0
			61.3208350000002,-149.71875,0
			61.3208350000002,-149.72084,0
			61.3213540000001,-149.722397,0
			61.3229180000002,-149.722916,0
			61.3244780000001,-149.723434,0
			61.325001,-149.725006,0
			61.325001,-149.727081,0
			61.32552,-149.728653,0
			61.3265650000001,-149.729691,0
			61.3276060000001,-149.730728,0
			61.328644,-149.730728,0
			61.329166,-149.729172,0
			61.329166,-149.727081,0
			61.329166,-149.725006,0
			61.329166,-149.722916,0
			61.329166,-149.72084,0
			61.329166,-149.71875,0
			61.329166,-149.71666,0
			61.329166,-149.714584,0
			61.328644,-149.713013,0
			61.3276060000001,-149.711975,0
			61.3270840000001,-149.710419,0
			61.3276060000001,-149.708847,0
			61.328644,-149.707809,0
			61.329685,-149.706772,0
			61.3312490000001,-149.706253,0
			61.332809,-149.706772,0
			61.3333320000002,-149.708328,0
			61.332809,-149.7099,0
			61.331772,-149.710938,0
			61.3312490000001,-149.712494,0
			61.331772,-149.714066,0
			61.332809,-149.715103,0
			61.3338510000001,-149.716141,0
			61.334896,-149.716141,0
			61.335937,-149.715103,0
			61.337502,-149.714584,0
			61.3390660000001,-149.715103,0
			61.3401070000001,-149.716141,0
			61.341148,-149.716141,0
			61.341667,-149.714584,0
			61.3421900000001,-149.713013,0
			61.3432310000001,-149.711975,0
			61.344269,-149.710938,0
			61.3458330000001,-149.710419,0
			61.347393,-149.7099,0
			61.3484380000002,-149.708847,0
			61.3494760000001,-149.708847,0
			61.350521,-149.7099,0
			61.3520850000001,-149.710419,0
			61.3536490000002,-149.710938,0
			61.3546910000001,-149.711975,0
			61.3557280000001,-149.711975,0
			61.356251,-149.710419,0
			61.3567700000002,-149.708847,0
			61.3578150000001,-149.708847,0
			61.3588560000001,-149.7099,0
			61.3598940000002,-149.710938,0
			61.3609350000002,-149.711975,0
			61.3624990000001,-149.712494,0
			61.3640590000002,-149.713013,0
			61.365105,-149.714066,0
			61.3666650000001,-149.714584,0
			61.368229,-149.715103,0
			61.3692740000002,-149.716141,0
			61.3703160000001,-149.716141,0
			61.371357,-149.715103,0
			61.372917,-149.714584,0
			61.3744810000001,-149.714066,0
			61.375,-149.712494,0
			61.375,-149.710419,0
			61.3755190000002,-149.708847,0
			61.3765600000002,-149.707809,0
			61.3770830000001,-149.706253,0
			61.3776020000002,-149.704681,0
			61.3786430000002,-149.703644,0
			61.3796840000002,-149.702606,0
			61.380726,-149.701569,0
			61.3812480000001,-149.699997,0
			61.3812480000001,-149.697922,0
			61.3812480000001,-149.695831,0
			61.3812480000001,-149.693756,0
			61.3812480000001,-149.691666,0
			61.3812480000001,-149.68959,0
			61.3812480000001,-149.6875,0
			61.3817710000002,-149.685928,0
			61.3828130000001,-149.684891,0
			61.3833350000001,-149.683334,0
			61.3833350000001,-149.681244,0
			61.3833350000001,-149.679169,0
			61.3833350000001,-149.677078,0
			61.3833350000001,-149.675003,0
			61.383854,-149.673431,0
			61.3848990000002,-149.672394,0
			61.3859410000001,-149.671356,0
			61.3866500000001,-149.670639,0
			61.3869780000001,-149.670319,0
			61.3875010000002,-149.668747,0
			61.3875010000002,-149.666672,0
			61.3875010000002,-149.664581,0
			61.3870200000002,-149.663147,0
			61.3869780000001,-149.663025,0
			61.3859410000001,-149.661987,0
			61.3854180000001,-149.660416,0
			61.3854180000001,-149.65834,0
			61.3854180000001,-149.65625,0
			61.3854180000001,-149.65416,0
			61.3854180000001,-149.652084,0
			61.3854180000001,-149.649994,0
			61.3854180000001,-149.647919,0
			61.3854180000001,-149.645828,0
			61.3854180000001,-149.643753,0
			61.3854180000001,-149.641663,0
			61.3854180000001,-149.639587,0
			61.3854180000001,-149.637497,0
			61.3859410000001,-149.635941,0
			61.3869780000001,-149.634903,0
			61.3875010000002,-149.633331,0
			61.3875010000002,-149.631256,0
			61.3875010000002,-149.629166,0
			61.3875010000002,-149.62709,0
			61.3875010000002,-149.625,0
			61.3880200000001,-149.623428,0
			61.3890650000001,-149.622391,0
			61.3901060000001,-149.621353,0
			61.3911440000002,-149.620316,0
			61.3916660000002,-149.618744,0
			61.3916660000002,-149.616669,0
			61.3916660000002,-149.614578,0
			61.3916660000002,-149.612503,0
			61.3916660000002,-149.610413,0
			61.3921850000001,-149.608856,0
			61.3932300000001,-149.607819,0
			61.3942720000001,-149.606766,0
			61.3953090000002,-149.605728,0
			61.3958320000001,-149.604172,0
			61.3958320000001,-149.602081,0
			61.3958320000001,-149.600006,0
			61.396351,-149.598434,0
			61.3973960000002,-149.597397,0
			61.3979150000001,-149.59584,0
			61.3979150000001,-149.59375,0
			61.3984380000001,-149.592178,0
			61.399479,-149.591141,0
			61.4000020000001,-149.589584,0
			61.4000020000001,-149.587494,0
			61.4000020000001,-149.585419,0
			61.4005240000001,-149.583847,0
			61.4015660000001,-149.582809,0
			61.402607,-149.581772,0
			61.403648,-149.580734,0
			61.4041670000001,-149.579163,0
			61.4041670000001,-149.577087,0
			61.4041670000001,-149.574997,0
			61.4046900000001,-149.573441,0
			61.4057310000001,-149.572403,0
			61.4067690000001,-149.57135,0
			61.4078100000001,-149.570312,0
			61.408333,-149.568756,0
			61.408333,-149.566666,0
			61.408333,-149.56459,0
			61.408333,-149.5625,0
			61.4078100000001,-149.560928,0
			61.4062500000002,-149.56041,0
			61.4046900000001,-149.560928,0
			61.403648,-149.561981,0
			61.4020840000001,-149.5625,0
			61.4005240000001,-149.561981,0
			61.4000020000001,-149.56041,0
			61.4000020000001,-149.558334,0
			61.4000020000001,-149.556244,0
			61.4005240000001,-149.554687,0
			61.4020840000001,-149.554169,0
			61.403648,-149.55365,0
			61.4046900000001,-149.552597,0
			61.4057310000001,-149.551559,0
			61.4062500000002,-149.550003,0
			61.4062500000002,-149.547913,0
			61.4062500000002,-149.545837,0
			61.4062500000002,-149.543747,0
			61.4062500000002,-149.541672,0
			61.4062500000002,-149.539581,0
			61.4062500000002,-149.537506,0
			61.4062500000002,-149.535416,0
			61.4062500000002,-149.53334,0
			61.4067690000001,-149.531769,0
			61.408333,-149.53125,0
			61.4098930000001,-149.530731,0
			61.4109380000001,-149.529678,0
			61.411976,-149.529678,0
			61.4130210000001,-149.530731,0
			61.414585,-149.53125,0
			61.4161490000001,-149.530731,0
			61.4166680000001,-149.52916,0
			61.4166680000001,-149.527084,0
			61.417191,-149.525513,0
			61.4187510000002,-149.524994,0
			61.4203150000001,-149.524475,0
			61.4208340000002,-149.522919,0
			61.4208340000002,-149.520828,0
			61.421356,-149.519272,0
			61.4223940000001,-149.518234,0
			61.4229160000002,-149.516663,0
			61.4229160000002,-149.514587,0
			61.4229160000002,-149.512497,0
			61.4234350000001,-149.510941,0
			61.4244800000001,-149.509903,0
			61.4249990000002,-149.508331,0
			61.4249990000002,-149.506256,0
			61.4249990000002,-149.504166,0
			61.4255220000001,-149.502609,0
			61.4265590000001,-149.501572,0
			61.427082,-149.5,0
			61.4265590000001,-149.498428,0
			61.4255220000001,-149.497391,0
			61.4249990000002,-149.495834,0
			61.4255220000001,-149.494263,0
			61.4265590000001,-149.493225,0
			61.427082,-149.491669,0
			61.427082,-149.489578,0
			61.4276050000001,-149.488022,0
			61.4291650000001,-149.487503,0
			61.430729,-149.486984,0
			61.4317740000001,-149.485931,0
			61.432816,-149.484894,0
			61.4333340000001,-149.483337,0
			61.4333340000001,-149.481247,0
			61.4333340000001,-149.479172,0
			61.4338570000002,-149.4776,0
			61.4348980000001,-149.476563,0
			61.43594,-149.475525,0
			61.43623,-149.475235,0
			61.436981,-149.474487,0
			61.4375000000002,-149.472916,0
			61.4380190000001,-149.471359,0
			61.4390600000001,-149.470322,0
			61.439583,-149.46875,0
			61.439583,-149.46666,0
			61.4401020000001,-149.465103,0
			61.4411430000001,-149.464066,0
			61.4416660000001,-149.462494,0
			61.4421840000001,-149.460937,0
			61.4432260000002,-149.4599,0
			61.443748,-149.458328,0
			61.443748,-149.456253,0
			61.4442710000001,-149.454681,0
			61.4453120000001,-149.453644,0
			61.445835,-149.452087,0
			61.445835,-149.45015,0
			61.445835,-149.449997,0
			61.445835,-149.447922,0
			61.4463540000002,-149.44635,0
			61.4474070000001,-149.446365,0
			61.4484410000002,-149.447403,0
			61.4494780000002,-149.447403,0
			61.4500010000001,-149.445831,0
			61.4500010000001,-149.443756,0
			61.4500010000001,-149.441666,0
			61.45052,-149.440109,0
			61.4515650000002,-149.439072,0
			61.4520840000001,-149.4375,0
			61.4520840000001,-149.43541,0
			61.452572,-149.433945,0
			61.4526180000001,-149.433838,0
			61.4536440000001,-149.432816,0
			61.4541660000001,-149.431244,0
			61.4541660000001,-149.430115,0
			61.4541660000001,-149.429169,0
			61.4541660000001,-149.427078,0
			61.4541660000001,-149.425003,0
			61.4536440000001,-149.423431,0
			61.4526060000002,-149.422394,0
			61.4520840000001,-149.420837,0
			61.4520840000001,-149.418747,0
			61.4520840000001,-149.416672,0
			61.4526060000002,-149.4151,0
			61.4536440000001,-149.4151,0
			61.454685,-149.416153,0
			61.4557300000002,-149.416153,0
			61.4562490000001,-149.414581,0
			61.4567720000001,-149.413025,0
			61.4578090000001,-149.411987,0
			61.458332,-149.410416,0
			61.4578090000001,-149.408859,0
			61.4567720000001,-149.407822,0
			61.4562490000001,-149.40625,0
			61.4567720000001,-149.404678,0
			61.4578090000001,-149.404678,0
			61.4588510000002,-149.405731,0
			61.4598960000001,-149.405731,0
			61.4604150000001,-149.40416,0
			61.4604150000001,-149.402084,0
			61.4604150000001,-149.399994,0
			61.4604150000001,-149.397919,0
			61.4604150000001,-149.395828,0
			61.4609370000001,-149.394272,0
			61.4619790000002,-149.393234,0
			61.4625020000001,-149.391663,0
			61.4625020000001,-149.389587,0
			61.4630240000001,-149.388016,0
			61.4640660000002,-149.386978,0
			61.4645840000001,-149.385422,0
			61.4651070000002,-149.38385,0
			61.4661480000001,-149.382813,0
			61.4666670000001,-149.381256,0
			61.4666670000001,-149.379166,0
			61.4666670000001,-149.37709,0
			61.4666670000001,-149.375,0
			61.4666670000001,-149.37291,0
			61.4671900000002,-149.371353,0
			61.4682310000002,-149.370316,0
			61.4687500000001,-149.368744,0
			61.4687500000001,-149.366669,0
			61.4687500000001,-149.364578,0
			61.4687500000001,-149.362503,0
			61.4687500000001,-149.360413,0
			61.4687500000001,-149.358337,0
			61.4687500000001,-149.356247,0
			61.4687500000001,-149.354172,0
			61.4687500000001,-149.352081,0
			61.4687500000001,-149.350006,0
			61.4687500000001,-149.347916,0
			61.4682310000002,-149.346359,0
			61.4671900000002,-149.345322,0
			61.4666670000001,-149.34375,0
			61.4671900000002,-149.342178,0
			61.4682310000002,-149.341141,0
			61.4687500000001,-149.339584,0
			61.4692690000001,-149.338013,0
			61.47031,-149.336975,0
			61.470833,-149.335419,0
			61.47031,-149.333847,0
			61.4692690000001,-149.332809,0
			61.4687500000001,-149.331253,0
			61.4692690000001,-149.329681,0
			61.47031,-149.328644,0
			61.470833,-149.327087,0
			61.470833,-149.324997,0
			61.470833,-149.322922,0
			61.470833,-149.320831,0
			61.470833,-149.318756,0
			61.470833,-149.316666,0
			61.470833,-149.31459,0
			61.470833,-149.3125,0
			61.470833,-149.31041,0
			61.47031,-149.308853,0
			61.4692690000001,-149.307816,0
			61.4687500000001,-149.306244,0
			61.4687500000001,-149.304169,0
			61.4692690000001,-149.302597,0
			61.47031,-149.301559,0
			61.470833,-149.300003,0
			61.47031,-149.298431,0
			61.4692690000001,-149.297394,0
			61.4687500000001,-149.295837,0
			61.4692690000001,-149.294266,0
			61.47031,-149.294266,0
			61.4713520000001,-149.295319,0
			61.4723970000001,-149.295319,0
			61.472916,-149.293747,0
			61.472916,-149.291672,0
			61.472916,-149.289581,0
			61.472916,-149.287506,0
			61.472916,-149.285416,0
			61.4734340000001,-149.283859,0
			61.4744760000002,-149.282822,0
			61.474998,-149.28125,0
			61.474998,-149.27916,0
			61.474998,-149.277084,0
			61.474998,-149.274994,0
			61.4755210000001,-149.273438,0
			61.4765620000001,-149.2724,0
			61.477085,-149.270828,0
			61.477085,-149.268753,0
			61.477085,-149.266663,0
			61.477085,-149.264587,0
			61.477085,-149.262497,0
			61.477085,-149.260422,0
			61.477085,-149.258331,0
			61.4776040000002,-149.256775,0
			61.4786490000001,-149.255737,0
			61.479168,-149.254166,0
			61.479168,-149.25209,0
			61.479168,-149.25,0
			61.479168,-149.24791,0
			61.479168,-149.245834,0
			61.479168,-149.243744,0
			61.4786490000001,-149.242188,0
			61.4776040000002,-149.24115,0
			61.4773940000002,-149.240509,0
			61.4549410000001,-149.240509,0
			61.454979,-149.179794,0
			61.4261400000001,-149.179733,0
			61.4262890000002,-149.151779,0
		</coordinates>
	</polygon>
</kml>
