<?xml version="1.0" encoding="UTF-8"?>
<kml xmlns="http://earth.google.com/kml/2.2">
	<polygon id="USA_KY" samplingProbability="1">
		<coordinates>
			36.6223297130001,-89.319313049,0
			36.615139009,-89.3135833739999,0
			36.6087989820001,-89.3085174559999,0
			36.6068169050002,-89.306936031,0
			36.605093425,-89.30556093,0
			36.6002311700001,-89.301681518,0
			36.5901412970001,-89.293632508,0
			36.5771673780002,-89.280497822,0
			36.5737296570001,-89.277017503,0
			36.5716705320001,-89.274932862,0
			36.5674896240001,-89.2653961179998,0
			36.5657106300001,-89.2613343389999,0
			36.564923776,-89.2595378089999,0
			36.5644721990001,-89.2585067749999,0
			36.56383133,-89.24987793,0
			36.5649490370001,-89.2437820429999,0
			36.5664100650002,-89.2357559209999,0
			36.5668493370001,-89.2333492389999,0
			36.5675059170001,-89.229751976,0
			36.5676689150001,-89.2288589479999,0
			36.567911946,-89.2285158449999,0
			36.5681700150001,-89.2281515129999,0
			36.5691604620001,-89.2267532349999,0
			36.576679229,-89.2161178589999,0
			36.5820198070001,-89.2118072519999,0
			36.5873909010001,-89.2074661259999,0
			36.5893020630001,-89.20728302,0
			36.602069854,-89.205963135,0
			36.6115303050001,-89.2049713139999,0
			36.617279323,-89.204377484,0
			36.6174358210002,-89.2043613179999,0
			36.6184920000001,-89.203948999,0
			36.6254253320002,-89.2012344569999,0
			36.6281390010001,-89.2001719999998,0
			36.6319451180001,-89.1986821109999,0
			36.6324616970002,-89.1984798139999,0
			36.6330490110001,-89.198249817,0
			36.6341018670001,-89.1971206659999,0
			36.6416015640001,-89.1890487679999,0
			36.6473007210001,-89.182907105,0
			36.6484906390002,-89.181624877,0
			36.6485226690002,-89.1815903619999,0
			36.6508903510002,-89.1790390009999,0
			36.6517410290002,-89.17816162,0
			36.6567420960002,-89.173027039,0
			36.6615600590001,-89.1680831899999,0
			36.6635513300001,-89.1660385119999,0
			36.6671600340001,-89.1660461419999,0
			36.6724586500001,-89.170906067,0
			36.6772689830001,-89.1714172369999,0
			36.6824188240001,-89.171966552,0
			36.6904602060001,-89.175811768,0
			36.7009811410001,-89.1865081789999,0
			36.7088012700001,-89.1944732669999,0
			36.7166595460001,-89.1998672489999,0
			36.725070953,-89.2016372679999,0
			36.7307319650002,-89.2008132939999,0
			36.7369194030002,-89.1999206549999,0
			36.7414016730002,-89.196846008,0
			36.746181489,-89.193572997,0
			36.7494392400002,-89.1913528429999,0
			36.7565002450001,-89.180297852,0
			36.7586097720001,-89.1744461059999,0
			36.7583389290002,-89.1641082769999,0
			36.7582092280002,-89.1580657959999,0
			36.758129119,-89.1572265619999,0
			36.7554817200001,-89.1476058959999,0
			36.7536010740001,-89.140769958,0
			36.7520484920001,-89.135147095,0
			36.7527503970002,-89.1271362309999,0
			36.7580299370002,-89.1210327149999,0
			36.7636909500001,-89.1196289069999,0
			36.7756309520001,-89.1207733159999,0
			36.780651092,-89.1242370609999,0
			36.7830505370001,-89.125907899,0
			36.7840614320001,-89.1267471309999,0
			36.7868690490001,-89.130081177,0
			36.7883415220001,-89.1357574459998,0
			36.7889099120002,-89.1408767699999,0
			36.7911987310001,-89.1611862169999,0
			36.7950897210002,-89.1668395999999,0
			36.79858017,-89.1719131469999,0
			36.8119506840002,-89.180038453,0
			36.8331604000001,-89.1797790529999,0
			36.838760375,-89.178482055,0
			36.8439598090002,-89.171829223,0
			36.8443107600002,-89.1666488649999,0
			36.8446807870001,-89.1614532469999,0
			36.845161438,-89.1545028689999,0
			36.8474502570002,-89.1466827399999,0
			36.851379394,-89.1394424429999,0
			36.851711274,-89.138938904,0
			36.8587989810002,-89.1311187729999,0
			36.865299226,-89.128807067,0
			36.8716506960001,-89.1265563969999,0
			36.8892402650002,-89.124336243,0
			36.896469117,-89.123420715,0
			36.9050216680001,-89.120742797,0
			36.916820526,-89.116401673,0
			36.9231910710001,-89.1126403799999,0
			36.9300994880001,-89.109230042,0
			36.9359092720001,-89.10608673,0
			36.9440193170001,-89.1018600469999,0
			36.9444999700002,-89.101669311,0
			36.9480285650001,-89.101501465,0
			36.9541015620002,-89.1005859369999,0
			36.9631385810002,-89.101608276,0
			36.9649505610001,-89.1026992789999,0
			36.9756202710001,-89.10912323,0
			36.9808197020002,-89.1174468999999,0
			36.9837303160001,-89.126235962,0
			36.9838714600001,-89.133888245,0
			36.9906196590001,-89.145118714,0
			36.9964904790002,-89.154533386,0
			37.010528564,-89.170211792,0
			37.0273513800001,-89.179862977,0
			37.0296211240002,-89.1807327279999,0
			37.0306396490002,-89.181007386,0
			37.0410308830002,-89.1815261849999,0
			37.050849916,-89.1797866809999,0
			37.0536499020001,-89.1788864139999,0
			37.05904007,-89.177085877,0
			37.0680809030001,-89.170700073,0
			37.0712890630002,-89.168426514,0
			37.0762596140001,-89.1649322499999,0
			37.0766487120002,-89.164596557,0
			37.101509095,-89.1359176629999,0
			37.1027603160001,-89.1344833379999,0
			37.1178207390001,-89.1170959459999,0
			37.1210098260001,-89.113960267,0
			37.1228904720001,-89.112419129,0
			37.143169404,-89.099609374,0
			37.1622810370001,-89.087532043,0
			37.1717491160001,-89.0796661369999,0
			37.2078590400002,-89.0342178349999,0
			37.2231788640001,-89.0071105949999,0
			37.223701478,-89.005226136,0
			37.2287216180001,-88.9871978769999,0
			37.2299690240001,-88.959503174,0
			37.2275390630001,-88.933937073,0
			37.2263603200001,-88.9272994999999,0
			37.2235794070002,-88.915176392,0
			37.2213287350001,-88.9081192009999,0
			37.2199020400001,-88.9036560069999,0
			37.2153015140001,-88.8903961179999,0
			37.2047195440001,-88.862167358,0
			37.1996498110001,-88.8460388189999,0
			37.1918907170001,-88.8235473629999,0
			37.1819305430001,-88.795417785,0
			37.1609802240001,-88.7603530889999,0
			37.1606597910001,-88.759811401,0
			37.1429710400002,-88.733947754,0
			37.1423492430001,-88.732788085,0
			37.14025116,-88.7259979249999,0
			37.140590668,-88.7105331419999,0
			37.1406898510002,-88.7058105459999,0
			37.140350342,-88.702171326,0
			37.139671326,-88.6965103149999,0
			37.1356010450001,-88.680915832,0
			37.131542207,-88.673446655,0
			37.1245689400001,-88.652763368,0
			37.1208419810002,-88.6362228399999,0
			37.1166419990001,-88.623336792,0
			37.1142921460001,-88.6178512569999,0
			37.11203003,-88.6130828859999,0
			37.1049385080001,-88.6021270749999,0
			37.1042289740001,-88.60105896,0
			37.0804519660001,-88.5664215089999,0
			37.0795707710001,-88.565116883,0
			37.0712699900001,-88.5527725219999,0
			37.0691108710001,-88.5477371209999,0
			37.0670585630001,-88.542655946,0
			37.0663299560001,-88.5397262579999,0
			37.064140321,-88.529396057,0
			37.0629806520001,-88.5189590449999,0
			37.06267929,-88.5160675049999,0
			37.0635604860001,-88.495536805,0
			37.0639305110001,-88.4925308219999,0
			37.0647506720002,-88.489036561,0
			37.066669465,-88.4827728269999,0
			37.070652009,-88.4746170049999,0
			37.0770606990001,-88.4658660899999,0
			37.0890808100001,-88.4546585069999,0
			37.0921592720001,-88.452331543,0
			37.0971717840001,-88.4485473629999,0
			37.111080171,-88.439346313,0
			37.111721038,-88.4390106189999,0
			37.1328697220002,-88.4276504519999,0
			37.1447410580001,-88.4246520989999,0
			37.1542892460001,-88.425041199,0
			37.1762695310001,-88.4346008299999,0
			37.1926803590001,-88.4417266839999,0
			37.206249238,-88.450187683,0
			37.215690613,-88.459075927,0
			37.2173614510001,-88.4609832759999,0
			37.2210197450001,-88.4667205799999,0
			37.221420289,-88.467407227,0
			37.2238693240001,-88.4717025759999,0
			37.2305412290001,-88.4764633189998,0
			37.247940064,-88.4888610849999,0
			37.2558021550001,-88.499168396,0
			37.2602386480001,-88.5049819949999,0
			37.2671813960001,-88.5107803349998,0
			37.269001008,-88.5118331909999,0
			37.2749214180001,-88.512809752,0
			37.2789993290001,-88.513336182,0
			37.281570435,-88.5130004889999,0
			37.288661957,-88.5113372809999,0
			37.2972793580001,-88.5081863409999,0
			37.3007087710001,-88.5066833499999,0
			37.3079414380002,-88.5025558469999,0
			37.3203506470001,-88.495246887,0
			37.3460388180001,-88.4822921749999,0
			37.347560882,-88.4818801879999,0
			37.3595809930001,-88.477836608,0
			37.362991333,-88.4766921999999,0
			37.373481751,-88.4755859379999,0
			37.387088777,-88.474166869,0
			37.395389558,-88.4687118529998,0
			37.4047508240001,-88.459846496,0
			37.4064292910002,-88.457252502,0
			37.415550233,-88.4440460199999,0
			37.4205513000001,-88.4279785149999,0
			37.4232902530001,-88.4210128779999,0
			37.4246101380002,-88.416931152,0
			37.4250412000001,-88.414596558,0
			37.4259185790002,-88.4116973869999,0
			37.426342011,-88.406471252,0
			37.4258804320001,-88.404571533,0
			37.423851014,-88.3979492199999,0
			37.4163589480001,-88.3861999519999,0
			37.412490845,-88.380119324,0
			37.4083709720001,-88.3731231689999,0
			37.4073791500002,-88.3714370729999,0
			37.4068222040001,-88.366256715,0
			37.406528473,-88.3627471929999,0
			37.4070205680001,-88.3596115109999,0
			37.4104805000001,-88.3498992909999,0
			37.420860292,-88.3398818969999,0
			37.426959992,-88.3339767449999,0
			37.4365196230001,-88.3219070439999,0
			37.445129394,-88.306419373,0
			37.4466590880002,-88.3029861449999,0
			37.4492988590002,-88.2960205079999,0
			37.4503517160002,-88.29284668,0
			37.4574699400001,-88.259307861,0
			37.4582710270002,-88.2410202039999,0
			37.458339691,-88.2395858769999,0
			37.4598007210001,-88.20641327,0
			37.4605293280001,-88.1972274789999,0
			37.4609794620002,-88.1931686389999,0
			37.462131501,-88.1874084469999,0
			37.4671592710002,-88.16229248,0
			37.4678115840001,-88.1590270989999,0
			37.4695510860001,-88.1503372189999,0
			37.4699020400002,-88.148559571,0
			37.470470429,-88.1442871089999,0
			37.471569061,-88.136131286,0
			37.4720115660001,-88.132827759,0
			37.47246933,-88.128585815,0
			37.472702026,-88.123977662,0
			37.472949983,-88.1109390259999,0
			37.4731292730002,-88.1022567739999,0
			37.477619171,-88.085014343,0
			37.4841308590001,-88.077133179,0
			37.4892120370002,-88.073226929,0
			37.4956207280001,-88.0699768059999,0
			37.5061111440002,-88.0674362179998,0
			37.5119819640001,-88.067672729,0
			37.5202598570001,-88.067977905,0
			37.5214309690001,-88.06855011,0
			37.5316619870001,-88.0735626219999,0
			37.5340385430001,-88.076919556,0
			37.536312104,-88.0803833009999,0
			37.542369843,-88.0895996089999,0
			37.5427589410001,-88.0901260379999,0
			37.545509338,-88.09298706,0
			37.5487098700002,-88.0958328249999,0
			37.5519104000001,-88.0980911259999,0
			37.5555686940001,-88.1009216309999,0
			37.557380677,-88.102790832,0
			37.5695304880001,-88.1196670529998,0
			37.5716896070002,-88.1232681279999,0
			37.5790290830001,-88.130096436,0
			37.5835990900001,-88.1334533689999,0
			37.5961494460001,-88.1371307379999,0
			37.6106300370001,-88.1413803099999,0
			37.6131591800001,-88.14251709,0
			37.6357803350001,-88.1527404789999,0
			37.6379890440002,-88.1534423829999,0
			37.6483917240001,-88.1567230219999,0
			37.6541099540001,-88.156600953,0
			37.6563797000002,-88.1565704339999,0
			37.6590805050001,-88.1564712519999,0
			37.6645202640001,-88.155151368,0
			37.6672286990001,-88.1540527339999,0
			37.6700019840002,-88.152809143,0
			37.6776008600001,-88.147842408,0
			37.6978988660002,-88.1316909779999,0
			37.7104606620001,-88.1181793199999,0
			37.7182693480001,-88.1036224359999,0
			37.7227210990001,-88.095321656,0
			37.7271308910001,-88.08542633,0
			37.7279701230001,-88.0835571279998,0
			37.736518861,-88.0643692009999,0
			37.744499207,-88.053115844,0
			37.7606391910001,-88.0416564939999,0
			37.7618789670001,-88.040786743,0
			37.7697792050001,-88.0352401739999,0
			37.7805099500001,-88.0331115719999,0
			37.782901764,-88.032638549,0
			37.7881393440002,-88.0316009529999,0
			37.7919311520002,-88.030853271,0
			37.7950019840001,-88.0299911499999,0
			37.799030305,-88.0269927969999,0
			37.8016891470001,-88.02027893,0
			37.8019294740002,-88.0193481439999,0
			37.8028907780002,-88.01248932,0
			37.8012504590001,-88.0042724599999,0
			37.795970917,-87.9965209969999,0
			37.795059204,-87.9945678699999,0
			37.7935905450001,-87.991409302,0
			37.7877120970001,-87.978767395,0
			37.7836608900001,-87.9739761349999,0
			37.7751388550002,-87.9639282219999,0
			37.7743415830001,-87.9626693729999,0
			37.7736015310002,-87.960350037,0
			37.7730522150002,-87.957176208,0
			37.7730712890001,-87.955657959,0
			37.773281098,-87.9546508799999,0
			37.777511597,-87.947158814,0
			37.778160095,-87.9464416499999,0
			37.784111023,-87.941886902,0
			37.7914199830001,-87.9367980959999,0
			37.796920776,-87.931663513,0
			37.8089599610001,-87.9085769659999,0
			37.8103218090001,-87.908042908,0
			37.8199005130001,-87.905349732,0
			37.8209609980001,-87.905487061,0
			37.836021423,-87.909393311,0
			37.8457298280001,-87.9119186399999,0
			37.8502006530001,-87.9149780279998,0
			37.8706321730001,-87.9366378779999,0
			37.8775596620001,-87.9398727419999,0
			37.8802185070001,-87.9408569329998,0
			37.8814506520002,-87.9407196039999,0
			37.886798858,-87.9395294189999,0
			37.888858795,-87.938690185,0
			37.8920097350002,-87.9364166249999,0
			37.8966293340002,-87.9321899419999,0
			37.9006195080001,-87.9285430909998,0
			37.90209961,-87.92717743,0
			37.9076995850002,-87.9222106919999,0
			37.9122505180001,-87.9181671149999,0
			37.9191207900001,-87.910736084,0
			37.924301148,-87.905136109,0
			37.926929473,-87.9003295889999,0
			37.92786026,-87.898033142,0
			37.9283714310001,-87.893356323,0
			37.928260803,-87.8920516969999,0
			37.9261016850001,-87.8824386589999,0
			37.9190521240001,-87.8713760379999,0
			37.9177513130002,-87.869819642,0
			37.9109115600001,-87.8652572629999,0
			37.9058799740002,-87.862258911,0
			37.9042587280001,-87.8608169549999,0
			37.9028701780002,-87.859291076,0
			37.8993606570002,-87.8543014529999,0
			37.8960189820002,-87.84955597,0
			37.8955307020001,-87.848747252,0
			37.8916091930001,-87.8461074829999,0
			37.887409211,-87.8432769779999,0
			37.8810005190002,-87.836135864,0
			37.8800697330001,-87.8347167969999,0
			37.8793220520001,-87.8323974609999,0
			37.8763198850002,-87.818786621,0
			37.8761787420001,-87.817726136,0
			37.875820161,-87.799659729,0
			37.8759803780002,-87.792655944,0
			37.8762512210001,-87.790908814,0
			37.8792305000002,-87.781410217,0
			37.8801994330001,-87.7793197639999,0
			37.8852005000001,-87.7711868279998,0
			37.8858184820001,-87.7702713019999,0
			37.888511658,-87.765472412,0
			37.8907890320002,-87.7608261099999,0
			37.8912200930002,-87.7597274779999,0
			37.8931503300001,-87.7544708249999,0
			37.8925399790002,-87.736473084,0
			37.8925209060001,-87.735786439,0
			37.8920097350002,-87.7203674309998,0
			37.8920402530002,-87.7197494499999,0
			37.89245987,-87.717842103,0
			37.89630127,-87.70236206,0
			37.897289277,-87.7002716069999,0
			37.9015121470002,-87.690437317,0
			37.9029998770002,-87.6846466069999,0
			37.9020614630002,-87.6793670649998,0
			37.8984985360001,-87.6723098749999,0
			37.8962516780001,-87.6701431279999,0
			37.893371583,-87.6678695689999,0
			37.8870506290002,-87.6665191659999,0
			37.8822402960001,-87.6669006339999,0
			37.8722190870001,-87.6742630009999,0
			37.8655090330002,-87.6792984019999,0
			37.8572998050001,-87.681968689,0
			37.8464088450001,-87.6828231819999,0
			37.8338089,-87.6783676159998,0
			37.8269004830001,-87.6652297979999,0
			37.8264999400001,-87.6641769409999,0
			37.8252601620001,-87.6524963379999,0
			37.8254394530001,-87.6379013069999,0
			37.8302688590001,-87.620559692,0
			37.8354721080001,-87.610229493,0
			37.8364105220002,-87.6091384889999,0
			37.8405303950001,-87.6045303339999,0
			37.8581619260001,-87.5917129529999,0
			37.8598213190002,-87.5906677239998,0
			37.8666496280002,-87.587783814,0
			37.8673400880001,-87.5878067019999,0
			37.881160736,-87.5881958009999,0
			37.8822402960001,-87.5887908929999,0
			37.8856506340001,-87.5910491939999,0
			37.8901710510001,-87.593437194,0
			37.89245987,-87.596076965,0
			37.8986892700001,-87.6040725719999,0
			37.9060401920001,-87.6174774169999,0
			37.9127922060001,-87.623451233,0
			37.9134597770002,-87.623809814,0
			37.9235420220001,-87.6279067989999,0
			37.9308204660002,-87.626052857,0
			37.9315795910002,-87.6255722039999,0
			37.933139802,-87.6242675779999,0
			37.943721772,-87.612609864,0
			37.9481697090001,-87.6077041619999,0
			37.9494285580001,-87.6065826419999,0
			37.9501304630001,-87.606262207,0
			37.9625892640001,-87.603218079,0
			37.9702301020001,-87.601348877,0
			37.9707717900001,-87.6010589609999,0
			37.9735412600001,-87.594306947,0
			37.9731712350002,-87.59020996,0
			37.9660797130001,-87.5806579599999,0
			37.9539909360001,-87.5744705199999,0
			37.9395408640002,-87.5670776359999,0
			37.9335708620002,-87.561920167,0
			37.9279785150001,-87.5539169319999,0
			37.91704178,-87.5302658079999,0
			37.9124603280002,-87.5220718389999,0
			37.906970978,-87.5122070319999,0
			37.9067420970002,-87.5114364629999,0
			37.9067497250001,-87.510322571,0
			37.909549714,-87.5002288809999,0
			37.9100112910002,-87.4992294309999,0
			37.9150619500002,-87.491706849,0
			37.9210205090001,-87.483047486,0
			37.9279022220001,-87.4732208249999,0
			37.9288101190002,-87.471656799,0
			37.932949066,-87.4645309449999,0
			37.9384803770001,-87.4535064689999,0
			37.93939972,-87.451187133,0
			37.9416389470001,-87.44595337,0
			37.9445304880002,-87.4323730459999,0
			37.944309235,-87.419273377,0
			37.9442291260001,-87.4166183479999,0
			37.9391708370002,-87.3942871089999,0
			37.9375495910001,-87.389900208,0
			37.9349288930002,-87.3840332029999,0
			37.930900574,-87.375900268,0
			37.9258308420002,-87.3668289179999,0
			37.9127502440002,-87.343437194,0
			37.9110794080001,-87.3374404899999,0
			37.9094390860001,-87.331230164,0
			37.9045906070002,-87.320472718,0
			37.8979301450001,-87.305778504,0
			37.896678926,-87.302749634,0
			37.8956108100001,-87.3001632689999,0
			37.888889313,-87.2884063719999,0
			37.8812599180001,-87.2766723629999,0
			37.8754196170001,-87.2684478749999,0
			37.8731803900002,-87.2649230949999,0
			37.8670616150001,-87.2561264049999,0
			37.861122132,-87.247200012,0
			37.857460023,-87.241447449,0
			37.8536300660001,-87.2341690059999,0
			37.852569581,-87.2320480339999,0
			37.849399568,-87.2250366209999,0
			37.8486709590001,-87.2232818609999,0
			37.8432693480001,-87.2028198239998,0
			37.8415985100001,-87.181945801,0
			37.8410606390001,-87.1771774279999,0
			37.8406295770001,-87.1748886109999,0
			37.8386688230001,-87.167320251,0
			37.8246994030001,-87.1510467529999,0
			37.8156509410002,-87.145706176,0
			37.812679292,-87.1442871089999,0
			37.8072509780001,-87.1425018309999,0
			37.8018302910001,-87.1406631469999,0
			37.7964401240001,-87.1389923089999,0
			37.7879600540001,-87.1335830679998,0
			37.7873611460001,-87.1330108639999,0
			37.7853507990001,-87.1288223269999,0
			37.7851486220002,-87.1283187859999,0
			37.783519746,-87.1241378779999,0
			37.783290863,-87.1069869989999,0
			37.7834205630001,-87.106185914,0
			37.7852897640001,-87.097427368,0
			37.7889785770001,-87.0893707279999,0
			37.7917289730001,-87.0835494999999,0
			37.8014106740001,-87.07095337,0
			37.8082809460001,-87.065841676,0
			37.8252487190001,-87.0570373529999,0
			37.8288116460001,-87.0551986699999,0
			37.8596611030001,-87.046195983,0
			37.8679389960001,-87.043777467,0
			37.8743095400001,-87.0428314199999,0
			37.8814392090001,-87.0442581169999,0
			37.8901290890001,-87.045997619,0
			37.894680024,-87.044349671,0
			37.8977699290002,-87.042266846,0
			37.8997612000002,-87.040657043,0
			37.9048309330001,-87.0343017579999,0
			37.9109420770001,-87.026290893,0
			37.9161796570002,-87.016853333,0
			37.9202995300001,-87.006378174,0
			37.9249114990002,-86.9959182739999,0
			37.9289703370001,-86.9860076899999,0
			37.9303894050001,-86.9791488659999,0
			37.9328804020001,-86.967163087,0
			37.933620454,-86.96270752,0
			37.9340705880001,-86.956169129,0
			37.9346008300001,-86.944648742,0
			37.9349899290001,-86.936050414,0
			37.9406700140001,-86.9131622309999,0
			37.9408798220001,-86.912559508,0
			37.9485397340001,-86.901298523,0
			37.9584312440001,-86.8912963869998,0
			37.9678001410002,-86.8818130499999,0
			37.9848518370001,-86.8599472049999,0
			37.988780976,-86.8495635989999,0
			37.9902191160002,-86.84452057,0
			37.9929618830002,-86.8369369499999,0
			37.9956893930001,-86.831123352,0
			37.9975204460002,-86.8252792359999,0
			37.9984397890001,-86.8206100469999,0
			37.9939994810001,-86.807548523,0
			37.987361908,-86.796310426,0
			37.9609718330001,-86.783576964,0
			37.949619294,-86.7780990599999,0
			37.9423599240001,-86.7742691029999,0
			37.9327507010001,-86.7686309809999,0
			37.9151992810001,-86.7577209469999,0
			37.9043388370001,-86.746116639,0
			37.9032211300001,-86.744842529,0
			37.8927307130001,-86.731147767,0
			37.8924407970001,-86.7291564939999,0
			37.892139435,-86.725669861,0
			37.8931503300001,-86.7198562629999,0
			37.8939819340002,-86.7157516479999,0
			37.9090499880001,-86.689613341,0
			37.9117012020001,-86.684310913,0
			37.912540436,-86.681610108,0
			37.913269043,-86.6783523559998,0
			37.9133796690001,-86.6672668459999,0
			37.9086303710001,-86.654663086,0
			37.907260894,-86.653327941,0
			37.905818939,-86.6519775399999,0
			37.8981208810001,-86.6512832649998,0
			37.8821105960001,-86.657356262,0
			37.8585701000001,-86.6662979129999,0
			37.8555221570001,-86.6672668459999,0
			37.8497009270002,-86.6661071769999,0
			37.8451004040001,-86.6625823969999,0
			37.8444519040001,-86.661743165,0
			37.8414917000001,-86.656356812,0
			37.8401603700001,-86.6439666749999,0
			37.8429718020002,-86.634681702,0
			37.8505287180002,-86.61767578,0
			37.8511199960001,-86.6168670649999,0
			37.8601417540001,-86.604599,0
			37.861480714,-86.6031570429998,0
			37.8638610830001,-86.6015014649999,0
			37.8664093020002,-86.6000595099999,0
			37.8759422310001,-86.597869872,0
			37.8768501290001,-86.5979385379999,0
			37.8905601510001,-86.598999023,0
			37.9040298450001,-86.6000366209998,0
			37.910289764,-86.5984420789999,0
			37.9127120970001,-86.5973968499999,0
			37.9167900080001,-86.593231202,0
			37.9209709170001,-86.5816192629999,0
			37.9183807380001,-86.5517730719999,0
			37.918079376,-86.548316955,0
			37.9178009030002,-86.52848053,0
			37.9219818120002,-86.5162811289999,0
			37.9288520810001,-86.5082092279999,0
			37.9370193490001,-86.5059890739999,0
			37.93939972,-86.5065765389999,0
			37.9422111520001,-86.5075607299999,0
			37.947158814,-86.5105361939998,0
			37.9477005010002,-86.5109024039999,0
			37.9613914480001,-86.519737243,0
			37.9740409860001,-86.524589538,0
			37.996360779,-86.524887085,0
			37.998970032,-86.524932862,0
			38.0004501340001,-86.524780274,0
			38.0143890390001,-86.5233459469999,0
			38.0191192630002,-86.5228576669999,0
			38.02571869,-86.5221786499999,0
			38.0289115900001,-86.5218505849999,0
			38.0375709530001,-86.517890929,0
			38.0407905590002,-86.5141983039999,0
			38.0419311520001,-86.5122528079999,0
			38.0426902780001,-86.5104827869999,0
			38.0445098880002,-86.50328827,0
			38.0446510320001,-86.5017318719999,0
			38.0448608400001,-86.498771668,0
			38.0445899970001,-86.489326478,0
			38.0447196960001,-86.486495971,0
			38.0456810000001,-86.4665603639999,0
			38.0494194030001,-86.452583314,0
			38.0605087280002,-86.4391860959999,0
			38.0678520200001,-86.4337158199999,0
			38.0704689020001,-86.4321670529999,0
			38.072898866,-86.4315261849999,0
			38.077899933,-86.430976867,0
			38.0799789430001,-86.430976867,0
			38.0808601390002,-86.43121338,0
			38.0871887210001,-86.4343032849999,0
			38.0881500250001,-86.4350662229999,0
			38.090011598,-86.4368667599999,0
			38.0940399170001,-86.4420928949999,0
			38.0958595270001,-86.4479293829999,0
			38.0972213750001,-86.453186035,0
			38.0978012080001,-86.454193115,0
			38.1033592230001,-86.4610671989999,0
			38.1049308770001,-86.4625473029999,0
			38.1094589240001,-86.4643020629999,0
			38.1137008680002,-86.4630966189999,0
			38.1166801450001,-86.461921692,0
			38.1236915590001,-86.45350647,0
			38.124870301,-86.4514160169999,0
			38.1250686650001,-86.4498367299999,0
			38.1247787470001,-86.436798097,0
			38.1217498780001,-86.4297485339999,0
			38.113391876,-86.4179306029998,0
			38.1130790710002,-86.417488097,0
			38.108760834,-86.4113922109999,0
			38.1058921820002,-86.4059829709999,0
			38.104888917,-86.399711609,0
			38.104888917,-86.3987960809999,0
			38.1065406800002,-86.3961791989999,0
			38.109420777,-86.3935165409999,0
			38.1129989620001,-86.3911132809999,0
			38.1203994740001,-86.3871688839999,0
			38.1212501540001,-86.3865280159999,0
			38.1216011050001,-86.3859710699999,0
			38.1274909970002,-86.3765029909999,0
			38.12889862,-86.369361877,0
			38.1289901740001,-86.3560714719999,0
			38.129112245,-86.338935851,0
			38.133720398,-86.3278732299999,0
			38.1382789620001,-86.323249816,0
			38.146469116,-86.31981659,0
			38.1546707150002,-86.3238372809998,0
			38.1557998660001,-86.3258972169999,0
			38.1595001220002,-86.33518982,0
			38.16199112,-86.3495483409999,0
			38.162288667,-86.351303101,0
			38.1643104550002,-86.3629989609999,0
			38.164520264,-86.36366272,0
			38.1701316840002,-86.3715972889999,0
			38.1741905220001,-86.373992919,0
			38.1835289000001,-86.375198365,0
			38.1887207030002,-86.3734970079999,0
			38.189861297,-86.3729476919999,0
			38.195270538,-86.3680496229999,0
			38.1956710810001,-86.3673171989999,0
			38.1978721620002,-86.359046936,0
			38.195350647,-86.3501358029999,0
			38.1951293960001,-86.349693298,0
			38.1867713920001,-86.339576721,0
			38.1813888550001,-86.3330917349999,0
			38.180030823,-86.331359864,0
			38.1741218570002,-86.321876527,0
			38.168258667,-86.3077468869999,0
			38.1652717590001,-86.3005371089999,0
			38.1632308960001,-86.296287537,0
			38.1601409910002,-86.2922973629999,0
			38.1514091500001,-86.282371521,0
			38.149639129,-86.2804794319999,0
			38.143161773,-86.275817871,0
			38.13407898,-86.2728805529999,0
			38.109039307,-86.278816224,0
			38.0984001160001,-86.2811965949999,0
			38.0886917110001,-86.2812576289999,0
			38.072410583,-86.2776031499999,0
			38.0693817140001,-86.2766723629999,0
			38.0630302430002,-86.2731933599999,0
			38.0624504090002,-86.272766113,0
			38.051380158,-86.260261535,0
			38.0503120420001,-86.2586059569999,0
			38.0480690000001,-86.2547759999999,0
			38.0386810300002,-86.2350616459999,0
			38.0213699340001,-86.206726074,0
			38.0207405090002,-86.205535888,0
			38.0108985900001,-86.178115845,0
			38.0095100400001,-86.170227051,0
			38.009300233,-86.1682128909999,0
			38.010250092,-86.162948609,0
			38.0114898680001,-86.1570892329999,0
			38.0133705140001,-86.148033143,0
			38.0151405340002,-86.131919861,0
			38.0155296330001,-86.126701356,0
			38.0153617870001,-86.1235504159999,0
			38.0139808650001,-86.1109771719999,0
			38.0079002380001,-86.093330382,0
			38.0077209470001,-86.0928115849999,0
			37.998710632,-86.0810623169999,0
			37.9725112920001,-86.0639266969999,0
			37.9649391170001,-86.0569610599999,0
			37.9586105350001,-86.0464401249999,0
			37.9604415890001,-86.0399627689999,0
			37.9631118790001,-86.0369873049999,0
			37.9664993300001,-86.0352630609999,0
			37.9732818600002,-86.035316466,0
			37.9845504760001,-86.0353927619999,0
			37.9853096010002,-86.035171509,0
			37.9864120480001,-86.0343475329999,0
			37.9912910470001,-86.0296325679999,0
			37.9958419800002,-86.0144577039999,0
			37.9982299820001,-85.998130799,0
			37.9983787540001,-85.9966964719999,0
			38.0026817330001,-85.9673080439999,0
			38.0028915400001,-85.965881348,0
			38.0042305000001,-85.956703185,0
			38.0065193180001,-85.948532105,0
			38.0076484680001,-85.944252014,0
			38.0089302060001,-85.9398193359999,0
			38.0103302010002,-85.938217164,0
			38.0256500240001,-85.9223632809999,0
			38.0320091250001,-85.9194717399999,0
			38.0557289140001,-85.9144363399999,0
			38.0599288930001,-85.91355133,0
			38.0641021740001,-85.912506104,0
			38.0717697150001,-85.9100265499999,0
			38.0824699400001,-85.906318664,0
			38.0925903310001,-85.9028472889999,0
			38.1063995360001,-85.9023513799999,0
			38.114818573,-85.9032058709999,0
			38.1428298950001,-85.9060440059999,0
			38.1675796500001,-85.904441834,0
			38.1769790650001,-85.899551392,0
			38.1785812380001,-85.8987197879999,0
			38.179809571,-85.8980331429999,0
			38.188220977,-85.891059876,0
			38.1979789740001,-85.8828964239999,0
			38.1983985890001,-85.8824081409999,0
			38.2131118780001,-85.8619461069999,0
			38.2202796940001,-85.8519668569999,0
			38.2266807570001,-85.8455963139999,0
			38.238689422,-85.8390884409999,0
			38.2521018980001,-85.836082458,0
			38.2662086490001,-85.8328475959999,0
			38.2743186940002,-85.8282318119999,0
			38.280281066,-85.821670532,0
			38.282131195,-85.8167190549999,0
			38.2834014900001,-85.8116760259999,0
			38.2847290040002,-85.8057861329999,0
			38.2855987550001,-85.7993392939999,0
			38.2869186400001,-85.792877198,0
			38.2873687750002,-85.792289733,0
			38.2882499700002,-85.7887573249999,0
			38.2886695870001,-85.7828903199999,0
			38.287738801,-85.7776260379999,0
			38.2863502500002,-85.773536682,0
			38.2826919560002,-85.767707824,0
			38.2776985170001,-85.7636718749999,0
			38.271308898,-85.756118773,0
			38.2689590460001,-85.7448196409999,0
			38.2689399720001,-85.7432327269999,0
			38.269260407,-85.7412872309999,0
			38.272109986,-85.7327728269999,0
			38.2729492200002,-85.7308731079999,0
			38.2750015260002,-85.7259063719999,0
			38.283699036,-85.706741332,0
			38.2877197270001,-85.6978912349999,0
			38.290390015,-85.6920013439999,0
			38.290729523,-85.6913299569998,0
			38.3036384580001,-85.6735458369999,0
			38.3251800550001,-85.653633118,0
			38.3277206420001,-85.6516876219999,0
			38.3307495110002,-85.64981842,0
			38.353988648,-85.6384582519999,0
			38.3743095400001,-85.637077332,0
			38.3793792720001,-85.636741639,0
			38.3801689140001,-85.636520386,0
			38.3938789370002,-85.6326522829999,0
			38.422489167,-85.619262695,0
			38.434242248,-85.6098175049999,0
			38.4442214960001,-85.598075867,0
			38.451068879,-85.5820388789999,0
			38.4514007570002,-85.580917358,0
			38.4527397150001,-85.5742263799999,0
			38.4537620550001,-85.568717957,0
			38.4565620420001,-85.533470155,0
			38.4567909250001,-85.532371521,0
			38.464260102,-85.5052719109999,0
			38.4645195020001,-85.5047073369998,0
			38.46736908,-85.4999618529999,0
			38.4747886660001,-85.4908523559999,0
			38.4760704030001,-85.4894866939999,0
			38.4767608650001,-85.4889297479999,0
			38.499172211,-85.475891114,0
			38.5022697460001,-85.4740905749999,0
			38.508609773,-85.4689483639999,0
			38.509429931,-85.467857361,0
			38.5101890570001,-85.466339112,0
			38.515941619,-85.4503402719999,0
			38.518371583,-85.4435729979999,0
			38.519180298,-85.441841126,0
			38.5204505930001,-85.4392089849999,0
			38.524009705,-85.4329071049999,0
			38.5312614440001,-85.4234771729999,0
			38.5413208010001,-85.4169921869998,0
			38.551189423,-85.4151458729999,0
			38.5538520810001,-85.414855957,0
			38.5620002750001,-85.4153366089999,0
			38.568870544,-85.4175567629999,0
			38.5774993910002,-85.4227371209999,0
			38.5833702090001,-85.426246643,0
			38.5861396790001,-85.4279174809999,0
			38.5871620190001,-85.4286575309999,0
			38.596981049,-85.4346084599998,0
			38.6114807130002,-85.437561036,0
			38.621570586,-85.4374084459999,0
			38.6458816530001,-85.4370880129999,0
			38.656349183,-85.4369506839999,0
			38.6673812880001,-85.4420928959998,0
			38.6680793760001,-85.442489624,0
			38.6797409070001,-85.450668335,0
			38.6802597040002,-85.451026917,0
			38.6847190850001,-85.4535903919999,0
			38.6885910040001,-85.4543762209999,0
			38.6967010490001,-85.4551467899999,0
			38.7030105600002,-85.453918457,0
			38.7040290830001,-85.4533081059999,0
			38.7242813120001,-85.4397583009999,0
			38.7255592340001,-85.438217164,0
			38.728870392,-85.433898927,0
			38.7356605530001,-85.4167861949999,0
			38.7356796260001,-85.416030884,0
			38.7360992430001,-85.404396057,0
			38.7344207770001,-85.3952407829999,0
			38.7318115240002,-85.3810501099999,0
			38.7315597530001,-85.3796157829999,0
			38.7305908200001,-85.3607482909999,0
			38.7346611030001,-85.3358459469999,0
			38.735118867,-85.3330230719999,0
			38.7382087720001,-85.3206024179999,0
			38.7383308420001,-85.3200759879999,0
			38.740509034,-85.298782348,0
			38.7402915970001,-85.2852325429999,0
			38.7400703440002,-85.2818832409999,0
			38.7377204890001,-85.262809754,0
			38.7325706480001,-85.25113678,0
			38.73223877,-85.250457763,0
			38.727649689,-85.245330811,0
			38.7208595290001,-85.2394714359999,0
			38.7113113410002,-85.231697082,0
			38.6963386550001,-85.214981079,0
			38.69549942,-85.213989257,0
			38.6911087050001,-85.2023468009999,0
			38.690040589,-85.2023468009999,0
			38.6886596680001,-85.195869445,0
			38.6877899170001,-85.1776733399999,0
			38.687938691,-85.174667359,0
			38.6883201590002,-85.1717071529999,0
			38.6897315980002,-85.164237976,0
			38.6905097970001,-85.1610565189999,0
			38.6931304940002,-85.15335083,0
			38.6957511900001,-85.1462020879999,0
			38.7029609680001,-85.1326065059999,0
			38.705280304,-85.129325867,0
			38.715332032,-85.1151580809999,0
			38.7258987430001,-85.100250245,0
			38.726879121,-85.0988693249998,0
			38.7408409120001,-85.0728301999999,0
			38.7411804210001,-85.0718383779999,0
			38.7445793150001,-85.0619659429999,0
			38.7466621400001,-85.0559463509999,0
			38.7477607720002,-85.053207398,0
			38.7485313430001,-85.0514907849999,0
			38.7628707900002,-85.0243072509999,0
			38.7623291020001,-85.023902892,0
			38.7645912180001,-85.0192260749999,0
			38.769939423,-85.0103530869999,0
			38.7718696590002,-85.0065383909999,0
			38.777698517,-84.9923324579999,0
			38.7790222170001,-84.9758529659999,0
			38.7779502870001,-84.9663162239999,0
			38.776161195,-84.9504394519999,0
			38.7772293100002,-84.9383010859999,0
			38.7776107780001,-84.93572998,0
			38.7781486510002,-84.933776856,0
			38.7841987620001,-84.9172515869999,0
			38.7877807620001,-84.9074630729999,0
			38.7894287120001,-84.9024124139999,0
			38.7911796570001,-84.897651673,0
			38.7914886480002,-84.896347045,0
			38.7930717470001,-84.8830108649999,0
			38.79114151,-84.865776062,0
			38.7902107240001,-84.8576431269999,0
			38.7872314460001,-84.8454284669999,0
			38.7868804930002,-84.8440170279999,0
			38.7844505310002,-84.834068299,0
			38.7839508050001,-84.831100465,0
			38.7837295530001,-84.82875824,0
			38.7836990360001,-84.8234863279999,0
			38.78384018,-84.8222427369999,0
			38.7844009410002,-84.8207015999999,0
			38.7868804930002,-84.8152008049999,0
			38.7914085400001,-84.812690735,0
			38.8004112240001,-84.8132705689999,0
			38.8212013260001,-84.8279418949999,0
			38.8275108340001,-84.829940796,0
			38.8283500680001,-84.830047608,0
			38.8291320800001,-84.829696654,0
			38.8333206180001,-84.827606201,0
			38.835731507,-84.8256530769999,0
			38.8465919500001,-84.8151473999999,0
			38.847610473,-84.8134460449999,0
			38.8514709470001,-84.8064727779999,0
			38.8587303170001,-84.793357849,0
			38.8591308600001,-84.792999267,0
			38.8668899540002,-84.788398742,0
			38.8823013310001,-84.78766632,0
			38.8853492740001,-84.789230346,0
			38.8860511770001,-84.7895889279999,0
			38.889030457,-84.7914428719999,0
			38.8918190000001,-84.796112061,0
			38.892570495,-84.7981491089998,0
			38.8997116100001,-84.8212127689999,0
			38.9012794500002,-84.8556060789999,0
			38.9017486580001,-84.8603363029999,0
			38.9031791690001,-84.8650207519999,0
			38.9100494390001,-84.873802186,0
			38.9146308910001,-84.8766860959999,0
			38.9187393190002,-84.877716064,0
			38.9196090700001,-84.8775482169999,0
			38.9256896970001,-84.874847412,0
			38.9268608090002,-84.8739624029999,0
			38.9299392710001,-84.870941162,0
			38.9371185300001,-84.8624801629999,0
			38.941181183,-84.8576965339999,0
			38.941669464,-84.857109069,0
			38.9560394290002,-84.840179443,0
			38.9607391370002,-84.83467102,0
			38.9643898010001,-84.832290649,0
			38.9664306640001,-84.831947327,0
			38.9741096510002,-84.8323516839999,0
			38.9860496530001,-84.835998535,0
			38.9871101380002,-84.836502076,0
			38.9886817940002,-84.837409973,0
			38.9999389660001,-84.845672608,0
			39.0086021420001,-84.8520431509999,0
			39.0159301760002,-84.8574295039999,0
			39.0333595270001,-84.8751831059999,0
			39.0340919490001,-84.8759231579999,0
			39.0405807500001,-84.882537843,0
			39.045970916,-84.888023377,0
			39.0539894110001,-84.893119811,0
			39.0555686950001,-84.893020629,0
			39.0603713980001,-84.8922271719999,0
			39.0617218010001,-84.8917007449999,0
			39.0633888250002,-84.890281678,0
			39.065040589,-84.888412476,0
			39.0754699710002,-84.8674697869999,0
			39.0807495130001,-84.8568572999999,0
			39.0983009330001,-84.8341827389999,0
			39.1061592110001,-84.8204574589999,0
			39.1066894530001,-84.819534301,0
			39.1068687440001,-84.819068909,0
			39.1100120540002,-84.8029861449999,0
			39.1166114810001,-84.784828187,0
			39.1171188350001,-84.7838058469999,0
			39.1188888550002,-84.7809524529999,0
			39.1220092770001,-84.7764282229999,0
			39.1268386850002,-84.7722396849999,0
			39.1328086850002,-84.767066955,0
			39.1413993850001,-84.7596282959999,0
			39.145751954,-84.7520523059999,0
			39.1461410520001,-84.7506103509999,0
			39.1472320560001,-84.7453231809999,0
			39.1470909120001,-84.744583131,0
			39.14604187,-84.739028931,0
			39.144050599,-84.7338867189999,0
			39.1421089180002,-84.7295684819999,0
			39.1390609750002,-84.7239761349999,0
			39.1346206670001,-84.7185058589999,0
			39.1297302250002,-84.713020324,0
			39.1203689570001,-84.704429627,0
			39.1096611030002,-84.6946182249999,0
			39.1081504820002,-84.6931076039999,0
			39.1029701240001,-84.687889099,0
			39.1012191770001,-84.6847763059999,0
			39.0992393490001,-84.680633544,0
			39.0981712340001,-84.6776733399999,0
			39.0969314590001,-84.6705093379999,0
			39.096099855,-84.66634369,0
			39.0943908700002,-84.6603469839999,0
			39.0923118600001,-84.6551666259999,0
			39.0842094430001,-84.6440658559999,0
			39.0799217220001,-84.638122559,0
			39.0735511780002,-84.6236877429999,0
			39.072502136,-84.61593628,0
			39.0736312870001,-84.599693299,0
			39.0749588020001,-84.595336915,0
			39.0794792180002,-84.5794830319999,0
			39.0828094490001,-84.5705032339999,0
			39.0852394110001,-84.5640029909999,0
			39.0932502740001,-84.5552368159999,0
			39.0951309220001,-84.553192138,0
			39.0982399000001,-84.5448532109999,0
			39.0950317390001,-84.5329589839999,0
			39.0914497370001,-84.5196762089999,0
			39.09128952,-84.5185470589998,0
			39.093799592,-84.5051727299999,0
			39.0974121090001,-84.4980163569999,0
			39.0984992970002,-84.4962081899999,0
			39.0993194580001,-84.4951782219999,0
			39.1071891790001,-84.487022399,0
			39.1162796030001,-84.4775924679999,0
			39.1183815010002,-84.4738464349999,0
			39.1202201850001,-84.4701232899999,0
			39.1209602350002,-84.466560363,0
			39.1216201780001,-84.4626922609999,0
			39.1215095530001,-84.462165832,0
			39.1199989320001,-84.4552764889999,0
			39.1191291810002,-84.4535369879999,0
			39.1096305840001,-84.440330506,0
			39.1036987310001,-84.4368591309999,0
			39.0937500000001,-84.434410096,0
			39.0922203060001,-84.434371947,0
			39.0858802810002,-84.4341583249999,0
			39.0718193050001,-84.434356689,0
			39.0695495610001,-84.4343872079999,0
			39.0636901860001,-84.4324264529999,0
			39.0622100840001,-84.431579589,0
			39.0532913210001,-84.4251632679999,0
			39.0459518430002,-84.40764618,0
			39.045188904,-84.3975677499999,0
			39.044528961,-84.381546021,0
			39.0441398620001,-84.3782882689999,0
			39.0395088200001,-84.354270936,0
			39.0331001280001,-84.337158204,0
			39.0285491940001,-84.3284072869999,0
			39.022331238,-84.319366455,0
			39.01517105,-84.312683105,0
			39.0010604860001,-84.303726195,0
			38.9995498660002,-84.302871705,0
			38.9845504750002,-84.2986373889999,0
			38.9814109810001,-84.297767639,0
			38.9700698860001,-84.296768189,0
			38.957778931,-84.291046143,0
			38.9248390200001,-84.2624511709999,0
			38.9144592280002,-84.2534332279998,0
			38.8980903630002,-84.2408905029999,0
			38.8946990970001,-84.2382965089998,0
			38.8792305000002,-84.232658387,0
			38.8737907400002,-84.232696534,0
			38.8708114630002,-84.232803344,0
			38.8393592840001,-84.233932495,0
			38.8292503360001,-84.231185913,0
			38.8270797740001,-84.2305984509999,0
			38.8234519960002,-84.2294769279998,0
			38.816040039,-84.2256622319999,0
			38.8147392280001,-84.2243576059999,0
			38.809730531,-84.218513489,0
			38.8032722480001,-84.2059707639999,0
			38.8027114870001,-84.20465088,0
			38.797389985,-84.179885865,0
			38.7966003430001,-84.1762161249999,0
			38.7936286940001,-84.1532363889999,0
			38.7844314580001,-84.119720458,0
			38.7728385920001,-84.0774765009999,0
			38.7725486760002,-84.052818298,0
			38.7726211540001,-84.0486907969999,0
			38.7730102550001,-84.0460586539999,0
			38.7785301210001,-84.0187072749999,0
			38.7814102180001,-83.9939727779999,0
			38.7852706920001,-83.9786529549999,0
			38.7862701410001,-83.9692764279998,0
			38.786361695,-83.9684371939999,0
			38.7872619630001,-83.959709167,0
			38.7830009460001,-83.9426879869999,0
			38.781082153,-83.9392776499999,0
			38.772769929,-83.924713135,0
			38.7675094600001,-83.904647827,0
			38.7662010190001,-83.8968658449999,0
			38.7630615240001,-83.8782272339999,0
			38.7628097540001,-83.8767395019999,0
			38.7615814220001,-83.8702163689999,0
			38.761100769,-83.868576049,0
			38.757450104,-83.8599014279999,0
			38.756278991,-83.857719421,0
			38.7555389410001,-83.8569030769999,0
			38.7447319030001,-83.8483657849999,0
			38.7441406250001,-83.8480529779999,0
			38.7396888740002,-83.8465957639999,0
			38.7364387510002,-83.84564209,0
			38.7244186410002,-83.842102051,0
			38.722011566,-83.8411560069999,0
			38.7175102240001,-83.8369369519999,0
			38.7098007210002,-83.82334137,0
			38.7060813910001,-83.8084259029999,0
			38.7026786820001,-83.7945861819999,0
			38.6989288340001,-83.788803101,0
			38.689868927,-83.7834167489999,0
			38.688179017,-83.78276062,0
			38.6857604990001,-83.7817916879999,0
			38.6719017020001,-83.777786255,0
			38.6637802120002,-83.775260924,0
			38.6624603270001,-83.7743759149999,0
			38.6548690790002,-83.7683486929999,0
			38.6538887030002,-83.7674331669999,0
			38.650341034,-83.7596969599999,0
			38.6493797300001,-83.7546615589999,0
			38.6466293330001,-83.732353211,0
			38.644939424,-83.7181472779999,0
			38.6387214670001,-83.70527649,0
			38.6336708080001,-83.6948623669999,0
			38.6262893670001,-83.6678085319999,0
			38.6258888240001,-83.6650161729999,0
			38.6263198860001,-83.6573333729999,0
			38.6304512020001,-83.6487960809999,0
			38.6356315620001,-83.6429672249999,0
			38.6360816960001,-83.6422119139999,0
			38.641151429,-83.6394195559999,0
			38.6433601370002,-83.6381988519999,0
			38.6484718320001,-83.6375808719999,0
			38.651981354,-83.6371459969998,0
			38.6610603340002,-83.6361160289999,0
			38.6683692940001,-83.633369445,0
			38.671539308,-83.6311416629999,0
			38.6761894230001,-83.6277770999999,0
			38.6811294550001,-83.621688843,0
			38.6845588680001,-83.6116561879999,0
			38.6871490490001,-83.5976028439999,0
			38.6900215160001,-83.58203888,0
			38.690238954,-83.5811080939999,0
			38.6971015930002,-83.5547103889999,0
			38.7011108410001,-83.5392761229999,0
			38.7024993910001,-83.522621155,0
			38.7024116520002,-83.5205917359999,0
			38.7021903990001,-83.519126892,0
			38.6982612620001,-83.502792359,0
			38.694999695,-83.4969787589999,0
			38.6847419740001,-83.4795761109999,0
			38.67457962,-83.4680633539999,0
			38.6725120560002,-83.4633178719999,0
			38.671279908,-83.4604873659999,0
			38.6695098880001,-83.4448318479999,0
			38.6694297790002,-83.444099426,0
			38.6642608640001,-83.3984527599999,0
			38.6630821240001,-83.3903808589999,0
			38.6608886710001,-83.3797531129999,0
			38.658809661,-83.370071412,0
			38.655090332,-83.3607406619999,0
			38.639221191,-83.3309860229999,0
			38.6385993960002,-83.3300399789999,0
			38.6309013360001,-83.325508117,0
			38.6156997690001,-83.3211364739999,0
			38.6085586540001,-83.319137573,0
			38.603340149,-83.3142471309999,0
			38.5992012030001,-83.307189941,0
			38.5963706980001,-83.295906067,0
			38.5998420730002,-83.2869567869999,0
			38.6078987130001,-83.2775192259999,0
			38.611289979,-83.273727418,0
			38.61631012,-83.2678985599999,0
			38.619049073,-83.264976502,0
			38.6231803890001,-83.2561798099998,0
			38.6277694710002,-83.2468032839999,0
			38.6278114310001,-83.2397308349999,0
			38.626998901,-83.2336578369999,0
			38.626930237,-83.2331161499999,0
			38.6206893920001,-83.218482971,0
			38.6171493540002,-83.210159301,0
			38.615989685,-83.2034072879999,0
			38.615520478,-83.1981124869999,0
			38.615470886,-83.19695282,0
			38.6155700680001,-83.1956405639999,0
			38.6187706000002,-83.1666183459999,0
			38.6201896670001,-83.1537933349999,0
			38.6206016530001,-83.151901244,0
			38.6217803960002,-83.1491775509999,0
			38.62794876,-83.1388397219998,0
			38.634300233,-83.132575989,0
			38.6357116710001,-83.1313781749999,0
			38.6501884470001,-83.124443055,0
			38.6566009530001,-83.1213760379999,0
			38.670162201,-83.1116104129999,0
			38.6707687390001,-83.110946655,0
			38.6766090400001,-83.1006774909999,0
			38.6775093080001,-83.098228454,0
			38.6834220890001,-83.0822906499999,0
			38.683872223,-83.0810775749999,0
			38.6925392140001,-83.0576934819999,0
			38.6996192930001,-83.0485687249999,0
			38.7004699710002,-83.047737121,0
			38.7190094000002,-83.035957336,0
			38.7237205500001,-83.029510499,0
			38.729629517,-83.0136718739999,0
			38.729579925,-83.012176514,0
			38.7271995560001,-82.9941406239998,0
			38.7249221790001,-82.976951599,0
			38.727279662,-82.968399048,0
			38.727951051,-82.966461182,0
			38.7301521290001,-82.9623031619998,0
			38.7393913270002,-82.946296692,0
			38.7411804210001,-82.9429473879999,0
			38.7420692450001,-82.940948486,0
			38.747440339,-82.9254074099999,0
			38.7544403070002,-82.8934478759999,0
			38.7530784610001,-82.886901856,0
			38.752262115,-82.8840103159999,0
			38.750549317,-82.8813858029999,0
			38.7483215330001,-82.8784561159999,0
			38.7459411620001,-82.8757171619999,0
			38.744491576,-82.8745803839999,0
			38.7350311280001,-82.8698501599999,0
			38.7294807430002,-82.8694000239999,0
			38.71844101,-82.872833252,0
			38.7173805230001,-82.873146057,0
			38.7101097100001,-82.8753967289999,0
			38.692409516,-82.878242493,0
			38.6911392210002,-82.8784484849999,0
			38.6861114500001,-82.8759994499999,0
			38.6842498780001,-82.874916077,0
			38.6788711560002,-82.8709716799999,0
			38.6657485960001,-82.8613739019999,0
			38.6607704160002,-82.8599472059999,0
			38.6557922370001,-82.8587493899998,0
			38.647640228,-82.8581161499999,0
			38.639030457,-82.8580932609999,0
			38.629508973,-82.857437133,0
			38.619998932,-82.8568115239999,0
			38.6154594420001,-82.8560562129999,0
			38.612751008,-82.8555984499999,0
			38.6119308470001,-82.8553771969999,0
			38.5940589900001,-82.8474731439999,0
			38.593502046,-82.847137451,0
			38.5838317880002,-82.837753296,0
			38.579349518,-82.8306732189999,0
			38.5743103040002,-82.8230361939999,0
			38.5707092280001,-82.8153686519999,0
			38.570980073,-82.8146133419999,0
			38.5618209840001,-82.7927932739998,0
			38.5607986460001,-82.789428711,0
			38.5590095520002,-82.780586242,0
			38.5590591440001,-82.766456605,0
			38.5592803950001,-82.7460861199999,0
			38.55934906,-82.740097045,0
			38.5580902090001,-82.724258423,0
			38.5558815010001,-82.720169068,0
			38.555110932,-82.71875763,0
			38.55052948,-82.7117233279999,0
			38.5464706420001,-82.7034683229999,0
			38.542400361,-82.695808412,0
			38.5403785710001,-82.693656921,0
			38.5304603570002,-82.685287476,0
			38.5280494690002,-82.6837997439999,0
			38.5134391790001,-82.674758911,0
			38.5055198680001,-82.6656494139999,0
			38.4988899230001,-82.6593933099999,0
			38.4975318910001,-82.6581115729999,0
			38.4911804210001,-82.65207672,0
			38.4858207700001,-82.642745973,0
			38.4817504890001,-82.6327362059999,0
			38.4781417850001,-82.6233291629999,0
			38.4753685000001,-82.616836549,0
			38.4718208320002,-82.6115264899999,0
			38.4602012640001,-82.604553223,0
			38.4505195610001,-82.6026611319999,0
			38.432331086,-82.5991210939999,0
			38.4210395820001,-82.5937805179999,0
			38.418590545,-82.5927886969999,0
			38.4158515940002,-82.5930786129999,0
			38.4145202640001,-82.5932998659999,0
			38.4095420830001,-82.5941467279999,0
			38.4012298590002,-82.5924377429999,0
			38.4000091560001,-82.5926971429999,0
			38.3978996280001,-82.5935287469999,0
			38.3966598520001,-82.5943527229999,0
			38.3935813900002,-82.596359252,0
			38.3881797800001,-82.5948333749999,0
			38.3791122450002,-82.591827392,0
			38.368721008,-82.5933761589999,0
			38.3524513250001,-82.5958328249998,0
			38.3460693360001,-82.594306946,0
			38.342491151,-82.5900878899999,0
			38.3363189700001,-82.5828018189999,0
			38.3327522280001,-82.5785903939999,0
			38.330150605,-82.575622558,0
			38.3230705260002,-82.572425843,0
			38.3156089790002,-82.5715332029999,0
			38.3106002820001,-82.5734481809998,0
			38.2974014280001,-82.5791473379999,0
			38.2888908390001,-82.578475951,0
			38.287879945,-82.578186035,0
			38.2833709710001,-82.5768661509999,0
			38.272109986,-82.573196411,0
			38.2594184880001,-82.573699952,0
			38.2507591250001,-82.5780105589999,0
			38.249710083,-82.5790710439999,0
			38.2470016490001,-82.582389832,0
			38.246528625,-82.5830383299999,0
			38.2447891230001,-82.587799073,0
			38.2443695060002,-82.58895874,0
			38.2438201900002,-82.6042175299999,0
			38.2375907910002,-82.609146118,0
			38.233699798,-82.6096420289999,0
			38.2309913640001,-82.609596252,0
			38.22739029,-82.608299256,0
			38.2259712210001,-82.6066894529999,0
			38.2240791320002,-82.6039428719999,0
			38.2201004030001,-82.5981216439999,0
			38.2164001470001,-82.5953369139999,0
			38.209159851,-82.5956268299999,0
			38.2082901000001,-82.5959167479999,0
			38.1995811470001,-82.598846436,0
			38.1893997200002,-82.602287292,0
			38.1825790400001,-82.60495758,0
			38.1775589000001,-82.606529236,0
			38.1768608100001,-82.6069488529999,0
			38.1727790840002,-82.610527038,0
			38.1702194210001,-82.6170730599999,0
			38.170238495,-82.618286132,0
			38.170589446,-82.6338119509999,0
			38.1689186100002,-82.6393661499999,0
			38.163059235,-82.6407775879999,0
			38.1570205700002,-82.6380691539999,0
			38.1534385680001,-82.636466981,0
			38.1480102530001,-82.6366806039999,0
			38.1407394420001,-82.636962892,0
			38.1401786810001,-82.636817932,0
			38.1392517100001,-82.6352233879999,0
			38.1368598930002,-82.6281204219999,0
			38.1349792480001,-82.6225509639999,0
			38.1286315920001,-82.6192092899999,0
			38.1225814820001,-82.616012573,0
			38.121269227,-82.609832763,0
			38.1192321770002,-82.6002273559999,0
			38.1190109260001,-82.5991821289999,0
			38.1110496530001,-82.5899429309999,0
			38.1081390370002,-82.5870971679999,0
			38.1069107050002,-82.5862579339999,0
			38.104358673,-82.5853729239999,0
			38.103710175,-82.5851516719999,0
			38.100028992,-82.585083008,0
			38.0945587160002,-82.584953307,0
			38.090999604,-82.5829925529999,0
			38.0891609200002,-82.58065033,0
			38.085330963,-82.575012207,0
			38.0843887340002,-82.573638917,0
			38.0823707570001,-82.5649414069999,0
			38.0817985530002,-82.564453124,0
			38.0810317990001,-82.563796996,0
			38.0747184760001,-82.558425904,0
			38.0743103020001,-82.557357789,0
			38.0725593570001,-82.5513687129999,0
			38.071762085,-82.5495223999999,0
			38.067668916,-82.548927307,0
			38.065429688,-82.5481872569999,0
			38.0645103450001,-82.547752381,0
			38.0577888500002,-82.542579651,0
			38.05393982,-82.5422439579999,0
			38.0527992240002,-82.542137146,0
			38.0467605590001,-82.53779602,0
			38.0458793650001,-82.53716278,0
			38.0416908260001,-82.5362472529999,0
			38.0344886780001,-82.5346984869999,0
			38.03384018,-82.534027099,0
			38.0299491880002,-82.5300369259999,0
			38.025409698,-82.525382996,0
			38.0201492310001,-82.5244064329999,0
			38.016029358,-82.523826598,0
			38.0093917850002,-82.517906188,0
			38.0081214900001,-82.5167160019999,0
			38.0071487420001,-82.5163726809999,0
			38.0059700020001,-82.5168304449999,0
			38.0028305050001,-82.519065857,0
			38.0014305120002,-82.517906188,0
			38.0020217900001,-82.509666442,0
			38.0021095290002,-82.508537292,0
			37.9992294310001,-82.5004501349999,0
			37.9989585880001,-82.4997024529999,0
			37.9981307990001,-82.4976272579999,0
			37.9975700380002,-82.4900665279999,0
			37.9944915770001,-82.4857559209998,0
			37.9914588920001,-82.485450745,0
			37.9896507270001,-82.4853897089999,0
			37.9887390140001,-82.485359193,0
			37.986068727,-82.4834671019999,0
			37.9863815320001,-82.4763107289999,0
			37.986549377,-82.4724731439999,0
			37.986331939,-82.470092773,0
			37.98582077,-82.4686813359999,0
			37.9828605640001,-82.4639282229999,0
			37.9823799140001,-82.463531495,0
			37.9806518560001,-82.463478088,0
			37.9791793820002,-82.463729859,0
			37.9782791140001,-82.463882446,0
			37.9770889290001,-82.4654159559999,0
			37.976581573,-82.4663391119999,0
			37.9739608770001,-82.4766387939998,0
			37.973270417,-82.479316712,0
			37.9697303770002,-82.482971191,0
			37.964660644,-82.482063293,0
			37.9608993530001,-82.473991395,0
			37.9570617680001,-82.4714508059999,0
			37.9561500550001,-82.472061157,0
			37.9503593440002,-82.480010987,0
			37.9475402840001,-82.483879089,0
			37.945590973,-82.4904174799999,0
			37.9442787160001,-82.495376587,0
			37.943359376,-82.495506286,0
			37.9427185060002,-82.4954910279999,0
			37.9407691970001,-82.4912872309999,0
			37.9405288700002,-82.490768434,0
			37.9377784740001,-82.4895706179999,0
			37.9364204410002,-82.4908065799999,0
			37.936149598,-82.4947967529999,0
			37.9358100890001,-82.500022888,0
			37.9353713990002,-82.5010833749999,0
			37.9316406240002,-82.5014572149998,0
			37.9291801460001,-82.49559021,0
			37.928329469,-82.493400574,0
			37.9274101260001,-82.4845428469999,0
			37.9271011360001,-82.4815368659999,0
			37.9265708920001,-82.481170654,0
			37.92263031,-82.4808273309999,0
			37.9181785580001,-82.4874496459999,0
			37.9168701170001,-82.4858703619999,0
			37.916671753,-82.4846801759999,0
			37.9161987310001,-82.481750489,0
			37.9161186220002,-82.478736877,0
			37.9133415220001,-82.4747467029999,0
			37.9062309260001,-82.474189759,0
			37.904640199,-82.474067689,0
			37.9037208560001,-82.4737472539999,0
			37.9033317570001,-82.471618652,0
			37.9033393860001,-82.4710082999999,0
			37.9042091360001,-82.470207215,0
			37.9056320200001,-82.4696121219999,0
			37.9092788690001,-82.4686813359999,0
			37.9111213680001,-82.468215942,0
			37.9131507880001,-82.467697143,0
			37.9139404300001,-82.4636611939999,0
			37.9121589660001,-82.4623260509999,0
			37.9103507990002,-82.4605483999999,0
			37.9099388120001,-82.45878601,0
			37.9095306400001,-82.456436157,0
			37.9091300970001,-82.45350647,0
			37.9081497190001,-82.4510803219999,0
			37.9001197820002,-82.436813355,0
			37.8990707400001,-82.4360733029999,0
			37.8985595710001,-82.4357070909999,0
			37.896789551,-82.434471131,0
			37.8932495120001,-82.431991577,0
			37.8923606880002,-82.4307785029999,0
			37.8917121880002,-82.430335999,0
			37.89068222,-82.428573609,0
			37.8872184750001,-82.4226226809999,0
			37.8853187560001,-82.4200515749999,0
			37.8848991390001,-82.419761657,0
			37.8835296620001,-82.418823242,0
			37.881278992,-82.4181671139999,0
			37.8785591120001,-82.4180831899999,0
			37.8762893680002,-82.4180068969999,0
			37.8731307980001,-82.4173126219999,0
			37.8722991940001,-82.416412354,0
			37.8699417110001,-82.411888123,0
			37.868400573,-82.4089279169999,0
			37.8659706120001,-82.4134674069999,0
			37.8621215820002,-82.4226303109999,0
			37.85762024,-82.417633057,0
			37.856048584,-82.4158859249999,0
			37.851791382,-82.416938782,0
			37.8499717720001,-82.417381287,0
			37.8481292730002,-82.417831421,0
			37.8468513490001,-82.4164581289999,0
			37.8457489020001,-82.4149703969999,0
			37.8432197580001,-82.4105911249999,0
			37.8424720760001,-82.409996034,0
			37.8347396860001,-82.4039382929998,0
			37.8286285400001,-82.3991317749999,0
			37.8133888250001,-82.4018783559999,0
			37.8113403320001,-82.4007263189999,0
			37.8110504160001,-82.400131226,0
			37.8101806650002,-82.39679718,0
			37.8163719180001,-82.388328551,0
			37.8171005240001,-82.384597779,0
			37.8157310480001,-82.3832015979999,0
			37.815269471,-82.382858277,0
			37.8103904720001,-82.379173279,0
			37.8034400940002,-82.373916626,0
			37.802230835,-82.368011474,0
			37.7977485650001,-82.3637084949999,0
			37.7954711910001,-82.3582229609999,0
			37.79378891,-82.3537521359999,0
			37.78855896,-82.347610473,0
			37.7870712270002,-82.3399505619999,0
			37.7860794080001,-82.3392410279999,0
			37.779960632,-82.337379456,0
			37.7772789010002,-82.3365631099999,0
			37.7764511120001,-82.330276488,0
			37.7762489320001,-82.3277359019999,0
			37.7738990780002,-82.323249817,0
			37.771160126,-82.3238830559999,0
			37.7697296150001,-82.327598573,0
			37.7685317990001,-82.3306808469999,0
			37.7683296210001,-82.3312072749999,0
			37.767631531,-82.331466674,0
			37.76599884,-82.331123353,0
			37.765930176,-82.3191528319999,0
			37.7658996580002,-82.31362152,0
			37.7653694150001,-82.3123702989999,0
			37.7649993900001,-82.311866761,0
			37.764041901,-82.3112106319999,0
			37.7623596190001,-82.3109741209999,0
			37.7618408200001,-82.3111801159998,0
			37.760879517,-82.3128967289999,0
			37.758049012,-82.31980133,0
			37.7542800910001,-82.321662902,0
			37.7535095220001,-82.3220520029999,0
			37.75164032,-82.3229827889999,0
			37.7512207020001,-82.323547363,0
			37.7495002740001,-82.3259124759999,0
			37.7461318960001,-82.3305358879999,0
			37.7448005690001,-82.3310165399998,0
			37.7423286430001,-82.3315277099999,0
			37.7400894160002,-82.3275070189999,0
			37.7397193910002,-82.3268280039999,0
			37.7351112370001,-82.3185729979999,0
			37.734519959,-82.317840576,0
			37.7250099190001,-82.31591034,0
			37.7227706910001,-82.3152008069999,0
			37.7223091130001,-82.3148879999999,0
			37.7213401800001,-82.313873292,0
			37.720939636,-82.313446045,0
			37.7191390990002,-82.3115615839999,0
			37.7094993600001,-82.30732727,0
			37.708068848,-82.3033218379999,0
			37.7067604060001,-82.300132751,0
			37.7039299010002,-82.2971725469999,0
			37.7032089230001,-82.2965927119999,0
			37.6979789750002,-82.2990722659999,0
			37.6940689090001,-82.3009338379999,0
			37.6904716500001,-82.298446654,0
			37.686519623,-82.2954864499999,0
			37.686111451,-82.2958297739999,0
			37.6782608030001,-82.302131652,0
			37.6792793280001,-82.2964096059999,0
			37.6771507260001,-82.2948074339999,0
			37.6708488460001,-82.290061951,0
			37.6713104250002,-82.2873229979999,0
			37.6729888910002,-82.286308288,0
			37.6748085020001,-82.285781861,0
			37.677558898,-82.282379151,0
			37.6775093080001,-82.2807769779999,0
			37.673110962,-82.2770690919999,0
			37.6696891790002,-82.2740707399999,0
			37.6651687620001,-82.2680358889999,0
			37.6645088190002,-82.2670364379998,0
			37.6590614310001,-82.2553863519999,0
			37.6591186520001,-82.25215149,0
			37.6596603390001,-82.2475204479999,0
			37.6610717780001,-82.2446517939999,0
			37.662490845,-82.2412109369999,0
			37.6625289910002,-82.2393264769999,0
			37.6617813110001,-82.2349166869999,0
			37.6586914060001,-82.231636048,0
			37.6582107540002,-82.231117249,0
			37.65771103,-82.2305908199999,0
			37.6562919620002,-82.2275619499999,0
			37.6542091370001,-82.223052979,0
			37.6522102350001,-82.2224960329999,0
			37.6487197870001,-82.221542358,0
			37.6440620430002,-82.217620849,0
			37.640991212,-82.215042114,0
			37.6361885070001,-82.2159423829999,0
			37.6340599070001,-82.2164077749999,0
			37.6325721750001,-82.215919495,0
			37.6308898930001,-82.215286255,0
			37.629009248,-82.2136917099999,0
			37.6282196040001,-82.2127380379998,0
			37.6272201540002,-82.211082458,0
			37.626319885,-82.2089462279999,0
			37.6256484980001,-82.2068634029999,0
			37.6255493160001,-82.2033691409999,0
			37.6265792840001,-82.201210023,0
			37.6272811890001,-82.1997375489999,0
			37.6276092530001,-82.195716858,0
			37.627140045,-82.1912231449999,0
			37.6278495790001,-82.187568664,0
			37.6289711010002,-82.1855087269999,0
			37.6313819890001,-82.183921815,0
			37.6345596310002,-82.18435669,0
			37.6378211980001,-82.185913086,0
			37.6385002130001,-82.1864700319999,0
			37.6407318120001,-82.1883010859999,0
			37.6419487000001,-82.18926239,0
			37.6464691160002,-82.1890029909999,0
			37.6489791860002,-82.1873168939999,0
			37.6507492070002,-82.1844024649999,0
			37.651340485,-82.1809768669999,0
			37.6509513860001,-82.177467345,0
			37.6501007090001,-82.174552918,0
			37.648319245,-82.1732788089999,0
			37.646041871,-82.172798157,0
			37.6437187200001,-82.1743087769999,0
			37.64207077,-82.1753768919999,0
			37.639770507,-82.1759490969999,0
			37.6370010380001,-82.1737899779999,0
			37.6351013180001,-82.1721572869999,0
			37.6331100470001,-82.171195984,0
			37.6311187740001,-82.1711425789999,0
			37.6272315970001,-82.1749725339999,0
			37.6261711120001,-82.176017762,0
			37.624752046,-82.1770095819999,0
			37.6231918330002,-82.1769103989999,0
			37.622581482,-82.1766967769999,0
			37.620639801,-82.173927307,0
			37.6206893930001,-82.170776367,0
			37.6217002880001,-82.166740418,0
			37.6217613230001,-82.163825989,0
			37.6212806710001,-82.162170411,0
			37.6194915770001,-82.1620330819999,0
			37.618549348,-82.162391664,0
			37.616981507,-82.1634979249999,0
			37.6142311100001,-82.1652069079998,0
			37.6118392940001,-82.1661911019999,0
			37.6104888920001,-82.1662597649999,0
			37.609561919,-82.1657180789999,0
			37.6091918940001,-82.1652832039999,0
			37.6086921690001,-82.164260864,0
			37.6095199600001,-82.159980773,0
			37.6096611020002,-82.1592407229999,0
			37.6100692750001,-82.156517029,0
			37.6087989810002,-82.1541213989998,0
			37.6055793770001,-82.1540603629999,0
			37.6037712100001,-82.154006958,0
			37.6011085510002,-82.1550521849999,0
			37.5953712470001,-82.1558761589999,0
			37.5939102180001,-82.154319763,0
			37.5933494570002,-82.153709412,0
			37.5924911490002,-82.1507797249999,0
			37.5925102230001,-82.1497497559999,0
			37.5927505490001,-82.1478729259999,0
			37.5958213800001,-82.1409988409999,0
			37.5965499870001,-82.137817382,0
			37.5965003970001,-82.136001587,0
			37.596481324,-82.1352081299999,0
			37.5956916820001,-82.1339797969999,0
			37.594131471,-82.1321182249999,0
			37.5926589970001,-82.1300125119999,0
			37.591960907,-82.129257201,0
			37.5892715460001,-82.1274490359999,0
			37.5844001780002,-82.125007629,0
			37.5789108280002,-82.123657226,0
			37.5776710520001,-82.1238937369999,0
			37.5766716010001,-82.1241989139999,0
			37.5744400030002,-82.1254730219999,0
			37.5725593580001,-82.1318511949999,0
			37.5724411020001,-82.132553101,0
			37.5723609930001,-82.1354293829999,0
			37.570362092,-82.1419067389999,0
			37.5685920720001,-82.1431121829999,0
			37.5677604680001,-82.141899109,0
			37.5666809080001,-82.1403427129999,0
			37.5656089790001,-82.137512208,0
			37.5637512200001,-82.1348419179999,0
			37.5619621290002,-82.1335830689999,0
			37.5596809390001,-82.1331024159999,0
			37.558609009,-82.132957459,0
			37.5564994800002,-82.1326675409999,0
			37.5529289250001,-82.129852294,0
			37.5525093080001,-82.1293029779999,0
			37.5520286560001,-82.127647401,0
			37.5517387400001,-82.1259002689999,0
			37.5526390070001,-82.1205596929999,0
			37.5574722290001,-82.1167373649999,0
			37.5586509710001,-82.115531921,0
			37.5595512380001,-82.1132431029999,0
			37.5596504210001,-82.1097564699999,0
			37.560718536,-82.1051712029999,0
			37.5602188120001,-82.1034469589999,0
			37.5588111880002,-82.101776123,0
			37.5552291880001,-82.1009216309999,0
			37.5546989440001,-82.10079956,0
			37.5541000380001,-82.0993881219999,0
			37.5539588940001,-82.098556518,0
			37.5542221060001,-82.0973281849999,0
			37.5544509890001,-82.0962524419999,0
			37.5553894050001,-82.0939559939999,0
			37.5568084720002,-82.0905075079999,0
			37.557361603,-82.0823974599999,0
			37.5572700510001,-82.0812530519999,0
			37.55665207,-82.076309205,0
			37.5553016670001,-82.073791504,0
			37.5548820500001,-82.0730133059998,0
			37.5517311090001,-82.0700302129999,0
			37.549900056,-82.06829834,0
			37.5459709170001,-82.064598084,0
			37.5436592110001,-82.064010621,0
			37.542308808,-82.063972472,0
			37.5411491390001,-82.0636367789999,0
			37.540039064,-82.0631332399999,0
			37.5391502370001,-82.0627212529999,0
			37.538650514,-82.0609970099999,0
			37.5376091000001,-82.0574417109999,0
			37.5374603280002,-82.052223206,0
			37.5360298160001,-82.0499572749999,0
			37.5342292790001,-82.048812867,0
			37.5326004030001,-82.047447205,0
			37.5318298340001,-82.0460662849998,0
			37.5308685310002,-82.043830871,0
			37.5312500000001,-82.0420532219999,0
			37.5317916870002,-82.0413360589999,0
			37.5322608950001,-82.041046143,0
			37.5345306410001,-82.041023254,0
			37.5371513360002,-82.04119873,0
			37.5426521310001,-82.0425720219999,0
			37.5449218750002,-82.043136596,0
			37.5462799070001,-82.0431823729999,0
			37.547660828,-82.041870116,0
			37.5475807200002,-82.038932801,0
			37.546112061,-82.03666687,0
			37.543811798,-82.035614013,0
			37.5414810190001,-82.0337066659998,0
			37.5392608650002,-82.031906127,0
			37.5380592340002,-82.0254669199999,0
			37.5391921990002,-82.0222930909999,0
			37.5397415170002,-82.0207519539999,0
			37.5396308900002,-82.016693114,0
			37.5387802120001,-82.0153579709999,0
			37.5381507880001,-82.0145111089999,0
			37.5363693240001,-82.013938905,0
			37.535018921,-82.0121078489999,0
			37.5345306410001,-82.0115127559999,0
			37.534679413,-82.0107727039999,0
			37.5353889460002,-82.007286071,0
			37.5360298160001,-82.005752564,0
			37.5367507950002,-82.004852294,0
			37.5388984680001,-82.0028686509999,0
			37.542308808,-81.9997177129999,0
			37.5425720220002,-81.995651245,0
			37.5417099000001,-81.9936828609999,0
			37.5403518680001,-81.990768432,0
			37.5409507740001,-81.9896774279999,0
			37.5418891910001,-81.988555908,0
			37.5429000860001,-81.9873733519999,0
			37.5431404120001,-81.986785888,0
			37.5436401380001,-81.985046386,0
			37.5441703800001,-81.982170104,0
			37.54447937,-81.9804458629999,0
			37.54706192,-81.9756927499999,0
			37.547729492,-81.972480775,0
			37.5479202280002,-81.9715805049999,0
			37.5477714540001,-81.9686813359999,0
			37.5473403930001,-81.966773987,0
			37.5462989800001,-81.9652633669999,0
			37.5457687380002,-81.9647827139999,0
			37.5440101630001,-81.9642028819999,0
			37.5421905520002,-81.9642868029999,0
			37.540859222,-81.964942932,0
			37.5371589660001,-81.9673461919999,0
			37.4495811470001,-82.092971801,0
			37.3121719360001,-82.289619446,0
			37.3065490730002,-82.2977066039999,0
			37.2979812620001,-82.3100509649999,0
			37.2955818190001,-82.31350708,0
			37.2924690250001,-82.3159561149999,0
			37.2906684880001,-82.316787719,0
			37.2880287170001,-82.319618226,0
			37.2858009330001,-82.323677064,0
			37.2841300970001,-82.3267288219999,0
			37.2833213820001,-82.3302383419999,0
			37.2833709720001,-82.332122802,0
			37.2833900450001,-82.333122254,0
			37.2825813300001,-82.336631776,0
			37.281452179,-82.33896637,0
			37.2808609010002,-82.3401794429999,0
			37.2792091370001,-82.3412322989999,0
			37.2769699090001,-82.3414001469999,0
			37.2740898140001,-82.3416214,0
			37.2718887330001,-82.343849182,0
			37.2700500500001,-82.3478469839999,0
			37.2680206300001,-82.352287292,0
			37.262561799,-82.3725128169999,0
			37.2593307500001,-82.3844833379999,0
			37.2560119620002,-82.3967666619999,0
			37.2550201410001,-82.405097962,0
			37.2536697400002,-82.410850524,0
			37.2523307800001,-82.4165267949999,0
			37.2500305170001,-82.4263229369999,0
			37.248538972,-82.4335784909999,0
			37.2476997380001,-82.4365692139999,0
			37.2462692260002,-82.4417114249999,0
			37.2448005670001,-82.4462966919999,0
			37.2431411740002,-82.451522827,0
			37.242820739,-82.452217102,0
			37.2405319220001,-82.4571304319999,0
			37.237300873,-82.4640731809999,0
			37.235359192,-82.47202301,0
			37.2336006170001,-82.4792480469999,0
			37.2319488520001,-82.4817733769999,0
			37.2302322390001,-82.484413146,0
			37.2283706670001,-82.4872360229999,0
			37.2266120920002,-82.4899368299999,0
			37.2263488770001,-82.491897584,0
			37.2262611380001,-82.4928512569999,0
			37.2261085510002,-82.4947586059999,0
			37.2258911130001,-82.4974899289999,0
			37.225479126,-82.5005187979999,0
			37.2242202750001,-82.5033416749999,0
			37.2229194640001,-82.5057067859999,0
			37.2207794190001,-82.5072631839999,0
			37.21749878,-82.5111770629998,0
			37.2163085940001,-82.5135498039999,0
			37.2145805360001,-82.5170211789999,0
			37.2141685490001,-82.520881652,0
			37.213840486,-82.5239868159999,0
			37.2125396730001,-82.526359559,0
			37.2108688370001,-82.528633118,0
			37.2098999020001,-82.529930114,0
			37.2087287910001,-82.5321731569999,0
			37.2077407850001,-82.5340728759999,0
			37.207820892,-82.5373764029999,0
			37.2079086310001,-82.540992737,0
			37.2062110910002,-82.5456771839999,0
			37.2051887510001,-82.5500030519999,0
			37.2043113720001,-82.5522994999999,0
			37.2032585150001,-82.5550460809999,0
			37.198600769,-82.5630569459999,0
			37.1968498230001,-82.5663528429999,0
			37.1947021490002,-82.5703659059999,0
			37.191390992,-82.5754394539999,0
			37.1897888190001,-82.5792770389999,0
			37.1870994580001,-82.5839309689999,0
			37.1850090030001,-82.588127136,0
			37.1837615970001,-82.590148926,0
			37.1818695080001,-82.592956542,0
			37.1801910390002,-82.59526062,0
			37.1775321970001,-82.5976715079999,0
			37.1756896980002,-82.60192871,0
			37.1744308470002,-82.604843139,0
			37.1719398500001,-82.610603332,0
			37.1680107110001,-82.6171112069999,0
			37.16394043,-82.622886657,0
			37.1611518870001,-82.6268386849999,0
			37.1588020320002,-82.6301727289999,0
			37.1570587150001,-82.6331329349999,0
			37.1557807930002,-82.637519836,0
			37.154499055,-82.640159607,0
			37.152992249,-82.6449432379998,0
			37.151550292,-82.6495132449999,0
			37.1493988040002,-82.654792785,0
			37.1475486750001,-82.6573867789999,0
			37.1449813840001,-82.6595764159999,0
			37.1432685860001,-82.6647186279999,0
			37.1416893000002,-82.6674728389999,0
			37.1398010260001,-82.6707458499998,0
			37.1389694220002,-82.673202515,0
			37.137470245,-82.678337098,0
			37.1374511720002,-82.681221008,0
			37.137420655,-82.685287476,0
			37.1352310180001,-82.688827515,0
			37.1308898940001,-82.6981964109999,0
			37.1248321530001,-82.7112960819999,0
			37.1222419740001,-82.716888427,0
			37.1205406190001,-82.7205657969999,0
			37.1180686960001,-82.7224273689999,0
			37.1165313710001,-82.723602294,0
			37.1138114940002,-82.7237014769999,0
			37.1101608280001,-82.722679138,0
			37.104209901,-82.7205963129999,0
			37.099159242,-82.720466615,0
			37.0946807870001,-82.7203674319999,0
			37.091522217,-82.7210693359999,0
			37.0887794500001,-82.7200164789999,0
			37.086471558,-82.7183685309999,0
			37.084171295,-82.7167205819999,0
			37.0816116330002,-82.7152023309999,0
			37.0793304450001,-82.7156829829999,0
			37.077400208,-82.7181320179999,0
			37.0764694210002,-82.7207565309999,0
			37.0747718820001,-82.722267151,0
			37.071620942,-82.7235412589999,0
			37.0691108710001,-82.7229461659999,0
			37.0652389530002,-82.722045899,0
			37.0596618660001,-82.7212829579999,0
			37.0520400990002,-82.7202301029999,0
			37.0484008790002,-82.719787598,0
			37.0452804570001,-82.7222061159999,0
			37.0446090710001,-82.724571227,0
			37.0444984430001,-82.727432251,0
			37.045021058,-82.730293273,0
			37.0442008970001,-82.7343597409999,0
			37.0433502200001,-82.7377929689999,0
			37.0416107180001,-82.740226746,0
			37.038928985,-82.7414932249999,0
			37.0354194650001,-82.742172242,0
			37.0317001340001,-82.7428970329999,0
			37.028652191,-82.744651795,0
			37.0276985160001,-82.7463531499999,0
			37.0272903440001,-82.748260497,0
			37.027580261,-82.7509460449999,0
			37.0264205940001,-82.760131836,0
			37.0217018130002,-82.7668533329999,0
			37.0173988340002,-82.772262574,0
			37.016021729,-82.7752532969999,0
			37.0152320870001,-82.776947021,0
			37.0133094790002,-82.778686523,0
			37.0114593500001,-82.7803497309999,0
			37.0098991390001,-82.7817611689999,0
			37.0087509160002,-82.7853775019999,0
			37.0076713570001,-82.7887573249999,0
			37.0069313050002,-82.7910919189999,0
			37.0074501050001,-82.7939529409999,0
			37.0082016,-82.79624176,0
			37.0090599050001,-82.7980041509999,0
			37.008979797,-82.8008880609999,0
			37.009029389,-82.803703308,0
			37.0073204040001,-82.8083724969999,0
			37.0068511970001,-82.8123168939998,0
			37.006729126,-82.8180770859999,0
			37.006679536,-82.820503235,0
			37.0062904350001,-82.8234024059999,0
			37.0045318600002,-82.8257675169999,0
			37.0027999870001,-82.8277130129999,0
			37.0005188000001,-82.8281860349999,0
			36.9986915590002,-82.829116821,0
			36.995922089,-82.8295898429999,0
			36.9920997630001,-82.8322525029999,0
			36.9902114870002,-82.834671021,0
			36.9862709050001,-82.839385987,0
			36.9836006170001,-82.8489379879999,0
			36.9837684630002,-82.851905824,0
			36.9833106990001,-82.8532867439999,0
			36.981288911,-82.855216979,0
			36.979839326,-82.858917237,0
			36.979961396,-82.8618774409999,0
			36.9790992740001,-82.864112854,0
			36.9786415100001,-82.865303039,0
			36.9761009210001,-82.8672103889999,0
			36.9746208190001,-82.8683166499999,0
			36.9732589720001,-82.868377686,0
			36.9721794120001,-82.8684158329999,0
			36.9691886900001,-82.8685073849999,0
			36.966320038,-82.8669967659999,0
			36.9636993420001,-82.866409301,0
			36.9608688350001,-82.8645782479999,0
			36.9586296090001,-82.8631286619999,0
			36.9565315240002,-82.8602294919999,0
			36.954799652,-82.8572692879999,0
			36.9529609690001,-82.855628968,0
			36.948162079,-82.85949707,0
			36.939949036,-82.8619308459999,0
			36.9344291680002,-82.8592376699999,0
			36.9277915950001,-82.8597869879999,0
			36.9242820750002,-82.8616561879999,0
			36.921031953,-82.8644027719999,0
			36.9182319640001,-82.8671493529999,0
			36.9147720340002,-82.8692779529999,0
			36.912658693,-82.871513368,0
			36.9103698730001,-82.872550964,0
			36.9071922310001,-82.8724060069999,0
			36.904510498,-82.8711318969999,0
			36.9031791690001,-82.8699264529999,0
			36.9004592890001,-82.869796752,0
			36.898151398,-82.871421814,0
			36.8958206190002,-82.873626709,0
			36.89440918,-82.875289917,0
			36.892730714,-82.8775329599999,0
			36.8909606940002,-82.879898071,0
			36.8887290960001,-82.883666992,0
			36.8881721500002,-82.8850402839999,0
			36.8814888000002,-82.8934402469999,0
			36.8793792730002,-82.904891967,0
			36.8793106080001,-82.9049758909999,0
			36.8775787360001,-82.9073104849999,0
			36.8761711130001,-82.909187318,0
			36.8752098080001,-82.9124069209998,0
			36.8745803840002,-82.9152374269999,0
			36.8736915590001,-82.919258118,0
			36.8725509640001,-82.924369812,0
			36.8707695,-82.9323959359999,0
			36.8654899600002,-82.95110321,0
			36.8609504700001,-82.9615020749999,0
			36.8595199580002,-82.9692535399999,0
			36.8589401250001,-82.9738159189999,0
			36.8586387640001,-82.9805603029998,0
			36.859039308,-82.985282899,0
			36.8558502210001,-82.9989166249999,0
			36.8508186350001,-83.003410339,0
			36.8505592350002,-83.0040206919999,0
			36.8504905700001,-83.004203796,0
			36.8470420830001,-83.0067367539999,0
			36.8473510750001,-83.012802124,0
			36.8495101940001,-83.020256043,0
			36.8509101870001,-83.0245666499999,0
			36.8533897400001,-83.0261306759999,0
			36.8544387820001,-83.0262374879999,0
			36.855079652,-83.0278472909999,0
			36.8556289680001,-83.0324401859999,0
			36.8552894600001,-83.0382080089999,0
			36.854049684,-83.043998718,0
			36.853401184,-83.048362732,0
			36.8528518680001,-83.052085877,0
			36.8532485960002,-83.0598907469999,0
			36.853561401,-83.064743042,0
			36.8540687570001,-83.0675888059999,0
			36.8527603160001,-83.069938661,0
			36.8510589610001,-83.0724487309999,0
			36.848331451,-83.0728912339999,0
			36.8460617070002,-83.0727767939999,0
			36.8437805180002,-83.0732498159999,0
			36.8419113150001,-83.0748901379999,0
			36.8415603640001,-83.0772018439999,0
			36.8411712650002,-83.080093384,0
			36.8403015150002,-83.0834426879999,0
			36.8386001600002,-83.0876464849999,0
			36.8341903680002,-83.094116211,0
			36.8327293400001,-83.0957870489999,0
			36.8310890200001,-83.097671508,0
			36.8280715940002,-83.097816467,0
			36.8244514470001,-83.097526551,0
			36.822460174,-83.097366333,0
			36.8199310300002,-83.0968475339999,0
			36.8171997070001,-83.09729004,0
			36.814460754,-83.0977325429999,0
			36.8134117120001,-83.0982360839999,0
			36.8102607720002,-83.0994873049999,0
			36.8088989260001,-83.1014862059999,0
			36.8070907590002,-83.1031799309999,0
			36.8040390010001,-83.1060104359999,0
			36.8009986880001,-83.108016968,0
			36.7986602780001,-83.1101989749998,0
			36.7959899910001,-83.1120071419999,0
			36.7919921880001,-83.1161727899998,0
			36.788291932,-83.1223373409999,0
			36.786720276,-83.1249465939999,0
			36.7845420840001,-83.1330718989999,0
			36.7838020320002,-83.1332015999999,0
			36.7821998600001,-83.1330566409999,0
			36.7786521910001,-83.1309661859999,0
			36.7784614570001,-83.1309127809999,0
			36.7721519460001,-83.1305923459999,0
			36.7638092050001,-83.1293029779999,0
			36.7576217650001,-83.128089906,0
			36.7568206780001,-83.128295898,0
			36.7523498530001,-83.130065918,0
			36.7490997310001,-83.1326828009999,0
			36.7456588750001,-83.1354370119998,0
			36.7438392640001,-83.1374359139999,0
			36.7421417250001,-83.141296387,0
			36.7418098450001,-83.1448211669999,0
			36.7413902280002,-83.149360657,0
			36.741119385,-83.1585617059999,0
			36.74113083,-83.1694869999999,0
			36.7411384580001,-83.1815719599999,0
			36.7399711610001,-83.1901321409999,0
			36.7393417360001,-83.1958465579999,0
			36.7378692620002,-83.2017517099999,0
			36.735771179,-83.210426331,0
			36.730300903,-83.2307128899999,0
			36.730060577,-83.2315902709999,0
			36.7255821240001,-83.2474899279999,0
			36.7209396370001,-83.2654342639999,0
			36.7193717960002,-83.271865845,0
			36.7137603750002,-83.2949295039999,0
			36.7084808350001,-83.3175277699999,0
			36.7082710280001,-83.3183898929998,0
			36.7041091930001,-83.335411071,0
			36.6990089410002,-83.3506393439999,0
			36.6945915220001,-83.3638076789999,0
			36.693351746,-83.370727538,0
			36.690929413,-83.37840271,0
			36.6890487670001,-83.3840560899999,0
			36.6855087290001,-83.3887481699999,0
			36.6822700500001,-83.393463136,0
			36.6788520820001,-83.3969573969999,0
			36.6756019600001,-83.403442383,0
			36.6735992430001,-83.4080200199999,0
			36.6716003420001,-83.414718627,0
			36.670001984,-83.4220962529999,0
			36.6698989870001,-83.424957274,0
			36.669342041,-83.428382874,0
			36.6692810060001,-83.4323883049999,0
			36.6692619320001,-83.433372498,0
			36.6696090710001,-83.4396896369999,0
			36.6688499460001,-83.4483184809999,0
			36.66765976,-83.4552917479999,0
			36.6667785640001,-83.460418701,0
			36.666770936,-83.464988708,0
			36.66740036,-83.4701614379999,0
			36.6682319640001,-83.4776916499999,0
			36.6683502200001,-83.478752135,0
			36.6692810060001,-83.4840774539999,0
			36.6700897210001,-83.489273071,0
			36.6708107000002,-83.4939117429999,0
			36.6711196900001,-83.497947692,0
			36.6709899910002,-83.499389649,0
			36.664829255,-83.529586792,0
			36.658618926,-83.5372390749999,0
			36.6525001520002,-83.5532989509999,0
			36.6483306890001,-83.5660171509999,0
			36.64237976,-83.5798339839999,0
			36.6431007390001,-83.592086791,0
			36.6400299080001,-83.5991210929999,0
			36.6400604240001,-83.601097108,0
			36.6383399960001,-83.6068801889999,0
			36.6369209290002,-83.6103515619998,0
			36.633911133,-83.6138839719999,0
			36.6312294000001,-83.617500304,0
			36.6294898990001,-83.621437073,0
			36.6277618400001,-83.6266479499999,0
			36.6272697450001,-83.6293487539999,0
			36.626091004,-83.635856629,0
			36.6252708440002,-83.6416168219999,0
			36.6229209910002,-83.6480331419999,0
			36.6195297240001,-83.6515121459998,0
			36.6158294680001,-83.6562499999999,0
			36.6119995120001,-83.6631622309999,0
			36.6071014400002,-83.6690063479999,0
			36.6012001030001,-83.6748199449999,0
			36.5932693490001,-83.684257507,0
			36.5838317870001,-83.690216064,0
			36.58385086,-83.6924972529999,0
			36.5844192520001,-83.7379913329999,0
			36.5855216980001,-83.829658508,0
			36.5894012450001,-83.930816651,0
			36.5924301150001,-84.0100173949999,0
			36.5930595390001,-84.0300674439999,0
			36.5937385560001,-84.133628845,0
			36.5943717960001,-84.2287597649999,0
			36.5948791500002,-84.2610473629999,0
			36.5952110300001,-84.282241821,0
			36.5987586990001,-84.506996155,0
			36.5988693240001,-84.5135574349998,0
			36.5989189160001,-84.516029358,0
			36.5992622370002,-84.5297927859999,0
			36.6010704040002,-84.601966858,0
			36.6046905520002,-84.7284164429999,0
			36.6061019900001,-84.777709961,0
			36.6062889090002,-84.784172058,0
			36.6071395870001,-84.830017089,0
			36.6105613720001,-84.87915802,0
			36.6180915840002,-84.977676391,0
			36.6181716910002,-84.9886169439999,0
			36.6190490720002,-85.0012817369999,0
			36.6226387030001,-85.088897705,0
			36.6255722050001,-85.1725769039999,0
			36.6255798330001,-85.1743011469999,0
			36.6260795590001,-85.190933227,0
			36.6260795590001,-85.194366455,0
			36.6265716550001,-85.2121810919999,0
			36.6271018990001,-85.2247772219999,0
			36.6270790110001,-85.2316360469999,0
			36.6271896360001,-85.237976074,0
			36.627719879,-85.250579834,0
			36.628250123,-85.2626190179999,0
			36.6277694710001,-85.275810241,0
			36.6276092530001,-85.279792785,0
			36.627170563,-85.2901229869999,0
			36.6269607550001,-85.295272828,0
			36.6266708370001,-85.3021926879999,0
			36.6263999940002,-85.317108154,0
			36.6263389590002,-85.3205032349999,0
			36.6259117130002,-85.3388519279999,0
			36.6254615780002,-85.3457260129999,0
			36.6251297000001,-85.3520889279999,0
			36.6246910090001,-85.3549575799998,0
			36.6235313420001,-85.368125915,0
			36.6232299800001,-85.371536255,0
			36.6234397900002,-85.374465942,0
			36.6220703130001,-85.3968276969999,0
			36.6195907600001,-85.436317445,0
			36.6151313780001,-85.5074157719999,0
			36.6227493280001,-85.7878417969999,0
			36.6245117180001,-85.8526306159999,0
			36.6291503900002,-85.9735870359999,0
			36.6305198670001,-85.999961852,0
			36.64120102,-86.2070007309999,0
			36.641239167,-86.2076568599999,0
			36.649959565,-86.3401031489999,0
			36.6516494750001,-86.4119262689999,0
			36.6539497370001,-86.509468079,0
			36.6503105170001,-86.52004242,0
			36.64233017,-86.5431365969999,0
			36.645229339,-86.545272827,0
			36.6464614870001,-86.5494079589999,0
			36.6391792300001,-86.554512023,0
			36.6350593570002,-86.5636596689999,0
			36.6544303900002,-86.591331483,0
			36.6505699160002,-86.7629470819999,0
			36.6451988220001,-87.0231170659999,0
			36.6444320690001,-87.0605087279999,0
			36.6440200800002,-87.114868163,0
			36.6425399780001,-87.335777282,0
			36.6417007460001,-87.4348602299999,0
			36.6416893000001,-87.4367065419999,0
			36.6409492500001,-87.48474121,0
			36.6385192870001,-87.642417909,0
			36.6377105710001,-87.6941528329999,0
			36.6364593500001,-87.7817382819999,0
			36.636131287,-87.797943114,0
			36.63602066,-87.805236816,0
			36.6352500910001,-87.8534011849999,0
			36.6651496900002,-87.8504562369999,0
			36.6686706550001,-87.90222168,0
			36.669700623,-87.9183197019999,0
			36.678321839,-88.0501632679999,0
			36.67924881,-88.070732117,0
			36.6652908340001,-88.0693130499999,0
			36.6526718150001,-88.0649490359999,0
			36.638301849,-88.0565261839999,0
			36.6256408690002,-88.0538864129999,0
			36.5890998840002,-88.0419998179999,0
			36.5367088310001,-88.032630921,0
			36.5238494880001,-88.0365829469999,0
			36.5220413210001,-88.0371398929999,0
			36.5115814210001,-88.0403518679999,0
			36.5060997020001,-88.042037965,0
			36.4995498650001,-88.051696777,0
			36.4980316160001,-88.0545730589999,0
			36.4967193600001,-88.0570526129999,0
			36.4967803950001,-88.0627670289999,0
			36.4970207210001,-88.0859069829999,0
			36.500049591,-88.179283141,0
			36.5025215140002,-88.489036561,0
			36.502750397,-88.5171966549999,0
			36.5041694640001,-88.8167266839999,0
			36.5043106080001,-88.8316268919999,0
			36.5042800910001,-88.836197084,0
			36.50371933,-88.9547424309999,0
			36.5044678400001,-89.0177879979999,0
			36.5048570000001,-89.050552,0
			36.505459,-89.101257,0
			36.5068170000001,-89.2150919999999,0
			36.5075399370002,-89.2757271749999,0
			36.50782013,-89.2992172249999,0
			36.5077973810002,-89.2999281649999,0
			36.5077641820002,-89.3009656399999,0
			36.5077285780001,-89.3020782469999,0
			36.5039787300001,-89.34829712,0
			36.5028135050001,-89.3622858019999,0
			36.5011340000001,-89.3824439999999,0
			36.498039174,-89.4196010009999,0
			36.5123619990002,-89.415029525,0
			36.514961242,-89.4141998279999,0
			36.5151983200001,-89.4141240819999,0
			36.515358,-89.414073,0
			36.5168000000001,-89.4136119999999,0
			36.535801,-89.407539,0
			36.5489500000002,-89.4033429999999,0
			36.5516760000001,-89.402075,0
			36.5537143660002,-89.401127435,0
			36.5555610670001,-89.400268555,0
			36.5614969290001,-89.3975052129999,0
			36.5623931170002,-89.397088008,0
			36.5636405950002,-89.396507264,0
			36.5738220220002,-89.3917770379999,0
			36.5844421380001,-89.3868331909999,0
			36.5862943820001,-89.3863246059999,0
			36.589021683,-89.3855757499999,0
			36.5955009460001,-89.383796691,0
			36.5982306880002,-89.3830496039998,0
			36.6024331880001,-89.381899447,0
			36.6045610000001,-89.3813169999999,0
			36.6051793860001,-89.381147137,0
			36.6061214150002,-89.380888224,0
			36.607669831,-89.3804626469999,0
			36.6178703320002,-89.3776626589999,0
			36.6185798650002,-89.3769607529999,0
			36.620597544,-89.374985363,0
			36.623298,-89.3723409999999,0
			36.6267700000001,-89.3689419999999,0
			36.6298900000001,-89.361847,0
			36.6323810000001,-89.356186,0
			36.6329990000001,-89.345253,0
			36.6326283710001,-89.3410011889999,0
			36.6324477960002,-89.338932015,0
			36.632350923,-89.3378219609999,0
			36.630851847,-89.332717885,0
			36.6307119070001,-89.3323903439999,0
			36.630489067,-89.3318687699999,0
			36.6298900000001,-89.3304669999999,0
			36.6282623580001,-89.3274375689999,0
			36.6272902050002,-89.3256285199998,0
			36.6268196110001,-89.3247528069999,0
			36.6223297130001,-89.319313049,0
		</coordinates>
	</polygon>
</kml>
